{"type":"Feature","properties":{"GID_2":"NGA.11.10_1","GID_0":"NGA","country":"Nigeria","GID_1":"NGA.11_1","province":"Ebonyi","NL_NAME_1":"NA","county":"Izzi","VARNAME_2":"NA","NL_NAME_2":"NA","TYPE_2":"LocalAuthority","ENGTYPE_2":"LocalAuthority","CC_2":"NA","HASC_2":"NA","name":"Izzi.county"},
"geometry":{"type": "MultiPolygon","coordinates": [[[[8.1381,6.7389,92.8086],[8.143,6.7244,99.2117],[8.1594,6.6986,74.8596],[8.1667,6.6636,85.5009],[8.1654,6.6531,86.3699],[8.1736,6.6184,106.1643],[8.1663,6.5793,99.1877],[8.1658,6.5349,100.2949],[8.1633,6.5241,91.9558],[8.1563,6.5074,85.8215],[8.1569,6.4972,72.6286],[8.1546,6.4878,72.6835],[8.1539,6.4678,59.8801],[8.1565,6.4433,65.6341],[8.1536,6.4238,42.456],[8.1675,6.3722,53.5213],[8.1656,6.3653,48.832],[8.1653,6.3498,46.4389],[8.1627,6.343,52.8682],[8.1639,6.3178,44.5069],[8.1703,6.3023,39.8682],[8.1767,6.2943,44.0624],[8.1893,6.2909,40.1775],[8.2187,6.2959,49.4398],[8.2257,6.3004,56.508],[8.2375,6.3048,63.1227],[8.2462,6.3031,61.9782],[8.2585,6.3043,75.3229],[8.2719,6.3082,76.2267],[8.2786,6.3055,70.6704],[8.2971,6.3089,70.4764],[8.302,6.3143,66.2605],[8.3208,6.3177,59.4709],[8.3541,6.3091,51.8612],[8.3766,6.316,47.5996],[8.3688,6.3305,43.0295],[8.3669,6.3416,43.3143],[8.3685,6.3563,44.5142],[8.3768,6.3663,39.5965],[8.3953,6.3826,51.5579],[8.4169,6.3894,33.9209],[8.4221,6.3858,35.5822],[8.4307,6.3887,30.0889],[8.4368,6.3969,34.4492],[8.4441,6.4161,33.4388],[8.4402,6.4331,30.3928],[8.423,6.4423,28.6704],[8.4178,6.4491,30.4069],[8.413,6.463,34.8068],[8.4113,6.4735,29.1363],[8.4028,6.4794,28.6678],[8.4028,6.49,29.2879],[8.4063,6.4955,30.2571],[8.4,6.5039,46.4179],[8.4008,6.5108,31.7745],[8.4045,6.5107,29.6308],[8.3989,6.5198,32.8623],[8.3881,6.5244,28.8176],[8.3838,6.5288,31.9099],[8.3815,6.5452,35.2394],[8.3757,6.5564,34.9685],[8.3676,6.5593,33.8286],[8.3321,6.5867,39.9076],[8.3248,6.5949,45.2389],[8.3179,6.6079,39.348],[8.3,6.629,44.8129],[8.2942,6.6436,51.0647],[8.2912,6.6709,42.0161],[8.292,6.6756,41.8605],[8.2789,6.6859,48.5981],[8.2646,6.7124,44.7938],[8.2566,6.7347,51.438],[8.2509,6.7812,51.5467],[8.2226,6.8022,46.9845],[8.2129,6.7839,47.4008],[8.2061,6.7649,72.7376],[8.1712,6.7645,71.7635],[8.1511,6.7589,87.9219],[8.1381,6.7389,92.8086]]]]}}