{"type":"Feature","properties":{"GID_2":"NGA.20.37_1","GID_0":"NGA","country":"Nigeria","GID_1":"NGA.20_1","province":"Kano","NL_NAME_1":"NA","county":"Takai","VARNAME_2":"NA","NL_NAME_2":"NA","TYPE_2":"LocalAuthority","ENGTYPE_2":"LocalAuthority","CC_2":"NA","HASC_2":"NA","name":"Takai.county"},
"geometry":{"type": "MultiPolygon","coordinates": [[[[9.2247,11.3425,467.4567],[9.2283,11.3519,461.4459],[9.2234,11.3782,454.0108],[9.2305,11.4057,439.5363],[9.241,11.4374,436.3638],[9.253,11.4537,433.5498],[9.2868,11.4841,422.9885],[9.3185,11.5094,420.3344],[9.3559,11.547,414.4825],[9.3416,11.5654,423.0479],[9.3144,11.5721,419.4074],[9.2882,11.5639,428.9626],[9.2229,11.5705,455.3217],[9.2163,11.59,463.6943],[9.2066,11.5933,467.8823],[9.1772,11.5835,460.8525],[9.1706,11.6031,456.3803],[9.138,11.6031,439.5427],[9.076,11.5443,463.8751],[9.0401,11.5443,443.3495],[8.9952,11.5533,456.2115],[9.0009,11.5019,461.8887],[8.9662,11.5039,483.6429],[8.9663,11.4995,488.2487],[8.9699,11.4963,481.5023],[8.9698,11.4843,478.3987],[8.9655,11.4854,484.2567],[8.9578,11.4791,476.7555],[8.9548,11.4747,483.2552],[8.9534,11.4682,483.798],[8.9488,11.4643,485.9538],[8.9483,11.4543,490.5102],[8.9621,11.4316,499.3495],[8.9658,11.4298,499.3399],[8.9685,11.4303,499.8515],[8.9743,11.4439,487.6046],[8.981,11.4531,483.713],[8.9891,11.4582,483.9994],[8.9943,11.4589,484.0149],[8.9971,11.4563,483.1181],[8.9955,11.4223,482.4081],[8.9987,11.4118,475.0736],[9.0166,11.4026,478.2256],[9.0323,11.3985,488.1418],[9.0382,11.3997,491.2435],[9.0422,11.3959,492.6555],[9.0534,11.3801,477.4095],[9.0535,11.3708,471.9052],[9.0605,11.3567,473.1008],[9.0662,11.3502,475.2446],[9.0742,11.3447,474.686],[9.0789,11.3359,475.9909],[9.08,11.3231,478.5034],[9.0988,11.3263,473.744],[9.1172,11.3094,468.4008],[9.1356,11.3078,475.907],[9.1696,11.3198,469.9384],[9.1872,11.3296,488.2999],[9.2247,11.3425,467.4567]]]]}}