{"type":"Feature","properties":{"GID_2":"NGA.20.15_1","GID_0":"NGA","country":"Nigeria","GID_1":"NGA.20_1","province":"Kano","NL_NAME_1":"NA","county":"GarumMallam","VARNAME_2":"NA","NL_NAME_2":"NA","TYPE_2":"LocalAuthority","ENGTYPE_2":"LocalAuthority","CC_2":"NA","HASC_2":"NA","name":"Garum_Mallam.county"},
"geometry":{"type": "MultiPolygon","coordinates": [[[[8.3988,11.5604,500.029],[8.4074,11.5629,494.9389],[8.4278,11.5602,481.6262],[8.4339,11.5571,489.1605],[8.447,11.5576,493.1119],[8.4567,11.5655,500.0937],[8.4617,11.5654,504.871],[8.4589,11.592,494.6643],[8.452,11.6081,485.4924],[8.4526,11.6113,484.4828],[8.4412,11.6246,477.6055],[8.4401,11.6306,474.8096],[8.4427,11.6345,475.7577],[8.4193,11.6478,494.2977],[8.4131,11.6546,497.6436],[8.4136,11.6668,494.915],[8.4173,11.6724,489.1381],[8.418,11.6713,489.2578],[8.4175,11.6734,489.1381],[8.4247,11.6905,484.1085],[8.4339,11.6955,478.2826],[8.4312,11.7003,480.3298],[8.4249,11.7049,482.3926],[8.4203,11.7109,480.2417],[8.4122,11.715,479.5863],[8.4052,11.7142,475.8162],[8.3953,11.7102,469.5649],[8.3877,11.7139,469.8211],[8.3853,11.716,470.0571],[8.384,11.7234,459.3079],[8.385,11.7315,456.2025],[8.3816,11.7372,455.0775],[8.3735,11.7404,449.5289],[8.3563,11.743,460.5496],[8.3426,11.7284,454.7204],[8.3319,11.7205,453.5496],[8.2814,11.704,489.7742],[8.2863,11.6985,490.5752],[8.2861,11.6799,490.9686],[8.2924,11.6717,495.3184],[8.2954,11.6501,502.9672],[8.2998,11.6437,504.5611],[8.3042,11.6321,500.7729],[8.3265,11.6124,507.8532],[8.337,11.5956,496.8408],[8.339,11.5872,497.1592],[8.3517,11.5797,501.2573],[8.3657,11.5758,487.7231],[8.3719,11.5718,492.9099],[8.38,11.5724,490.6979],[8.3917,11.567,497.4103],[8.3988,11.5604,500.029]]]]}}