{"type": "Feature","bbox": [8.1116,10.9334,10.6095,12.9886],"geometry": {"type": "MultiPolygon","coordinates": [[[[10.293,11.085,441.0274],[10.3233,11.0941,430.5431],[10.3466,11.1064,428.2679],[10.3764,11.1285,438.8073],[10.3943,11.1721,434.6318],[10.3775,11.1953,416.1547],[10.3105,11.1972,425.3119],[10.2341,11.2043,429.0885],[10.1417,11.2245,437.9688],[10.0895,11.2325,462.7087],[10.0386,11.2368,463.1301],[9.9902,11.2662,492.3279],[9.9567,11.31,432.72],[9.9316,11.3479,417.2684],[9.9047,11.3845,409.2392],[9.8877,11.4244,409.8178],[9.8801,11.4653,410.0939],[9.8371,11.4534,411.8915],[9.818,11.4504,413.1379],[9.7989,11.4681,413.4861],[9.7901,11.4957,416.7366],[9.799,11.5181,421.0224],[9.8307,11.5755,417.4791],[9.828,11.6138,413.4533],[9.8223,11.6442,420.6906],[9.8134,11.679,411.6647],[9.8051,11.7038,401.3315],[9.7987,11.7146,400.0502],[9.7694,11.7225,402.658],[9.725,11.7183,398.1823],[9.6908,11.7019,390.6308],[9.6486,11.7012,390.3989],[9.6269,11.7112,389.3741],[9.6249,11.7328,387.9767],[9.6346,11.7791,385.9286],[9.657,11.8157,384.3495],[9.6745,11.839,382.098],[9.6868,11.8512,381.5905],[9.7331,11.8507,384.8388],[9.7863,11.8586,380.7767],[9.8261,11.8816,379.4834],[9.8747,11.907,378.5739],[9.9418,11.9336,375.2073],[10.0057,11.9515,376.5233],[10.0514,11.9663,371.4878],[10.132,12.0008,372.4831],[10.152,12.0063,370.3564],[10.1712,12.0212,370.335],[10.1707,12.057,368.4332],[10.1615,12.0869,364.4225],[10.1767,12.1297,361.8163],[10.2003,12.2106,357.8583],[10.2249,12.2673,356.8458],[10.2407,12.3129,354.9704],[10.2504,12.3584,353.7834],[10.2595,12.3915,354.5075],[10.2699,12.414,351.8264],[10.2885,12.4244,351.0096],[10.3432,12.4449,350.2747],[10.3735,12.4531,350.8362],[10.3995,12.4536,353.1961],[10.4154,12.4406,349.4344],[10.4289,12.4145,351.0597],[10.4308,12.3925,350.5719],[10.4492,12.4018,350.6252],[10.4655,12.4131,349.7523],[10.5404,12.4554,350.202],[10.564,12.4746,350.6718],[10.6095,12.5025,347.8611],[10.6047,12.5072,347.7338],[10.5954,12.5485,348.1322],[10.5839,12.6192,345.0117],[10.5793,12.6716,346.3217],[10.5669,12.7314,342.278],[10.5312,12.7853,344.3565],[10.5014,12.7994,345.4397],[10.4685,12.7896,345.9081],[10.388,12.8249,345.0995],[10.3162,12.8006,344.6449],[10.2934,12.7953,346.1027],[10.2753,12.784,346.7005],[10.2517,12.824,346.6424],[10.2405,12.893,346.5109],[10.206,12.9688,347.1855],[10.1704,12.9886,347.1969],[10.1146,12.9727,347.8865],[10.0681,12.9575,350.1041],[10.0225,12.9358,349.6063],[9.9715,12.9259,349.8078],[9.8856,12.8847,351.8881],[9.8735,12.8534,356.0576],[9.8517,12.8215,351.7383],[9.8299,12.8043,353.8418],[9.801,12.7929,355.4899],[9.7411,12.797,352.9088],[9.704,12.8046,354.9005],[9.6751,12.8233,355.2901],[9.6502,12.8036,355.74],[9.5903,12.8059,357.5701],[9.5807,12.8079,358.8297],[9.5537,12.8072,359.3719],[9.5312,12.8096,360.3317],[9.4882,12.8108,360.1128],[9.4351,12.8193,363.008],[9.4297,12.8215,362.5656],[9.3903,12.8231,363.3993],[9.3819,12.8202,363.5033],[9.3653,12.8174,363.9216],[9.3533,12.8171,364.9518],[9.3461,12.8145,365.0095],[9.3056,12.8112,366.8504],[9.292,12.813,366.5437],[9.288,12.8121,366.6355],[9.2804,12.8151,366.9445],[9.2583,12.8198,367.2575],[9.2513,12.8238,367.5997],[9.2298,12.8245,369.2855],[9.2205,12.8284,369.4266],[9.1789,12.8279,370.2019],[9.16,12.8338,371.8078],[9.1471,12.834,370.9454],[9.1433,12.8326,372.467],[9.1382,12.8343,374.2314],[9.0933,12.8364,373.4975],[9.0812,12.835,373.8819],[9.0734,12.8374,376.0464],[9.0147,12.8388,378.9586],[8.9975,12.8407,379.9784],[8.9837,12.8391,380.4452],[8.977,12.8345,380.6964],[8.9767,12.8208,382.4193],[8.9445,12.8069,381.8958],[8.9338,12.7922,384.0004],[8.9318,12.7818,382.3079],[8.922,12.7658,383.2994],[8.9207,12.7561,385.7987],[8.9184,12.7533,384.2888],[8.8957,12.7366,386.7558],[8.8923,12.732,386.5065],[8.8728,12.7186,388.0663],[8.8669,12.7125,388.6005],[8.835,12.698,390.7469],[8.7994,12.6849,394.816],[8.7719,12.6788,394.8704],[8.7573,12.6774,396.6484],[8.74,12.676,397.2397],[8.7302,12.678,398.9939],[8.7159,12.6873,400.8584],[8.7151,12.6919,400.374],[8.7094,12.7003,398.4494],[8.7055,12.712,400.5247],[8.6854,12.701599999999999,401.1758],[8.6711,12.6906,402.1139],[8.6632,12.6879,403.6726],[8.6509,12.6899,403.6798],[8.6312,12.6963,405.6492],[8.5938,12.7187,411.7541],[8.5881,12.7228,413.884],[8.5771,12.7377,416.5346],[8.5749,12.7496,417.8469],[8.5695,12.7616,422.6479],[8.5543,12.8119,436.8305],[8.5481,12.8213,443.6271],[8.5355,12.8313,431.5365],[8.5149,12.832,433.556],[8.4948,12.8255,446.255],[8.4749,12.8285,456.2141],[8.4522,12.8269,461.6244],[8.4281,12.8215,449.4771],[8.3865,12.819,458.3634],[8.3347,12.8256,462.0284],[8.2999,12.8347,452.0057],[8.2803,12.8338,449.5031],[8.2032,12.8221,493.1091],[8.1576,12.8179,487.448],[8.132,12.8128,509.0575],[8.1246,12.8081,505.2035],[8.1232,12.7817,517.9241],[8.1248,12.7654,524.0669],[8.1128,12.7114,511.601],[8.1116,12.689,516.4456],[8.1139,12.6505,533.8148],[8.1233,12.639099999999999,522.1933],[8.1584,12.6272,516.8062],[8.1696,12.6243,507.1279],[8.1878,12.6224,511.3672],[8.2357,12.6195,507.2449],[8.2494,12.6224,489.0651],[8.2548,12.6165,497.915],[8.2628,12.6112,494.613],[8.2709,12.5975,493.8209],[8.2835,12.5679,477.6003],[8.308,12.5299,482.1326],[8.3395,12.47,474.7537],[8.3411,12.4583,463.1429],[8.3391,12.4497,448.742],[8.3411,12.4389,448.3359],[8.3585,12.4211,445.9005],[8.3643,12.4258,441.4981],[8.3886,12.4784,442.2292],[8.3909,12.4962,446.6395],[8.3951,12.5131,445.6041],[8.3986,12.5196,445.8736],[8.4076,12.5282,433.4696],[8.4266,12.5412,425.7387],[8.4711,12.5634,422.0965],[8.4911,12.5717,421.1641],[8.5414,12.5773,414.0345],[8.552,12.5772,414.2244],[8.5742,12.5697,411.6659],[8.6159,12.5615,406.7978],[8.6398,12.5526,405.2612],[8.6541,12.5493,403.9062],[8.6666,12.5485,405.1678],[8.6776,12.5452,403.3144],[8.6818,12.5393,402.9488],[8.6826,12.5308,402.5846],[8.6818,12.4955,405.3291],[8.684,12.4743,405.1943],[8.6825,12.4607,406.4666],[8.6848,12.4513,405.0201],[8.6903,12.4393,406.1307],[8.7031,12.4294,407.0257],[8.7179,12.4231,407.9444],[8.7447,12.4059,406.0137],[8.7566,12.403,405.0663],[8.7648,12.3956,404.6304],[8.7718,12.3841,405.5436],[8.7824,12.3469,403.1616],[8.7819,12.3371,402.8887],[8.7759,12.3255,404.627],[8.7733,12.3149,404.1702],[8.7897,12.2927,396.2943],[8.8031,12.2861,399.1657],[8.8272,12.2869,411.3177],[8.8583,12.2798,401.69],[8.891,12.2772,407.0108],[8.9209,12.2683,399.8306],[8.9278,12.264,398.0208],[8.9357,12.2555,398.3538],[8.9415,12.2387,398.4516],[8.9465,12.2135,399.0093],[8.9488,12.2087,399.4052],[8.9474,12.1196,393.8275],[8.9284,12.0976,400.4387],[8.9198,12.0702,398.1706],[8.9256,12.064,395.883],[8.9464,12.0586,393.5776],[8.9464,12.0423,399.7714],[8.9662,12.0578,398.6307],[8.9772,12.0594,397.1158],[8.9772,12.0613,396.1411],[8.9924,12.0607,398.7188],[9.0279,12.0653,395.7386],[9.037,12.0424,399.5014],[9.0372,12.0015,412.2701],[9.0594,11.9975,412.6443],[9.0888,12.0004,408.9286],[9.1262,12.0229,399.0899],[9.1499,12.0508,394.1718],[9.1701,12.0592,395.1211],[9.1816,12.0271,394.02],[9.2069,11.9449,396.111],[9.2101,11.9059,404.2061],[9.193,11.8765,413.2154],[9.1898,11.844,425.4728],[9.1646,11.8057,423.4167],[9.1355,11.7693,426.0182],[9.1276,11.736,429.635],[9.1307,11.7049,429.9846],[9.1325,11.7029,430.3801],[9.1795,11.704,426.0718],[9.2124,11.7072,413.8413],[9.2301,11.6914,426.1313],[9.2382,11.6597,442.3786],[9.262,11.6159,451.4936],[9.289,11.5885,441.8185],[9.3077,11.5738,421.6888],[9.3416,11.5654,423.0479],[9.3559,11.547,414.4825],[9.3185,11.5094,420.3344],[9.2868,11.4841,422.9885],[9.253,11.4537,433.5498],[9.241,11.4374,436.3638],[9.2305,11.4057,439.5363],[9.2234,11.3782,454.0108],[9.2283,11.3519,461.4459],[9.2247,11.3425,467.4567],[9.2409,11.3455,467.4986],[9.3378,11.328,455.1382],[9.3883,11.308,475.7107],[9.4414,11.2923,441.8916],[9.4578,11.2895,443.5196],[9.5119,11.3128,443.8559],[9.549,11.3011,458.6697],[9.5686,11.2681,466.1198],[9.5779,11.2427,449.7807],[9.6284,11.2393,440.6613],[9.7528,11.247,425.899],[9.776,11.2516,425.8142],[9.8105,11.2614,426.6003],[9.829,11.2566,426.5311],[9.849,11.2275,435.528],[9.8721,11.1785,458.0513],[9.8807,11.1443,467.691],[9.8788,11.0972,481.2881],[9.8681,11.0522,491.9681],[9.8674,11.019,511.89],[9.8804,10.9863,514.0432],[9.9022,10.9646,520.9259],[9.9568,10.9517,532.336],[9.9943,10.9456,504.19],[10.0585,10.96,481.8419],[10.0847,10.9678,480.3836],[10.11,10.965,478.36],[10.14,10.9434,457.6461],[10.1798,10.9334,473.8735],[10.2098,10.9425,478.6384],[10.1918,10.9972,483.5427],[10.1925,11.0261,462.7719],[10.2173,11.0565,452.6261],[10.2581,11.0782,434.4195],[10.293,11.085,441.0274]]]]}
,"properties": {"GID_1": "NGA.18_1","GID_0": "NGA","country": "Nigeria","province": "Jigawa","VARNAME_1": "NA","NL_NAME_1": "NA","TYPE_1": "State","ENGTYPE_1": "State","CC_1": "NA","HASC_1": "NG.JI","ISO_1": "NG-JI","name": "Jigawa.province","area_km2": 24092.43,"hist_schema_id": "Elevation0-9000","hist_area_km2": {"350": 6517.94,"375": 8372.02,"400": 3588.48,"425": 2240.74,"450": 1562.96,"475": 1055.44,"500": 495.48,"525": 165.17,"550": 50.3,"575": 22.76,"600": 10.17,"625": 5.35,"650": 3.25,"675": 1.54,"700": 0.44,"725": 0.21}}}