{"type":"Feature","properties":{"ISO3166-1-Alpha-3":"NGA","country":"Nigeria","fill":"#00F","id":"2868","name":"Jigawa"},
"geometry":{"type": "Polygon","coordinates": [[[10.30586,12.80126,345.7036],[10.26266,12.80769,346.0908],[10.25305,12.83278,346.2626],[10.2269,12.93275,346.6805],[10.20106,12.97146,348.3537],[10.15931,12.98388,348.2353],[10.11456,12.97267,347.8865],[10.0203,12.93533,349.2532],[9.97162,12.92273,350.1997],[9.90248,12.89459,349.8583],[9.88429,12.88144,353.6859],[9.8725,12.85472,354.7882],[9.85731,12.82976,352.2971],[9.76987,12.79253,355.3496],[9.675,12.8232,355.2901],[9.64766,12.83054,355.5605],[9.64073,12.82253,357.1694],[9.62926,12.81278,355.9865],[9.61841,12.80578,358.0214],[9.61149,12.80294,359.1641],[9.5903,12.80139,358.258],[9.37791,12.82578,364.3347],[9.35982,12.82459,364.6367],[9.30649,12.80984,365.9768],[9.26939,12.80979,367.7814],[8.97787,12.84318,379.4706],[8.97695,12.83441,380.6964],[8.97168,12.81868,379.8549],[8.95442,12.81134,380.7506],[8.94202,12.8003,382.2801],[8.93323,12.78664,384.8101],[8.92517,12.76708,383.6771],[8.91442,12.75044,383.7681],[8.86988,12.7155,388.0957],[8.82203,12.69047,392.934],[8.76807,12.67835,396.5901],[8.72818,12.68163,400.0762],[8.71371,12.69442,400.4309],[8.70152,12.70997,399.5494],[8.6702,12.69248,401.7179],[8.64736,12.6908,403.675],[8.62214,12.70072,408.4337],[8.5992,12.71524,410.9894],[8.57181,12.76051,420.8541],[8.55434,12.81185,436.8305],[8.53543,12.82986,431.5067],[8.38154,12.82312,455.1191],[8.3157,12.83108,454.6462],[8.24387,12.8296,454.2762],[8.13731,12.81374,513.275],[8.12326,12.7877,515.3921],[8.11499,12.72041,515.7391],[8.11716,12.65618,534.4427],[8.16966,12.62427,507.1279],[8.24935,12.62236,489.0651],[8.27053,12.59941,497.1199],[8.28283,12.56957,477.4336],[8.33317,12.48149,489.7599],[8.33999,12.4642,476.1403],[8.33988,12.44929,448.742],[8.34433,12.43542,451.8992],[8.36221,12.42521,441.2699],[8.37327,12.44425,440.935],[8.39053,12.4936,448.6127],[8.42071,12.53761,427.8707],[8.47104,12.56332,422.0965],[8.53005,12.57468,415.6314],[8.58958,12.56639,409.2883],[8.65408,12.54923,403.9062],[8.67826,12.53926,404.3089],[8.68271,12.51319,403.87],[8.68147,12.475,405.1958],[8.69025,12.43929,406.1307],[8.71402,12.42185,409.2005],[8.74089,12.40808,407.086],[8.76539,12.3909,406.1018],[8.7781,12.36323,401.4415],[8.77686,12.32896,405.6253],[8.78513,12.29866,397.589],[8.84115,12.28013,408.0754],[8.9045,12.27295,405.4744],[8.94615,12.22181,400.5873],[8.94688,12.12967,394.2709],[8.94191,12.11241,395.8365],[8.93137,12.0988,399.463],[8.92321,12.08314,402.3604],[8.93664,12.06187,394.9764],[8.94657,12.05443,393.4696],[8.95638,12.05063,399.8939],[8.98016,12.05916,397.3498],[9.0216,12.06513,390.9003],[9.02925,12.06164,396.789],[9.03597,12.03746,403.8625],[9.03721,12.01203,409.2735],[9.09953,12.01188,405.3301],[9.13498,12.03536,398.3799],[9.18118,12.03027,394.7943],[9.19224,12.00133,393.122],[9.20712,11.94198,397.2692],[9.20464,11.90775,404.2747],[9.19296,11.87646,413.5884],[9.18841,11.85217,421.3354],[9.17983,11.82886,427.6065],[9.14335,11.77639,430.6708],[9.1296,11.71577,436.8018],[9.14593,11.70135,438.2217],[9.18882,11.70474,421.8561],[9.21621,11.70179,416.6174],[9.22727,11.69383,421.7199],[9.25001,11.63727,456.0664],[9.26427,11.61521,450.6161],[9.29187,11.58635,438.0096],[9.31512,11.57265,419.4074],[9.32794,11.5687,425.8395],[9.35068,11.55501,418.0437],[9.34158,11.53266,415.9962],[9.25301,11.45359,433.5498],[9.23719,11.42633,438.7658],[9.228,11.39595,442.855],[9.22644,11.38233,447.9994],[9.22738,11.35533,457.3948],[9.22469,11.34243,467.4567],[9.28577,11.34122,461.8823],[9.34561,11.32479,468.6976],[9.40814,11.29908,462.8575],[9.4718,11.29549,449.3616],[9.53392,11.30466,452.6068],[9.57319,11.25533,455.5155],[9.62384,11.23782,441.9333],[9.75282,11.24696,425.899],[9.81049,11.26138,426.6003],[9.85431,11.22159,435.6602],[9.87643,11.16133,461.3695],[9.87664,11.09661,480.1595],[9.86765,11.03222,502.2646],[9.89111,10.97688,519.7472],[9.94826,10.9537,544.5148],[10.10598,10.96535,483.6067],[10.14081,10.94791,450.3799],[10.17977,10.93339,473.8735],[10.20685,10.95042,487.1827],[10.19569,10.98659,477.0337],[10.21646,11.05408,451.6379],[10.32695,11.09658,432.1007],[10.36147,11.11741,423.5363],[10.38565,11.14519,424.516],[10.3902,11.17759,435.8637],[10.31816,11.20128,426.9417],[10.23279,11.20451,429.0885],[10.07332,11.23381,456.812],[10.00056,11.26228,473.4989],[9.90465,11.38835,407.228],[9.8631,11.45982,412.5832],[9.84594,11.45465,413.6003],[9.81297,11.45499,412.3178],[9.79334,11.48168,414.1132],[9.79757,11.51454,418.3958],[9.83065,11.57542,417.4791],[9.82961,11.60983,414.1801],[9.81452,11.68125,410.8665],[9.79871,11.7145,400.0502],[9.7644,11.72241,395.9284],[9.72853,11.71854,396.8107],[9.66766,11.70125,390.5776],[9.62518,11.72941,388.3561],[9.64626,11.80341,383.2458],[9.6997,11.85124,380.8719],[9.78393,11.85817,379.8915],[9.81762,11.87364,380.1786],[9.85039,11.89426,377.952],[10.15497,12.00854,369.9119],[10.17161,12.0427,369.4891],[10.16251,12.08371,370.896],[10.16913,12.11639,368.0116],[10.24116,12.31532,354.593],[10.25057,12.35974,353.6641],[10.26473,12.40268,352.6524],[10.28747,12.42441,351.5757],[10.31847,12.43624,350.7461],[10.39402,12.4489,352.3916],[10.42472,12.42929,349.6226],[10.47743,12.41635,351.4267],[10.60951,12.50244,347.8611],[10.58822,12.5675,347.0519],[10.56993,12.70873,342.1533],[10.53944,12.77292,343.0628],[10.51164,12.79343,344.0801],[10.47763,12.79224,345.9979],[10.44063,12.80036,345.2004],[10.40467,12.8171,344.0],[10.3718,12.81971,345.0546],[10.30586,12.80126,345.7036]]]}}