{"type":"Feature","properties":{"featurecla":"River","scalerank":9,"rivernum":982,"dissolve":"982River","name":"Hadejia","name_alt":null,"note":null,"min_zoom":7.1,"strokeweig":0.2,"name_en":"Hadejia","min_label":8.1},
"geometry":{"type": "LineString","coordinates": [[10.0,12.416620184369108,359.1424],[10.028710937500023,12.42780182499412,355.8156],[10.055566406250023,12.42780182499412,355.887],[10.080224609375023,12.43939850468162,355.9774],[10.1,12.452752996869108,356.3121],[10.135986328125,12.47907135624412,354.6566],[10.175048828125,12.50275299686912,354.148],[10.199951171875,12.51325104374412,352.9271],[10.223388671875,12.52899811405662,353.0715],[10.239404296875023,12.530292059369117,351.9446],[10.255517578125023,12.52777741093162,351.9388],[10.26171875,12.53595612186912,351.791],[10.267822265625,12.544208074994117,351.3358],[10.279052734375,12.54840729374412,351.1119],[10.288818359375,12.54999420780662,350.8007],[10.296289062500023,12.56757233280662,350.6536],[10.305566406250023,12.58331940311912,349.744],[10.3095703125,12.57990143436912,349.4648],[10.316650390625,12.577752996869108,349.624],[10.32275390625,12.58185455936912,349.9958],[10.329003906250023,12.58600494999412,349.6361],[10.33740234375,12.584735418744117,349.3326],[10.344384765625023,12.577752996869108,349.86],[10.36962890625,12.576678778119117,348.0555],[10.395654296875023,12.58624909061912,347.0833],[10.42138671875,12.58685944218162,346.6897],[10.449951171875,12.588885809369117,346.8487],[10.455468750000023,12.602069403119117,346.4604],[10.461083984375023,12.61664459843162,346.3867],[10.479882812500023,12.628045965619108,344.7225],[10.5,12.63886139530662,344.8541],[10.527246093750023,12.65704987186912,344.6844],[10.555322265625023,12.670770574994108,342.4583],[10.567773437500023,12.67511627811912,342.3081],[10.58056640625,12.677752996869117,343.0041],[10.59228515625,12.68610260624412,343.9572],[10.6,12.699969793744117,343.5042],[10.6171875,12.707635809369108,342.4756],[10.63330078125,12.716669012494108,342.2569],[10.64111328125,12.73285553593162,342.1884],[10.64990234375,12.74994537968162,343.6552],[10.677392578125023,12.76154205936912,342.5262],[10.705712890625023,12.75702545780662,341.4102],[10.740625,12.767206121869108,341.6775],[10.777734375000023,12.77216217655662,341.4591]]}}