{"type":"Feature","properties":{"featurecla":"River","scalerank":9,"rivernum":982,"dissolve":"982River","name":"Hadejia1","name_alt":null,"note":null,"min_zoom":7.1,"strokeweig":0.2,"name_en":"Hadejia","min_label":8.1},
"geometry":{"type": "LineString","coordinates": [[8.905517578125,12.000018621869117,401.6292],[8.9212890625000227,12.03876373905662,394.3845],[8.955322265625,12.067889715619117,394.7002],[8.9974609375000227,12.071893621869108,392.9296],[9.04443359375,12.066669012494117,395.5504],[9.058837890625,12.07257721561912,389.6347],[9.072265625,12.077752996869108,390.4304],[9.0966796875,12.073749090619117,391.0641],[9.1222167968750227,12.07221100468162,389.3824],[9.1546875000000227,12.08978912968162,388.0447],[9.18896484375,12.09442780155662,386.7615],[9.2118164062500227,12.096942449994117,389.0758],[9.216552734375,12.122186590619108,383.6689],[9.25,12.13739655155662,384.4608],[9.2861328125,12.14996979374412,381.6268],[9.3038574218750227,12.15277741093162,381.101],[9.322265625,12.155536199994117,380.2015],[9.34326171875,12.16351959843162,379.2905],[9.361083984375,12.177752996869117,378.4598],[9.397216796875,12.18475983280662,377.7153],[9.427734375,12.17218659061912,376.1185],[9.431396484375,12.19306061405662,375.704],[9.4388671875000227,12.211053778119108,376.6677],[9.449462890625,12.20465729374412,374.5802],[9.4610839843750227,12.19440338749412,374.9107],[9.47216796875,12.20258209843162,373.842],[9.4833007812500227,12.211053778119108,374.1447],[9.4957519531250227,12.20258209843162,373.8905],[9.5055175781250227,12.19440338749412,372.605],[9.530517578125,12.20526764530662,372.5236],[9.5555664062500227,12.21662018436912,370.3529],[9.5589843750000227,12.21100494999412,371.9112],[9.566650390625,12.205585028119117,371.2896],[9.5804687500000227,12.21430084843162,371.0294],[9.5909667968750227,12.229022528119117,369.7741],[9.6104980468750227,12.241571356244108,368.4343],[9.63330078125,12.250018621869117,368.4695],[9.666748046875,12.261249090619117,366.8861],[9.701171875,12.28046295780662,366.1261],[9.7191406250000227,12.298846746869117,365.3777],[9.7389160156250227,12.31110260624412,364.8704],[9.760498046875,12.30231354374412,364.9744],[9.7796875000000227,12.30023834843162,363.7942],[9.8060546875000227,12.309588934369117,363.8146],[9.83056640625,12.31110260624412,363.0696],[9.8358398437500227,12.318622137494117,361.7196],[9.8388671875,12.327752996869108,360.3267],[9.8564453125,12.328143621869117,362.5108],[9.8722167968750227,12.33331940311912,361.8391],[9.8927246093750227,12.344989324994117,361.2318],[9.9166503906250227,12.35553619999412,358.6522],[9.9173828125000227,12.361688543744108,358.5],[9.91943359375,12.36945221561912,360.7892],[9.93115234375,12.369989324994108,358.2697],[9.9444824218750227,12.372186590619108,358.6491],[9.9613281250000227,12.38983795780662,357.4063],[9.977783203125,12.405536199994117,356.279],[9.986572265625,12.404071356244117,356.267],[10.0,12.416620184369108,359.1424]]}}