{"type":"Feature","properties":{"GID_2":"NGA.20.23_1","GID_0":"NGA","country":"Nigeria","GID_1":"NGA.20_1","province":"Kano","NL_NAME_1":"NA","county":"Kibiya","VARNAME_2":"NA","NL_NAME_2":"NA","TYPE_2":"LocalAuthority","ENGTYPE_2":"LocalAuthority","CC_2":"NA","HASC_2":"NA","name":"Kibiya.county"},
"geometry":{"type": "MultiPolygon","coordinates": [[[[8.6286,11.6036,471.4702],[8.6102,11.5864,485.7753],[8.611,11.5501,548.6754],[8.6087,11.5388,526.1478],[8.5951,11.5216,543.029],[8.5666,11.5063,558.343],[8.5604,11.4894,561.1644],[8.557,11.4605,558.6003],[8.5629,11.4441,579.7759],[8.5705,11.4305,569.8333],[8.5731,11.4079,565.0349],[8.5568,11.3879,531.7064],[8.5541,11.381,542.0476],[8.5562,11.3768,547.2291],[8.5674,11.3677,552.3452],[8.5706,11.3601,543.4432],[8.569,11.3349,517.5],[8.5785,11.3452,540.5809],[8.5849,11.3478,539.991],[8.6025,11.3609,563.0334],[8.6251,11.3733,572.2064],[8.629,11.3778,574.2691],[8.651,11.3934,594.6183],[8.6791,11.4083,570.1888],[8.6859,11.416,561.1082],[8.6935,11.4213,561.8767],[8.7043,11.4369,551.8255],[8.7136,11.4435,550.9465],[8.718,11.4486,543.4875],[8.7209,11.4572,540.8466],[8.7217,11.474,511.5759],[8.7242,11.4785,502.7247],[8.7256,11.4875,494.698],[8.7267,11.5198,495.7377],[8.7237,11.5736,491.7864],[8.7238,11.6174,475.1738],[8.7191,11.6153,473.6028],[8.7173,11.6174,468.4305],[8.7025,11.6101,471.4865],[8.6949,11.6091,466.3286],[8.6879,11.6123,461.049],[8.6831,11.6125,460.8699],[8.6691,11.6093,457.3842],[8.6542,11.6099,452.2558],[8.6286,11.6036,471.4702]]]]}}