{"type":"Feature","properties":{"GID_2":"NGA.31.11_1","GID_0":"NGA","country":"Nigeria","GID_1":"NGA.31_1","province":"Oyo","NL_NAME_1":"NA","county":"IbarapaCentral","VARNAME_2":"NA","NL_NAME_2":"NA","TYPE_2":"LocalAuthority","ENGTYPE_2":"LocalAuthority","CC_2":"NA","HASC_2":"NA","name":"Ibarapa_Central.county"},
"geometry":{"type": "MultiPolygon","coordinates": [[[[3.1839,7.3477,81.5933],[3.2126,7.3338,75.1447],[3.2479,7.3306,98.4373],[3.262,7.3336,104.8234],[3.2781,7.3292,97.532],[3.2944,7.3349,100.1159],[3.3062,7.337,109.7886],[3.3139,7.3438,92.9137],[3.3279,7.3639,98.0718],[3.3394,7.3914,131.8969],[3.3511,7.4011,121.9777],[3.355,7.4289,115.1783],[3.3663,7.4573,118.3847],[3.3695,7.4695,118.3367],[3.3739,7.4739,100.4849],[3.3688,7.4832,124.3437],[3.3606,7.4898,114.5348],[3.3525,7.4991,116.804],[3.3485,7.5137,127.0712],[3.3266,7.512,133.4155],[3.3097,7.5079,140.748],[3.2998,7.509,149.4236],[3.2922,7.5064,179.6925],[3.279,7.5077,187.5618],[3.2234,7.5032,236.1638],[3.2076,7.499,143.6782],[3.1975,7.4858,107.3156],[3.1816,7.4882,135.1528],[3.167,7.4854,138.8725],[3.1456,7.4881,141.1744],[3.1372,7.4848,140.7704],[3.1284,7.4778,124.0486],[3.1085,7.4763,101.6369],[3.1007,7.4776,103.8216],[3.0734,7.4724,84.0685],[3.0746,7.4628,92.3399],[3.0873,7.4522,79.6194],[3.0883,7.4399,85.5205],[3.122,7.3978,87.7431],[3.1263,7.3899,71.1615],[3.1367,7.3787,77.0033],[3.1664,7.3592,71.7561],[3.1748,7.3519,87.2069],[3.1839,7.3477,81.5933]]]]}}