{"type": "Feature","bbox": [7.6876,11.3589,8.0327,11.6519],"geometry": {"type": "MultiPolygon","coordinates": [[[[8.0299,11.4758,601.2134],[8.0294,11.4788,596.9833],[8.0327,11.4909,586.7856],[8.032,11.5054,597.168],[8.0279,11.5198,599.2388],[8.0094,11.5272,594.2698],[8.0041,11.531,588.0394],[7.9981,11.5385,578.7656],[7.9896,11.5527,565.6606],[7.9888,11.5596,562.0295],[7.9855,11.5665,557.8654],[7.9832,11.5819,552.8812],[7.9804,11.5869,545.0074],[7.9706,11.5911,554.3848],[7.9673,11.5987,546.326],[7.9689,11.6174,541.482],[7.972,11.6315,532.5794],[7.9712,11.6379,524.8015],[7.9679,11.6399,530.2045],[7.9425,11.6325,526.9733],[7.9179,11.6349,521.5714],[7.9089,11.6406,522.6047],[7.9012,11.6519,522.5718],[7.8952,11.6455,522.934],[7.8866,11.6438,529.6168],[7.8788,11.6449,534.4554],[7.8491,11.6403,530.0866],[7.8428,11.6426,529.6758],[7.8033,11.6156,560.1113],[7.7928,11.6122,552.9827],[7.7867,11.6131,543.4721],[7.7673,11.6089,569.0594],[7.7426,11.5992,568.6267],[7.7318,11.5852,569.3907],[7.7253,11.5815,580.2975],[7.7186,11.5749,573.0326],[7.7132,11.5732,557.1541],[7.71,11.5654,575.2209],[7.7155,11.5571,573.8847],[7.712,11.5379,591.9606],[7.6876,11.4954,634.7285],[7.6914,11.4862,634.6749],[7.6916,11.4775,640.9897],[7.6945,11.4708,638.5696],[7.7001,11.4379,664.0119],[7.7077,11.4133,672.99],[7.7265,11.3946,686.8215],[7.7345,11.3926,675.6424],[7.7411,11.3883,679.7463],[7.7501,11.3801,678.8167],[7.7624,11.3731,689.1112],[7.7763,11.3592,679.7894],[7.8261,11.3589,672.306],[7.8506,11.3631,667.1696],[7.8655,11.3696,661.2255],[7.933,11.4306,642.0761],[7.972,11.4549,625.9781],[8.0107,11.4759,604.1603],[8.0299,11.4758,601.2134]]]]}
,"properties": {"GID_2": "NGA.20.34_1","GID_0": "NGA","country": "Nigeria","GID_1": "NGA.20_1","province": "Kano","NL_NAME_1": "NA","county": "Rogo","VARNAME_2": "NA","NL_NAME_2": "NA","TYPE_2": "LocalAuthority","ENGTYPE_2": "LocalAuthority","CC_2": "NA","HASC_2": "NA","name": "Rogo.county","area_km2": 814.1767,"hist_schema_id": "Elevation0-9000","hist_area_km2": {"525": 30.4656,"550": 93.3586,"575": 151.0971,"600": 172.3301,"625": 135.1614,"650": 112.7967,"675": 98.8684,"700": 20.0988}}}