{"type": "Feature","bbox": [7.3503,6.0083,7.5527,6.3288],"geometry": {"type": "MultiPolygon","coordinates": [[[[7.4943,6.0183,70.2777],[7.4941,6.0266,77.9939],[7.4966,6.0372,76.4371],[7.4962,6.0529,80.0473],[7.4988,6.0726,80.2961],[7.502,6.0843,90.9715],[7.5306,6.1161,86.7096],[7.5527,6.1367,85.2703],[7.5406,6.1457,89.7732],[7.5372,6.1533,90.7894],[7.5298,6.1634,99.3128],[7.5254,6.1763,126.8635],[7.5127,6.1938,144.4802],[7.4756,6.2357,219.7902],[7.4623,6.2564,178.7428],[7.4569,6.2618,189.2972],[7.4407,6.2884,248.6541],[7.4383,6.2974,350.6681],[7.4325,6.3111,302.4059],[7.4267,6.3204,381.5229],[7.4242,6.3288,364.8141],[7.422,6.3198,408.4358],[7.4143,6.3146,452.6694],[7.4113,6.3103,467.1463],[7.3849,6.249,341.5741],[7.3809,6.2419,340.019],[7.3718,6.2366,304.1215],[7.3505,6.1892,199.2979],[7.3576,6.1873,230.5388],[7.3626,6.1687,324.4382],[7.3625,6.1632,320.4676],[7.3599,6.1559,311.8136],[7.368,6.1336,356.1147],[7.3659,6.0735,165.2812],[7.3692,6.0649,157.5203],[7.3669,6.0498,231.9271],[7.3675,6.0447,254.9124],[7.3616,6.036,264.8037],[7.3597,6.0292,253.5296],[7.3503,6.0235,263.5298],[7.3705,6.0178,280.2017],[7.3734,6.0083,278.6279],[7.3808,6.0121,300.0648],[7.4052,6.0184,377.1938],[7.4514,6.0227,181.2904],[7.4943,6.0183,70.2777]]]]}
,"properties": {"GID_2": "NGA.14.2_1","GID_0": "NGA","country": "Nigeria","GID_1": "NGA.14_1","province": "Enugu","NL_NAME_1": "NA","county": "Awgu","VARNAME_2": "NA","NL_NAME_2": "NA","TYPE_2": "LocalAuthority","ENGTYPE_2": "LocalAuthority","CC_2": "NA","HASC_2": "NA","name": "Awgu.county","area_km2": 450.8244,"hist_schema_id": "Elevation0-9000","hist_area_km2": {"75": 18.2786,"100": 38.0529,"125": 18.446,"150": 19.0558,"175": 34.6539,"200": 46.5004,"225": 42.4126,"250": 40.7479,"275": 40.8334,"300": 38.8941,"325": 36.8701,"350": 31.9793,"375": 23.8844,"400": 13.7021,"425": 5.0587,"450": 1.0116,"475": 0.4004,"500": 0.0421}}}