{"type": "Feature","bbox": [8.4563,6.3288,8.987,6.6992],"geometry": {"type": "MultiPolygon","coordinates": [[[[8.8212,6.6992,70.6748],[8.8122,6.6921,69.0931],[8.7748,6.6768,76.4015],[8.7557,6.664,65.5579],[8.7179,6.6232,74.117],[8.6454,6.5654,44.5272],[8.6175,6.5364,37.4866],[8.6025,6.5231,36.3776],[8.5862,6.5153,38.0994],[8.5501,6.5182,51.8346],[8.5328,6.5231,37.3471],[8.5231,6.5221,33.057],[8.5136,6.5161,40.8571],[8.5139,6.5071,48.94],[8.5112,6.4979,41.655],[8.5122,6.4868,39.0601],[8.5295,6.4605,28.54],[8.5317,6.4519,27.752],[8.5271,6.4396,30.7952],[8.516,6.4381,28.5449],[8.4833,6.4528,43.2866],[8.472,6.4541,39.3424],[8.4664,6.4505,40.5017],[8.4563,6.4389,36.1607],[8.457,6.4285,30.5125],[8.4704,6.4108,31.2756],[8.4766,6.3976,31.8853],[8.4762,6.3738,32.5426],[8.4729,6.3656,36.4076],[8.4728,6.3601,36.9118],[8.4699,6.3565,51.934],[8.4889,6.3593,30.6769],[8.5118,6.3516,25.3998],[8.5292,6.3434,36.6306],[8.5492,6.339,45.842],[8.5678,6.3313,35.4166],[8.5779,6.3288,41.2787],[8.5998,6.33,49.5931],[8.6255,6.3354,54.7832],[8.6483,6.3426,96.1802],[8.6641,6.3525,50.4907],[8.6927,6.3628,125.2297],[8.699,6.3726,100.6929],[8.7061,6.3953,87.1121],[8.7151,6.409,117.1382],[8.7237,6.4127,129.8663],[8.7419,6.4292,107.5938],[8.7439,6.4393,109.4467],[8.7422,6.4465,107.6421],[8.7558,6.4603,116.9902],[8.7579,6.4757,101.2628],[8.7619,6.4817,88.72],[8.7602,6.4863,91.3234],[8.7613,6.5003,100.801],[8.7649,6.5051,107.0992],[8.7652,6.5097,104.2429],[8.7747,6.5287,81.5562],[8.7875,6.5386,68.5518],[8.7927,6.5454,76.0644],[8.8016,6.5508,80.8778],[8.8056,6.5556,94.7345],[8.8121,6.5582,93.5527],[8.8199,6.5593,95.5059],[8.8256,6.5509,104.0972],[8.8298,6.5416,108.3721],[8.834,6.5028,105.792],[8.8394,6.4917,101.3241],[8.8513,6.4749,117.7214],[8.8609,6.4699,104.7855],[8.8729,6.4703,109.812],[8.8873,6.4733,115.8209],[8.9222,6.4748,114.6],[8.9242,6.4724,116.9853],[8.9301,6.4823,119.6927],[8.939,6.4867,126.1394],[8.9797,6.5413,124.3632],[8.9862,6.5571,113.7318],[8.987,6.5751,108.446],[8.9846,6.6007,115.665],[8.9815,6.607,128.6757],[8.9729,6.6152,123.3957],[8.9612,6.623,112.5896],[8.9605,6.6196,119.1121],[8.9623,6.6202,119.1121],[8.9533,6.6169,120.0024],[8.9351,6.6059,103.5423],[8.9179,6.5979,109.2938],[8.9027,6.586,99.9706],[8.8825,6.5773,87.2206],[8.8378,6.5652,121.871],[8.8291,6.5824,105.7157],[8.825,6.602,84.8622],[8.8321,6.6146,63.2342],[8.8203,6.6367,62.4428],[8.8166,6.6374,59.0493],[8.8224,6.6521,66.4737],[8.8289,6.657,65.6668],[8.8315,6.6611,85.2674],[8.8268,6.6677,82.2618],[8.822,6.6696,68.2216],[8.819,6.6738,63.3186],[8.8231,6.6834,69.9368],[8.8232,6.6866,71.3013],[8.8211,6.6876,72.9159],[8.8212,6.6992,70.6748]]]]}
,"properties": {"GID_2": "NGA.9.16_1","GID_0": "NGA","country": "Nigeria","GID_1": "NGA.9_1","province": "CrossRiver","NL_NAME_1": "NA","county": "Ogoja","VARNAME_2": "NA","NL_NAME_2": "NA","TYPE_2": "LocalAuthority","ENGTYPE_2": "LocalAuthority","CC_2": "NA","HASC_2": "NA","name": "Ogoja.county","area_km2": 976.898,"hist_schema_id": "Elevation0-9000","hist_area_km2": {"25": 138.3164,"50": 345.5698,"75": 154.9953,"100": 176.0867,"125": 138.3148,"150": 21.2978,"175": 1.8327,"200": 0.4424,"225": 0.0421}}}