{"type": "Feature","bbox": [8.6401,9.6116,8.9539,9.854],"geometry": {"type": "MultiPolygon","coordinates": [[[[8.9532,9.8345,1250.7748],[8.9539,9.85,1275.4253],[8.9506,9.854,1277.6069],[8.9463,9.8488,1288.2253],[8.8882,9.8131,1265.9072],[8.871,9.81,1259.4561],[8.8551,9.81,1219.3247],[8.8217,9.7987,1206.4128],[8.8084,9.798,1192.5874],[8.7969,9.8047,1177.7401],[8.7892,9.8248,1174.2084],[8.7815,9.8318,1162.3513],[8.7594,9.836,1175.3359],[8.7547,9.7911,1193.698],[8.7503,9.7759,1199.8141],[8.743,9.7587,1214.3589],[8.7264,9.7472,1196.3898],[8.6645,9.7266,1120.8317],[8.6563,9.7219,1084.2571],[8.645,9.7184,1078.0803],[8.6401,9.7115,1006.7477],[8.6471,9.6923,968.0659],[8.6478,9.67,939.6865],[8.6543,9.6528,974.4827],[8.695,9.642,1241.8335],[8.7249,9.6388,1316.1818],[8.7353,9.632,1267.1704],[8.7507,9.6182,1183.3928],[8.7646,9.6116,1175.885],[8.7798,9.6194,1197.4254],[8.7818,9.6266,1210.7264],[8.8099,9.6332,1246.8322],[8.847,9.6384,1269.7991],[8.8602,9.6559,1277.0281],[8.8852,9.7134,1240.1816],[8.8978,9.7203,1251.8434],[8.9151,9.7465,1252.9731],[8.9159,9.7666,1280.7067],[8.9293,9.8112,1301.5964],[8.946,9.8306,1272.073],[8.9532,9.8345,1250.7748]]]]}
,"properties": {"GID_2": "NGA.32.6_1","GID_0": "NGA","country": "Nigeria","GID_1": "NGA.32_1","province": "Plateau","NL_NAME_1": "NA","county": "JosSouth","VARNAME_2": "NA","NL_NAME_2": "NA","TYPE_2": "LocalAuthority","ENGTYPE_2": "LocalAuthority","CC_2": "NA","HASC_2": "NA","name": "Jos_South.county","area_km2": 453.6681,"hist_schema_id": "Elevation0-9000","hist_area_km2": {"925": 0.5225,"950": 3.5113,"975": 3.1977,"1000": 1.5257,"1025": 1.1495,"1050": 1.254,"1075": 2.0272,"1100": 6.2487,"1125": 7.0221,"1150": 9.6127,"1175": 26.057,"1200": 51.2194,"1225": 72.9761,"1250": 89.7792,"1275": 100.6844,"1300": 52.3037,"1325": 13.667,"1350": 4.8278,"1375": 2.5498,"1400": 1.7348,"1425": 1.0033,"1450": 0.5016,"1475": 0.209,"1500": 0.0836}}}