{"type":"Feature","properties":{"GID_2":"NGA.27.3_1","GID_0":"NGA","country":"Nigeria","GID_1":"NGA.27_1","province":"Niger","NL_NAME_1":"NA","county":"Bida","VARNAME_2":"NA","NL_NAME_2":"NA","TYPE_2":"LocalAuthority","ENGTYPE_2":"LocalAuthority","CC_2":"NA","HASC_2":"NA","name":"Bida.county"},
"geometry":{"type": "MultiPolygon","coordinates": [[[[5.9399,9.0569,158.9947],[5.9422,9.0549,163.2669],[5.9549,9.0519,177.7209],[5.9707,9.0497,206.2441],[5.9894,9.0513,159.3843],[6.0048,9.0547,141.2021],[6.0103,9.0604,137.6407],[6.0202,9.0771,132.1316],[6.0281,9.1003,121.3659],[6.0158,9.1031,140.9187],[6.0094,9.1136,131.8793],[6.0049,9.1175,128.98],[5.995,9.1199,130.0868],[5.9742,9.1139,157.2392],[5.9549,9.1015,182.3593],[5.9525,9.0927,205.8688],[5.9545,9.0837,186.9632],[5.9399,9.0569,158.9947]]]]}}