{"type":"Feature","properties":{"GID_2":"NGA.33.23_1","GID_0":"NGA","country":"Nigeria","GID_1":"NGA.33_1","province":"Rivers","NL_NAME_1":"NA","county":"Tai","VARNAME_2":"NA","NL_NAME_2":"NA","TYPE_2":"LocalAuthority","ENGTYPE_2":"LocalAuthority","CC_2":"NA","HASC_2":"NA","name":"Tai.county"},
"geometry":{"type": "MultiPolygon","coordinates": [[[[7.2145,4.7158,4.3752],[7.2142,4.7083,3.5135],[7.2278,4.6938,0.9184],[7.2317,4.6921,1.0489],[7.2377,4.6932,5.9214],[7.2482,4.6877,7.527],[7.2696,4.697,14.0992],[7.2862,4.696,14.8641],[7.2964,4.6993,16.6363],[7.3022,4.6992,13.7706],[7.3322,4.7082,18.6852],[7.3234,4.7261,21.2077],[7.3049,4.7377,19.8931],[7.3024,4.7412,16.8758],[7.3025,4.7469,17.9269],[7.2987,4.7557,16.2527],[7.3023,4.7653,20.1022],[7.2931,4.7644,16.7916],[7.2808,4.777,23.3715],[7.2739,4.7804,20.6648],[7.2507,4.7835,21.8549],[7.2404,4.7874,14.7032],[7.2246,4.7978,24.3633],[7.2124,4.8025,18.4718],[7.2089,4.7955,22.1782],[7.2078,4.7845,23.8638],[7.2159,4.7728,19.3765],[7.223,4.7692,15.3284],[7.2243,4.7628,22.8709],[7.216,4.7339,13.2273],[7.2145,4.7158,4.3752]]]]}}