{"type": "Feature","bbox": [8.9733,9.0136,9.2938,9.7586],"geometry": {"type": "MultiPolygon","coordinates": [[[[9.1639,9.7586,935.3568],[9.1488,9.7568,952.4509],[9.1023,9.7378,976.5438],[9.0785,9.7199,1005.8782],[9.0556,9.6953,1052.6621],[9.0646,9.6953,1011.5696],[9.0751,9.6853,1013.8776],[9.0743,9.6677,1037.0208],[9.0864,9.6452,1086.8463],[9.085,9.63,1095.8521],[9.0716,9.61,1087.2334],[9.021,9.5674,1245.6127],[9.0093,9.5464,1275.6792],[9.0016,9.5212,1278.8225],[8.9987,9.4982,1273.6633],[8.9894,9.4773,1267.0905],[8.9733,9.428,1342.3809],[8.9779,9.4288,1334.0291],[8.995,9.4152,1348.9399],[9.0036,9.4048,1350.6384],[9.0101,9.393,1321.4889],[9.0247,9.3575,1330.7626],[9.0317,9.3346,1336.5867],[9.0667,9.2568,1289.2491],[9.0812,9.1871,1152.9268],[9.082,9.1643,1151.0173],[9.0896,9.1355,1014.7678],[9.0917,9.0961,673.829],[9.0951,9.0711,798.8574],[9.0899,9.0666,632.4029],[9.0895,9.0699,655.2803],[9.0891,9.0659,632.4029],[9.0842,9.0616,470.35],[9.088,9.0518,438.6404],[9.0902,9.0538,453.6309],[9.0954,9.0548,455.1826],[9.1044,9.0548,461.9914],[9.1174,9.0417,531.4403],[9.1224,9.0263,491.2589],[9.1231,9.0136,445.3309],[9.1823,9.0161,622.6853],[9.2149,9.0445,679.8585],[9.2379,9.0561,493.2528],[9.2474,9.0716,503.801],[9.2437,9.0851,506.1722],[9.2429,9.0971,731.7126],[9.2461,9.1228,850.8634],[9.2469,9.1459,852.0153],[9.2451,9.1662,1024.4896],[9.2472,9.1803,904.4484],[9.247,9.1947,868.8179],[9.243,9.2124,955.1677],[9.2479,9.2282,1009.3822],[9.2452,9.2292,1004.7261],[9.2425,9.2507,1136.4766],[9.2475,9.2638,1103.7627],[9.245,9.2758,1143.9651],[9.2429,9.3016,1228.0382],[9.2429,9.3255,1271.3944],[9.2475,9.345,1242.9633],[9.2646,9.3807,1154.0786],[9.2806,9.4287,1198.6763],[9.2885,9.464,1134.6887],[9.2893,9.4806,1150.5002],[9.2815,9.4996,1113.6521],[9.2766,9.5239,1079.2861],[9.2711,9.5524,1066.4672],[9.2712,9.5706,1068.8901],[9.2821,9.5807,1069.8931],[9.2938,9.5869,1052.3929],[9.2867,9.5932,1060.6792],[9.26,9.6585,946.8644],[9.2545,9.6678,946.0787],[9.2456,9.6771,989.0505],[9.2329,9.6885,1019.2382],[9.2156,9.6958,1003.9843],[9.1696,9.7112,1013.2524],[9.1598,9.7249,997.0298],[9.1596,9.7406,960.8511],[9.1612,9.7519,934.7738],[9.1639,9.7586,935.3568]]]]}
,"properties": {"GID_2": "NGA.32.11_1","GID_0": "NGA","country": "Nigeria","GID_1": "NGA.32_1","province": "Plateau","NL_NAME_1": "NA","county": "Mangu","VARNAME_2": "NA","NL_NAME_2": "NA","TYPE_2": "LocalAuthority","ENGTYPE_2": "LocalAuthority","CC_2": "NA","HASC_2": "NA","name": "Mangu.county","area_km2": 1764.509,"hist_schema_id": "Elevation0-9000","hist_area_km2": {"425": 0.042,"450": 1.235,"475": 3.308,"500": 3.036,"525": 3.769,"550": 3.643,"575": 4.606,"600": 4.753,"625": 4.606,"650": 5.214,"675": 7.391,"700": 8.941,"725": 9.464,"750": 10.364,"775": 11.829,"800": 12.897,"825": 13.399,"850": 11.849,"875": 12.435,"900": 11.849,"925": 12.871,"950": 23.505,"975": 29.354,"1000": 57.239,"1025": 86.635,"1050": 119.231,"1075": 134.86,"1100": 131.559,"1125": 126.03,"1150": 106.005,"1175": 93.736,"1200": 94.707,"1225": 95.856,"1250": 99.763,"1275": 94.81,"1300": 91.742,"1325": 95.154,"1350": 85.388,"1375": 36.033,"1400": 4.834,"1425": 0.356,"1450": 0.126,"1475": 0.042,"1500": 0.042}}}