{"type": "Feature","bbox": [2.7978,6.6452,3.0795,6.9625],"geometry": {"type": "MultiPolygon","coordinates": [[[[3.0694,6.7666,73.748],[3.0743,6.7766,74.0369],[3.0738,6.7866,50.8496],[3.0519,6.8279,58.2977],[3.0486,6.84,61.8073],[3.0436,6.8472,60.1486],[3.0389,6.8662,48.8598],[3.0413,6.8747,79.3927],[3.0585,6.8946,118.4974],[3.0639,6.8985,118.5442],[3.075,6.9013,133.1732],[3.0795,6.9077,129.1788],[3.0787,6.916,127.9923],[3.0667,6.9311,135.8637],[3.048,6.9471,121.3933],[3.0474,6.9528,104.7902],[3.0219,6.9575,93.4822],[3.0102,6.9625,64.036],[2.9989,6.9625,58.9539],[2.9836,6.9455,120.7369],[2.9699,6.9342,94.921],[2.9677,6.9294,56.9057],[2.9588,6.9189,68.2896],[2.9511,6.9128,89.4192],[2.927,6.9075,78.7579],[2.9221,6.9034,51.9089],[2.9049,6.897,11.0783],[2.8876,6.8837,25.1189],[2.871,6.8822,45.1917],[2.8514,6.8855,24.4194],[2.8341,6.8821,29.5322],[2.8062,6.8683,69.4771],[2.7978,6.8596,40.9626],[2.8073,6.8097,75.4947],[2.8071,6.8007,84.5499],[2.8036,6.7842,90.8855],[2.8069,6.7724,90.3226],[2.8047,6.7669,93.702],[2.8115,6.7428,77.1934],[2.8108,6.7283,73.5569],[2.8301,6.7096,60.1538],[2.8339,6.7008,60.7096],[2.8409,6.6907,61.0106],[2.8416,6.6787,55.409],[2.8516,6.6693,53.7275],[2.8577,6.6607,54.8232],[2.87,6.6524,56.9687],[2.8806,6.649,50.2793],[2.8852,6.6494,48.3569],[2.9057,6.6452,41.0496],[2.9031,6.6581,48.7603],[2.8978,6.6706,55.7388],[2.9001,6.6837,56.9737],[2.9031,6.6878,42.0936],[2.9106,6.693,7.9679],[2.9218,6.6986,10.7191],[2.9454,6.7044,15.0654],[2.9623,6.6965,59.5264],[2.9711,6.6968,58.0715],[2.9906,6.6893,56.8323],[2.9936,6.6923,59.2623],[2.9945,6.7036,62.785],[2.9997,6.7113,58.8224],[3.0026,6.7207,69.2904],[3.0071,6.7266,63.5401],[3.0095,6.7335,60.4837],[3.013,6.7362,47.8702],[3.022,6.749,80.1208],[3.025,6.7657,84.2158],[3.0317,6.767,86.149],[3.0425,6.7631,63.7611],[3.0617,6.7628,74.1725],[3.0677,6.7641,72.8499],[3.0694,6.7666,73.748]]]]}
,"properties": {"GID_2": "NGA.28.5_1","GID_0": "NGA","country": "Nigeria","GID_1": "NGA.28_1","province": "Ogun","NL_NAME_1": "NA","county": "YewaSouth","VARNAME_2": "EgbadoSouth","NL_NAME_2": "NA","TYPE_2": "LocalAuthority","ENGTYPE_2": "LocalAuthority","CC_2": "NA","HASC_2": "NA","name": "Yewa_South.county","area_km2": 659.6226,"hist_schema_id": "Elevation0-9000","hist_area_km2": {"0": 40.3386,"25": 160.9222,"50": 214.3276,"75": 175.0358,"100": 42.3945,"125": 24.6887,"150": 1.9153}}}