{"type": "Feature","bbox": [3.61,8.5721,3.9889,8.9818],"geometry": {"type": "MultiPolygon","coordinates": [[[[3.61,8.9474,392.0831],[3.6154,8.9332,384.7623],[3.6197,8.9299,386.6735],[3.635,8.908,407.1948],[3.6379,8.9012,416.4804],[3.645,8.899,408.3687],[3.6468,8.8967,413.2381],[3.6569,8.8942,398.9728],[3.6717,8.8774,368.4503],[3.6766,8.8665,366.8818],[3.6883,8.81,357.3611],[3.6958,8.7562,364.4951],[3.6992,8.7412,357.1682],[3.7073,8.7279,381.1146],[3.7187,8.7215,408.6567],[3.7392,8.7163,377.6237],[3.7487,8.7056,389.8709],[3.7549,8.7025,370.6733],[3.7792,8.6963,377.5823],[3.7933,8.6795,382.6102],[3.8165,8.6627,361.0692],[3.8254,8.6538,353.5009],[3.83,8.6429,354.5076],[3.8333,8.6276,381.1691],[3.828,8.5996,387.5103],[3.8227,8.5863,360.3895],[3.8209,8.5721,360.1526],[3.829,8.5763,372.603],[3.8528,8.578,363.1943],[3.8783,8.5769,377.0298],[3.9089,8.5812,411.3632],[3.927,8.5913,433.0527],[3.9363,8.5991,421.1917],[3.9361,8.6121,417.024],[3.9314,8.6209,431.1703],[3.9221,8.627,425.8086],[3.9128,8.6369,392.3989],[3.9022,8.6539,392.4107],[3.8935,8.6757,425.7026],[3.8944,8.701,422.1202],[3.9005,8.7203,439.3643],[3.9101,8.7427,422.1027],[3.9438,8.7735,445.7768],[3.9532,8.786,427.4566],[3.9678,8.8194,421.1868],[3.9784,8.8286,387.5236],[3.9878,8.8398,421.8669],[3.9875,8.8478,411.221],[3.9889,8.8503,419.3974],[3.9851,8.8562,435.9321],[3.9406,8.8896,423.3177],[3.936,8.8906,410.315],[3.9318,8.8866,401.5703],[3.9131,8.9002,378.6812],[3.9086,8.9056,397.123],[3.8964,8.9065,428.0001],[3.8379,8.943,431.7589],[3.816,8.9466,432.7234],[3.7845,8.9384,422.9139],[3.7678,8.9433,432.6475],[3.7411,8.9474,454.9749],[3.7268,8.9516,455.6951],[3.7088,8.9609,399.2952],[3.6841,8.9818,398.0599],[3.6668,8.9714,382.1348],[3.6419,8.9593,405.0742],[3.61,8.9474,392.0831]]]]}
,"properties": {"GID_2": "NGA.31.27_1","GID_0": "NGA","country": "Nigeria","GID_1": "NGA.31_1","province": "Oyo","NL_NAME_1": "NA","county": "Orelope","VARNAME_2": "NA","NL_NAME_2": "NA","TYPE_2": "LocalAuthority","ENGTYPE_2": "LocalAuthority","CC_2": "NA","HASC_2": "NA","name": "Orelope.county","area_km2": 919.9559,"hist_schema_id": "Elevation0-9000","hist_area_km2": {"350": 26.1311,"375": 164.3706,"400": 302.6518,"425": 264.6341,"450": 128.2122,"475": 31.903199999999998,"500": 2.0529}}}