{"type": "Feature","bbox": [7.2515,5.0625,7.3806,5.2951],"geometry": {"type": "MultiPolygon","coordinates": [[[[7.3499,5.1282,64.7067],[7.3533,5.1336,64.6002],[7.354,5.1398,63.7619],[7.3511,5.1431,65.6064],[7.3524,5.1512,41.8634],[7.3742,5.1741,73.9465],[7.3806,5.1841,79.2851],[7.3724,5.1893,77.7076],[7.3704,5.1967,78.9042],[7.3744,5.2293,86.2543],[7.3739,5.2676,96.2746],[7.3753,5.2862,103.1431],[7.3736,5.2918,101.6592],[7.3681,5.2951,104.7467],[7.3546,5.2907,101.0696],[7.3448,5.2801,97.0101],[7.3335,5.2655,93.4846],[7.3171,5.2356,82.0661],[7.31,5.2293,80.1317],[7.2944,5.219,78.5833],[7.2617,5.2158,36.8283],[7.2515,5.1947,32.5859],[7.2603,5.194,51.8296],[7.2709,5.1661,58.333],[7.2697,5.1463,63.4126],[7.2718,5.1211,62.0804],[7.2642,5.1054,59.5336],[7.2562,5.0976,53.2152],[7.2647,5.0936,55.2733],[7.2695,5.0892,57.4522],[7.2821,5.0705,53.717],[7.285,5.0625,56.1396],[7.2964,5.0694,54.8426],[7.302,5.0769,54.1521],[7.3128,5.0834,53.814],[7.3213,5.0987,57.3419],[7.3499,5.1282,64.7067]]]]}
,"properties": {"GID_2": "NGA.1.11_1","GID_0": "NGA","country": "Nigeria","GID_1": "NGA.1_1","province": "Abia","NL_NAME_1": "NA","county": "OsisiomaNgwa","VARNAME_2": "NA","NL_NAME_2": "NA","TYPE_2": "LocalAuthority","ENGTYPE_2": "LocalAuthority","CC_2": "NA","HASC_2": "NA","name": "Osisioma_Ngwa.county","area_km2": 192.4062,"hist_schema_id": "Elevation0-9000","hist_area_km2": {"25": 0.549,"50": 63.5002,"75": 104.1405,"100": 24.2164}}}