{"type": "Feature","bbox": [8.224,8.553,8.6925,8.8861],"geometry": {"type": "MultiPolygon","coordinates": [[[[8.2347,8.8615,385.883],[8.2358,8.8353,367.3755],[8.2333,8.7946,299.7982],[8.2355,8.7609,271.5845],[8.224,8.7007,210.7865],[8.2289,8.6965,189.8547],[8.2377,8.6839,160.2104],[8.2343,8.6429,161.8312],[8.2336,8.604,130.003],[8.2305,8.5799,117.5185],[8.2411,8.553,104.5897],[8.2612,8.5542,99.698],[8.2785,8.5694,108.0636],[8.2865,8.5898,135.1709],[8.298,8.6015,139.0035],[8.3064,8.6083,145.7921],[8.3217,8.6138,122.9058],[8.4031,8.6108,130.8378],[8.4244,8.6192,131.4795],[8.441,8.6316,140.0206],[8.4498,8.6451,157.9053],[8.4663,8.6535,170.6582],[8.5025,8.6522,164.7202],[8.5208,8.6614,171.1313],[8.5712,8.663,195.132],[8.5994,8.6566,198.7254],[8.6341,8.6634,156.4624],[8.6695,8.6959,158.0206],[8.6888,8.7219,200.5823],[8.6925,8.7467,211.44],[8.6914,8.7665,243.5888],[8.6813,8.7854,249.1017],[8.6538,8.796,283.8306],[8.6322,8.8007,230.9609],[8.6226,8.8055,215.1863],[8.6193,8.8136,201.9399],[8.6131,8.8182,194.3241],[8.5788,8.8062,214.9727],[8.5506,8.8037,228.2625],[8.5261,8.8124,239.8563],[8.5001,8.835,232.123],[8.5032,8.8765,314.5207],[8.4898,8.8803,329.15],[8.4218,8.8861,421.9074],[8.3444,8.8761,413.7371],[8.3149,8.8766,394.3385],[8.288,8.8695,425.3762],[8.2347,8.8615,385.883]]]]}
,"properties": {"GID_2": "NGA.26.10_1","GID_0": "NGA","country": "Nigeria","GID_1": "NGA.26_1","province": "Nasarawa","NL_NAME_1": "NA","county": "NasarawaEggon","VARNAME_2": "Eggon","NL_NAME_2": "NA","TYPE_2": "LocalAuthority","ENGTYPE_2": "LocalAuthority","CC_2": "NA","HASC_2": "NA","name": "Nasarawa_Eggon.county","area_km2": 1186.6517,"hist_schema_id": "Elevation0-9000","hist_area_km2": {"75": 0.3564,"100": 9.2455,"125": 53.9369,"150": 107.2145,"175": 162.8319,"200": 153.8092,"225": 105.4291,"250": 84.5315,"275": 52.1966,"300": 45.4487,"325": 32.7698,"350": 35.9529,"375": 48.3336,"400": 57.8659,"425": 46.89,"450": 30.7179,"475": 20.5979,"500": 19.7813,"525": 15.9044,"550": 16.1346,"575": 16.0296,"600": 13.3473,"625": 10.0785,"650": 7.2916,"675": 5.5944,"700": 5.5315,"725": 5.3429,"750": 4.9866,"775": 6.1809,"800": 4.4837,"825": 3.3104,"850": 2.5562,"875": 1.2781,"900": 0.44,"925": 0.2514}}}