{"type":"Feature","properties":{"GID_2":"NGA.17.15_1","GID_0":"NGA","country":"Nigeria","GID_1":"NGA.17_1","province":"Imo","NL_NAME_1":"NA","county":"Nwangele","VARNAME_2":"NA","NL_NAME_2":"NA","TYPE_2":"LocalAuthority","ENGTYPE_2":"LocalAuthority","CC_2":"NA","HASC_2":"NA","name":"Nwangele.county"},
"geometry":{"type": "MultiPolygon","coordinates": [[[[7.1701,5.7432,154.2413],[7.166,5.7396,158.1373],[7.1577,5.7374,167.6369],[7.156,5.731,172.9531],[7.1573,5.727,186.1768],[7.1552,5.7218,197.487],[7.1519,5.7188,203.2884],[7.1456,5.716,212.0525],[7.1361,5.7154,184.7558],[7.123,5.7152,174.1817],[7.1154,5.7169,138.9285],[7.0991,5.7096,165.0468],[7.0865,5.6986,165.0721],[7.0858,5.6822,141.3964],[7.0971,5.6555,166.7275],[7.1074,5.6622,163.0163],[7.1146,5.6699,168.4528],[7.1371,5.6762,197.6054],[7.1516,5.6741,215.9765],[7.1597,5.6777,235.3026],[7.1771,5.6968,184.3999],[7.1845,5.7132,182.7025],[7.1863,5.7236,184.899],[7.192,5.7303,169.7644],[7.1701,5.7432,154.2413]]]]}}