{"type":"Feature","properties":{"GID_2":"NGA.36.14_1","GID_0":"NGA","country":"Nigeria","GID_1":"NGA.36_1","province":"Yobe","NL_NAME_1":"NA","county":"Potiskum","VARNAME_2":"NA","NL_NAME_2":"NA","TYPE_2":"LocalAuthority","ENGTYPE_2":"LocalAuthority","CC_2":"NA","HASC_2":"NA","name":"Potiskum.county"},
"geometry":{"type": "MultiPolygon","coordinates": [[[[11.3211,11.6669,428.3932],[11.3198,11.6721,424.1654],[11.3207,11.7287,409.592],[11.326,11.7613,423.1147],[11.3322,11.7772,416.5027],[11.3235,11.8048,424.3478],[11.3263,11.8191,420.6355],[11.3171,11.8289,412.0724],[11.3091,11.8283,410.9495],[11.2996,11.824,413.3881],[11.2524,11.8208,412.3086],[11.2253,11.8099,384.8137],[11.2102,11.8016,393.611],[11.1904,11.8035,394.079],[11.1835,11.8062,395.5237],[11.1802,11.7984,397.8032],[11.1733,11.7915,402.7194],[11.162,11.7823,412.7373],[11.1363,11.7654,424.0203],[11.1252,11.7538,418.495],[11.1065,11.749,412.2102],[11.0961,11.7332,417.5683],[11.0933,11.7197,425.5016],[11.082,11.7088,426.2306],[11.0516,11.6662,428.0649],[11.0658,11.6376,426.6512],[11.0697,11.6212,440.2622],[11.0673,11.5936,453.1462],[11.057,11.5767,439.9497],[11.0636,11.575,448.6686],[11.0768,11.5764,460.6046],[11.1285,11.5844,476.1876],[11.1457,11.5794,477.9056],[11.1693,11.5813,467.3743],[11.1851,11.5844,456.7517],[11.2023,11.5918,452.8178],[11.2232,11.6081,450.188],[11.2295,11.616,457.735],[11.2333,11.6284,460.7809],[11.2449,11.6498,451.9345],[11.2537,11.6551,443.6199],[11.2616,11.6571,438.8349],[11.2715,11.6561,442.0371],[11.3211,11.6669,428.3932]]]]}}