{"type":"Feature","properties":{"GID_2":"NGA.27.23_1","GID_0":"NGA","country":"Nigeria","GID_1":"NGA.27_1","province":"Niger","NL_NAME_1":"NA","county":"Suleja","VARNAME_2":"NA","NL_NAME_2":"NA","TYPE_2":"LocalAuthority","ENGTYPE_2":"LocalAuthority","CC_2":"NA","HASC_2":"NA","name":"Suleja.county"},
"geometry":{"type": "MultiPolygon","coordinates": [[[[7.1703,9.0993,311.7746],[7.1853,9.1218,456.9609],[7.1841,9.1513,416.6908],[7.1806,9.1689,400.0922],[7.1816,9.1918,431.3484],[7.1789,9.2077,465.0359],[7.1797,9.2435,488.1725],[7.183,9.2489,485.3951],[7.1733,9.2527,487.2695],[7.1673,9.2621,467.4568],[7.1642,9.2711,461.7949],[7.152,9.2816,462.578],[7.1457,9.2809,443.6314],[7.1242,9.2673,400.6698],[7.1184,9.2619,408.4582],[7.1141,9.2517,392.9752],[7.1181,9.2192,561.4841],[7.1219,9.2118,481.8277],[7.1243,9.179,383.0861],[7.124,9.145,220.5152],[7.1229,9.133,218.5685],[7.1202,9.1269,212.2111],[7.1459,9.099,247.7771],[7.156,9.0956,258.9577],[7.1703,9.0993,311.7746]]]]}}