{"type":"Feature","properties":{"GID_2":"NGA.7.14_1","GID_0":"NGA","country":"Nigeria","GID_1":"NGA.7_1","province":"Benue","NL_NAME_1":"NA","county":"Obi","VARNAME_2":"NA","NL_NAME_2":"NA","TYPE_2":"LocalAuthority","ENGTYPE_2":"LocalAuthority","CC_2":"NA","HASC_2":"NA","name":"Obi.county"},
"geometry":{"type": "MultiPolygon","coordinates": [[[[8.0909,6.943,87.5135],[8.1043,6.943,83.3076],[8.1324,6.9384,82.9789],[8.1827,6.9219,71.8879],[8.2121,6.9196,78.7222],[8.2244,6.9217,74.5491],[8.2345,6.9201,73.2958],[8.2493,6.9042,57.8331],[8.2798,6.8945,53.9981],[8.2955,6.8944,61.2235],[8.342,6.889,93.6313],[8.3682,6.9121,94.4138],[8.3772,6.9255,88.1653],[8.3892,6.9396,101.5076],[8.4017,6.9465,113.6029],[8.4077,6.9727,111.2281],[8.4063,6.9877,128.3109],[8.41,6.998,129.4585],[8.411,7.0073,124.0845],[8.3987,7.0146,106.2463],[8.3946,7.0199,97.7268],[8.3869,7.0258,83.5653],[8.3766,7.0313,83.7053],[8.3685,7.0289,102.0627],[8.3575,7.0342,85.1094],[8.3313,7.0549,75.3555],[8.3074,7.0633,66.7033],[8.2999,7.0674,69.5838],[8.2945,7.0758,74.9079],[8.2835,7.0817,77.4813],[8.2672,7.0872,85.1996],[8.2593,7.0828,81.4225],[8.2504,7.0724,79.663],[8.2244,7.0233,76.7818],[8.2113,7.0067,82.0358],[8.1935,6.9952,94.6157],[8.1495,6.9815,73.5613],[8.1051,6.9751,66.5448],[8.0868,6.9692,86.1066],[8.0899,6.9636,78.3213],[8.0909,6.943,87.5135]]]]}}