{"type": "Feature","bbox": [6.8751,11.1108,8.977,13.3396],"geometry": {"type": "MultiPolygon","coordinates": [[[[7.1303,11.1367,681.9829],[7.1543,11.1144,731.4536],[7.1825,11.1108,661.7582],[7.1979,11.1167,642.1069],[7.2261,11.135,645.732],[7.2393,11.146,667.868],[7.2484,11.1655,675.0463],[7.244,11.1818,674.7079],[7.2192,11.219,672.0549],[7.2136,11.2374,694.1997],[7.2172,11.2515,680.7297],[7.2265,11.2581,664.9342],[7.2457,11.265,652.7843],[7.273,11.2689,647.1722],[7.3045,11.2672,625.761],[7.3492,11.2497,614.4569],[7.3718,11.2511,629.7853],[7.3811,11.2597,641.2076],[7.3825,11.2697,638.2183],[7.381,11.2819,633.481],[7.3932,11.3171,632.8462],[7.4003,11.3292,646.2748],[7.4357,11.3607,672.2405],[7.4498,11.3706,669.8945],[7.4722,11.375,684.1567],[7.5308,11.3581,705.902],[7.5817,11.3384,662.9709],[7.5981,11.3264,648.5204],[7.6149,11.3109,640.9212],[7.6305,11.2857,631.5],[7.656,11.2733,637.9644],[7.6742,11.2784,640.1523],[7.69,11.2878,651.6526],[7.7466,11.309,666.4792],[7.7567,11.323,673.0818],[7.7603,11.3417,679.8058],[7.7729,11.3594,680.8085],[7.7763,11.3592,679.7894],[7.7624,11.3731,689.1112],[7.7501,11.3801,678.8167],[7.7411,11.3883,679.7463],[7.7345,11.3926,675.6424],[7.7265,11.3946,686.8215],[7.7077,11.4133,672.99],[7.7001,11.4379,664.0119],[7.6945,11.4708,638.5696],[7.6916,11.4775,640.9897],[7.6914,11.4862,634.6749],[7.6876,11.4954,634.7285],[7.712,11.5379,591.9606],[7.7155,11.5571,573.8847],[7.71,11.5654,575.2209],[7.7132,11.5732,557.1541],[7.7186,11.5749,573.0326],[7.7253,11.5815,580.2975],[7.7318,11.5852,569.3907],[7.7426,11.5992,568.6267],[7.7673,11.6089,569.0594],[7.7867,11.6131,543.4721],[7.7928,11.6122,552.9827],[7.8033,11.6156,560.1113],[7.8428,11.6426,529.6758],[7.8491,11.6403,530.0866],[7.8788,11.6449,534.4554],[7.8866,11.6438,529.6168],[7.8952,11.6455,522.934],[7.9019,11.653,522.6595],[7.8995,11.6589,522.0],[7.8989,11.6677,531.9161],[7.8923,11.6863,524.9482],[7.8753,11.7145,529.1019],[7.8658,11.7524,536.5401],[7.8558,11.7639,541.5613],[7.8512,11.7772,543.9404],[7.8564,11.7904,541.5875],[7.8596,11.8124,561.9696],[7.859,11.8237,559.8787],[7.862,11.8417,566.7202],[7.8343,11.9099,575.265],[7.8282,11.9147,582.326],[7.8278,11.9246,581.528],[7.839,11.9623,608.0551],[7.8369,11.9847,620.0293],[7.8418,12.0021,617.0782],[7.8422,12.0152,604.4713],[7.8378,12.0274,595.5243],[7.8396,12.0411,585.0214],[7.8403,12.1053,564.01],[7.8374,12.1385,557.8361],[7.8371,12.1622,550.7362],[7.8308,12.2111,546.8027],[7.8352,12.2571,519.0853],[7.8382,12.2629,521.4083],[7.8705,12.2933,537.4943],[7.9391,12.3309,552.1233],[7.9614,12.339,550.7136],[8.0002,12.3492,549.4447],[8.0625,12.3687,543.1235],[8.0938,12.3827,545.0626],[8.1219,12.3994,537.9983],[8.1346,12.4129,523.2399],[8.1417,12.4479,513.6825],[8.1527,12.4826,521.9746],[8.1667,12.5068,484.3176],[8.1753,12.5256,485.9491],[8.1793,12.5434,493.9264],[8.1874,12.5557,520.5903],[8.1973,12.5616,506.9642],[8.208,12.564,501.2425],[8.2561,12.5692,495.5351],[8.2828,12.5696,477.4336],[8.2709,12.5975,493.8209],[8.2628,12.6112,494.613],[8.2548,12.6165,497.915],[8.2494,12.6224,489.0651],[8.2357,12.6195,507.2449],[8.1696,12.6243,507.1279],[8.1423,12.6319,528.6559],[8.1233,12.639099999999999,522.1933],[8.1139,12.6505,533.8148],[8.1116,12.689,516.4456],[8.1128,12.7114,511.601],[8.1248,12.7654,524.0669],[8.1232,12.7817,517.9241],[8.1246,12.8081,505.2035],[8.132,12.8128,509.0575],[8.1576,12.8179,487.448],[8.2032,12.8221,493.1091],[8.2803,12.8338,449.5031],[8.2999,12.8347,452.0057],[8.3347,12.8256,462.0284],[8.3865,12.819,458.3634],[8.4281,12.8215,449.4771],[8.4522,12.8269,461.6244],[8.4749,12.8285,456.2141],[8.4948,12.8255,446.255],[8.5149,12.832,433.556],[8.5355,12.8313,431.5365],[8.5481,12.8213,443.6271],[8.5543,12.8119,436.8305],[8.5695,12.7616,422.6479],[8.5749,12.7496,417.8469],[8.5771,12.7377,416.5346],[8.5881,12.7228,413.884],[8.6312,12.6963,405.6492],[8.6509,12.6899,403.6798],[8.6632,12.6879,403.6726],[8.6711,12.6906,402.1139],[8.6854,12.701599999999999,401.1758],[8.7055,12.712,400.5247],[8.7094,12.7003,398.4494],[8.7151,12.6919,400.374],[8.7159,12.6873,400.8584],[8.7302,12.678,398.9939],[8.74,12.676,397.2397],[8.7719,12.6788,394.8704],[8.7994,12.6849,394.816],[8.835,12.698,390.7469],[8.8669,12.7125,388.6005],[8.8728,12.7186,388.0663],[8.8923,12.732,386.5065],[8.8957,12.7366,386.7558],[8.9184,12.7533,384.2888],[8.9207,12.7561,385.7987],[8.922,12.7658,383.2994],[8.9318,12.7818,382.3079],[8.9352,12.795,384.464],[8.9445,12.8069,381.8958],[8.9767,12.8208,382.4193],[8.977,12.8345,380.6964],[8.9698,12.8331,379.8015],[8.9565,12.8399,382.5636],[8.8824,12.8631,388.6379],[8.8707,12.8704,393.2527],[8.8606,12.8705,393.7053],[8.8303,12.8811,395.8984],[8.8245,12.8808,397.0858],[8.8096,12.8878,397.0905],[8.7879,12.8931,398.9771],[8.7812,12.8967,400.9263],[8.7726,12.8967,402.032],[8.7603,12.8992,403.4215],[8.7258,12.9126,405.667],[8.7149,12.9144,408.2957],[8.7098,12.9136,405.7139],[8.7036,12.9162,406.6673],[8.6964,12.9168,409.0464],[8.6485,12.9386,424.5938],[8.6448,12.9461,428.3892],[8.6446,12.9557,424.7876],[8.64,12.9612,427.4164],[8.6317,12.9771,428.5792],[8.6018,13.0105,448.4297],[8.5988,13.0116,449.1757],[8.5856,13.0242,467.2355],[8.5648,13.0383,471.922],[8.5311,13.0567,488.8857],[8.5159,13.0628,491.263],[8.4864,13.0697,476.4899],[8.4688,13.0689,469.5074],[8.4217,13.0552,482.964],[8.4156,13.0548,485.1438],[8.4007,13.0702,482.4811],[8.388,13.0807,479.6764],[8.3811,13.0838,485.6074],[8.3658,13.0977,475.4924],[8.3563,13.1144,466.2638],[8.3279,13.1328,459.3644],[8.3158,13.1465,439.5919],[8.3076,13.1611,458.793],[8.2938,13.1672,468.6893],[8.2874,13.1718,466.6938],[8.2559,13.2075,447.4166],[8.2117,13.219,464.4069],[8.1912,13.2326,461.469],[8.1645,13.2587,457.269],[8.1581,13.261,462.1431],[8.1454,13.2713,458.1416],[8.1067,13.2893,442.4483],[8.0676,13.3025,434.0848],[8.0464,13.3066,434.6532],[8.037,13.3064,448.8739],[8.0336,13.3088,450.2416],[8.0259,13.3093,447.5192],[8.0229,13.3111,444.0538],[7.9475,13.3236,433.4458],[7.8916,13.3301,463.0859],[7.8817,13.3296,459.8741],[7.8749,13.3325,457.4259],[7.8485,13.3337,437.7107],[7.8249,13.3396,411.1456],[7.8155,13.3386,411.279],[7.8042,13.3343,414.0395],[7.7805,13.3215,428.5883],[7.7529,13.303,425.0208],[7.749,13.3021,434.1264],[7.7484,13.2989,439.2601],[7.7462,13.2991,439.2757],[7.7196,13.2834,463.2271],[7.6533,13.2409,478.1153],[7.6505,13.2412,478.9315],[7.6496,13.2389,480.6057],[7.6443,13.2368,485.8584],[7.6318,13.2275,486.6149],[7.623,13.224,483.1596],[7.6216,13.2214,478.5503],[7.6188,13.2214,477.3087],[7.5846,13.2001,498.4414],[7.579,13.1982,495.4433],[7.5059,13.1558,468.1308],[7.5017,13.1517,469.4095],[7.4741,13.1382,475.9608],[7.4578,13.1267,467.8753],[7.4263,13.1105,459.8508],[7.4008,13.1017,464.2973],[7.3814,13.0988,443.4813],[7.3683,13.0987,447.7813],[7.3315,13.1011,431.7602],[7.2441,13.1109,396.7315],[7.2279,13.1109,398.8566],[7.2123,13.096,402.1216],[7.2119,13.0933,405.1524],[7.2089,13.0923,406.7691],[7.1987,13.0809,425.1317],[7.1931,13.0778,431.8728],[7.1793,13.0609,440.0542],[7.1516,13.0323,472.009],[7.1425,13.0261,481.9677],[7.064,13.0012,432.6015],[7.0503,12.9273,445.1922],[7.0455,12.8616,528.8433],[7.0407,12.8297,482.308],[7.0517,12.7728,493.3742],[7.0567,12.732,500.6731],[7.0574,12.6989,507.8085],[7.0605,12.6678,492.6012],[7.0556,12.6361,470.5795],[7.062,12.592,459.1505],[7.0718,12.554,438.467],[7.078,12.4785,453.579],[7.0818,12.4644,453.1966],[7.0993,12.4277,448.9479],[7.097,12.3927,431.9533],[7.0928,12.371,443.6034],[7.1275,12.3055,460.8936],[7.1356,12.2808,469.7883],[7.1387,12.2596,489.0591],[7.1443,12.2398,510.4957],[7.1422,12.2132,513.1689],[7.1576,12.1739,493.926],[7.1575,12.1541,491.9973],[7.1416,12.1026,499.8077],[7.1399,12.092,503.2846],[7.1321,12.0709,473.571],[7.1106,12.0342,470.138],[7.1309,12.015,497.7731],[7.1717,11.9965,504.9201],[7.1895,11.9799,512.0684],[7.215,11.96,498.964],[7.2337,11.9374,524.4182],[7.2419,11.9209,531.8834],[7.2418,11.9063,542.7894],[7.2296,11.8914,593.4237],[7.2113,11.8806,563.6404],[7.1966,11.8818,563.6737],[7.1719,11.8924,596.1331],[7.1574,11.8934,563.4999],[7.1486,11.8425,583.7366],[7.1409,11.8378,582.2316],[7.1386,11.8332,583.053],[7.1234,11.8256,608.333],[7.1181,11.8156,618.3449],[7.0696,11.7793,645.8607],[7.0629,11.7793,637.9061],[7.0491,11.7932,624.4205],[7.0031,11.7918,608.6437],[6.9604,11.7876,582.39],[6.9422,11.7911,564.2903],[6.9293,11.7873,561.6036],[6.918,11.7777,545.6491],[6.9134,11.7663,559.4664],[6.9075,11.7141,612.4599],[6.8823,11.6483,640.9213],[6.8833,11.6293,660.8187],[6.8765,11.6106,685.0584],[6.8751,11.5884,679.0477],[6.8775,11.5713,677.204],[6.8893,11.5574,655.3559],[6.9084,11.541,672.1054],[6.9145,11.502,638.2835],[6.9231,11.4822,610.1492],[6.9129,11.4341,617.0967],[6.9113,11.4105,598.4548],[6.9028,11.3851,586.6025],[6.904,11.3631,600.6691],[6.9025,11.3479,609.5679],[6.9159,11.3476,617.6977],[6.9404,11.3397,624.5342],[6.9737,11.3339,635.0823],[7.005,11.3367,666.2849],[7.027,11.3224,666.6555],[7.0398,11.2946,675.2176],[7.036,11.2775,662.0773],[7.0216,11.2693,667.5382],[6.9893,11.2347,651.2349],[6.983,11.2137,660.5687],[6.9966,11.2085,672.0643],[7.0261,11.2035,685.3705],[7.0857,11.1829,662.0884],[7.1175,11.1567,673.1949],[7.1303,11.1367,681.9829]]]]}
,"properties": {"GID_1": "NGA.21_1","GID_0": "NGA","country": "Nigeria","province": "Katsina","VARNAME_1": "NA","NL_NAME_1": "NA","TYPE_1": "State","ENGTYPE_1": "State","CC_1": "NA","HASC_1": "NG.KT","ISO_1": "NG-KT","name": "Katsina.province","area_km2": 23798.34,"hist_schema_id": "Elevation0-9000","hist_area_km2": {"375": 83.18,"400": 630.25,"425": 713.09,"450": 2060.24,"475": 3413.5,"500": 3568.06,"525": 3253.81,"550": 2281.66,"575": 1510.57,"600": 1500.87,"625": 1435.51,"650": 1279.53,"675": 1242.67,"700": 717.28,"725": 102.96,"750": 5.03}}}