{"type":"Feature","properties":{"ISO3166-1-Alpha-3":"NGA","country":"Nigeria","fill":"#000","id":"2870","name":"Katsina"},
"geometry":{"type": "Polygon","coordinates": [[[8.24673,13.21129,452.652],[8.24568,13.21178,452.8495],[8.21601,13.21961,463.0139],[8.20144,13.22638,472.8697],[8.16765,13.25237,460.2325],[8.14005,13.26911,457.115],[8.11659,13.29105,444.1271],[8.10512,13.29965,435.8992],[8.07752,13.31002,429.2],[7.824,13.34528,410.3446],[7.78968,13.34198,428.4806],[7.75558,13.32715,449.4848],[7.39198,13.11253,456.8577],[7.36067,13.10264,444.1912],[7.3248,13.10284,429.5028],[7.22052,13.12158,397.0176],[7.1982,13.11739,414.9889],[7.13742,13.04724,470.9239],[7.09009,13.00639,434.7987],[7.06869,12.99608,437.527],[7.06292,12.99514,435.794],[7.04632,12.89032,468.9102],[7.07795,12.47846,453.579],[7.09934,12.42761,448.9479],[7.09438,12.36775,443.1421],[7.12177,12.31486,463.9604],[7.13634,12.26465,487.5449],[7.14223,12.21318,513.1689],[7.15174,12.18424,490.835],[7.15753,12.15399,491.9973],[7.15091,12.12799,493.9436],[7.12911,12.06983,466.0155],[7.11298,12.03841,468.8778],[7.13272,12.01431,493.9631],[7.16704,11.99847,507.8356],[7.22202,11.95446,504.1266],[7.23318,11.89519,571.6578],[7.20342,11.88413,547.9491],[7.17179,11.89235,596.1331],[7.1537,11.87506,596.6018],[7.14854,11.84246,583.7366],[7.12476,11.81974,610.4516],[7.08239,11.78719,652.9813],[7.06627,11.77923,642.7318],[7.06058,11.78153,634.5308],[7.0518,11.79096,625.1522],[7.0457,11.79295,616.7676],[6.97139,11.79292,591.434],[6.91341,11.76628,559.4664],[6.87537,11.5872,679.0477],[6.90989,11.52576,655.3719],[6.90349,11.49245,630.7302],[6.90659,11.45729,600.7719],[6.89739,11.41083,604.5615],[6.88178,11.3661,570.42],[6.92746,11.34429,622.7986],[6.95206,11.3376,612.514],[7.00498,11.33667,666.2849],[7.02627,11.32117,664.2793],[7.03846,11.29745,672.8467],[7.03495,11.2789,658.0585],[7.01903,11.26665,668.9196],[6.99185,11.23766,655.0042],[6.99309,11.20978,676.0683],[7.06627,11.19027,678.7842],[7.1013,11.16999,657.7087],[7.15329,11.11627,730.39],[7.18647,11.11224,662.8418],[7.21923,11.1293,640.8488],[7.24383,11.15568,674.9711],[7.24259,11.18418,673.6886],[7.22543,11.20996,674.5118],[7.24217,11.26337,655.4414],[7.31865,11.26234,621.3504],[7.35431,11.25014,613.0532],[7.3818,11.26464,640.2076],[7.38697,11.30053,641.9144],[7.40402,11.33259,649.1268],[7.46676,11.36884,684.9129],[7.53952,11.35484,702.9336],[7.57807,11.33786,663.7272],[7.61228,11.31329,639.0225],[7.63202,11.28675,631.5],[7.66065,11.27458,630.4363],[7.74168,11.30717,665.3226],[7.7762,11.35915,679.7894],[7.70736,11.41669,670.8035],[7.69217,11.46726,642.3586],[7.69941,11.51594,607.8959],[7.71532,11.56395,572.7215],[7.74654,11.60079,563.8385],[7.79273,11.61219,552.9827],[7.84906,11.6403,530.0866],[7.89371,11.65079,522.8008],[7.88999,11.69027,531.0548],[7.8658,11.75241,536.5401],[7.85578,11.7653,541.5613],[7.85247,11.78057,548.5079],[7.85795,11.79889,547.0398],[7.85929,11.81796,563.1117],[7.85433,11.85031,558.8702],[7.83314,11.91436,576.6531],[7.83945,12.12311,552.0336],[7.82963,12.22106,540.2181],[7.84131,12.26607,521.2676],[7.9181,12.31796,556.9023],[8.0938,12.38266,545.0626],[8.13039,12.41648,528.8005],[8.16356,12.51272,482.515],[8.18734,12.55567,520.5903],[8.23302,12.5689,508.1784],[8.28283,12.56957,477.4336],[8.27053,12.59941,497.1199],[8.24935,12.62236,489.0651],[8.16966,12.62427,507.1279],[8.11716,12.65618,534.4427],[8.11499,12.72041,515.7391],[8.12326,12.7877,515.3921],[8.13731,12.81374,513.275],[8.24387,12.8296,454.2762],[8.3157,12.83108,454.6462],[8.38154,12.82312,455.1191],[8.53543,12.82986,431.5067],[8.55434,12.81185,436.8305],[8.57181,12.76051,420.8541],[8.5992,12.71524,410.9894],[8.62214,12.70072,408.4337],[8.64736,12.6908,403.675],[8.6702,12.69248,401.7179],[8.70152,12.70997,399.5494],[8.71371,12.69442,400.4309],[8.72818,12.68163,400.0762],[8.76807,12.67835,396.5901],[8.82203,12.69047,392.934],[8.86988,12.7155,388.0957],[8.91442,12.75044,383.7681],[8.92517,12.76708,383.6771],[8.93323,12.78664,384.8101],[8.94202,12.8003,382.2801],[8.95442,12.81134,380.7506],[8.97168,12.81868,379.8549],[8.97695,12.83441,380.6964],[8.97787,12.84318,379.4706],[8.94279,12.8472,383.1378],[8.67935,12.92358,408.8443],[8.64266,12.94435,428.3264],[8.6255,12.96479,432.3351],[8.59677,13.0114,450.0547],[8.57723,13.03244,461.7955],[8.53351,13.06463,484.1707],[8.50964,13.07592,484.0525],[8.48267,13.08155,472.9139],[8.47078,13.08166,469.0285],[8.44597,13.07871,456.744],[8.4345,13.07509,465.4237],[8.42313,13.06949,475.3365],[8.419,13.0667,478.4298],[8.41518,13.06706,480.8241],[8.40515,13.07086,486.7505],[8.39781,13.0754,473.9433],[8.29797,13.16462,468.3691],[8.27307,13.19387,451.7431],[8.25984,13.20522,456.2399],[8.24673,13.21129,452.652]]]}}