{"type":"Feature","properties":{"featurecla":"River","scalerank":7,"rivernum":506,"dissolve":"506River","name":"Sokoto","name_alt":null,"note":null,"min_zoom":6.0,"strokeweig":0.15,"name_en":"Sokoto","min_label":7.0},
"geometry":{"type": "LineString","coordinates": [[7.23046875,11.58588287968162,633.7661],[7.1533203125,11.600848699994117,617.6552],[7.12353515625,11.613397528119108,608.0321],[7.044921875,11.68146393436912,607.9657],[6.940673828125,11.752460028119117,554.2504],[6.89599609375,11.797479559369108,552.8736]]}}