{"type": "Feature","bbox": [4.0252,12.2307,4.6154,12.592],"geometry": {"type": "MultiPolygon","coordinates": [[[[4.5159,12.343,267.1638],[4.5444,12.3719,254.3164],[4.553,12.3771,245.317],[4.5901,12.3814,235.1407],[4.6022,12.386,231.8536],[4.6154,12.3995,246.4082],[4.6123,12.4177,248.5086],[4.6048,12.4315,233.1097],[4.5694,12.4535,225.6163],[4.5615,12.4656,236.1972],[4.5562,12.4891,249.1438],[4.55,12.4992,253.37],[4.5245,12.5144,248.4448],[4.5039,12.5241,243.6336],[4.4797,12.5192,241.7681],[4.4393,12.5007,233.3925],[4.4255,12.4964,232.8583],[4.3811,12.4901,232.8136],[4.3631,12.4925,238.4573],[4.3273,12.4918,240.9983],[4.305,12.4962,238.111],[4.292,12.4919,228.0549],[4.2741,12.4961,226.966],[4.2634,12.4944,199.3711],[4.2534,12.5035,198.9137],[4.2478,12.5168,198.9694],[4.2481,12.5263,198.7311],[4.2444,12.5406,199.1864],[4.2307,12.5663,200.3624],[4.2063,12.587,210.2942],[4.1818,12.592,213.7495],[4.17,12.5725,213.8942],[4.1613,12.544,200.7349],[4.1501,12.5386,200.2577],[4.1333,12.5227,197.4622],[4.1212,12.5158,197.2556],[4.1147,12.5162,196.1265],[4.1091,12.5115,195.6062],[4.0975,12.4936,193.7127],[4.0864,12.4829,192.6518],[4.056,12.4634,191.7266],[4.0473,12.4556,191.3384],[4.0252,12.4305,190.7072],[4.0611,12.3907,280.7143],[4.0669,12.3806,237.3713],[4.0793,12.365,237.5581],[4.0863,12.3487,239.9555],[4.1036,12.3387,227.9208],[4.1497,12.3208,214.514],[4.1708,12.3164,205.9521],[4.1861,12.3152,194.4346],[4.2031,12.3193,190.1624],[4.2203,12.3147,195.1518],[4.2333,12.3044,201.0107],[4.2464,12.2896,214.2208],[4.2572,12.2705,199.2346],[4.2719,12.2594,225.0881],[4.3031,12.2403,190.3557],[4.3081,12.2307,189.9458],[4.3306,12.2418,194.325],[4.3672,12.2542,230.1942],[4.3759,12.267,224.2846],[4.3852,12.2981,240.4289],[4.3905,12.3083,245.4081],[4.3962,12.3146,245.9867],[4.3989,12.3215,246.3101],[4.4144,12.3374,259.2538],[4.4457,12.3569,253.9788],[4.4671,12.3643,244.3654],[4.4853,12.3646,253.2648],[4.5103,12.3542,260.3044],[4.5159,12.343,267.1638]]]]}
,"properties": {"GID_2": "NGA.22.6_1","GID_0": "NGA","country": "Nigeria","GID_1": "NGA.22_1","province": "Kebbi","NL_NAME_1": "NA","county": "BirninKebbi","VARNAME_2": "NA","NL_NAME_2": "NA","TYPE_2": "LocalAuthority","ENGTYPE_2": "LocalAuthority","CC_2": "NA","HASC_2": "NA","name": "Birnin_Kebbi.county","area_km2": 1254.1128,"hist_schema_id": "Elevation0-9000","hist_area_km2": {"175": 1.5744,"200": 331.993,"225": 641.5452,"250": 272.6019,"275": 6.3983}}}