{"type":"Feature","properties":{"GID_2":"NGA.23.18_1","GID_0":"NGA","country":"Nigeria","GID_1":"NGA.23_1","province":"Kogi","NL_NAME_1":"NA","county":"Olamaboro","VARNAME_2":"NA","NL_NAME_2":"NA","TYPE_2":"LocalAuthority","ENGTYPE_2":"LocalAuthority","CC_2":"NA","HASC_2":"NA","name":"Olamaboro.county"},
"geometry":{"type": "MultiPolygon","coordinates": [[[[7.6878,7.1157,351.0615],[7.7361,7.1383,252.3935],[7.7568,7.1497,211.7869],[7.7855,7.1711,178.6797],[7.8102,7.1998,167.5416],[7.8208,7.2248,206.1658],[7.8355,7.2753,190.2644],[7.8146,7.2871,181.7197],[7.7898,7.2935,200.1228],[7.7686,7.2939,199.3217],[7.7405,7.2849,266.8452],[7.7244,7.2827,303.3739],[7.6883,7.2946,382.4612],[7.6568,7.2958,378.9053],[7.6397,7.3106,323.4971],[7.607,7.3148,249.4671],[7.5876,7.3115,257.0435],[7.5646,7.2914,250.0482],[7.5509,7.2833,261.0028],[7.5288,7.286,219.8262],[7.4707,7.2881,196.2267],[7.4508,7.2873,226.755],[7.3877,7.2775,281.218],[7.371,7.2684,252.5274],[7.3575,7.2649,225.2191],[7.3409,7.2352,199.2482],[7.3388,7.2076,232.2413],[7.3327,7.1974,283.9762],[7.3127,7.1777,167.978],[7.3025,7.1709,228.8466],[7.2983,7.1562,225.1746],[7.2791,7.1238,125.55],[7.2805,7.1112,209.03],[7.284,7.1012,157.4874],[7.2922,7.0939,134.5508],[7.3074,7.0895,146.0573],[7.3446,7.0826,201.5909],[7.3566,7.0748,293.5482],[7.3777,7.0937,209.7383],[7.3829,7.1005,272.9842],[7.4075,7.107,265.3544],[7.4364,7.1127,275.9545],[7.4451,7.1073,302.6169],[7.4511,7.1072,319.4937],[7.4688,7.099,377.0651],[7.4757,7.1005,391.0205],[7.4948,7.0788,374.1479],[7.4937,7.0745,359.9587],[7.4977,7.0757,371.0652],[7.4989,7.082,379.5131],[7.5004,7.0826,388.0552],[7.5138,7.0731,384.1717],[7.5365,7.0494,399.4534],[7.555,7.0357,421.136],[7.5684,7.02,416.8214],[7.5816,7.0217,402.9377],[7.6035,7.0047,379.8473],[7.6319,7.0047,317.1117],[7.6392,7.0424,411.9828],[7.6374,7.0761,421.7095],[7.6528,7.0994,431.1131],[7.6878,7.1157,351.0615]]]]}}