{"type":"Feature","properties":{"GID_2":"NGA.20.43_1","GID_0":"NGA","country":"Nigeria","GID_1":"NGA.20_1","province":"Kano","NL_NAME_1":"NA","county":"Warawa","VARNAME_2":"NA","NL_NAME_2":"NA","TYPE_2":"LocalAuthority","ENGTYPE_2":"LocalAuthority","CC_2":"NA","HASC_2":"NA","name":"Warawa.county"},
"geometry":{"type": "MultiPolygon","coordinates": [[[[8.8297,11.9623,409.6895],[8.8129,11.9666,418.0107],[8.7921,11.9662,429.796],[8.783,11.9638,437.6435],[8.7731,11.9584,429.1223],[8.7642,11.9532,419.5916],[8.7588,11.9467,418.1152],[8.7509,11.9432,419.9146],[8.7353,11.9456,431.5199],[8.7238,11.9538,437.181],[8.7202,11.9623,428.1971],[8.7055,11.9725,438.7056],[8.6951,11.9769,446.1258],[8.6795,11.9775,450.8142],[8.6449,11.9657,470.847],[8.6365,11.9601,475.4636],[8.6337,11.9545,481.0805],[8.6202,11.951,490.4403],[8.5945,11.9587,483.7896],[8.5859,11.9623,486.9805],[8.5814,11.9665,487.5997],[8.5715,11.9662,485.5899],[8.5619,11.961,475.386],[8.5604,11.9548,473.2868],[8.5664,11.9476,478.8619],[8.592,11.93,472.2391],[8.5987,11.9198,478.4308],[8.6213,11.9045,480.8323],[8.6358,11.8901,466.8099],[8.6623,11.8733,460.4465],[8.6721,11.8687,454.394],[8.6868,11.8529,451.6212],[8.7045,11.8277,462.4898],[8.7168,11.8174,445.2943],[8.7439,11.8064,425.6362],[8.7721,11.8013,419.9532],[8.7969,11.7929,412.774],[8.8028,11.8099,419.0355],[8.8082,11.8344,415.3284],[8.8248,11.8464,414.921],[8.8329,11.8601,411.5116],[8.8331,11.8693,411.2448],[8.8311,11.879,411.1022],[8.8338,11.9134,404.9505],[8.8329,11.9326,402.5981],[8.8355,11.9608,407.0304],[8.8297,11.9623,409.6895]]]]}}