{"type": "Feature","bbox": [6.1317,4.8271,6.62,5.3932],"geometry": {"type": "MultiPolygon","coordinates": [[[[6.1347,4.9327,18.5055],[6.1365,4.9291,18.4814],[6.1317,4.9158,15.3307],[6.1327,4.9082,7.3085],[6.1534,4.8899,12.0605],[6.1731,4.8806,12.2081],[6.1908,4.8752,11.5619],[6.2039,4.8602,15.4701],[6.2039,4.8552,15.0376],[6.2077,4.8487,12.1248],[6.2067,4.8436,11.7436],[6.2166,4.8271,13.9113],[6.2395,4.8361,19.1852],[6.2552,4.8368,13.0827],[6.2606,4.8411,16.0697],[6.2631,4.8539,0.0],[6.2792,4.8776,6.6865],[6.2906,4.885,6.2897],[6.308,4.8921,5.5096],[6.3231,4.8948,13.2814],[6.3319,4.9,14.55],[6.3573,4.9263,10.6432],[6.3791,4.9361,21.7973],[6.3958,4.9547,19.2293],[6.4128,4.9682,19.7171],[6.4307,4.9753,11.6731],[6.4222,4.9778,17.7753],[6.4099,4.9734,17.9097],[6.4007,4.978,20.2997],[6.3963,4.9861,18.5936],[6.396,4.9983,13.5063],[6.4067,5.0309,10.2698],[6.4177,5.058,20.5972],[6.4715,5.1551,19.9607],[6.4882,5.1776,15.9542],[6.4902,5.185,20.9367],[6.502,5.1859,18.7174],[6.5349,5.1821,20.015],[6.5438,5.1903,17.7391],[6.5495,5.2006,18.6358],[6.5546,5.2164,11.9977],[6.556,5.2307,21.2655],[6.5649,5.2359,12.8263],[6.5767,5.24,4.0097],[6.5809,5.2434,14.9816],[6.5813,5.2487,22.2875],[6.576,5.2553,24.5686],[6.5746,5.2624,18.9222],[6.5773,5.2728,20.5354],[6.6027,5.2901,18.2302],[6.6126,5.3019,15.4212],[6.6181,5.3141,20.5397],[6.62,5.3293,25.4695],[6.6177,5.3455,21.3922],[6.6109,5.3543,21.74],[6.6075,5.3703,12.5237],[6.5951,5.3798,23.4875],[6.5642,5.3932,22.1941],[6.5311,5.3913,24.4316],[6.5338,5.3729,22.8623],[6.5377,5.3693,22.7743],[6.5442,5.3575,22.1156],[6.5451,5.3436,23.6133],[6.5427,5.3363,21.3138],[6.5321,5.3245,21.5013],[6.5221,5.3044,16.4489],[6.5008,5.2702,17.5944],[6.4956,5.2636,20.0908],[6.4797,5.2519,17.7872],[6.475,5.2467,16.9009],[6.4664,5.2433,17.7153],[6.4554,5.2341,14.7705],[6.4414,5.2196,15.9038],[6.4295,5.2163,21.2863],[6.3954,5.2012,17.9715],[6.3848,5.1995,16.1614],[6.3985,5.1809,18.3611],[6.4056,5.1757,18.8725],[6.4088,5.16,17.2733],[6.4048,5.1402,13.605],[6.3969,5.1236,13.6174],[6.3908,5.1151,8.5934],[6.3651,5.0953,10.8079],[6.3555,5.0897,12.7212],[6.3404,5.0828,18.3664],[6.3298,5.0816,20.8147],[6.3133,5.0747,17.8858],[6.3101,5.0619,19.8039],[6.3079,5.0419,22.7959],[6.3048,5.035,4.4684],[6.2967,5.0329,11.4222],[6.2801,5.0493,19.7897],[6.2716,5.0487,19.9707],[6.2656,5.0341,14.5428],[6.2645,5.0269,24.2874],[6.261,5.0233,12.2168],[6.2538,5.0214,3.5],[6.2517,5.0168,20.386],[6.2689,5.013,7.7538],[6.2693,5.0061,10.5591],[6.2454,4.9706,20.9092],[6.2419,4.9681,20.4743],[6.2366,4.97,16.2629],[6.2329,4.9687,17.7341],[6.2286,4.9603,19.43],[6.2112,4.955,16.6544],[6.1909,4.9393,14.7831],[6.1876,4.9338,13.7169],[6.1794,4.9277,13.3428],[6.1699,4.9235,17.7813],[6.1584,4.9232,11.6169],[6.1394,4.9325,20.5688],[6.1347,4.9327,18.5055]]]]}
,"properties": {"GID_2": "NGA.6.8_1","GID_0": "NGA","country": "Nigeria","GID_1": "NGA.6_1","province": "Bayelsa","NL_NAME_1": "NA","county": "Yenagoa","VARNAME_2": "NA","NL_NAME_2": "NA","TYPE_2": "LocalAuthority","ENGTYPE_2": "LocalAuthority","CC_2": "NA","HASC_2": "NA","name": "Yenagoa.county","area_km2": 747.4584,"hist_schema_id": "Elevation0-9000","hist_area_km2": {"0": 205.1825,"25": 542.2758}}}