{"type": "Feature","bbox": [10.8177,6.5,11.7171,7.3965],"geometry": {"type": "MultiPolygon","coordinates": [[[[11.4003,6.5295,1705.0178],[11.4239,6.5302,1626.071],[11.4267,6.5331,1668.7688],[11.4213,6.5363,1651.1187],[11.4194,6.5417,1648.8398],[11.4321,6.5449,1654.5149],[11.4325,6.5546,1711.0176],[11.4298,6.5581,1695.0408],[11.4267,6.582,1664.8455],[11.4174,6.5887,1644.2144],[11.4189,6.5972,1655.9917],[11.4251,6.5967,1582.4902],[11.4271,6.5985,1608.2262],[11.4428,6.6026,1600.88],[11.4483,6.6007,1598.0565],[11.464,6.6113,1595.5164],[11.4731,6.6037,1623.4698],[11.4796,6.6031,1622.8505],[11.4843,6.5992,1596.3875],[11.4966,6.6007,1595.9242],[11.5087,6.6093,1575.2777],[11.5123,6.6163,1588.9507],[11.5192,6.6163,1584.7902],[11.522,6.619,1551.1267],[11.5199,6.6289,1579.6313],[11.5243,6.6335,1643.682],[11.5258,6.645,1724.6271],[11.5333,6.646,1722.3135],[11.5373,6.6493,1720.7578],[11.5337,6.6541,1635.0577],[11.5394,6.6597,1728.879],[11.5544,6.6647,1700.0072],[11.5556,6.6705,1537.9036],[11.5486,6.6772,1577.965],[11.5539,6.684,1586.5864],[11.5486,6.6942,1606.6283],[11.5488,6.7008,1578.5856],[11.5516,6.7082,1578.074],[11.5503,6.7113,1577.7632],[11.5515,6.7158,1544.5862],[11.5563,6.722,1545.0789],[11.56,6.7241,1529.2766],[11.576,6.7249,1524.3414],[11.5738,6.7294,1576.4299],[11.5838,6.7333,1590.2476],[11.5858,6.7406,1624.9799],[11.5846,6.7475,1459.6982],[11.5812,6.7546,1652.5128],[11.5763,6.7597,1718.47],[11.5773,6.7657,1684.8123],[11.5707,6.7723,1792.1256],[11.5716,6.7851,1814.9517],[11.5741,6.7894,1810.058],[11.5817,6.7949,1788.9471],[11.5875,6.7983,1662.311],[11.5949,6.7982,1637.0139],[11.5973,6.8018,1692.495],[11.5925,6.8043,1689.4758],[11.5934,6.8092,1651.0481],[11.5913,6.8143,1664.5969],[11.5876,6.8164,1658.9689],[11.5794,6.8175,1655.3611],[11.5816,6.831,1630.5822],[11.5809,6.8395,1595.4417],[11.5731,6.8437,1565.4841],[11.5682,6.8499,1562.1267],[11.5547,6.8513,1573.5476],[11.5531,6.8576,1555.9824],[11.5545,6.8641,1574.4631],[11.5652,6.8774,1578.2913],[11.563,6.8851,1591.5129],[11.5709,6.8938,1607.9574],[11.5738,6.8995,1608.4606],[11.5773,6.9011,1645.1821],[11.5833,6.9088,1739.9951],[11.5924,6.9071,1699.5901],[11.5932,6.9097,1670.5286],[11.6011,6.9075,1684.5879],[11.6066,6.9112,1641.9248],[11.609,6.9211,1627.016],[11.6058,6.9265,1731.9414],[11.6066,6.935,1735.5148],[11.6102,6.9391,1714.0337],[11.6103,6.9421,1734.3438],[11.6161,6.9434,1755.0083],[11.6231,6.9504,1785.5217],[11.6249,6.9691,1660.1808],[11.6192,6.9761,1565.6166],[11.6247,6.9787,1525.522],[11.6366,6.9885,1467.7578],[11.6525,6.99,1488.6544],[11.6582,6.9874,1468.7208],[11.6604,6.9886,1433.2542],[11.6562,6.9965,1440.8694],[11.6597,6.9989,1456.7756],[11.6692,6.9985,1490.8712],[11.6779,7.0065,1631.7908],[11.6791,7.0131,1840.9774],[11.6857,7.0213,1932.6375],[11.7032,7.0285,1941.5835],[11.7171,7.0316,2402.5891],[11.7155,7.0347,2403.1414],[11.7155,7.0326,2403.8611],[11.6918,7.0561,1610.8798],[11.6788,7.0718,1351.7117],[11.6773,7.0813,1060.9644],[11.6695,7.0958,923.4608],[11.6612,7.0986,864.6852],[11.6504,7.1064,739.4258],[11.6456,7.106,871.0386],[11.6255,7.1142,742.3079],[11.6044,7.1184,695.4865],[11.5982,7.1158,811.8245],[11.5684,7.1123,942.9855],[11.5383,7.1006,862.64],[11.5289,7.0989,848.0693],[11.4772,7.0822,928.4374],[11.4499,7.0784,746.6716],[11.4239,7.0717,691.4827],[11.4131,7.0634,593.0549],[11.3697,7.0758,454.275],[11.349,7.0897,445.4163],[11.3422,7.1024,446.307],[11.327,7.1164,453.8954],[11.3074,7.1434,459.5004],[11.2947,7.1576,430.4841],[11.2731,7.1625,421.3076],[11.2634,7.1796,429.6895],[11.2569,7.1863,417.342],[11.2369,7.1977,400.6758],[11.2311,7.2036,415.3046],[11.2159,7.2093,431.834],[11.201,7.2451,410.8627],[11.204,7.2595,418.4027],[11.2071,7.2901,451.5751],[11.2126,7.3153,408.9418],[11.2097,7.3254,386.066],[11.2096,7.3337,385.7133],[11.2018,7.3524,426.9708],[11.2009,7.3721,414.0612],[11.198,7.3837,414.2101],[11.1952,7.3883,407.0334],[11.1865,7.3931,428.7687],[11.1789,7.3945,428.7333],[11.1566,7.3965,424.7645],[11.1509,7.3942,451.1951],[11.1399,7.3939,556.4556],[11.1342,7.3906,764.2131],[11.1062,7.3662,964.8202],[11.0797,7.3552,896.3076],[11.0629,7.3454,926.6699],[11.0511,7.3541,896.8196],[11.0583,7.3377,938.4732],[11.0578,7.3184,1073.7847],[11.0635,7.3032,1189.4459],[11.0719,7.2877,1236.1354],[11.0672,7.2689,1090.2756],[11.065,7.229,1093.6082],[11.0624,7.2104,1171.1172],[11.0563,7.1937,1355.4792],[11.0556,7.1768,1601.963],[11.0473,7.1491,1790.739],[11.0389,7.1319,1650.9202],[11.0317,7.1112,1632.9674],[11.0163,7.0969,1152.2504],[11.0085,7.0824,1091.3538],[10.9569,7.0316,743.4613],[10.9331,7.0116,632.8602],[10.9234,6.9981,450.0592],[10.8832,6.9569,309.714],[10.8658,6.9418,270.381],[10.8449,6.9327,274.6333],[10.8417,6.9367,267.0502],[10.8446,6.9306,273.6688],[10.8433,6.9207,323.2964],[10.8279,6.8855,269.7543],[10.824,6.8712,270.4164],[10.826,6.8657,267.0264],[10.8197,6.8589,279.8977],[10.8177,6.8531,264.4337],[10.8229,6.8495,279.135],[10.8201,6.8438,275.0641],[10.8263,6.8329,277.8892],[10.8263,6.8286,268.1712],[10.8405,6.8118,264.528],[10.8492,6.8094,270.6701],[10.8507,6.8055,267.7904],[10.8524,6.8052,275.8739],[10.8556,6.811,271.334],[10.8635,6.8077,291.9135],[10.8674,6.8028,312.3174],[10.8744,6.7998,366.4078],[10.8759,6.7967,339.3253],[10.8804,6.7955,530.3485],[10.8894,6.7749,403.6499],[10.8983,6.7625,380.6786],[10.9007,6.7724,393.3372],[10.9042,6.7734,396.5377],[10.913,6.7656,452.4097],[10.9171,6.7552,551.2537],[10.9151,6.7295,614.1074],[10.9192,6.7085,613.0923],[10.9277,6.7037,623.8359],[10.9447,6.6895,630.2712],[10.9471,6.6883,613.381],[10.9481,6.6947,627.9934],[10.9707,6.6874,624.7625],[10.9788,6.6911,659.7837],[10.9833,6.6876,625.6399],[10.9943,6.687,663.7556],[11.0165,6.7035,685.05],[11.0231,6.7125,716.3694],[11.0323,6.716,707.509],[11.0402,6.7117,785.183],[11.0465,6.7122,879.5128],[11.0519,6.7094,906.1801],[11.0544,6.7097,920.6357],[11.0574,6.7159,868.7096],[11.0599,6.7162,915.6982],[11.0686,6.7109,967.7409],[11.078,6.7014,1018.1227],[11.0825,6.6941,1023.3617],[11.0966,6.6821,1001.1929],[11.1001,6.673,1011.9193],[11.096,6.6566,1030.7827],[11.0939,6.6119,1066.767],[11.097,6.6008,1082.6602],[11.0962,6.5938,1067.3325],[11.0979,6.5915,1061.2422],[11.0959,6.5765,1074.7509],[11.098,6.5398,1080.65],[11.0969,6.5275,1184.3406],[11.0991,6.5216,1087.2871],[11.1098,6.5189,1197.0028],[11.1137,6.5164,1180.0226],[11.1186,6.5177,1151.1902],[11.1285,6.5276,1217.8899],[11.1355,6.5295,1222.7444],[11.1424,6.5341,1294.6664],[11.1449,6.5338,1280.5114],[11.1475,6.5297,1315.791],[11.1601,6.5301,1309.0775],[11.1708,6.5241,1403.0032],[11.1843,6.5247,1429.162],[11.1881,6.5284,1529.6736],[11.1946,6.5294,1599.9895],[11.1917,6.5386,1633.8403],[11.208,6.5344,1632.9701],[11.2179,6.5396,1666.0542],[11.225,6.5389,1705.2522],[11.2356,6.5332,1702.4829],[11.241,6.5237,1567.8757],[11.2457,6.5232,1544.3397],[11.2523,6.5278,1537.1569],[11.2566,6.5275,1549.9012],[11.2668,6.537,1557.9055],[11.2802,6.5386,1523.3239],[11.2874,6.532,1544.2812],[11.2946,6.5305,1644.6438],[11.3088,6.5205,1628.1277],[11.3118,6.5169,1663.0148],[11.3117,6.5131,1652.5332],[11.3156,6.5088,1663.0325],[11.3225,6.5081,1648.8059],[11.329,6.5051,1642.0018],[11.3376,6.5079,1635.4006],[11.3418,6.5034,1627.5504],[11.3509,6.5,1646.9301],[11.354,6.5012,1611.7681],[11.3572,6.5052,1612.5305],[11.3567,6.5078,1607.5273],[11.3514,6.5125,1587.2018],[11.3508,6.515,1591.5769],[11.3565,6.5257,1605.2848],[11.3657,6.5277,1674.4392],[11.3798,6.5206,1613.5894],[11.3865,6.5278,1671.1123],[11.391,6.5271,1714.9486],[11.3957,6.5299,1764.7809],[11.4003,6.5295,1705.0178]]]]}
,"properties": {"GID_2": "NGA.35.11_1","GID_0": "NGA","country": "Nigeria","GID_1": "NGA.35_1","province": "Taraba","NL_NAME_1": "NA","county": "Sardauna","VARNAME_2": "NA","NL_NAME_2": "NA","TYPE_2": "LocalAuthority","ENGTYPE_2": "LocalAuthority","CC_2": "NA","HASC_2": "NA","name": "Sardauna.county","area_km2": 4942.413,"hist_schema_id": "Elevation0-9000","hist_area_km2": {"250": 0.21,"275": 22.081,"300": 14.966,"325": 9.745,"350": 8.083,"375": 7.619,"400": 23.204,"425": 73.619,"450": 103.071,"475": 90.371,"500": 60.589,"525": 41.975,"550": 31.435,"575": 27.901,"600": 24.619,"625": 25.927,"650": 26.328,"675": 26.56,"700": 25.929,"725": 21.866,"750": 23.212,"775": 22.202,"800": 23.464,"825": 37.919,"850": 53.132,"875": 52.206,"900": 45.242,"925": 38.487,"950": 37.183,"975": 34.91,"1000": 35.311,"1025": 38.889,"1050": 39.711,"1075": 41.564,"1100": 44.091,"1125": 48.386,"1150": 50.198,"1175": 50.113,"1200": 52.156,"1225": 61.317,"1250": 80.057,"1275": 112.761,"1300": 121.265,"1325": 118.336,"1350": 113.639,"1375": 122.628,"1400": 126.503,"1425": 141.766,"1450": 181.83,"1475": 241.112,"1500": 297.591,"1525": 342.048,"1550": 364.714,"1575": 305.935,"1600": 196.834,"1625": 145.493,"1650": 120.898,"1675": 93.588,"1700": 72.825,"1725": 61.834,"1750": 41.292,"1775": 18.164,"1800": 11.849,"1825": 6.987,"1850": 2.631,"1875": 1.326,"1900": 0.589,"1925": 0.442,"1950": 0.231,"1975": 0.105,"2000": 0.084,"2025": 0.063,"2050": 0.042,"2075": 0.084,"2100": 0.063,"2125": 0.063,"2150": 0.126,"2175": 0.126,"2200": 0.147,"2225": 0.084,"2250": 0.147,"2275": 0.063,"2300": 0.063,"2325": 0.063,"2375": 0.042,"2400": 0.063}}}