{"type":"Feature","properties":{"GID_2":"NGA.3.7_1","GID_0":"NGA","country":"Nigeria","GID_1":"NGA.3_1","province":"AkwaIbom","NL_NAME_1":"NA","county":"Etinan","VARNAME_2":"NA","NL_NAME_2":"NA","TYPE_2":"LocalAuthority","ENGTYPE_2":"LocalAuthority","CC_2":"NA","HASC_2":"NA","name":"Etinan.county"},
"geometry":{"type": "MultiPolygon","coordinates": [[[[7.8078,4.7009,34.1265],[7.8118,4.7005,38.2531],[7.8128,4.6952,36.0524],[7.821,4.7015,31.4896],[7.8289,4.7048,28.202],[7.8262,4.6973,30.0605],[7.8316,4.7013,29.525],[7.8327,4.6955,26.9535],[7.839,4.6984,24.5958],[7.843,4.6938,24.2407],[7.8713,4.7009,36.5383],[7.8789,4.7068,27.3953],[7.8705,4.7352,16.3013],[7.8706,4.7437,38.9325],[7.8732,4.7483,29.4406],[7.874,4.755,18.0701],[7.8737,4.7644,15.9482],[7.8727,4.776,12.711],[7.8685,4.7878,26.6722],[7.866,4.8017,16.3781],[7.865,4.8259,36.67],[7.8625,4.8416,43.2479],[7.8639,4.8685,19.0684],[7.861,4.878,39.8059],[7.8542,4.8837,49.7994],[7.847,4.8992,48.4118],[7.8472,4.9071,48.14],[7.8429,4.9156,53.6475],[7.8432,4.9209,49.837],[7.8404,4.9307,47.2517],[7.8419,4.9355,50.5794],[7.8359,4.9653,58.4389],[7.8312,4.9626,55.1576],[7.8272,4.9569,59.9354],[7.8232,4.9211,39.6968],[7.8233,4.9031,40.6841],[7.8191,4.8852,44.5185],[7.8158,4.8786,31.8047],[7.8083,4.8772,22.583],[7.8058,4.8732,16.3856],[7.7986,4.8685,27.0246],[7.7963,4.8581,43.2174],[7.7999,4.8509,46.4024],[7.8024,4.8507,47.623],[7.8062,4.84,45.449],[7.8063,4.8193,40.485],[7.8026,4.802,39.7129],[7.7958,4.7985,40.9728],[7.7913,4.793,38.6324],[7.7882999999999996,4.7765,43.613],[7.7935,4.7665,30.3408],[7.7969,4.751,41.8985],[7.7989,4.7486,36.4563],[7.8002,4.7385,31.0484],[7.8085,4.7291,29.5695],[7.8074,4.7169,31.7652],[7.8117,4.7093,42.4596],[7.8078,4.7009,34.1265]]]]}}