{"type":"Feature","properties":{"GID_2":"NGA.28.11_1","GID_0":"NGA","country":"Nigeria","GID_1":"NGA.28_1","province":"Ogun","NL_NAME_1":"NA","county":"Ijebu-Ode","VARNAME_2":"NA","NL_NAME_2":"NA","TYPE_2":"LocalAuthority","ENGTYPE_2":"LocalAuthority","CC_2":"NA","HASC_2":"NA","name":"Ijebu-Ode.county"},
"geometry":{"type": "MultiPolygon","coordinates": [[[[4.0628,6.6855,13.5659],[4.063,6.6871,12.3546],[4.0585,6.6918,13.1459],[4.0482,6.6975,15.2154],[4.0443,6.7183,32.5462],[4.0399,6.728,33.0436],[4.0286,6.7317,30.1755],[4.0019,6.7321,32.8382],[3.9856,6.7365,30.8856],[4.0015,6.7485,36.62],[4.0034,6.7515,45.2155],[4.0032,6.7577,51.1853],[4.0056,6.7611,39.888],[4.0034,6.7653,43.7714],[3.9763,6.7618,19.4524],[3.965,6.7625,33.5224],[3.9581,6.7654,24.5712],[3.9547,6.7691,41.5486],[3.9532,6.7735,57.0272],[3.9558,6.7919,47.9968],[3.9589,6.7976,57.632],[3.9771,6.8125,83.9684],[3.9828,6.8193,95.9659],[3.9859,6.8271,103.698],[3.9823,6.8348,110.4684],[3.9651,6.8401,112.0091],[3.9521,6.8473,112.8903],[3.9432,6.8525,107.4316],[3.933,6.863,80.8983],[3.9335,6.8672,57.7121],[3.929,6.8748,63.4101],[3.928,6.8822,45.075],[3.9283,6.8877,45.2267],[3.9303,6.8916,57.4463],[3.9053,6.8923,48.4996],[3.907,6.8856,45.9478],[3.9015,6.8559,105.0048],[3.8937,6.8432,89.1026],[3.876,6.8239,20.1893],[3.8739,6.817,61.5362],[3.8742,6.8099,57.685],[3.8794,6.8008,51.3627],[3.8894,6.8075,58.8877],[3.9,6.809,60.9711],[3.9214,6.8042,39.0654],[3.9267,6.8009,29.6704],[3.9355,6.775,40.795],[3.933,6.751,29.4686],[3.9281,6.7341,10.4821],[3.9221,6.721,9.0004],[3.9144,6.711,22.2903],[3.9032,6.6871,10.9646],[4.0628,6.6855,13.5659]]]]}}