{"type": "Feature","bbox": [3.3417,7.4005,3.6834,7.7925],"geometry": {"type": "MultiPolygon","coordinates": [[[[3.515,7.4096,103.448],[3.515,7.4185,106.2129],[3.5188,7.4263,94.5772],[3.5242,7.4333,113.0874],[3.5347,7.4407,100.2456],[3.5425,7.4542,90.4559],[3.5653,7.4787,134.6025],[3.5719,7.489,124.5092],[3.5744,7.4967,117.9493],[3.5709,7.5097,128.6295],[3.5636,7.5174,113.8582],[3.5769,7.5391,116.7994],[3.5741,7.5534,141.7015],[3.5668,7.5738,124.4114],[3.563,7.6073,138.0457],[3.5639,7.6216,146.0873],[3.5701,7.6335,151.876],[3.5941,7.6476,176.6198],[3.6189,7.6695,164.4429],[3.6286,7.6705,162.1147],[3.6375,7.6911,152.1247],[3.6466,7.7015,160.7486],[3.6566,7.7037,169.5618],[3.6604,7.7114,187.2475],[3.6693,7.7214,178.1795],[3.6722,7.7278,164.7844],[3.6834,7.7384,190.5354],[3.5858,7.7781,195.4165],[3.5707,7.7855,195.1899],[3.5648,7.7905,189.8299],[3.5526,7.7925,215.8753],[3.5465,7.7852,214.684],[3.5473,7.75,211.767],[3.5435,7.7406,186.0431],[3.5279,7.7346,198.5811],[3.5145,7.7339,214.2473],[3.4982,7.7358,194.4189],[3.4793,7.741,171.7228],[3.4657,7.7419,169.6579],[3.4504,7.7362,152.5357],[3.4355,7.7387,150.2563],[3.4278,7.7354,145.2193],[3.4247,7.7285,151.6397],[3.4191,7.7095,133.1996],[3.4231,7.7012,155.9239],[3.4183,7.6904,144.6202],[3.4025,7.6798,134.6554],[3.3417,7.6604,179.5605],[3.3472,7.6566,173.6079],[3.3561,7.6352,183.5844],[3.3521,7.6183,183.223],[3.3523,7.6033,161.2588],[3.3509,7.5992,155.2327],[3.353,7.5747,124.077],[3.3578,7.5566,114.4621],[3.3484,7.5162,134.7379],[3.3525,7.4991,116.804],[3.3606,7.4898,114.5348],[3.3688,7.4832,124.3437],[3.3739,7.4739,100.4849],[3.3869,7.487,95.9343],[3.3957,7.4933,135.396],[3.4172,7.4952,133.2815],[3.4253,7.4942,119.4428],[3.4377,7.4886,126.4675],[3.4451,7.4765,151.6404],[3.4522,7.4605,109.8119],[3.4581,7.4389,111.5218],[3.4659,7.4187,84.9586],[3.4786,7.4051,85.9726],[3.4917,7.4005,79.7732],[3.5081,7.4046,82.5402],[3.515,7.4096,103.448]]]]}
,"properties": {"GID_2": "NGA.31.12_1","GID_0": "NGA","country": "Nigeria","GID_1": "NGA.31_1","province": "Oyo","NL_NAME_1": "NA","county": "IbarapaEast","VARNAME_2": "NA","NL_NAME_2": "NA","TYPE_2": "LocalAuthority","ENGTYPE_2": "LocalAuthority","CC_2": "NA","HASC_2": "NA","name": "Ibarapa_East.county","area_km2": 822.0441,"hist_schema_id": "Elevation0-9000","hist_area_km2": {"75": 5.7607,"100": 50.8742,"125": 148.856,"150": 218.6323,"175": 214.3388,"200": 143.4911,"225": 38.4728,"250": 1.3449,"275": 0.2102,"300": 0.0631}}}