{"type": "Feature","bbox": [4.8681,7.1878,5.0419,7.4011],"geometry": {"type": "MultiPolygon","coordinates": [[[[5.03,7.2533,280.8499],[5.0357,7.293,293.8134],[5.0419,7.3212,388.377],[5.0382,7.3519,375.9804],[5.0382999999999996,7.3683,348.2755],[5.0267,7.3823,338.6349],[5.0185,7.3838,346.4272],[5.0136,7.3952,327.8317],[4.9987,7.4011,329.856],[5.0015,7.3762,308.9878],[4.9924,7.3717,324.2868],[4.9706,7.3693,330.6144],[4.9068,7.3506,348.8426],[4.8933,7.3413,277.4949],[4.8836,7.2993,266.3381],[4.878,7.283,251.9679],[4.8775,7.2604,327.4144],[4.8681,7.2359,251.4535],[4.8695,7.2114,235.2575],[4.873,7.1878,249.6753],[4.8878,7.1906,280.4254],[4.9326,7.1942,292.4941],[4.9588,7.1892,285.0204],[5.005,7.2062,262.1886],[5.0185,7.2181,274.1594],[5.0219,7.2241,266.0285],[5.0272,7.238,288.5493],[5.03,7.2533,280.8499]]]]}
,"properties": {"GID_2": "NGA.29.11_1","GID_0": "NGA","country": "Nigeria","GID_1": "NGA.29_1","province": "Ondo","NL_NAME_1": "NA","county": "Ile-Oluji/Okeigbo","VARNAME_2": "NA","NL_NAME_2": "NA","TYPE_2": "LocalAuthority","ENGTYPE_2": "LocalAuthority","CC_2": "NA","HASC_2": "NA","name": "Ile-Oluji_Okeigbo.county","area_km2": 321.2516,"hist_schema_id": "Elevation0-9000","hist_area_km2": {"225": 3.1338,"250": 43.6209,"275": 89.5141,"300": 95.0197,"325": 55.3487,"350": 20.8187,"375": 6.4352,"400": 3.5121,"425": 1.6194,"450": 1.1146,"475": 0.7781,"500": 0.3365}}}