{"type":"Feature","properties":{"GID_2":"NGA.11.5_1","GID_0":"NGA","country":"Nigeria","GID_1":"NGA.11_1","province":"Ebonyi","NL_NAME_1":"NA","county":"EzzaNorth","VARNAME_2":"NA","NL_NAME_2":"NA","TYPE_2":"LocalAuthority","ENGTYPE_2":"LocalAuthority","CC_2":"NA","HASC_2":"NA","name":"Ezza_North.county"},
"geometry":{"type": "MultiPolygon","coordinates": [[[[8.0419,6.3046,71.5533],[8.0394,6.3054,71.6307],[8.0321,6.3129,80.6477],[8.0179,6.3203,71.8217],[7.9936,6.3468,73.4783],[7.9797,6.3521,70.3088],[7.9622,6.3556,89.561],[7.9463,6.3545,99.1571],[7.9391,6.3523,85.9891],[7.921,6.3392,71.5837],[7.912,6.3057,80.5815],[7.9119,6.2855,83.9904],[7.9032,6.2603,72.6141],[7.9019,6.2485,80.5911],[7.8988,6.2435,67.3728],[7.8955,6.2251,64.8726],[7.8862,6.2073,59.8714],[7.8715,6.1986,54.4617],[7.8778,6.1893,49.7304],[7.8782,6.1768,54.0515],[7.8825,6.1772,40.7114],[7.8988,6.1709,40.3621],[7.9108,6.1611,42.0155],[7.9149,6.1548,49.3649],[7.9197,6.151,55.1528],[7.9262,6.1539,56.2274],[7.9331,6.1538,36.9161],[7.9374,6.1479,36.4503],[7.9398,6.1394,45.6339],[7.9376,6.1348,36.6056],[7.9415,6.1324,54.5876],[7.9567,6.1301,36.4755],[7.9678,6.1334,38.2574],[7.9744,6.1386,38.1352],[7.976,6.142,42.147],[7.9772,6.1553,56.6449],[7.9757999999999996,6.1673,43.6025],[7.9809,6.188,48.9398],[8.0004,6.1934,72.4611],[8.0168,6.1945,84.9853],[8.033,6.1979,69.9067],[8.0333,6.2037,72.9641],[8.0411,6.2257,57.1771],[8.0464,6.2293,61.5919],[8.0517,6.2428,56.107],[8.052,6.2868,75.6342],[8.0439,6.304,71.5069],[8.0419,6.3046,71.5533]]]]}}