{"type":"Feature","properties":{"GID_2":"NGA.22.19_1","GID_0":"NGA","country":"Nigeria","GID_1":"NGA.22_1","province":"Kebbi","NL_NAME_1":"NA","county":"Suru","VARNAME_2":"NA","NL_NAME_2":"NA","TYPE_2":"LocalAuthority","ENGTYPE_2":"LocalAuthority","CC_2":"NA","HASC_2":"NA","name":"Suru.county"},
"geometry":{"type": "MultiPolygon","coordinates": [[[[4.2124,11.6042,178.3577],[4.2357,11.6126,195.6951],[4.26,11.6267,204.3143],[4.2878,11.6387,231.0087],[4.2814,11.6656,199.5128],[4.2799,11.6891,171.7366],[4.2803,11.7563,196.1427],[4.2842,11.7739,220.0388],[4.2831,11.8011,238.1928],[4.2724,11.8728,238.1086],[4.2582,11.9417,218.8083],[4.2466,11.9686,249.1109],[4.2352,11.9807,221.5637],[4.2165,11.993,207.1156],[4.1977,11.9976,193.1108],[4.1822,12.0036,213.7362],[4.156,12.0193,209.6094],[4.1426,12.0362,177.897],[4.1101,12.0158,175.8401],[4.0926,12.0015,174.5276],[4.0792,11.9875,174.7188],[4.0607,11.9739,231.3929],[3.9946,11.9349,227.3493],[3.9987,11.9293,236.8914],[4.0031,11.9185,255.3085],[4.0187,11.8753,239.7798],[4.0238,11.8448,230.288],[4.0323,11.8091,226.2974],[4.0393,11.7852,242.4071],[4.0518,11.7599,271.5554],[4.0584,11.7395,284.4878],[4.0635,11.7137,264.451],[4.0657,11.6922,274.8602],[4.0631,11.634,188.0205],[4.0556,11.6069,161.1604],[4.0485,11.5909,159.0504],[4.0417,11.5815,158.5612],[4.031,11.5727,155.6952],[4.0085,11.5634,157.1047],[3.9731,11.5521,151.7395],[3.9374,11.5448,151.3382],[3.9096,11.5433,152.0903],[3.8908,11.5443,151.8049],[3.8476,11.5313,189.9053],[3.872,11.5203,182.7167],[3.9018,11.5165,151.0],[3.9135,11.5187,151.2301],[3.925,11.5149,151.4951],[3.9535,11.5007,153.0165],[3.9666,11.4876,151.7093],[3.9709,11.481,176.3717],[3.9862,11.4761,181.6962],[4.0058,11.4807,148.0],[4.0178,11.4885,150.3625],[4.0245,11.4971,150.715],[4.0287,11.5091,151.6348],[4.0422,11.5317,155.3265],[4.0644,11.5518,154.4713],[4.077,11.5517,156.5903],[4.1118,11.5373,156.3042],[4.1283,11.5479,159.3777],[4.1646,11.5901,161.2582],[4.1726,11.6027,158.4167],[4.1884,11.6102,159.0795],[4.2055,11.6083,166.5499],[4.2124,11.6042,178.3577]]]]}}