{"type":"Feature","properties":{"GID_2":"NGA.36.16_1","GID_0":"NGA","country":"Nigeria","GID_1":"NGA.36_1","province":"Yobe","NL_NAME_1":"NA","county":"Yunusari","VARNAME_2":"NA","NL_NAME_2":"NA","TYPE_2":"LocalAuthority","ENGTYPE_2":"LocalAuthority","CC_2":"NA","HASC_2":"NA","name":"Yunusari.county"},
"geometry":{"type": "MultiPolygon","coordinates": [[[[12.2704,13.103,310.6369],[12.2652,13.1096,309.8727],[12.257,13.1145,309.2675],[12.2412,13.1147,310.131],[12.2382,13.1133,310.6329],[12.2338,13.1073,309.944],[12.2302,13.1078,309.8797],[12.2185,13.114,309.7614],[12.211,13.1149,311.3789],[12.2072,13.1204,310.7933],[12.2027,13.1227,310.6651],[12.1884,13.1204,312.7417],[12.184,13.1211,310.1364],[12.1786,13.1252,309.6969],[12.1769,13.1204,310.7833],[12.1793,13.1153,310.9897],[12.1875,13.1066,312.2733],[12.1802,13.1038,311.7296],[12.1774,13.0983,312.0542],[12.1704,13.1038,311.1641],[12.1636,13.1022,311.1331],[12.1577,13.1081,313.4293],[12.1509,13.1086,311.5698],[12.149,13.1056,311.3956],[12.1511,13.0985,311.8249],[12.1493,13.0969,312.2523],[12.1394,13.0994,311.8379],[12.1347,13.1042,311.7172],[12.1314,13.101,310.4949],[12.1298,13.0912,312.8375],[12.1181,13.0922,311.8953],[12.1141,13.0903,311.1131],[12.1042,13.0935,319.0524],[12.0474,13.1265,335.3931],[12.0454,13.1298,330.4594],[12.041,13.1309,324.4093],[12.027,13.1409,332.0794],[12.0147,13.1513,330.6884],[12.0115,13.1583,330.2386],[11.995,13.1732,322.7665],[11.9285,13.2229,333.5992],[11.8846,13.2453,327.7745],[11.8846,13.2465,326.5134],[11.8102,13.264,329.6133],[11.7861,13.2685,326.9857],[11.7773,13.2685,342.0683],[11.7719,13.2719,341.5196],[11.7439,13.2756,328.6033],[11.7389,13.2778,330.135],[11.6958,13.287,332.9473],[11.6656,13.2959,333.795],[11.6611,13.2994,334.5876],[11.6376,13.3053,333.8205],[11.6097,13.3171,334.3474],[11.6015,13.3191,333.7311],[11.5396,13.348,335.8988],[11.522,13.3531,336.5869],[11.4855,13.3568,336.1436],[11.4801,13.3561,327.4785],[11.4643,13.36,335.9631],[11.3956,13.3701,336.4423],[11.3676,13.3721,334.6735],[11.2584,13.3744,338.4281],[11.236,13.3354,337.4875],[11.2364,13.3303,337.1125],[11.252,13.2885,337.6644],[11.2637,13.2509,338.1284],[11.2788,13.2249,336.0725],[11.2811,13.2075,331.0222],[11.2748,13.1756,331.9316],[11.2917,13.1551,338.6775],[11.305,13.1358,332.8335],[11.3234,13.115,331.7237],[11.3537,13.0919,333.1649],[11.38,13.0663,335.6758],[11.4018,13.0385,328.0649],[11.4035,13.0166,341.2363],[11.3925,12.9878,331.4703],[11.381,12.9801,331.6284],[11.3936,12.9768,331.3192],[11.4295,12.976,330.3872],[11.4792,12.9703,330.9004],[11.5008,12.9612,330.5478],[11.5259,12.9664,330.6882],[11.5678,12.978,346.7975],[11.6085,12.9788,330.5802],[11.6492,12.9653,329.037],[11.697,12.9341,330.8075],[11.7193,12.9063,329.877],[11.7204,12.8951,329.6937],[11.7183,12.8768,323.8618],[11.7139,12.8543,321.3058],[11.7105,12.8478,323.0978],[11.7066,12.8315,328.5695],[11.7234,12.8103,328.861],[11.739,12.8215,328.2755],[11.7541,12.8365,330.2223],[11.7965,12.8437,327.9457],[11.8359,12.8588,329.627],[11.8859,12.8708,318.8676],[11.8975,12.8778,317.3772],[11.8985,12.8964,318.4588],[11.8934,12.9121,319.629],[11.9021,12.9298,317.373],[11.9199,12.9353,345.3992],[11.9451,12.9464,326.3411],[11.9549,12.9394,325.8445],[11.9728,12.9336,344.0216],[11.9927,12.9218,322.8661],[12.0268,12.9079,325.1801],[12.06,12.9047,329.241],[12.123,12.9084,324.9247],[12.1775,12.9196,326.0855],[12.1966,12.9204,320.3302],[12.2258,12.932,322.6599],[12.2538,12.9392,318.0077],[12.2604,12.9453,317.2245],[12.2849,12.9519,312.5046],[12.3027,12.9634,311.923],[12.3412,12.9822,310.4117],[12.3611,12.989,310.4827],[12.3817,12.9935,309.7304],[12.385,13.0101,311.9111],[12.3864,13.0768,308.2262],[12.3704,13.076599999999999,308.0933],[12.3688,13.0785,308.1583],[12.3687,13.087,309.0191],[12.3657,13.0897,308.0972],[12.3624,13.0902,307.798],[12.3617,13.0808,309.0258],[12.3554,13.0785,308.3454],[12.3521,13.0794,308.5319],[12.3434,13.0865,309.2947],[12.3408,13.0842,309.0262],[12.3397,13.0732,310.1197],[12.3368,13.0718,309.4609],[12.3328,13.0777,309.1384],[12.3347,13.083,309.3268],[12.3232,13.0858,309.271],[12.3072,13.0957,308.6232],[12.2974,13.0961,308.8434],[12.2871,13.092,309.5911],[12.2805,13.0862,310.2867],[12.2824,13.0837,310.8572],[12.288,13.0823,309.9667],[12.2871,13.08,309.2437],[12.2777,13.0809,309.7295],[12.2749,13.0832,311.0157],[12.2725,13.0887,309.128],[12.273,13.0954,309.5372],[12.2704,13.103,310.6369]]]]}}