{"type":"Feature","properties":{"GID_2":"NGA.7.21_1","GID_0":"NGA","country":"Nigeria","GID_1":"NGA.7_1","province":"Benue","NL_NAME_1":"NA","county":"Ukum","VARNAME_2":"NA","NL_NAME_2":"NA","TYPE_2":"LocalAuthority","ENGTYPE_2":"LocalAuthority","CC_2":"NA","HASC_2":"NA","name":"Ukum.county"},
"geometry":{"type": "MultiPolygon","coordinates": [[[[9.8411,7.5956,196.7796],[9.8154,7.6145,213.9892],[9.7662,7.6607,198.0998],[9.7538,7.6779,185.5898],[9.7404,7.6926,183.2434],[9.7251,7.7151,161.3879],[9.7103,7.7274,151.7255],[9.7038,7.7409,138.4669],[9.6945,7.7518,126.6304],[9.6708,7.775,149.0031],[9.6462,7.8037,153.4687],[9.6115,7.8307,155.6565],[9.5755,7.8418,144.2543],[9.5483,7.8458,181.9467],[9.4906,7.8591,147.7746],[9.4444,7.86,139.9635],[9.418,7.8648,124.7955],[9.3862,7.8656,156.3592],[9.3869,7.8491,115.7499],[9.3851,7.8306,114.6217],[9.3808,7.8149,115.3166],[9.3849,7.8053,128.1463],[9.3793,7.7949,125.1431],[9.3784,7.7829,143.145],[9.3815,7.7777,156.8196],[9.3786,7.7639,136.2449],[9.3818,7.7521,160.8987],[9.3762,7.7463,155.098],[9.3794,7.7297,172.0388],[9.3774,7.7125,155.8192],[9.3739,7.7021,145.0264],[9.3807,7.6825,161.0826],[9.3844,7.6651,145.9282],[9.3987,7.6469,128.9331],[9.42,7.6261,127.8756],[9.4374,7.6043,146.6491],[9.4491,7.5923,162.3035],[9.4638,7.5861,167.8671],[9.4812,7.5714,164.2964],[9.4886,7.556,168.2834],[9.4999,7.5415,160.6153],[9.513,7.528,171.7224],[9.5195,7.5161,183.4416],[9.5264,7.5121,178.5897],[9.53,7.505,194.9417],[9.5443,7.4881,219.3658],[9.5698,7.4448,198.3335],[9.5986,7.4003,159.7006],[9.6016,7.4018,151.0031],[9.6184,7.4004,166.0536],[9.6316,7.4101,149.7825],[9.64,7.414,174.6849],[9.645,7.4194,172.1529],[9.6674,7.4326,158.9796],[9.6828,7.4476,162.8521],[9.6929,7.4529,155.9426],[9.7202,7.4762,169.7737],[9.7316,7.4837,170.6257],[9.7608,7.5239,202.3416],[9.7662,7.5294,200.7086],[9.7805,7.5393,203.9422],[9.7926,7.5542,217.252],[9.8136,7.5725,229.1203],[9.8265,7.5812,202.8932],[9.8318,7.588,201.8724],[9.8411,7.5956,196.7796]]]]}}