{"type": "Feature","bbox": [7.9118,9.297,8.1834,9.6097],"geometry": {"type": "MultiPolygon","coordinates": [[[[8.1834,9.497,773.2305],[8.178,9.5013,766.4739],[8.1624,9.52,764.7806],[8.1307,9.5684,734.2495],[8.1291,9.587,743.22],[8.1233,9.6097,754.5792],[8.0959,9.5909,734.0344],[8.0903,9.5843,727.2991],[8.0841,9.5755,716.9229],[8.081,9.5667,736.0906],[8.0809,9.5538,749.1832],[8.0647,9.545,731.9829],[8.0433,9.5426,735.0888],[8.0102,9.5348,726.3793],[8.0088,9.5184,743.0591],[8.0043,9.5087,744.3575],[7.9899,9.4893,766.1443],[7.9775,9.4836,752.8134],[7.9541,9.4662,777.7473],[7.9452,9.459,785.9121],[7.9373,9.4467,784.6524],[7.9274,9.4412,750.4674],[7.9208,9.4337,756.6407],[7.9118,9.4145,694.679],[7.9142,9.3929,719.7554],[7.9237,9.3621,467.3247],[7.9321,9.3604,618.6875],[7.9402,9.3562,639.8425],[7.9579,9.3387,559.8309],[7.9623,9.331,456.3799],[7.9875,9.3134,546.5576],[7.9931,9.297,601.742],[7.9943,9.2976,700.9729],[8.0052,9.3042,623.1652],[8.0461,9.3407,533.5403],[8.0605,9.3598,564.8325],[8.0631,9.3741,551.719],[8.0645,9.408,689.5994],[8.0812,9.4361,778.463],[8.095,9.4524,736.4271],[8.1259,9.4746,738.1611],[8.1779,9.4963,761.984],[8.1834,9.497,773.2305]]]]}
,"properties": {"GID_2": "NGA.19.6_1","GID_0": "NGA","country": "Nigeria","GID_1": "NGA.19_1","province": "Kaduna","NL_NAME_1": "NA","county": "Jaba","VARNAME_2": "NA","NL_NAME_2": "NA","TYPE_2": "LocalAuthority","ENGTYPE_2": "LocalAuthority","CC_2": "NA","HASC_2": "NA","name": "Jaba.county","area_km2": 429.3752,"hist_schema_id": "Elevation0-9000","hist_area_km2": {"425": 0.1255,"450": 0.2092,"475": 0.7741,"500": 2.6152,"525": 8.9335,"550": 14.9793,"575": 14.1837,"600": 10.669,"625": 9.6019,"650": 11.1708,"675": 14.2666,"700": 18.3871,"725": 61.0643,"750": 132.2677,"775": 79.4951,"800": 30.849,"825": 7.0896,"850": 4.3289,"875": 3.6177,"900": 2.3211,"925": 1.2965,"950": 0.8574,"975": 0.2509,"1000": 0.0209}}}