{"type":"Feature","properties":{"GID_2":"NGA.18.18_1","GID_0":"NGA","country":"Nigeria","GID_1":"NGA.18_1","province":"Jigawa","NL_NAME_1":"NA","county":"KiriKasama","VARNAME_2":"NA","NL_NAME_2":"NA","TYPE_2":"LocalAuthority","ENGTYPE_2":"LocalAuthority","CC_2":"NA","HASC_2":"NA","name":"Kiri_Kasama.county"},
"geometry":{"type": "MultiPolygon","coordinates": [[[[10.3432,12.4449,350.2747],[10.3315,12.4691,350.3557],[10.3347,12.4982,350.5024],[10.3392,12.516,349.8049],[10.3297,12.5416,349.1426],[10.3255,12.5587,349.2135],[10.3189,12.5731,349.4221],[10.3201,12.5823,349.7747],[10.3304,12.6019,349.5642],[10.3457,12.6249,349.0586],[10.3505,12.6411,350.1136],[10.3339,12.7207,346.4168],[10.3338,12.7304,346.2742],[10.3291,12.7408,346.0589],[10.3202,12.7496,345.8765],[10.2932,12.7391,346.7095],[10.2763,12.7372,346.3029],[10.2614,12.7322,347.531],[10.2319,12.7143,348.1237],[10.201,12.7003,349.6481],[10.1759,12.6982,349.5711],[10.1689,12.6894,349.4511],[10.1601,12.6742,349.203],[10.1577,12.6723,349.2819],[10.1707,12.6635,350.8677],[10.1782,12.6498,350.9893],[10.1814,12.6399,349.1846],[10.1796,12.6286,350.7144],[10.1829,12.6086,351.1576],[10.1823,12.6034,352.2989],[10.1971,12.5965,350.9008],[10.1978,12.5823,349.3547],[10.1939,12.5765,350.2078],[10.1929,12.5702,354.3442],[10.1816,12.5566,352.5633],[10.1588,12.5424,352.802],[10.1422,12.5394,352.8597],[10.1219,12.5519,352.818],[10.1076,12.5568,351.3849],[10.0901,12.514,354.5842],[10.0802,12.4822,354.5388],[10.0726,12.4694,354.5586],[10.0652,12.4511,354.7213],[10.0593,12.4447,355.1877],[10.0703,12.4275,355.3341],[10.0711,12.4232,354.652],[10.0698,12.4185,357.9441],[10.0605,12.4072,356.0641],[10.0505,12.4,356.272],[10.0498,12.3935,356.3747],[10.047,12.3881,356.9263],[10.0477,12.3858,357.1559],[10.0742,12.3823,356.1857],[10.1185,12.3836,354.6242],[10.1334,12.3816,354.6257],[10.1472,12.383,353.6544],[10.1659,12.3822,354.928],[10.2181,12.3884,352.9801],[10.2369,12.3849,352.8834],[10.2419,12.3802,352.9751],[10.2559,12.3783,351.4989],[10.2595,12.3915,354.5075],[10.2699,12.414,351.8264],[10.2885,12.4244,351.0096],[10.3432,12.4449,350.2747]]]]}}