{"type":"Feature","properties":{"GID_2":"NGA.31.14_1","GID_0":"NGA","country":"Nigeria","GID_1":"NGA.31_1","province":"Oyo","NL_NAME_1":"NA","county":"Ido","VARNAME_2":"NA","NL_NAME_2":"NA","TYPE_2":"LocalAuthority","ENGTYPE_2":"LocalAuthority","CC_2":"NA","HASC_2":"NA","name":"Ido.county"},
"geometry":{"type": "MultiPolygon","coordinates": [[[[3.7522,7.2643,131.5882],[3.7892,7.3046,164.0733],[3.8049,7.3166,191.8001],[3.8135,7.3199,181.3038],[3.8448,7.315,156.7778],[3.8549,7.3111,136.238],[3.8596,7.3114,136.4443],[3.8354,7.3497,167.2198],[3.831,7.3615,154.1238],[3.8325,7.3698,170.0804],[3.8462,7.3878,157.5869],[3.8458,7.3905,157.4055],[3.8476,7.3926,165.2589],[3.8468,7.3965,159.9758],[3.8482,7.3983,163.5382],[3.8474,7.4039,178.5277],[3.85,7.4089,173.2995],[3.856,7.4121,191.071],[3.8545,7.4171,169.2664],[3.8551,7.4231,176.0848],[3.8616,7.4446,188.0412],[3.8614,7.4576,210.2836],[3.8563,7.4742,232.2363],[3.8454,7.4986,239.8116],[3.827,7.527,309.081],[3.8228,7.5375,278.6313],[3.8133,7.5494,262.0413],[3.8077,7.5594,232.2037],[3.7908,7.5749,214.047],[3.7827,7.5875,236.5393],[3.7909,7.6046,220.4773],[3.8016,7.6148,226.0016],[3.8349,7.6343,241.5882],[3.8422,7.6436,234.1061],[3.8408,7.6542,254.1472],[3.8433,7.6623,233.9829],[3.805,7.6544,260.8959],[3.7974,7.6492,231.5615],[3.7878,7.6459,220.8743],[3.7686,7.6423,238.8587],[3.7567,7.6483,264.8845],[3.7362,7.6772,288.1265],[3.7368,7.6871,283.1882],[3.7471,7.7058,267.3341],[3.7465,7.7162,231.8478],[3.739,7.7211,221.8887],[3.725,7.726,194.0048],[3.7027,7.7282,204.8688],[3.6965,7.7329,179.567],[3.6834,7.7384,190.5354],[3.6722,7.7278,164.7844],[3.6693,7.7214,178.1795],[3.6604,7.7114,187.2475],[3.6566,7.7037,169.5618],[3.6466,7.7015,160.7486],[3.6375,7.6911,152.1247],[3.6286,7.6705,162.1147],[3.6189,7.6695,164.4429],[3.5941,7.6476,176.6198],[3.5701,7.6335,151.876],[3.5639,7.6216,146.0873],[3.563,7.6073,138.0457],[3.5668,7.5738,124.4114],[3.5741,7.5534,141.7015],[3.5769,7.5391,116.7994],[3.5636,7.5174,113.8582],[3.5709,7.5097,128.6295],[3.5744,7.4967,117.9493],[3.5719,7.489,124.5092],[3.5653,7.4787,134.6025],[3.5425,7.4542,90.4559],[3.5347,7.4407,100.2456],[3.5242,7.4333,113.0874],[3.5188,7.4263,94.5772],[3.515,7.4185,106.2129],[3.5144,7.4127,106.2923],[3.515,7.4096,103.448],[3.5217,7.4143,186.3892],[3.5264,7.4225,100.6184],[3.541,7.4271,126.765],[3.5663,7.4322,142.8414],[3.6021,7.4321,198.1536],[3.6164,7.4342,169.2261],[3.652,7.4322,164.2122],[3.6664,7.4287,166.3176],[3.6798,7.4112,190.1618],[3.6853,7.3981,192.7108],[3.6917,7.362,192.9648],[3.6926,7.3468,203.8249],[3.6921,7.3177,168.9748],[3.6906,7.3069,172.7726],[3.6973,7.2955,182.8517],[3.7321,7.2776,149.5024],[3.7455,7.2758,147.915],[3.7522,7.2643,131.5882]]]]}}