{"type": "Feature","bbox": [3.6834,7.6423,4.0905,7.8619],"geometry": {"type": "MultiPolygon","coordinates": [[[[4.0905,7.8449,290.9396],[4.0902,7.8619,292.011],[4.057,7.8563,286.609],[4.0411,7.8566,282.1202],[4.0258,7.8506,303.1779],[4.0187,7.8445,283.5226],[3.9799,7.8265,346.1851],[3.9543,7.8113,300.4714],[3.9277,7.7928,295.4616],[3.9187,7.7941,299.4351],[3.9112,7.7998,310.3898],[3.9058,7.8093,298.499],[3.8969,7.8132,294.2779],[3.8915,7.8204,287.2989],[3.8638,7.8338,266.4863],[3.8482,7.8393,293.0953],[3.8235,7.8407,244.2507],[3.8143,7.8397,240.5083],[3.7972,7.8423,221.3389],[3.7869,7.8457,214.738],[3.7809,7.8453,204.8364],[3.7644,7.8534,209.3603],[3.7544,7.8603,222.3102],[3.7406,7.8485,221.039],[3.7265,7.845,205.5901],[3.7299,7.8319,198.3548],[3.7463,7.7998,197.6233],[3.7495,7.7855,180.992],[3.7564,7.7699,180.7981],[3.7556,7.7619,192.6405],[3.7584,7.7522,198.28],[3.7446,7.7547,206.2792],[3.7343,7.7586,210.4384],[3.7191,7.7593,177.7817],[3.7105,7.7557,204.0609],[3.7001,7.7559,191.3603],[3.6955,7.7539,173.7461],[3.6834,7.7384,190.5354],[3.6965,7.7329,179.567],[3.7027,7.7282,204.8688],[3.725,7.726,194.0048],[3.739,7.7211,221.8887],[3.7465,7.7162,231.8478],[3.7471,7.7058,267.3341],[3.7368,7.6871,283.1882],[3.7362,7.6772,288.1265],[3.7567,7.6483,264.8845],[3.7686,7.6423,238.8587],[3.7878,7.6459,220.8743],[3.7974,7.6492,231.5615],[3.805,7.6544,260.8959],[3.8532,7.6644,247.8629],[3.8714,7.6657,257.9668],[3.9065,7.6543,285.8288],[3.953,7.6436,311.1414],[3.9689,7.6438,296.5027],[3.9768,7.6468,290.5394],[3.9861,7.6543,319.5259],[3.9952,7.6562,311.3831],[4.0324,7.659,281.3378],[4.0473,7.6719,239.7838],[4.0523,7.6795,242.5269],[4.0598,7.6965,272.5581],[4.0624,7.7182,266.0776],[4.0687,7.7476,228.8377],[4.0699,7.7658,236.7142],[4.0683,7.7787,251.0632],[4.0684,7.8302,242.1441],[4.0737,7.8458,244.7786],[4.0835,7.8502,267.5562],[4.0905,7.8449,290.9396]]]]}
,"properties": {"GID_2": "NGA.31.1_1","GID_0": "NGA","country": "Nigeria","GID_1": "NGA.31_1","province": "Oyo","NL_NAME_1": "NA","county": "Afijio","VARNAME_2": "NA","NL_NAME_2": "NA","TYPE_2": "LocalAuthority","ENGTYPE_2": "LocalAuthority","CC_2": "NA","HASC_2": "NA","name": "Afijio.county","area_km2": 725.9558,"hist_schema_id": "Elevation0-9000","hist_area_km2": {"150": 0.063,"175": 4.8529,"200": 39.619,"225": 100.9005,"250": 162.0853,"275": 199.082,"300": 153.0487,"325": 55.6942,"350": 8.8872,"375": 1.3658,"400": 0.2942,"425": 0.063}}}