{"type":"Feature","properties":{"GID_2":"NGA.11.12_1","GID_0":"NGA","country":"Nigeria","GID_1":"NGA.11_1","province":"Ebonyi","NL_NAME_1":"NA","county":"Ohaukwu","VARNAME_2":"NA","NL_NAME_2":"NA","TYPE_2":"LocalAuthority","ENGTYPE_2":"LocalAuthority","CC_2":"NA","HASC_2":"NA","name":"Ohaukwu.county"},
"geometry":{"type": "MultiPolygon","coordinates": [[[[7.9157,6.5249,124.6544],[7.9166,6.4762,120.1783],[7.9222,6.4523,136.9462],[7.9218,6.4385,125.1311],[7.9255,6.4276,123.3992],[7.9268,6.4087,118.1971],[7.9237,6.3975,105.0426],[7.9248,6.38,89.6984],[7.9224,6.3659,87.4898],[7.921,6.3392,71.5837],[7.9391,6.3523,85.9891],[7.9463,6.3545,99.1571],[7.9622,6.3556,89.561],[7.9797,6.3521,70.3088],[7.9936,6.3468,73.4783],[8.0095,6.3283,80.9151],[8.0215,6.3186,72.1542],[8.0205,6.3235,75.3783],[8.0236,6.329,80.4412],[8.0225,6.35,67.2797],[8.0311,6.3671,65.3766],[8.0358,6.3848,68.351],[8.0437,6.4056,70.5476],[8.0538,6.4255,79.28],[8.0624,6.4306,78.1272],[8.0627,6.4484,62.1623],[8.0804,6.5043,61.7889],[8.0877,6.5141,66.8652],[8.0901,6.5329,74.3017],[8.094,6.5455,83.6188],[8.0913,6.6055,90.2861],[8.086,6.6222,107.4934],[8.0811,6.6605,138.045],[8.0757,6.6857,111.5132],[8.0691,6.6993,105.1535],[8.0437,6.7014,107.0511],[7.988,6.695,93.1989],[7.9835,6.6734,106.1684],[7.9825,6.6432,119.6054],[7.9751,6.6142,112.9437],[7.9678,6.562,112.5785],[7.9518,6.5288,96.1199],[7.929,6.5193,114.1678],[7.9157,6.5249,124.6544]]]]}}