{"type": "Feature","bbox": [5.6394,5.5766,5.9111,5.8085],"geometry": {"type": "MultiPolygon","coordinates": [[[[5.8905,5.7685,10.6678],[5.8948,5.7772,13.561],[5.8831,5.7883,10.8795],[5.8655,5.7844,3.2448],[5.8599,5.7801,8.9053],[5.8521,5.7826,10.3858],[5.8408,5.7834,6.4721],[5.8289,5.7779,9.761],[5.823,5.7685,10.4983],[5.8159,5.7687,8.8798],[5.7969,5.7812,8.6266],[5.7952,5.7904,9.73],[5.7903,5.7988,13.997],[5.7809,5.8047,7.8791],[5.7735,5.8042,8.3094],[5.7675,5.8085,10.1516],[5.7568,5.7966,13.6964],[5.7556,5.793,16.0207],[5.7431,5.7775,14.5129],[5.7359,5.7571,15.0359],[5.7188,5.7307,20.684],[5.6881,5.7125,5.7216],[5.6786,5.7092,7.1096],[5.664,5.7079,14.7003],[5.6561,5.7041,12.9006],[5.6464,5.7022,14.4677],[5.6394,5.698,12.681],[5.6524,5.6878,10.2175],[5.681,5.659,3.4459],[5.6972,5.6513,5.0024],[5.6983,5.6455,2.4275],[5.6925,5.641,3.1003],[5.6867,5.6407,1.9596],[5.6794,5.647,11.5306],[5.6748,5.6485,1.2002],[5.6699,5.6458,1.6184],[5.6543,5.6257,2.1081],[5.6564,5.6195,5.5342],[5.6746,5.5916,5.5765],[5.6915,5.583,2.2097],[5.6979,5.5766,7.0194],[5.7095,5.5841,4.2736],[5.7238,5.5983,12.8327],[5.772,5.6247,12.6305],[5.7876,5.618,18.2197],[5.7971,5.6042,13.4511],[5.8082,5.5928,6.6129],[5.8106,5.587,6.8835],[5.8301,5.5792,7.4182],[5.8382,5.5821,8.4315],[5.8478,5.5923,2.8429],[5.8534,5.5939,7.4773],[5.8572,5.5975,8.4305],[5.8754,5.5988,8.9034],[5.8854,5.6011,10.43],[5.8991,5.6103,13.7615],[5.9054,5.6089,9.5794],[5.9111,5.6244,13.619],[5.9101,5.6357,14.8239],[5.9081,5.6406,12.3167],[5.8993,5.653,11.3158],[5.8934,5.6584,11.8424],[5.8795,5.6644,16.2888],[5.8708,5.6723,14.813],[5.8658,5.6733,14.4244],[5.8591,5.6776,18.7604],[5.8437,5.6931,15.2093],[5.8404,5.7019,13.8671],[5.8451,5.7096,12.652],[5.8488,5.7202,11.8489],[5.8574,5.7288,9.8706],[5.8601,5.7338,16.2118],[5.8809,5.751,8.1687],[5.8818,5.7634,9.5984],[5.8905,5.7685,10.6678]]]]}
,"properties": {"GID_2": "NGA.10.13_1","GID_0": "NGA","country": "Nigeria","GID_1": "NGA.10_1","province": "Delta","NL_NAME_1": "NA","county": "Okpe","VARNAME_2": "NA","NL_NAME_2": "NA","TYPE_2": "LocalAuthority","ENGTYPE_2": "LocalAuthority","CC_2": "NA","HASC_2": "NA","name": "Okpe.county","area_km2": 438.2486,"hist_schema_id": "Elevation0-9000","hist_area_km2": {"0": 261.0067,"25": 177.2419}}}