{"type": "Feature","bbox": [6.0023,7.5392,6.5539,7.853],"geometry": {"type": "MultiPolygon","coordinates": [[[[6.0793,7.5392,397.5956],[6.1302,7.5475,396.1151],[6.1492,7.5527,392.6876],[6.1637,7.5598,411.8575],[6.1882,7.5792,433.4137],[6.2004,7.5799,401.1857],[6.2164,7.5845,255.2941],[6.2262,7.5779,342.9893],[6.2448,7.5727,420.3685],[6.3122,7.5997,227.81],[6.3216,7.5979,219.4435],[6.3469,7.609,175.1108],[6.3619,7.623,157.3561],[6.3714,7.6508,177.0427],[6.3801,7.663,180.4386],[6.3941,7.6736,158.2905],[6.4066,7.6882,143.6991],[6.4302,7.7087,124.9241],[6.45,7.7204,151.2575],[6.4645,7.7349,180.4047],[6.4852,7.7445,151.736],[6.4966,7.7521,143.377],[6.5016,7.7605,163.7615],[6.5126,7.7716,184.6266],[6.5233,7.788,188.1349],[6.5292,7.7944,177.0953],[6.5335,7.8079,184.6241],[6.5477,7.8296,125.8542],[6.5539,7.8337,128.8161],[6.547,7.8427,174.6203],[6.5487,7.8443,172.0851],[6.5386,7.853,150.5524],[6.524,7.847,164.8255],[6.5122,7.8451,155.0532],[6.4663,7.8323,173.3056],[6.4158,7.8035,189.6633],[6.3777,7.7848,171.3331],[6.3516,7.77,185.3251],[6.3384,7.7695,257.2717],[6.332,7.7717,254.1572],[6.3051,7.7881,275.3894],[6.2956,7.7864,258.8026],[6.2864,7.7893,340.6605],[6.2604,7.7674,262.8735],[6.2541,7.758,222.0718],[6.2512,7.7507,210.338],[6.2485,7.7422,203.8776],[6.2451,7.7163,188.2924],[6.249,7.6869,237.9069],[6.249,7.6759,215.2993],[6.2455,7.6697,193.8419],[6.2343,7.6628,195.1579],[6.2298,7.6679,201.7222],[6.2096,7.6738,315.7283],[6.1706,7.6763,403.7652],[6.1569,7.6717,400.2228],[6.1279,7.6579,411.4992],[6.1142,7.6544,395.2001],[6.1057,7.6553,407.3075],[6.019,7.6169,329.6891],[6.0023,7.6073,347.2454],[6.0246,7.586,354.0714],[6.0225,7.5844,362.0225],[6.0292,7.5718,338.0764],[6.0409,7.5631,315.8232],[6.0691,7.5691,366.1221],[6.0804,7.5633,391.6226],[6.0846,7.5568,399.6915],[6.085,7.5524,407.9326],[6.0793,7.5392,397.5956]]]]}
,"properties": {"GID_2": "NGA.23.16_1","GID_0": "NGA","country": "Nigeria","GID_1": "NGA.23_1","province": "Kogi","NL_NAME_1": "NA","county": "Okehi","VARNAME_2": "NA","NL_NAME_2": "NA","TYPE_2": "LocalAuthority","ENGTYPE_2": "LocalAuthority","CC_2": "NA","HASC_2": "NA","name": "Okehi.county","area_km2": 728.9661,"hist_schema_id": "Elevation0-9000","hist_area_km2": {"125": 14.4967,"150": 97.9881,"175": 164.8844,"200": 118.0358,"225": 61.9632,"250": 32.6116,"275": 19.3745,"300": 13.8691,"325": 31.5444,"350": 59.3697,"375": 61.1968,"400": 37.3654,"425": 9.5834,"450": 3.4466,"475": 1.345,"500": 1.0718,"525": 0.4623,"550": 0.1471,"575": 0.0841,"600": 0.0841,"625": 0.042}}}