{"type":"Feature","properties":{"GID_2":"NGA.28.16_1","GID_0":"NGA","country":"Nigeria","GID_1":"NGA.28_1","province":"Ogun","NL_NAME_1":"NA","county":"Odeda","VARNAME_2":"NA","NL_NAME_2":"NA","TYPE_2":"LocalAuthority","ENGTYPE_2":"LocalAuthority","CC_2":"NA","HASC_2":"NA","name":"Odeda.county"},
"geometry":{"type": "MultiPolygon","coordinates": [[[[3.3534,7.2285,59.5354],[3.3613,7.2204,84.9215],[3.3769,7.2139,107.8863],[3.389,7.1893,115.6403],[3.4051,7.1701,140.0678],[3.4056,7.1638,161.5787],[3.4199,7.1632,161.5813],[3.4323,7.1568,160.7709],[3.4408,7.1571,143.3873],[3.452,7.1488,162.9608],[3.4648,7.1426,162.7571],[3.4672,7.1446,155.6994],[3.4847,7.1478,149.6879],[3.5003,7.1568,150.7056],[3.5082,7.1594,135.8285],[3.5167,7.1585,122.0877],[3.5234,7.1534,107.1651],[3.5355,7.1515,126.1083],[3.5461,7.1507,129.9177],[3.569,7.1524,166.9476],[3.5851,7.15,141.7708],[3.6858,7.1584,91.0726],[3.702,7.1591,116.9494],[3.7082,7.1574,140.9132],[3.7315,7.1563,136.4955],[3.765,7.1599,112.8584],[3.7742,7.159,106.1022],[3.7719,7.1787,126.5443],[3.7635,7.2065,125.6442],[3.7541,7.2223,161.0151],[3.7558,7.2581,127.5757],[3.7455,7.2758,147.915],[3.7321,7.2776,149.5024],[3.6973,7.2955,182.8517],[3.6906,7.3069,172.7726],[3.6921,7.3177,168.9748],[3.6926,7.3468,203.8249],[3.6917,7.362,192.9648],[3.6853,7.3981,192.7108],[3.6798,7.4112,190.1618],[3.6664,7.4287,166.3176],[3.652,7.4322,164.2122],[3.6164,7.4342,169.2261],[3.6021,7.4321,198.1536],[3.5663,7.4322,142.8414],[3.541,7.4271,126.765],[3.5264,7.4225,100.6184],[3.5217,7.4143,186.3892],[3.5081,7.4046,82.5402],[3.4917,7.4005,79.7732],[3.4786,7.4051,85.9726],[3.4659,7.4187,84.9586],[3.4581,7.4389,111.5218],[3.4522,7.4605,109.8119],[3.4451,7.4765,151.6404],[3.4377,7.4886,126.4675],[3.4253,7.4942,119.4428],[3.4172,7.4952,133.2815],[3.3957,7.4933,135.396],[3.3869,7.487,95.9343],[3.3695,7.4695,118.3367],[3.3663,7.4573,118.3847],[3.355,7.4289,115.1783],[3.3511,7.4011,121.9777],[3.3394,7.3914,131.8969],[3.3279,7.3639,98.0718],[3.3139,7.3438,92.9137],[3.3062,7.337,109.7886],[3.2944,7.3349,100.1159],[3.2781,7.3292,97.532],[3.262,7.3336,104.8234],[3.2479,7.3306,98.4373],[3.2126,7.3338,75.1447],[3.1839,7.3477,81.5933],[3.187,7.3379,63.5061],[3.2011,7.3137,61.0],[3.2209,7.2944,70.6344],[3.2312,7.2867,72.6589],[3.2396,7.2814,73.7932],[3.2546,7.2817,84.146],[3.264,7.2792,74.0521],[3.2729,7.2747,92.0042],[3.2831,7.2756,81.0485],[3.3159,7.2608,41.4239],[3.3202,7.2607,64.3277],[3.3382,7.2452,82.8785],[3.3429,7.2368,76.45],[3.3534,7.2285,59.5354]]]]}}