{"type":"Feature","properties":{"GID_2":"NGA.29.7_1","GID_0":"NGA","country":"Nigeria","GID_1":"NGA.29_1","province":"Ondo","NL_NAME_1":"NA","county":"Ese-Odo","VARNAME_2":"NA","NL_NAME_2":"NA","TYPE_2":"LocalAuthority","ENGTYPE_2":"LocalAuthority","CC_2":"NA","HASC_2":"NA","name":"Ese-Odo.county"},
"geometry":{"type": "MultiPolygon","coordinates": [[[[5.1152,6.127,14.606],[5.1215,6.1456,13.3436],[5.1078,6.1643,12.2671],[5.1068,6.1729,10.2572],[5.1016,6.1822,8.7616],[5.0925,6.1916,6.9332],[5.0802,6.199,7.8554],[5.0737,6.2007,7.4431],[5.055,6.2005,6.8921],[5.0503,6.208,8.7859],[5.0502,6.2177,3.1564],[5.0387,6.2343,10.6067],[5.0323,6.2406,7.7267],[5.0283,6.2481,7.733],[5.0093,6.2583,5.4547],[4.997,6.27,4.2827],[4.9857,6.2709,5.0967],[4.981,6.2782,3.8808],[4.9786,6.2856,5.6701],[4.9827,6.2952,15.5962],[4.9782,6.2881,11.8879],[4.9832,6.297,16.9759],[4.991,6.2994,13.5789],[4.9947,6.313,15.6483],[4.9756,6.3195,15.5773],[4.9664,6.3319,12.5912],[4.9459,6.3795,17.6944],[4.9421,6.4028,24.3804],[4.9326,6.4269,15.4758],[4.9324,6.4399,24.3912],[4.924,6.4501,4.8276],[4.9008,6.4586,20.6505],[4.8883,6.457,27.0266],[4.879,6.4523,21.5098],[4.8734,6.4458,13.915],[4.8738,6.4406,8.043],[4.8702,6.4218,6.323],[4.8699,6.4024,19.9784],[4.8672,6.3926,16.7024],[4.8616,6.3851,8.8226],[4.8529,6.3792,15.2642],[4.8528,6.3725,15.1317],[4.8562,6.367,7.4426],[4.8563,6.3598,6.718],[4.8636,6.3516,6.7087],[4.8669,6.3433,7.1414],[4.8687,6.3276,10.302],[4.8676,6.3165,6.6284],[4.856,6.2978,2.5214],[4.8483,6.2924,1.8902],[4.8421,6.2806,9.2794],[4.8384,6.2765,9.0585],[4.8345,6.2657,2.2765],[4.8374,6.2468,2.1994],[4.8521,6.2267,7.3673],[4.8691,6.2107,6.8406],[4.9258,6.1469,12.9656],[4.953,6.1047,11.1503],[4.9882,6.0557,6.7481],[5.0131,6.0244,6.798],[5.0502,5.9691,2.0198],[5.1152,6.127,14.606]]]]}}