{"type": "Feature","bbox": [3.8742,7.3118,3.9364,7.3617],"geometry": {"type": "MultiPolygon","coordinates": [[[[3.9016,7.3578,177.3015],[3.8898,7.3474,169.0865],[3.8804,7.3337,173.9557],[3.8775,7.3289,173.1122],[3.8742,7.3138,191.3072],[3.8823,7.3118,155.4926],[3.9043,7.3144,176.5047],[3.925,7.3256,194.9628],[3.9353,7.3363,196.4221],[3.9364,7.3382,179.5526],[3.9241,7.3553,212.3383],[3.9131,7.3617,197.917],[3.9016,7.3578,177.3015]]]]}
,"properties": {"GID_2": "NGA.31.9_1","GID_0": "NGA","country": "Nigeria","GID_1": "NGA.31_1","province": "Oyo","NL_NAME_1": "NA","county": "IbadanSouth-East","VARNAME_2": "NA","NL_NAME_2": "NA","TYPE_2": "LocalAuthority","ENGTYPE_2": "LocalAuthority","CC_2": "NA","HASC_2": "NA","name": "Ibadan_South-East.county","area_km2": 23.29979,"hist_schema_id": "Elevation0-9000","hist_area_km2": {"150": 3.04925,"175": 9.08444,"200": 8.20111,"225": 2.94397,"250": 0.02103}}}