{"type":"Feature","properties":{"GID_2":"NGA.14.6_1","GID_0":"NGA","country":"Nigeria","GID_1":"NGA.14_1","province":"Enugu","NL_NAME_1":"NA","county":"Ezeagu","VARNAME_2":"NA","NL_NAME_2":"NA","TYPE_2":"LocalAuthority","ENGTYPE_2":"LocalAuthority","CC_2":"NA","HASC_2":"NA","name":"Ezeagu.county"},
"geometry":{"type": "MultiPolygon","coordinates": [[[[7.1317,6.2871,38.0457],[7.1417,6.2854,37.527],[7.1615,6.2701,96.8606],[7.1852,6.2678,43.4871],[7.1973,6.2729,47.7474],[7.2002,6.2703,47.993],[7.2051,6.2696,47.2677],[7.2166,6.2701,51.4112],[7.2249,6.2669,54.5454],[7.234,6.2599,76.4631],[7.2402,6.2609,77.8399],[7.2382,6.263,71.5019],[7.2397,6.2704,60.6885],[7.2449,6.2797,54.9435],[7.2646,6.2974,87.8528],[7.2783,6.3061,127.0608],[7.2911,6.3098,159.0151],[7.3029,6.3163,204.9313],[7.3282,6.3216,253.8422],[7.3472,6.3282,290.2675],[7.3521,6.3438,315.0285],[7.3596,6.3557,308.1226],[7.3625,6.3759,314.4931],[7.3608,6.3837,303.9093],[7.3539,6.4,288.0484],[7.3422,6.4154,218.1887],[7.3355,6.4194,280.62],[7.3263,6.4217,257.8343],[7.3132,6.4369,309.6422],[7.3054,6.4418,277.1581],[7.2771,6.4716,254.7796],[7.2641,6.4805,227.3976],[7.253,6.4828,151.6279],[7.2334,6.4949,190.2643],[7.215,6.4991,151.9095],[7.2032,6.4968,125.5521],[7.1947,6.4981,100.7789],[7.1727,6.5065,67.9142],[7.1661,6.5122,52.7494],[7.1354,6.5233,56.2926],[7.1291,6.5331,81.6872],[7.1324,6.5388,77.07],[7.1283,6.5492,67.6474],[7.1072,6.5205,75.3106],[7.098,6.5105,57.1141],[7.0956,6.5046,66.1624],[7.096,6.4986,40.7807],[7.0788,6.4795,30.6283],[7.0598,6.4702,28.9051],[7.0465,6.4656,36.1928],[7.0382,6.4636,26.197],[7.0129,6.4638,26.361],[7.0123,6.4505,25.3399],[7.0186,6.4418,23.5853],[7.0285,6.4382,22.7665],[7.0692,6.4287,33.8656],[7.0809,6.423,38.556399999999996],[7.0899,6.4145,31.6685],[7.11,6.3826,29.4647],[7.1209,6.3563,75.1174],[7.1254,6.335,60.4668],[7.1349,6.3253,81.0156],[7.1466,6.3051,89.1028],[7.146,6.2992,73.3945],[7.1417,6.2898,37.5978],[7.1317,6.2871,38.0457]]]]}}