{"type":"Feature","properties":{"GID_2":"NGA.5.17_1","GID_0":"NGA","country":"Nigeria","GID_1":"NGA.5_1","province":"Bauchi","NL_NAME_1":"NA","county":"Tafawa-Balewa","VARNAME_2":"NA","NL_NAME_2":"NA","TYPE_2":"LocalAuthority","ENGTYPE_2":"LocalAuthority","CC_2":"NA","HASC_2":"NA","name":"Tafawa-Balewa.county"},
"geometry":{"type": "MultiPolygon","coordinates": [[[[9.6318,10.2314,674.3928],[9.6302,10.2336,677.3342],[9.6231,10.2347,685.0035],[9.6076,10.2336,689.609],[9.6038,10.2328,683.01],[9.5916,10.2246,699.7953],[9.5744,10.2195,678.6042],[9.5716,10.2092,673.3658],[9.5731,10.1996,657.2698],[9.5847,10.1819,635.5561],[9.5988,10.1683,622.8179],[9.5867,10.1618,625.014],[9.5663,10.1621,635.9333],[9.5312,10.1502,738.6019],[9.4787,10.1256,607.8707],[9.5006,10.1189,601.6255],[9.5345,10.0963,597.7679],[9.5624,10.0816,584.7958],[9.5723,10.0742,582.7063],[9.5771,10.0668,571.5344],[9.581,10.0568,579.1545],[9.5808,10.0469,586.5606],[9.5776,10.0439,590.23],[9.5676,10.0425,599.6625],[9.5609,10.044,601.9557],[9.5571,10.041,595.2338],[9.5576,10.0306,583.3605],[9.5645,10.0204,577.9955],[9.5661,10.0148,574.4359],[9.563,10.0021,581.3936],[9.5549,9.992,587.5068],[9.5665,9.9834,595.356],[9.5908,9.9821,576.6389],[9.6077,9.9839,562.184],[9.6106,9.9711,581.6916],[9.596,9.9185,602.6234],[9.5858,9.8987,591.1169],[9.5737,9.8898,588.3411],[9.5699,9.8889,595.5692],[9.5345,9.8986,676.3583],[9.5202,9.9002,643.9653],[9.478,9.9014,786.5201],[9.4231,9.8963,816.877],[9.4134,9.8996,830.5488],[9.3905,9.8985,876.0784],[9.3811,9.8817,816.7808],[9.3718,9.8716,655.6856],[9.3282,9.8362,802.7787],[9.3152,9.8282,829.2793],[9.2906,9.8209,877.1884],[9.269,9.8168,911.4765],[9.228,9.8174,943.5018],[9.2109,9.8108,1147.0369],[9.1949,9.8152,1173.9518],[9.1779,9.7889,1169.4308],[9.1612,9.7519,934.7738],[9.1596,9.7406,960.8511],[9.1598,9.7249,997.0298],[9.1696,9.7112,1013.2524],[9.2156,9.6958,1003.9843],[9.2329,9.6885,1019.2382],[9.2456,9.6771,989.0505],[9.2545,9.6678,946.0787],[9.26,9.6585,946.8644],[9.2867,9.5932,1060.6792],[9.3119,9.5717,1070.8021],[9.3364,9.5632,1307.7179],[9.4139,9.559,1037.1202],[9.4171,9.5576,1039.5933],[9.4238,9.5673,996.6508],[9.4273,9.5865,1205.2643],[9.4596,9.6302,810.6319],[9.4735,9.6559,809.6593],[9.4806,9.6784,743.2043],[9.4935,9.7015,700.1478],[9.5014,9.7119,714.5566],[9.5198,9.7234,715.0905],[9.5671,9.719,639.9609],[9.5957,9.7226,628.9634],[9.6345,9.7307,598.7812],[9.6609,9.7248,590.1808],[9.7013,9.7218,572.5253],[9.7965,9.682,556.184],[9.8113,9.6586,565.9308],[9.8336,9.6674,586.3938],[9.8589,9.6717,603.5033],[9.8671,9.6983,592.8698],[9.8626,9.7263,579.7752],[9.8459,9.7537,552.8553],[9.8272,9.7768,534.1618],[9.8115,9.7913,552.2716],[9.8163,9.8143,551.619],[9.8452,9.8331,523.7295],[9.8652,9.8429,521.7662],[9.8752,9.8374,525.48],[9.8723,9.8509,521.8824],[9.8691,9.8565,518.8383],[9.8417,9.8864,539.1633],[9.8128,9.9129,547.7698],[9.7729,9.9431,528.4706],[9.7334,9.9672,543.0449],[9.6861,10.0087,547.4563],[9.6506,10.044,577.8557],[9.6319,10.0668,594.1705],[9.6318,10.0858,597.9046],[9.6291,10.095,605.483],[9.6288,10.1121,837.4831],[9.6457,10.1488,602.9816],[9.6517,10.1766,616.7689],[9.6498,10.202,654.8887],[9.638,10.2243,680.0023],[9.6318,10.2314,674.3928]]]]}}