{"type":"Feature","properties":{"GID_2":"NGA.5.18_1","GID_0":"NGA","country":"Nigeria","GID_1":"NGA.5_1","province":"Bauchi","NL_NAME_1":"NA","county":"Toro","VARNAME_2":"NA","NL_NAME_2":"NA","TYPE_2":"LocalAuthority","ENGTYPE_2":"LocalAuthority","CC_2":"NA","HASC_2":"NA","name":"Toro.county"},
"geometry":{"type": "MultiPolygon","coordinates": [[[[9.6062,10.5422,537.5478],[9.5863,10.5675,555.4553],[9.5754,10.593,547.322],[9.5689,10.6268,537.5978],[9.5667,10.6723,535.6083],[9.5882,10.7729,495.9521],[9.6093,10.8299,492.0267],[9.5983,10.8298,493.2964],[9.5892,10.8274,487.5393],[9.5609,10.8182,529.032],[9.5468,10.8117,519.9899],[9.445,10.7804,540.3454],[9.4101,10.7756,549.4882],[9.2703,10.7685,612.0125],[9.2459,10.7569,624.7066],[9.2398,10.7497,615.9343],[9.1998,10.7386,668.9546],[9.1786,10.735,675.1989],[9.0857,10.7269,761.8546],[9.0272,10.7332,843.7222],[9.0106,10.7484,844.649],[9.0005,10.7685,900.1606],[8.9874,10.7795,737.915],[8.9644,10.7856,730.1587],[8.9439,10.7973,707.2337],[8.8961,10.81,885.392],[8.8706,10.8078,925.1293],[8.8553,10.8039,800.9414],[8.8401,10.7944,701.9009],[8.8295,10.7848,673.1536],[8.8143,10.7775,652.894],[8.7894,10.7615,792.498],[8.8069,10.7435,746.4963],[8.8193,10.717,706.5509],[8.8206,10.685,714.8632],[8.8127,10.6528,721.0389],[8.7991,10.6234,738.2353],[8.7804,10.5946,751.6181],[8.7693,10.5803,773.4011],[8.7572,10.558,794.024],[8.7456,10.5503,806.9938],[8.7413,10.5491,816.9027],[8.7437,10.5346,850.3409],[8.7346,10.5017,823.4881],[8.7327,10.4858,831.1157],[8.7248,10.4668,801.3064],[8.6987,10.4289,775.5782],[8.6947,10.4187,770.4433],[8.6991,10.407,756.6421],[8.7165,10.3935,763.8775],[8.7291,10.389,780.7207],[8.7442,10.3791,824.3807],[8.785,10.3357,835.897],[8.7914,10.3407,828.9595],[8.8098,10.3435,820.8325],[8.8365,10.3438,814.4584],[8.8612,10.3423,859.3428],[8.8869,10.3363,1001.2838],[8.9061,10.3281,1208.2512],[8.9117,10.3219,1061.4573],[8.9237,10.3029,979.7361],[8.9482,10.2617,1102.7369],[8.9579,10.2266,1072.7614],[8.9608,10.1848,871.5065],[8.9587,10.1682,880.3762],[8.9616,10.1429,875.9689],[8.9602,9.9865,983.7682],[8.9947,9.9973,890.6083],[9.0411,10.0032,917.927],[9.1133,10.0188,919.2932],[9.1374,10.0216,938.4356],[9.1545,10.0183,1055.3936],[9.1696,10.0063,1138.1218],[9.1835,9.9875,1046.5488],[9.195,9.9612,1197.2797],[9.1992,9.9375,950.6629],[9.1981,9.8993,1100.6198],[9.199,9.8755,1253.649],[9.2034,9.8423,1165.5437],[9.1997,9.8235,1029.7798],[9.1949,9.8152,1173.9518],[9.2109,9.8108,1147.0369],[9.228,9.8174,943.5018],[9.269,9.8168,911.4765],[9.2906,9.8209,877.1884],[9.3152,9.8282,829.2793],[9.3282,9.8362,802.7787],[9.3718,9.8716,655.6856],[9.3811,9.8817,816.7808],[9.3905,9.8985,876.0784],[9.386,9.8984,862.322],[9.3867,9.9011,838.4332],[9.38,9.9118,792.9489],[9.3742,9.9322,813.7381],[9.3555,9.9588,818.5621],[9.353,9.985,776.0105],[9.3815,10.0596,740.2734],[9.4004,10.088,675.8637],[9.411,10.0989,676.637],[9.4246,10.1079,681.439],[9.4573,10.1202,623.8314],[9.4686,10.1212,623.2157],[9.5017,10.136,629.3218],[9.5165,10.1443,703.3164],[9.5663,10.1621,635.9333],[9.5809,10.161,628.8746],[9.593,10.1645,617.7598],[9.5988,10.1683,622.8179],[9.5847,10.1819,635.5561],[9.5731,10.1996,657.2698],[9.5716,10.2092,673.3658],[9.5744,10.2195,678.6042],[9.5916,10.2246,699.7953],[9.6038,10.2328,683.01],[9.6076,10.2336,689.609],[9.6231,10.2347,685.0035],[9.6302,10.2336,677.3342],[9.6318,10.2314,674.3928],[9.629,10.2416,686.105],[9.6294,10.2632,675.9976],[9.6412,10.2923,651.4398],[9.644,10.3147,633.1858],[9.64,10.3826,598.5964],[9.6241,10.51,540.9269],[9.6185,10.5257,545.1507],[9.6062,10.5422,537.5478]]]]}}