{"type":"Feature","properties":{"GID_2":"NGA.31.30_1","GID_0":"NGA","country":"Nigeria","GID_1":"NGA.31_1","province":"Oyo","NL_NAME_1":"NA","county":"OyoWest","VARNAME_2":"NA","NL_NAME_2":"NA","TYPE_2":"LocalAuthority","ENGTYPE_2":"LocalAuthority","CC_2":"NA","HASC_2":"NA","name":"Oyo_West.county"},
"geometry":{"type": "MultiPolygon","coordinates": [[[[3.9262,7.7931,280.4404],[3.9436,7.8368,300.8246],[3.9472,7.8598,285.4598],[3.944,7.8744,300.3296],[3.9311,7.8912,278.4681],[3.9299,7.9029,265.0222],[3.9257,7.9111,263.4502],[3.9274,7.9316,249.6809],[3.9169,7.9635,290.8654],[3.9069,7.9757,307.4225],[3.8994,7.9823,285.0345],[3.8936,7.9923,287.5168],[3.8925,8.0004,283.218],[3.881,8.0134,296.0756],[3.8533,8.0259,304.1727],[3.8458,8.0343,288.9086],[3.8281,8.0404,260.9156],[3.796,8.066,295.328],[3.7734,8.0918,237.6254],[3.7612,8.1083,277.6407],[3.7588,8.1171,288.3657],[3.7437,8.1268,303.6786],[3.7331,8.1249,250.223],[3.7281,8.1222,230.6181],[3.7285,8.0568,221.3117],[3.7341,8.0337,228.9409],[3.7366,8.0131,215.6582],[3.7436,7.9918,218.5048],[3.7417,7.9725,208.5466],[3.7258,7.9453,220.4142],[3.72,7.9305,220.2108],[3.7184,7.9141,216.9914],[3.7187,7.8904,198.2885],[3.724,7.8746,192.6291],[3.7232,7.8564,189.959],[3.7265,7.845,205.5901],[3.7406,7.8485,221.039],[3.7544,7.8603,222.3102],[3.7644,7.8534,209.3603],[3.7809,7.8453,204.8364],[3.7869,7.8457,214.738],[3.7972,7.8423,221.3389],[3.8143,7.8397,240.5083],[3.8235,7.8407,244.2507],[3.8482,7.8393,293.0953],[3.8638,7.8338,266.4863],[3.8915,7.8204,287.2989],[3.8969,7.8132,294.2779],[3.9058,7.8093,298.499],[3.9112,7.7998,310.3898],[3.9187,7.7941,299.4351],[3.9262,7.7931,280.4404]]]]}}