{"type": "Feature","bbox": [3.8859,7.3758,3.9383,7.4431],"geometry": {"type": "MultiPolygon","coordinates": [[[[3.888,7.4368,206.3307],[3.8859,7.4055,213.7138],[3.8897,7.3992,186.3637],[3.9074,7.3952,195.2162],[3.9092,7.3922,211.2841],[3.9073,7.3853,188.2617],[3.9145,7.3758,206.1729],[3.9318,7.3891,224.4315],[3.9322,7.3985,221.1291],[3.9357,7.4021,222.1983],[3.9383,7.4094,222.6159],[3.9349,7.4121,241.7229],[3.935,7.4164,236.6779],[3.912,7.438,209.7099],[3.9096,7.4431,211.8707],[3.8999,7.4408,201.0268],[3.8934,7.4411,206.6001],[3.888,7.4368,206.3307]]]]}
,"properties": {"GID_2": "NGA.31.6_1","GID_0": "NGA","country": "Nigeria","GID_1": "NGA.31_1","province": "Oyo","NL_NAME_1": "NA","county": "IbadanNorth","VARNAME_2": "NA","NL_NAME_2": "NA","TYPE_2": "LocalAuthority","ENGTYPE_2": "LocalAuthority","CC_2": "NA","HASC_2": "NA","name": "Ibadan_North.county","area_km2": 26.26028,"hist_schema_id": "Elevation0-9000","hist_area_km2": {"175": 0.0841,"200": 9.01977,"225": 13.79235,"250": 3.19585,"275": 0.1682}}}