{"type": "Feature","bbox": [9.0033,7.4903,9.4653,7.9185],"geometry": {"type": "MultiPolygon","coordinates": [[[[9.3121,7.4903,149.288],[9.3265,7.4955,148.7993],[9.3291,7.4947,156.8309],[9.3397,7.4968,157.9731],[9.3739,7.5121,192.116],[9.3936,7.526,176.1249],[9.3951,7.5344,164.5681],[9.4136,7.5448,141.8419],[9.4445,7.5738,152.2637],[9.4568,7.5784,155.7808],[9.4653,7.5851,166.9929],[9.4491,7.5923,162.3035],[9.4374,7.6043,146.6491],[9.42,7.6261,127.8756],[9.3987,7.6469,128.9331],[9.3844,7.6651,145.9282],[9.3807,7.6825,161.0826],[9.3739,7.7021,145.0264],[9.3774,7.7125,155.8192],[9.3794,7.7297,172.0388],[9.3762,7.7463,155.098],[9.3818,7.7521,160.8987],[9.3786,7.7639,136.2449],[9.3815,7.7777,156.8196],[9.3784,7.7829,143.145],[9.3793,7.7949,125.1431],[9.3849,7.8053,128.1463],[9.3808,7.8149,115.3166],[9.3851,7.8306,114.6217],[9.3869,7.8491,115.7499],[9.3862,7.8656,156.3592],[9.3585,7.8669,158.941],[9.3329,7.862,157.7328],[9.311,7.8623,156.4239],[9.2875,7.8571,152.3241],[9.2378,7.8515,144.7798],[9.2018,7.8406,160.9057],[9.1837,7.8304,161.332],[9.1516,7.8176,95.2498],[9.139,7.8091,119.1925],[9.1216,7.8112,144.1178],[9.1082,7.8184,121.0175],[9.1121,7.8301,105.8588],[9.1283,7.8535,83.4357],[9.1373,7.8631,83.9264],[9.1419,7.8756,78.5119],[9.1484,7.8809,81.6853],[9.1573,7.9006,82.4526],[9.1713,7.913,75.9902],[9.1694,7.9145,72.7246],[9.1583,7.9144,76.0367],[9.1476,7.9121,73.0744],[9.1229,7.9185,104.285],[9.1099,7.9168,97.2796],[9.0957,7.9171,96.6998],[9.0725,7.9129,77.1549],[9.0652,7.9102,76.9646],[9.0246,7.8723,78.9957],[9.0237,7.8677,77.2115],[9.0167,7.8626,80.6138],[9.0161,7.8563,77.7524],[9.0116,7.8488,75.2025],[9.0125,7.8437,76.1055],[9.0033,7.8278,74.805],[9.0038,7.8213,80.6445],[9.0079,7.8144,82.379],[9.0112,7.8026,92.4292],[9.0161,7.7951,112.1207],[9.0272,7.7518,161.2417],[9.0283,7.7271,116.6312],[9.0387,7.7029,128.0283],[9.0379,7.6922,113.1114],[9.041,7.6809,134.4875],[9.0402,7.6611,125.106],[9.0362,7.6565,120.3547],[9.0567,7.659,152.5863],[9.0722,7.6584,135.4123],[9.0749,7.6534,148.69],[9.094,7.6403,176.0615],[9.1018,7.6375,172.1372],[9.1144,7.6228,148.4029],[9.1253,7.6128,135.8515],[9.1327,7.602,105.5667],[9.1469,7.5863,109.387],[9.158,7.5586,84.3573],[9.1665,7.5498,80.71],[9.1745,7.5468,84.9893],[9.2261,7.5452,119.2151],[9.2345,7.5464,120.5639],[9.267,7.539,128.0673],[9.2746,7.5349,132.6237],[9.2846,7.5238,120.0276],[9.2924,7.5188,118.4817],[9.3007,7.5077,118.9265],[9.3126,7.4964,144.4779],[9.3121,7.4903,149.288]]]]}
,"properties": {"GID_2": "NGA.7.12_1","GID_0": "NGA","country": "Nigeria","GID_1": "NGA.7_1","province": "Benue","NL_NAME_1": "NA","county": "Logo","VARNAME_2": "NA","NL_NAME_2": "NA","TYPE_2": "LocalAuthority","ENGTYPE_2": "LocalAuthority","CC_2": "NA","HASC_2": "NA","name": "Logo.county","area_km2": 1383.168,"hist_schema_id": "Elevation0-9000","hist_area_km2": {"75": 110.291,"100": 144.835,"125": 282.766,"150": 390.962,"175": 254.834,"200": 119.418,"225": 46.68,"250": 21.87,"275": 8.991,"300": 2.038,"325": 0.42,"350": 0.063}}}