{"type": "Feature","bbox": [9.6443,6.5106,10.284,7.2833],"geometry": {"type": "MultiPolygon","coordinates": [[[[9.9465,6.8511,446.5468],[9.9644,6.8693,980.5831],[9.9899,6.8916,493.0893],[10.0032,6.9011,702.9192],[10.0134,6.9031,829.8568],[10.0201,6.9205,765.2799],[10.0483,6.9395,384.9412],[10.0658,6.96,445.8708],[10.0795,6.9691,456.8419],[10.1177,7.0055,224.841],[10.1346,7.0189,217.6023],[10.1551,7.0395,201.3878],[10.1493,7.0652,223.8482],[10.1582,7.0759,228.5278],[10.1989,7.1042,726.8954],[10.2264,7.1205,819.2026],[10.2482,7.1404,266.1031],[10.2612,7.1656,208.9753],[10.2626,7.1845,209.3067],[10.2716,7.2186,197.4512],[10.2749,7.2629,168.9467],[10.2776,7.2701,163.7059],[10.281,7.2724,168.7749],[10.284,7.2814,179.4638],[10.2489,7.2833,175.6038],[10.2413,7.2813,194.0705],[10.228,7.2822,212.8212],[10.224,7.2776,232.0974],[10.2081,7.2802,215.8601],[10.1856,7.2777,211.0226],[10.16,7.2698,197.2719],[10.1489,7.2695,209.4642],[10.1418,7.2655,197.2513],[10.1326,7.2653,197.7572],[10.1015,7.2559,213.5005],[10.0819,7.2566,229.7995],[10.0596,7.2522,238.4725],[10.0499,7.2546,238.8669],[10.0328,7.2554,255.8077],[10.0136,7.2508,268.6424],[9.9999,7.2503,268.4424],[9.9923,7.2515,254.4631],[9.9727,7.2598,251.0555],[9.9592,7.2608,235.6952],[9.922,7.2602,210.0224],[9.879,7.2514,231.4981],[9.8821,7.2312,239.66],[9.8797,7.2183,244.3176],[9.873,7.2058,223.3493],[9.8647,7.1952,228.0286],[9.8481,7.1811,223.0547],[9.8148,7.1639,220.0087],[9.783,7.1354,205.5731],[9.7716,7.122,200.1664],[9.7592,7.1114,169.7172],[9.7397,7.0823,191.8783],[9.7097,7.0242,214.8186],[9.7058,7.0119,206.7827],[9.6976,6.9699,246.4232],[9.6874,6.9164,207.9229],[9.6789,6.8458,191.2989],[9.6717,6.8264,199.2813],[9.6816,6.8146,187.4108],[9.6763,6.7971,191.9691],[9.679,6.7828,183.994],[9.6777,6.7634,190.8513],[9.6794,6.6971,339.3586],[9.677,6.6655,354.1898],[9.6727,6.6406,302.8261],[9.6683,6.6317,241.3969],[9.6685,6.6139,220.7213],[9.6581,6.5883,387.2485],[9.6515,6.5654,211.0887],[9.651,6.5495,215.2079],[9.6443,6.5297,207.7326],[9.6451,6.5236,199.4137],[9.65,6.5244,201.6644],[9.6509,6.5284,195.7664],[9.6529,6.529,198.6362],[9.6559,6.5265,203.3933],[9.6563,6.5223,232.8416],[9.6624,6.5195,235.4972],[9.6662,6.5127,208.4269],[9.6697,6.5106,211.6112],[9.6728,6.5112,201.5749],[9.6758,6.5143,203.0644],[9.6865,6.5126,205.1109],[9.6908,6.516,212.5727],[9.6936,6.5161,208.8159],[9.6959,6.515,217.0417],[9.6972,6.5117,221.0408],[9.7015,6.5107,217.3108],[9.7063,6.5156,217.6946],[9.7116,6.5344,258.3574],[9.7105,6.5401,268.5325],[9.7162,6.5538,339.1489],[9.7199,6.5583,395.7193],[9.7188,6.5657,363.3419],[9.7198,6.5707,336.9315],[9.7229,6.5767,335.2791],[9.731,6.611,272.5172],[9.7359,6.6161,239.5819],[9.7357,6.6183,240.6441],[9.7391,6.6246,236.0785],[9.7409,6.6349,230.1883],[9.7446,6.6406,232.4424],[9.7451,6.6499,230.3192],[9.7515,6.6557,211.5969],[9.7531,6.6741,207.8962],[9.7507,6.6783,208.1743],[9.7514,6.6795,211.6749],[9.7561,6.6788,207.1539],[9.7594,6.6809,208.819],[9.7644,6.6807,196.2324],[9.7639,6.6911,193.2631],[9.7589,6.6926,188.3362],[9.7561,6.6957,195.8073],[9.76,6.704,186.1037],[9.7617,6.7123,184.14],[9.7594,6.7171,188.2189],[9.7642,6.7246,186.0289],[9.7656,6.7298,182.0001],[9.7653,6.7401,182.2738],[9.7684,6.7491,180.8528],[9.7684,6.7551,179.5054],[9.7634,6.7573,182.7391],[9.7627,6.7593,199.5333],[9.7697,6.7662,178.5143],[9.7731,6.7819,182.4103],[9.7794,6.7945,178.8398],[9.7828,6.7947,190.4889],[9.7868,6.791,188.193],[9.7943,6.7902,192.4636],[9.7966,6.7867,185.7754],[9.8031,6.7867,186.5497],[9.8075,6.7916,190.4193],[9.8098,6.7908,196.9208],[9.8116,6.7873,187.5296],[9.821,6.7826,190.3879],[9.8264,6.7848,191.7683],[9.8452,6.7801,189.0901],[9.8561,6.7816,207.0509],[9.8639,6.7765,203.8549],[9.8884,6.7954,231.0449],[9.9465,6.8511,446.5468]]]]}
,"properties": {"GID_2": "NGA.35.13_1","GID_0": "NGA","country": "Nigeria","GID_1": "NGA.35_1","province": "Taraba","NL_NAME_1": "NA","county": "Ussa","VARNAME_2": "NA","NL_NAME_2": "NA","TYPE_2": "LocalAuthority","ENGTYPE_2": "LocalAuthority","CC_2": "NA","HASC_2": "NA","name": "Ussa.county","area_km2": 2432.574,"hist_schema_id": "Elevation0-9000","hist_area_km2": {"150": 0.736,"175": 129.728,"200": 402.908,"225": 494.297,"250": 346.9,"275": 168.385,"300": 79.267,"325": 50.087,"350": 42.618,"375": 45.334,"400": 46.45,"425": 46.134,"450": 42.157,"475": 44.557,"500": 43.568,"525": 38.116,"550": 35.949,"575": 31.024,"600": 30.498,"625": 28.583,"650": 27.404,"675": 25.657,"700": 24.267,"725": 23.595,"750": 20.984,"775": 19.553,"800": 17.47,"825": 16.944,"850": 15.408,"875": 12.629,"900": 12.04,"925": 10.567,"950": 8.799,"975": 7.431,"1000": 6.168,"1025": 5.958,"1050": 4.989,"1075": 4.042,"1100": 4.126,"1125": 3.095,"1150": 2.105,"1175": 2.105,"1200": 1.558,"1225": 1.411,"1250": 0.99,"1275": 0.927,"1300": 0.59,"1325": 0.758,"1350": 1.137,"1375": 0.99,"1400": 1.327,"1425": 0.253}}}