{"type":"Feature","properties":{"GID_2":"NGA.17.2_1","GID_0":"NGA","country":"Nigeria","GID_1":"NGA.17_1","province":"Imo","NL_NAME_1":"NA","county":"Ahiazu-Mbaise","VARNAME_2":"NA","NL_NAME_2":"NA","TYPE_2":"LocalAuthority","ENGTYPE_2":"LocalAuthority","CC_2":"NA","HASC_2":"NA","name":"Ahiazu-Mbaise.county"},
"geometry":{"type": "MultiPolygon","coordinates": [[[[7.3131,5.5015,156.7649],[7.32,5.5162,158.0562],[7.3221,5.532,167.1972],[7.3122,5.5355,166.167],[7.3084,5.5392,166.028],[7.3152,5.5635,168.4698],[7.3154,5.5771,177.2538],[7.3114,5.5857,125.5586],[7.3085,5.5883,120.5367],[7.3079,5.5945,108.3107],[7.3011,5.6038,125.5576],[7.289,5.5962,163.2113],[7.237,5.5983,159.2766],[7.2359,5.5937,143.9986],[7.2385,5.5863,156.9741],[7.2377,5.578,153.2107],[7.2269,5.5632,127.4663],[7.2294,5.5479,151.1405],[7.2262,5.5382999999999996,146.0096],[7.2281,5.5228,139.0469],[7.2228,5.5139,139.5511],[7.221,5.5151,143.1559],[7.2197,5.503,128.7433],[7.2241,5.5061,127.7485],[7.2254,5.4998,129.287],[7.2279,5.4966,135.8628],[7.2401,5.4955,134.9601],[7.2512,5.4996,145.8769],[7.2722,5.5018,145.4254],[7.3131,5.5015,156.7649]]]]}}