{"type":"Feature","properties":{"GID_2":"NGA.4.8_1","GID_0":"NGA","country":"Nigeria","GID_1":"NGA.4_1","province":"Anambra","NL_NAME_1":"NA","county":"Dunukofia","VARNAME_2":"NA","NL_NAME_2":"NA","TYPE_2":"LocalAuthority","ENGTYPE_2":"LocalAuthority","CC_2":"NA","HASC_2":"NA","name":"Dunukofia.county"},
"geometry":{"type": "MultiPolygon","coordinates": [[[[6.9437,6.3022,72.0142],[6.9349,6.2817,57.0767],[6.9352,6.2704,80.1138],[6.9277,6.2471,111.5034],[6.9251,6.2183,92.2247],[6.9164,6.191,142.1497],[6.8892,6.1636,149.5297],[6.8907,6.1562,139.4819],[6.8843,6.1456,138.1414],[6.9062,6.1432,158.6001],[6.9089,6.1548,145.8761],[6.9175,6.1613,156.5109],[6.9233,6.163,153.1935],[6.9357,6.1596,188.0478],[6.9361,6.1693,181.2084],[6.9286,6.1795,132.4504],[6.938,6.1888,123.4284],[6.9485,6.1921,140.6721],[6.9517,6.196,155.2268],[6.9523,6.2013,178.2973],[6.952,6.2116,179.0671],[6.9431,6.2189,145.3064],[6.9411,6.224,133.3083],[6.9613,6.2331,135.766],[6.9802,6.2504,112.6192],[6.9751,6.2677,84.2346],[6.9671,6.2777,93.187],[6.956,6.2848,83.0826],[6.9543,6.2939,77.8624],[6.9437,6.3022,72.0142]]]]}}