{"type": "Feature","bbox": [4.9309,12.2446,5.3452,12.7826],"geometry": {"type": "MultiPolygon","coordinates": [[[[5.1256,12.7826,283.0808],[5.1065,12.771,285.0267],[5.1027,12.7642,283.8359],[5.0989,12.7376,295.909],[5.1017,12.719,291.5042],[5.1049,12.7119,289.6635],[5.1333,12.6868,285.1508],[5.1381,12.6799,296.4711],[5.1379,12.6677,274.6794],[5.1286,12.6457,258.17],[5.1256,12.6422,254.3355],[5.1065,12.6378,246.2012],[5.0925,12.6372,246.2864],[5.0704,12.6411,246.0],[5.0582,12.6416,246.0],[5.0465,12.6394,246.0],[5.0361,12.6347,254.9842],[5.0268,12.629,258.835],[5.0053,12.596,279.3838],[4.9736,12.5718,278.6225],[4.9544,12.5608,261.2484],[4.9405,12.5557,281.5554],[4.9467,12.5148,293.8663],[4.9413,12.4953,292.2961],[4.9389,12.4727,290.5313],[4.9309,12.447,311.5688],[4.9321,12.4426,313.3427],[4.9345,12.4371,304.7068],[4.9419,12.4286,283.2762],[4.9678,12.4179,299.8683],[4.9957,12.4163,329.9605],[5.0018,12.4173,326.8519],[5.0059,12.425,328.2244],[5.0058,12.431,317.7695],[5.0003,12.4692,295.5006],[5.0046,12.4781,289.7999],[5.0074,12.4938,285.5945],[5.011,12.4994,286.7083],[5.0156,12.5052,286.4106],[5.03,12.5164,279.6912],[5.0395,12.5191,260.8135],[5.0475,12.5199,256.8218],[5.0707,12.513,274.1278],[5.0821,12.5055,282.3489],[5.0864,12.4993,287.3638],[5.1019,12.4654,307.0011],[5.1193,12.4423,329.0276],[5.1248,12.4239,329.1426],[5.1302,12.4177,328.4075],[5.1559,12.3935,309.806],[5.1694,12.3849,295.1404],[5.1843,12.3719,279.195],[5.1907,12.369,273.827],[5.1968,12.3684,272.3214],[5.2076,12.3632,259.1361],[5.2261,12.347,263.0751],[5.2307,12.3404,263.1279],[5.2406,12.3218,259.6723],[5.2416,12.3158,258.9823],[5.235,12.3003,258.4194],[5.2352,12.2892,262.8259],[5.2327,12.283,265.0042],[5.2308,12.2693,264.9724],[5.2415,12.2461,264.3529],[5.2853,12.2494,242.1754],[5.328,12.2446,274.8421],[5.3452,12.2478,281.1366],[5.3451,12.2661,277.2171],[5.3408,12.2879,265.5229],[5.3431,12.3053,271.2882],[5.3433,12.3367,265.5816],[5.3401,12.3627,272.6449],[5.3296,12.42,288.9995],[5.3354,12.457,307.1041],[5.3326,12.4715,335.6897],[5.3275,12.4816,311.634],[5.3099,12.4999,283.2822],[5.3056,12.5065,286.262],[5.3026,12.5192,271.4884],[5.3055,12.5561,270.0965],[5.3121,12.5673,264.1349],[5.3141,12.5775,250.6811],[5.3182,12.5838,255.7471],[5.3187,12.6101,261.1047],[5.3158,12.6301,270.7092],[5.3102,12.6439,276.6819],[5.3049,12.6544,288.334],[5.2903,12.6753,274.6779],[5.2699,12.6792,271.1781],[5.2609,12.6835,273.9113],[5.2508,12.6917,271.1221],[5.2229,12.7227,284.7613],[5.2042,12.7391,270.2137],[5.1959,12.7406,271.3447],[5.1543,12.7577,273.8373],[5.1256,12.7826,283.0808]]]]}
,"properties": {"GID_2": "NGA.34.14_1","GID_0": "NGA","country": "Nigeria","GID_1": "NGA.34_1","province": "Sokoto","NL_NAME_1": "NA","county": "Shagari","VARNAME_2": "NA","NL_NAME_2": "NA","TYPE_2": "LocalAuthority","ENGTYPE_2": "LocalAuthority","CC_2": "NA","HASC_2": "NA","name": "Shagari.county","area_km2": 1296.87,"hist_schema_id": "Elevation0-9000","hist_area_km2": {"250": 232.951,"275": 587.27,"300": 395.664,"325": 76.803,"350": 4.182}}}