{"type":"Feature","properties":{"GID_2":"NGA.1.4_1","GID_0":"NGA","country":"Nigeria","GID_1":"NGA.1_1","province":"Abia","NL_NAME_1":"NA","county":"Bende","VARNAME_2":"NA","NL_NAME_2":"NA","TYPE_2":"LocalAuthority","ENGTYPE_2":"LocalAuthority","CC_2":"NA","HASC_2":"NA","name":"Bende.county"},
"geometry":{"type": "MultiPolygon","coordinates": [[[[7.635,5.6413,92.4115],[7.6332,5.6436,102.1427],[7.6385,5.6532,88.7232],[7.6567,5.6796,115.872],[7.6752,5.7015,98.1907],[7.6859,5.7213,141.1674],[7.6883,5.7386,125.4337],[7.6829,5.7732,81.9383],[7.6826,5.7976,74.8893],[7.6808,5.803,66.0114],[7.677,5.807,64.6481],[7.6749,5.8178,63.5433],[7.6615,5.8186,59.9889],[7.6385,5.8229,63.3506],[7.6105,5.8218,63.5738],[7.5418,5.8278,75.196],[7.5327,5.8378,79.5921],[7.5277,5.8341,66.9637],[7.5287,5.8281,68.4909],[7.5272,5.8203,77.797],[7.5322,5.8133,88.1416],[7.5272,5.8021,97.5437],[7.5274,5.7874,103.3744],[7.5231,5.7789,105.731],[7.5271,5.7729,95.7541],[7.5224,5.7667,95.3197],[7.5309,5.7509,98.9144],[7.5427,5.7389,144.9526],[7.5428,5.7143,141.3206],[7.5459,5.7071,127.0399],[7.5478,5.6962,107.2114],[7.5459,5.6928,107.2713],[7.5466,5.6748,118.6417],[7.5045,5.67,115.8481],[7.4908,5.6649,136.7681],[7.4755,5.6631,113.2015],[7.4544,5.6631,95.6407],[7.4539,5.6536,103.3429],[7.463,5.6318,104.3556],[7.4732,5.6173,80.755],[7.4915,5.5769,107.0217],[7.5079,5.5642,141.7152],[7.5324,5.5529,115.3881],[7.5372,5.5531,93.7194],[7.5512,5.5466,88.8095],[7.5627,5.5319,67.9383],[7.5654,5.5111,108.3734],[7.564,5.4867,110.2269],[7.5614,5.4817,78.7814],[7.5481,5.4872,142.7183],[7.5728,5.4718,120.0319],[7.5875,5.4698,107.2123],[7.6001,5.4606,70.2523],[7.6046,5.4533,71.6529],[7.6093,5.4344,109.2741],[7.6192,5.4146,89.2802],[7.6301,5.4021,62.7507],[7.6327,5.4066,55.0093],[7.6364,5.4241,41.0947],[7.6447,5.4343,38.6242],[7.6494,5.4543,33.9916],[7.6498,5.4654,40.4071],[7.6469,5.488,50.9076],[7.6408,5.5112,92.458],[7.6415,5.5134,80.0639],[7.6341,5.5256,68.6127],[7.6312,5.5342,89.6217],[7.6225,5.5475,80.9517],[7.6147,5.5651,106.6721],[7.6146,5.5721,98.7657],[7.6373,5.5809,98.915],[7.6506,5.5913,70.24],[7.6549,5.5981,97.2871],[7.6516,5.6104,72.2116],[7.6432,5.6179,82.5555],[7.6381,5.6281,91.8151],[7.6352,5.636,93.2522],[7.635,5.6413,92.4115]]]]}}