{"type": "Feature","bbox": [8.0251,11.7673,8.2939,11.9655],"geometry": {"type": "MultiPolygon","coordinates": [[[[8.1336,11.9655,518.0],[8.1338,11.9606,518.0],[8.1283,11.9564,516.0383],[8.1145,11.9495,519.272],[8.105,11.9482,523.3583],[8.0666,11.9561,535.5889],[8.0535,11.9562,535.4008],[8.0463,11.9535,533.5],[8.0326,11.9432,543.8839],[8.0251,11.9323,547.3441],[8.0412,11.9306,538.6428],[8.0483,11.9252,537.8843],[8.0542,11.9257,530.6403],[8.0678,11.9236,528.9307],[8.0927,11.9184,523.0844],[8.0972,11.9189,519.7561],[8.1019,11.9166,516.4711],[8.1072,11.9079,508.3952],[8.1007,11.8975,512.3226],[8.0959,11.8926,517.2454],[8.0842,11.8904,524.5951],[8.0789,11.8873,531.0646],[8.0753,11.8755,524.9601],[8.0785,11.8645,527.034],[8.0819,11.8569,528.5361],[8.093,11.8464,521.485],[8.1153,11.8357,504.9409],[8.1201,11.8355,501.1154],[8.1289,11.829,497.0529],[8.1302,11.8221,498.9082],[8.1274,11.8172,498.5494],[8.1287,11.8121,495.0004],[8.1358,11.8021,487.4897],[8.1413,11.7976,481.5987],[8.1585,11.7918,472.5866],[8.1742,11.7899,480.9328],[8.1763,11.7808,472.3656],[8.1825,11.7728,488.3958],[8.1894,11.7673,490.3105],[8.1984,11.77,487.4021],[8.2025,11.7744,486.4966],[8.2201,11.7795,482.204],[8.2306,11.7787,474.2857],[8.236,11.7802,473.5277],[8.2477,11.7761,477.4333],[8.2493,11.7822,465.6406],[8.2538,11.7839,462.0662],[8.2602,11.7904,462.6854],[8.2648,11.7924,465.862],[8.268,11.8011,467.5468],[8.2862,11.817,462.9517],[8.2923,11.8236,458.5206],[8.2907,11.824,458.0851],[8.2939,11.8284,455.4036],[8.2806,11.8352,463.6821],[8.2562,11.8427,470.6138],[8.2643,11.8748,478.7737],[8.2575,11.9056,492.2168],[8.2538,11.9136,490.0455],[8.2489,11.919,494.026],[8.2373,11.9233,501.2879],[8.2286,11.922,503.9911],[8.2101,11.9056,502.2008],[8.202,11.903,504.6271],[8.1964,11.905,510.5545],[8.188,11.9095,513.8824],[8.1836,11.9147,511.4816],[8.1724,11.936,517.2638],[8.1594,11.9528,530.807],[8.1533,11.9569,525.3669],[8.1395,11.9593,520.2322],[8.1362,11.9625,518.0],[8.1357,11.9651,518.0],[8.1336,11.9655,518.0]]]]}
,"properties": {"GID_2": "NGA.20.20_1","GID_0": "NGA","country": "Nigeria","GID_1": "NGA.20_1","province": "Kano","NL_NAME_1": "NA","county": "Kabo","VARNAME_2": "NA","NL_NAME_2": "NA","TYPE_2": "LocalAuthority","ENGTYPE_2": "LocalAuthority","CC_2": "NA","HASC_2": "NA","name": "Kabo.county","area_km2": 314.5145,"hist_schema_id": "Elevation0-9000","hist_area_km2": {"450": 7.1598,"475": 74.5017,"500": 137.4027,"525": 93.3553,"550": 2.0951}}}