{"type":"Feature","properties":{"GID_2":"NGA.22.12_1","GID_0":"NGA","country":"Nigeria","GID_1":"NGA.22_1","province":"Kebbi","NL_NAME_1":"NA","county":"Jega","VARNAME_2":"NA","NL_NAME_2":"NA","TYPE_2":"LocalAuthority","ENGTYPE_2":"LocalAuthority","CC_2":"NA","HASC_2":"NA","name":"Jega.county"},
"geometry":{"type": "MultiPolygon","coordinates": [[[[4.3666,12.254,230.1942],[4.3306,12.2418,194.325],[4.3081,12.2307,189.9458],[4.32,12.2063,196.9705],[4.3231,12.1861,216.3359],[4.333,12.1635,222.1445],[4.3443,12.1445,239.2469],[4.3521,12.1247,233.2148],[4.3683,12.1034,238.9904],[4.3779,12.0719,245.8132],[4.3778,12.0507,254.7464],[4.4042,12.0258,262.1527],[4.4124,12.0033,256.3292],[4.4063,11.9916,267.6663],[4.3847,11.9817,279.1201],[4.3745,11.9742,253.7165],[4.3963,11.9128,285.9266],[4.4274,11.8801,254.405],[4.448,11.8831,259.2321],[4.466,11.8817,267.6604],[4.4821,11.8687,271.5875],[4.5021,11.8623,256.3113],[4.5578,11.8359,263.2652],[4.5782,11.8292,257.4757],[4.5902,11.8282,248.233],[4.5925,11.843,263.7497],[4.5987,11.8645,287.7713],[4.6091,11.889099999999999,307.6413],[4.6155,11.9307,281.1365],[4.6171,11.9636,247.5234],[4.6141,12.0053,284.8068],[4.6082,12.027,287.6099],[4.6053,12.0653,275.3617],[4.6051,12.0925,249.9563],[4.6074,12.1112,241.2646],[4.6027,12.1382,235.837],[4.6029,12.1486,233.5583],[4.582,12.1509,247.5687],[4.5558,12.1492,254.2128],[4.5497,12.1512,253.1539],[4.5341,12.1607,285.3177],[4.5244,12.1689,286.7119],[4.5105,12.1734,243.7118],[4.4952,12.1746,270.9769],[4.464,12.1703,232.6562],[4.4471,12.1715,230.0641],[4.4388,12.1788,218.0684],[4.4254,12.1808,206.0889],[4.3978,12.1975,193.9758],[4.3748,12.2317,223.8014],[4.3666,12.254,230.1942]]]]}}