{"type": "Feature","bbox": [5.1126,7.5131,5.3957,7.671],"geometry": {"type": "MultiPolygon","coordinates": [[[[5.1959,7.5679,415.9073],[5.2398,7.5462,394.2407],[5.2774,7.5223,372.0739],[5.3022,7.5131,339.9622],[5.3212,7.5155,355.098],[5.3455,7.5149,347.2543],[5.3568,7.523,362.3998],[5.3685,7.5348,366.3007],[5.3746,7.555,370.8875],[5.3727,7.5647,367.9506],[5.3742,7.5702,368.3217],[5.3868,7.5808,390.0192],[5.3951,7.5915,399.796],[5.3957,7.5995,397.4833],[5.3768,7.6054,393.8301],[5.3694,7.6048,387.7028],[5.361,7.6105,365.2438],[5.365,7.6319,389.678],[5.3782,7.6461,387.4262],[5.386,7.652,375.1711],[5.3745,7.6582,367.6755],[5.365,7.6586,364.9717],[5.3556,7.6624,358.2011],[5.2965,7.671,383.5866],[5.2861,7.6707,376.6917],[5.2701,7.6676,371.4279],[5.2625,7.6686,375.0472],[5.249,7.6599,371.239],[5.2411,7.6595,383.2719],[5.2328,7.656,383.2957],[5.2079,7.6412,422.7908],[5.1773,7.633,470.4168],[5.1595,7.6314,545.6125],[5.1389,7.6166,515.0551],[5.1306,7.6137,525.3267],[5.1126,7.5993,569.4772],[5.1238,7.5929,525.7479],[5.128,7.5958,536.8241],[5.1439,7.5934,475.3236],[5.1743,7.5805,626.8647],[5.1959,7.5679,415.9073]]]]}
,"properties": {"GID_2": "NGA.13.1_1","GID_0": "NGA","country": "Nigeria","GID_1": "NGA.13_1","province": "Ekiti","NL_NAME_1": "NA","county": "Ado-Ekiti","VARNAME_2": "NA","NL_NAME_2": "NA","TYPE_2": "LocalAuthority","ENGTYPE_2": "LocalAuthority","CC_2": "NA","HASC_2": "NA","name": "Ado-Ekiti.county","area_km2": 323.3119,"hist_schema_id": "Elevation0-9000","hist_area_km2": {"325": 2.3752,"350": 81.6928,"375": 101.6512,"400": 39.9514,"425": 29.8848,"450": 19.1875,"475": 11.538,"500": 11.559,"525": 11.727,"550": 8.1124,"575": 2.9004,"600": 1.3661,"625": 0.9668,"650": 0.2522,"675": 0.1261,"700": 0.021}}}