{"type": "Feature","bbox": [3.2867,6.6202,3.3323,6.6727],"geometry": {"type": "MultiPolygon","coordinates": [[[[3.3014,6.6204,44.9853],[3.3088,6.622,42.1024],[3.3177,6.6202,44.6346],[3.3251,6.621,46.3615],[3.3273,6.627,47.8306],[3.3289,6.6431,51.178],[3.3323,6.6488,25.7347],[3.3232,6.6434,48.9618],[3.3177,6.6446,40.4885],[3.307,6.6573,53.6705],[3.2896,6.6727,63.1146],[3.2881,6.6698,59.2836],[3.2867,6.6535,39.6762],[3.2895,6.6311,28.8189],[3.2926,6.6248,27.4194],[3.3014,6.6204,44.9853]]]]}
,"properties": {"GID_2": "NGA.25.1_1","GID_0": "NGA","country": "Nigeria","GID_1": "NGA.25_1","province": "Lagos","NL_NAME_1": "NA","county": "Agege","VARNAME_2": "NA","NL_NAME_2": "NA","TYPE_2": "LocalAuthority","ENGTYPE_2": "LocalAuthority","CC_2": "NA","HASC_2": "NA","name": "Agege.county","area_km2": 16.89008,"hist_schema_id": "Elevation0-9000","hist_area_km2": {"25": 4.48581,"50": 12.40427}}}