{"type": "Feature","bbox": [5.2961,7.274,5.5041,7.5395],"geometry": {"type": "MultiPolygon","coordinates": [[[[5.2968,7.5152,341.0598],[5.299,7.5003,346.5683],[5.2962,7.4959,341.2358],[5.2961,7.4915,332.7011],[5.3052,7.4702,334.0157],[5.3064,7.4584,332.125],[5.3033,7.4363,360.3421],[5.3142,7.431,332.4249],[5.3283,7.4278,326.3303],[5.3326,7.4217,332.9705],[5.3337,7.4171,331.254],[5.3443,7.4052,327.0502],[5.3513,7.3921,330.1335],[5.3497,7.3841,320.924],[5.3551,7.3713,324.4552],[5.3625,7.3599,328.0284],[5.368,7.3406,345.6923],[5.3654,7.3268,324.5077],[5.3812,7.2934,331.2001],[5.383,7.2835,336.6716],[5.4198,7.274,319.4814],[5.4451,7.2862,326.4597],[5.4583,7.2951,336.0398],[5.458,7.3054,339.4538],[5.4452,7.3406,341.5413],[5.4431,7.351,350.8982],[5.4346,7.3712,365.9799],[5.4275,7.3999,358.1428],[5.4268,7.4117,371.2055],[5.4298,7.4434,371.6701],[5.4441,7.4577,372.3372],[5.4653,7.4682,370.4716],[5.4748,7.4848,366.1855],[5.4964,7.508,355.153],[5.5026,7.5254,360.4068],[5.5041,7.5371,375.9486],[5.4973,7.5395,374.9577],[5.4772,7.5346,380.0068],[5.4709,7.5319,387.0671],[5.4688,7.5292,396.3329],[5.4525,7.5331,391.1478],[5.4297,7.5238,379.5459],[5.4089,7.5189,385.4994],[5.3972,7.5226,368.4477],[5.3786,7.5171,349.3096],[5.3724,7.5195,353.6173],[5.3546,7.5145,346.528],[5.3212,7.5155,355.098],[5.3022,7.5131,339.9622],[5.2968,7.5152,341.0598]]]]}
,"properties": {"GID_2": "NGA.13.14_1","GID_0": "NGA","country": "Nigeria","GID_1": "NGA.13_1","province": "Ekiti","NL_NAME_1": "NA","county": "Ise/Orun","VARNAME_2": "NA","NL_NAME_2": "NA","TYPE_2": "LocalAuthority","ENGTYPE_2": "LocalAuthority","CC_2": "NA","HASC_2": "NA","name": "Ise_Orun.county","area_km2": 336.4736,"hist_schema_id": "Elevation0-9000","hist_area_km2": {"300": 0.8833,"325": 60.4102,"350": 163.1955,"375": 97.6276,"400": 14.3571}}}