{"type":"Feature","properties":{"GID_2":"NGA.16.1_1","GID_0":"NGA","country":"Nigeria","GID_1":"NGA.16_1","province":"Gombe","NL_NAME_1":"NA","county":"Akko","VARNAME_2":"NA","NL_NAME_2":"NA","TYPE_2":"LocalAuthority","ENGTYPE_2":"LocalAuthority","CC_2":"NA","HASC_2":"NA","name":"Akko.county"},
"geometry":{"type": "MultiPolygon","coordinates": [[[[10.9979,9.8375,321.5516],[11.0058,9.8366,401.4816],[11.0263,9.8596,335.987],[11.053,9.8715,372.2041],[11.0759,9.8932,408.0643],[11.0946,9.925,402.0554],[11.1113,9.9469,447.5421],[11.1371,9.9703,428.1221],[11.1544,9.989,451.5377],[11.173,10.0041,428.5675],[11.1941,10.0179,447.6519],[11.2142,10.0381,418.3418],[11.234,10.036,408.3076],[11.2678,10.0403,385.3627],[11.2846,10.0361,368.9283],[11.3031,10.0384,357.8536],[11.3415,10.0392,353.9173],[11.3497,10.0335,357.6834],[11.3665,10.0303,344.7454],[11.4203,10.0343,355.3403],[11.4303,10.0307,349.1049],[11.4491,10.0115,330.438],[11.4663,10.0053,303.31],[11.4696,9.9969,292.8095],[11.4997,9.9854,272.5514],[11.5029,9.9786,273.2212],[11.5356,9.986,269.1076],[11.5539,10.0088,267.7199],[11.5716,10.0262,259.3957],[11.5379,10.0462,270.7703],[11.5021,10.0746,331.8273],[11.4645,10.0923,306.0847],[11.4432,10.106,303.7999],[11.404,10.1195,330.1155],[11.3774,10.1379,322.8281],[11.3497,10.1528,334.6759],[11.3409,10.1832,348.3076],[11.3294,10.2087,355.019],[11.2914,10.2797,346.3433],[11.2763,10.2905,350.9431],[11.247,10.2938,361.9698],[11.2247,10.3015,472.5999],[11.2155,10.312,406.9528],[11.1927,10.3294,408.395],[11.1747,10.3379,433.8022],[11.1233,10.3561,515.1078],[11.1008,10.3716,497.6042],[11.0777,10.394,498.3856],[11.0719,10.4072,499.4468],[11.0498,10.419,524.0605],[11.0339,10.4305,544.0585],[11.0226,10.4339,562.6817],[10.9996,10.4252,524.941],[10.9663,10.4224,507.1866],[10.9362,10.4171,482.4066],[10.8496,10.4229,413.639],[10.8347,10.4214,401.3753],[10.8497,10.3824,389.2247],[10.8432,10.2871,415.0377],[10.8419,10.2443,427.2709],[10.8484,10.1985,462.9727],[10.8349,10.1703,405.8257],[10.772,10.1602,355.4208],[10.7398,10.1456,329.7871],[10.7187,10.115,299.6112],[10.724,10.0891,318.478],[10.7603,10.0467,374.8117],[10.7933,10.0189,420.794],[10.8337,9.9963,482.7613],[10.8742,9.9635,567.577],[10.9493,9.9094,413.9037],[10.9814,9.8829,381.6201],[10.9949,9.8531,327.8322],[10.9979,9.8375,321.5516]]]]}}