{"type":"Feature","properties":{"GID_2":"NGA.5.5_1","GID_0":"NGA","country":"Nigeria","GID_1":"NGA.5_1","province":"Bauchi","NL_NAME_1":"NA","county":"Darazo","VARNAME_2":"NA","NL_NAME_2":"NA","TYPE_2":"LocalAuthority","ENGTYPE_2":"LocalAuthority","CC_2":"NA","HASC_2":"NA","name":"Darazo.county"},
"geometry":{"type": "MultiPolygon","coordinates": [[[[10.786,11.4387,427.0505],[10.7696,11.426,411.8085],[10.7247,11.412,406.9482],[10.715,11.4054,398.4473],[10.6964,11.3983,393.0873],[10.6546,11.3934,391.3092],[10.637,11.3883,399.9594],[10.6207,11.3305,423.7861],[10.6146,11.3182,423.8917],[10.6137,11.3074,423.8947],[10.6184,11.2598,435.7251],[10.5808,11.2385,437.5219],[10.5543,11.2329,428.3039],[10.5159,11.2088,422.6144],[10.4892,11.2069,420.5522],[10.4741,11.1944,418.0833],[10.4517,11.194,417.3724],[10.4077,11.1813,422.9799],[10.3926,11.1744,435.809],[10.3943,11.1721,434.6318],[10.3764,11.1285,438.8073],[10.3466,11.1064,428.2679],[10.3233,11.0941,430.5431],[10.293,11.085,441.0274],[10.2757,11.0816,444.1885],[10.2855,11.06,436.0356],[10.2877,11.0483,436.7041],[10.2946,10.9714,443.6867],[10.3017,10.9596,450.0149],[10.3128,10.949,451.5808],[10.3156,10.9438,447.5753],[10.3382,10.9288,465.6371],[10.3498,10.9185,464.149],[10.4283,10.8806,482.7323],[10.4399,10.8734,466.9568],[10.4618,10.866,424.1938],[10.4975,10.8584,397.5377],[10.518,10.8614,422.6165],[10.5353,10.8667,441.6043],[10.5565,10.8769,398.4873],[10.589,10.8896,372.567],[10.5993,10.8883,347.3644],[10.6053,10.8834,339.0441],[10.6094,10.8767,334.6545],[10.6087,10.8649,329.299],[10.6024,10.8584,333.459],[10.5736,10.845,361.0349],[10.5574,10.841,377.3984],[10.5452,10.8407,383.5721],[10.5286,10.844,391.16],[10.5134,10.849,388.9989],[10.4951,10.8451,374.917],[10.4866,10.8402,395.3086],[10.4771,10.8276,421.0861],[10.4768,10.8173,437.4327],[10.4793,10.8108,439.6502],[10.488,10.7994,431.3012],[10.5156,10.7783,388.0033],[10.526,10.7729,356.5091],[10.5653,10.7738,322.1762],[10.5954,10.814,316.383],[10.6062,10.8528,322.487],[10.6375,10.9326,370.2099],[10.6419,10.9669,371.9066],[10.6533,11.0115,351.9802],[10.6754,11.0438,364.2661],[10.6987,11.0655,389.9365],[10.7292,11.0758,369.5369],[10.762,11.0796,384.0085],[10.786,11.0918,397.2434],[10.8184,11.1197,394.9207],[10.8358,11.1486,384.4482],[10.86,11.1787,336.9515],[10.9576,11.231,367.813],[10.9946,11.2786,405.4984],[11.0013,11.291,404.2992],[11.0052,11.2893,411.8997],[11.0142,11.2948,421.8087],[10.9652,11.3007,394.2314],[10.9488,11.3113,427.4778],[10.9389,11.3251,462.1245],[10.9403,11.3563,474.3146],[10.9459,11.3772,460.2303],[10.9357,11.3798,475.6223],[10.9228,11.3869,468.0101],[10.8822,11.4126,445.59],[10.86,11.4404,450.0215],[10.8476,11.4438,449.4694],[10.8293,11.4409,438.5533],[10.7981,11.4429,435.1555],[10.786,11.4387,427.0505]]]]}}