{"type": "Feature","bbox": [7.4302,6.3626,7.5738,6.4262],"geometry": {"type": "MultiPolygon","coordinates": [[[[7.4302,6.4182,418.7337],[7.4303,6.4162,408.7382],[7.4477,6.3988,331.7801],[7.4558,6.3948,224.7287],[7.4598,6.3787,206.1037],[7.5243,6.3626,150.9118],[7.5444,6.3626,143.9365],[7.5565,6.3867,128.107],[7.5713,6.3867,130.463],[7.5738,6.3956,129.2419],[7.5651,6.4044,122.4132],[7.552,6.4218,151.2693],[7.5127,6.4218,203.69],[7.5171,6.4175,191.7493],[7.4777,6.4131,245.2476],[7.4646,6.4262,325.6275],[7.4515,6.4262,416.1866],[7.4302,6.4182,418.7337]]]]}
,"properties": {"GID_2": "NGA.14.5_1","GID_0": "NGA","country": "Nigeria","GID_1": "NGA.14_1","province": "Enugu","NL_NAME_1": "NA","county": "EnuguSouth","VARNAME_2": "NA","NL_NAME_2": "NA","TYPE_2": "LocalAuthority","ENGTYPE_2": "LocalAuthority","CC_2": "NA","HASC_2": "NA","name": "Enugu_South.county","area_km2": 70.41671,"hist_schema_id": "Elevation0-9000","hist_area_km2": {"125": 7.31137,"150": 13.71683,"175": 15.65523,"200": 16.26644,"225": 3.47659,"250": 1.83309,"275": 1.34847,"300": 1.51703,"325": 1.812,"350": 1.83306,"375": 1.89625,"400": 1.95946,"425": 1.72768,"450": 0.06321}}}