{"type":"Feature","properties":{"GID_2":"NGA.36.2_1","GID_0":"NGA","country":"Nigeria","GID_1":"NGA.36_1","province":"Yobe","NL_NAME_1":"NA","county":"Borsari","VARNAME_2":"NA","NL_NAME_2":"NA","TYPE_2":"LocalAuthority","ENGTYPE_2":"LocalAuthority","CC_2":"NA","HASC_2":"NA","name":"Borsari.county"},
"geometry":{"type": "MultiPolygon","coordinates": [[[[11.2006,12.4862,346.054],[11.205,12.4846,346.0415],[11.2219,12.4662,347.8351],[11.2368,12.4441,345.7846],[11.256,12.4219,344.4843],[11.2668,12.4057,347.0242],[11.2745,12.397,343.8783],[11.313,12.4027,341.8259],[11.3427,12.4138,343.0516],[11.3658,12.4247,341.4747],[11.3917,12.4308,341.1236],[11.4226,12.4421,338.9633],[11.4635,12.4415,339.4025],[11.4754,12.4515,341.6247],[11.4844,12.4555,338.6379],[11.5103,12.4572,338.391],[11.5215,12.463,338.6745],[11.5332,12.4654,336.9708],[11.5693,12.4693,336.8854],[11.5799,12.462,336.8903],[11.5897,12.4517,337.3722],[11.6191,12.4704,333.572],[11.6471,12.4776,335.1138],[11.6562,12.4825,335.0913],[11.6697,12.4821,334.8405],[11.6746,12.4724,336.9036],[11.6947,12.469,336.7529],[11.7014,12.4814,336.9061],[11.7442,12.5252,330.8381],[11.761,12.5471,332.1554],[11.7725,12.567,331.2943],[11.7799,12.5996,336.4057],[11.7787,12.6293,332.3652],[11.774,12.657,330.0633],[11.7724,12.687,330.8635],[11.7585,12.7243,330.1225],[11.7555,12.748,328.2433],[11.733,12.7974,329.6755],[11.7066,12.8315,328.5695],[11.7105,12.8478,323.0978],[11.7139,12.8543,321.3058],[11.7204,12.8951,329.6937],[11.7193,12.9063,329.877],[11.697,12.9341,330.8075],[11.6492,12.9653,329.037],[11.6085,12.9788,330.5802],[11.5678,12.978,346.7975],[11.5259,12.9664,330.6882],[11.5008,12.9612,330.5478],[11.4792,12.9703,330.9004],[11.4295,12.976,330.3872],[11.3936,12.9768,331.3192],[11.381,12.9801,331.6284],[11.3668,12.9706,331.5613],[11.3407,12.9608,332.2037],[11.2979,12.9483,332.7048],[11.2687,12.9426,332.7304],[11.1925,12.9367,333.1481],[11.1496,12.9355,334.593],[11.1233,12.9295,334.2573],[11.1087,12.9238,334.919],[11.0728,12.9003,334.7465],[11.0605,12.8829,332.3144],[11.051,12.8762,337.7296],[11.0467,12.8676,338.987],[11.0508,12.8368,337.4474],[11.0435,12.8233,336.6182],[11.0282,12.8169,334.2679],[11.0089,12.8184,333.7699],[11.0128,12.7955,337.8611],[11.0277,12.7694,334.9445],[11.0283,12.7584,336.4529],[11.0258,12.7534,337.5026],[11.0355,12.7485,338.1471],[11.0384,12.7413,337.6615],[11.0526,12.7204,338.6665],[11.0669,12.7077,337.6855],[11.1094,12.6817,336.2203],[11.149,12.6445,337.4066],[11.1662,12.6067,338.4595],[11.1691,12.5921,338.9081],[11.1684,12.5745,345.0799],[11.1731,12.557,341.5074],[11.1984,12.5101,346.1841],[11.2015,12.49,344.7404],[11.2006,12.4862,346.054]]]]}}