{"type":"Feature","properties":{"GID_2":"NGA.21.14_1","GID_0":"NGA","country":"Nigeria","GID_1":"NGA.21_1","province":"Katsina","NL_NAME_1":"NA","county":"Funtua","VARNAME_2":"NA","NL_NAME_2":"NA","TYPE_2":"LocalAuthority","ENGTYPE_2":"LocalAuthority","CC_2":"NA","HASC_2":"NA","name":"Funtua.county"},
"geometry":{"type": "MultiPolygon","coordinates": [[[[7.4078,11.3361,651.9402],[7.4052,11.3733,639.2868],[7.3922,11.3914,657.5683],[7.3875,11.3942,664.2159],[7.3855,11.4059,666.4521],[7.3813,11.4121,675.0176],[7.3782,11.4132,676.3433],[7.3744,11.4226,692.7603],[7.3748,11.4289,701.793],[7.3731,11.4337,712.1215],[7.3775,11.4416,702.057],[7.3802,11.4435,706.1661],[7.3795,11.4522,730.7424],[7.3871,11.4567,705.5023],[7.3892,11.46,699.5208],[7.3756,11.4638,707.3342],[7.3673,11.4766,699.7368],[7.3592,11.4957,692.8253],[7.3583,11.5137,683.4311],[7.3614,11.5324,693.0544],[7.3579,11.5485,691.512],[7.3476,11.5768,710.0851],[7.339,11.5779,693.3709],[7.3313,11.5759,689.2972],[7.3031,11.576599999999999,673.2582],[7.2961,11.5783,667.2197],[7.2684,11.5725,648.4174],[7.2623,11.5743,651.229],[7.2462,11.5713,657.1763],[7.2406,11.5782,651.4984],[7.2361,11.5793,649.4657],[7.2363,11.5825,643.2609],[7.2326,11.5818,644.7409],[7.2281,11.5686,648.5035],[7.2128,11.5546,645.3968],[7.2009,11.5558,651.0855],[7.1942,11.5507,650.712],[7.179,11.545,635.7856],[7.167,11.5366,663.0721],[7.1383,11.5244,653.4875],[7.1571,11.5115,677.9338],[7.1601,11.5046,681.0129],[7.1699,11.4932,675.3495],[7.1765,11.4884,672.3005],[7.1905,11.4828,672.6349],[7.1989,11.4866,672.1749],[7.2131,11.483,689.4061],[7.229,11.4853,671.5978],[7.2427,11.4665,679.3031],[7.2468,11.4559,695.4208],[7.2678,11.4287,692.254],[7.2726,11.4165,688.4897],[7.2799,11.405,679.7792],[7.2844,11.382,656.0409],[7.286,11.3596,672.4934],[7.2906,11.3437,663.3586],[7.2973,11.329,663.4374],[7.3,11.3152,647.0615],[7.3122,11.3031,641.4538],[7.3287,11.2947,639.0982],[7.3303,11.2894,636.7081],[7.3307,11.2737,618.1523],[7.3259,11.2661,629.4117],[7.3259,11.2598,619.6254],[7.3492,11.2497,614.4569],[7.3718,11.2511,629.7853],[7.3811,11.2597,641.2076],[7.3825,11.2697,638.2183],[7.381,11.2819,633.481],[7.3864,11.299,640.6418],[7.3932,11.3171,632.8462],[7.4003,11.3292,646.2748],[7.4078,11.3361,651.9402]]]]}}