{"type": "Feature","bbox": [5.8426,5.2046,6.2069,5.767],"geometry": {"type": "MultiPolygon","coordinates": [[[[5.9054,5.6089,9.5794],[5.8991,5.6103,13.7615],[5.8854,5.6011,10.43],[5.8754,5.5988,8.9034],[5.8572,5.5975,8.4305],[5.8473,5.5896,12.5594],[5.8426,5.5818,6.1623],[5.8457,5.5566,10.7227],[5.8521,5.5549,7.4639],[5.8586,5.5557,7.9188],[5.8645,5.5512,13.7861],[5.8673,5.5514,15.3005],[5.8734,5.5474,9.7603],[5.8778,5.5487,9.0963],[5.8829,5.5463,12.4119],[5.8928,5.5471,18.1241],[5.9027,5.5451,13.0423],[5.9064,5.5464,16.2336],[5.913,5.5428,9.0284],[5.9252,5.5403,8.815],[5.9263,5.5371,6.7429],[5.9211,5.5309,7.6867],[5.906,5.5227,9.5963],[5.8934,5.5107,9.9598],[5.8958,5.5065,12.7022],[5.9068,5.4985,11.372],[5.919,5.4969,9.2797],[5.9331,5.5024,17.9199],[5.9451,5.5015,15.5546],[5.9701,5.5036,9.0979],[5.9721,5.4994,7.6353],[5.9699,5.4948,6.5802],[5.959,5.4877,8.1791],[5.9598,5.4826,8.4023],[5.9731,5.4752,10.4103],[5.98,5.4762,9.4382],[5.9906,5.4749,13.0657],[5.9933,5.471,13.0441],[5.9913,5.4645,13.8709],[5.9792,5.4541,19.6443],[5.9786,5.4341,12.307],[5.9803,5.4255,17.4831],[5.9788,5.4166,13.0792],[5.9868,5.4006,9.9789],[5.9946,5.3926,8.9245],[6.0023,5.3874,14.6208],[6.0057,5.3811,13.2449],[6.0116,5.3757,8.8808],[6.0147,5.3669,8.1857],[6.0157,5.3565,10.0097],[6.0144,5.3522,9.2514],[6.0185,5.3334,9.1789],[6.0192,5.3196,9.6886],[6.0174,5.3058,10.0466],[6.0178,5.2885,8.2677],[6.0075,5.2689,5.3135],[6.0056,5.2611,9.233],[6.0133,5.2517,5.366],[6.0191,5.2403,4.0199],[6.0422,5.2174,4.7994],[6.0588,5.2046,11.0036],[6.0732,5.2067,8.2506],[6.1131,5.2194,11.7925],[6.1533,5.2228,9.414],[6.1675,5.2256,20.5039],[6.1465,5.2476,18.919],[6.129,5.2599,17.3063],[6.1106,5.2784,14.0359],[6.1089,5.2851,9.6713],[6.1022,5.2896,10.9863],[6.0991,5.295,9.9855],[6.0914,5.3186,12.7957],[6.0921,5.3449,8.0815],[6.0873,5.3765,12.2314],[6.0886,5.3887,10.7456],[6.0835,5.3985,17.6655],[6.0816,5.3989,17.4506],[6.0797,5.411,10.1493],[6.0771,5.4158,12.6717],[6.07,5.4229,19.365],[6.0649,5.434,10.3368],[6.0571,5.439,14.7814],[6.0471,5.4488,20.1657],[6.0468,5.459,20.4621],[6.0481,5.4673,21.4379],[6.0562,5.4789,18.2825],[6.0612,5.4931,18.8376],[6.0797,5.5241,11.5074],[6.086,5.5277,13.264],[6.0893,5.5338,11.6124],[6.105,5.534,17.4884],[6.113,5.5394,19.7529],[6.1126,5.5576,17.5311],[6.1146,5.5671,14.3024],[6.1122,5.5759,13.9732],[6.1146,5.5857,18.6044],[6.1365,5.5957,20.0548],[6.1437,5.5967,22.447],[6.1524,5.595,14.9514],[6.1648,5.5899,20.5781],[6.1758,5.6006,14.8281],[6.1813,5.6016,14.1437],[6.198,5.6191,14.4963],[6.2069,5.6192,17.2671],[6.2004,5.6227,15.2795],[6.1938,5.6335,15.3723],[6.1795,5.645,14.262],[6.1759,5.6506,16.3562],[6.1735,5.6601,15.6584],[6.1683,5.6684,16.4497],[6.171,5.6744,20.2614],[6.1713,5.6804,17.6388],[6.1687,5.6883,17.4285],[6.169,5.6947,16.947],[6.167,5.7019,17.9479],[6.168,5.7074,16.9586],[6.1549,5.7403,16.866],[6.1062,5.7359,17.9493],[6.0915,5.7389,19.8287],[6.075,5.7451,19.6325],[6.0634,5.7428,23.5296],[6.0561,5.7436,20.1632],[6.0526,5.7453,19.7878],[6.034,5.767,15.5868],[6.0025,5.7557,17.1385],[5.9892,5.7527,8.0924],[5.9965,5.7396,13.686],[6.0031,5.7339,13.994],[6.0094,5.7225,9.8531],[6.0121,5.722,14.3627],[6.0171,5.7164,14.8737],[6.0265,5.7003,17.4709],[6.034,5.6788,21.2548],[6.035,5.6702,13.9813],[6.0475,5.6581,13.8575],[6.0556,5.6312,23.1535],[6.0537,5.6234,13.1394],[6.0458,5.6106,15.8246],[6.0278,5.5966,12.5619],[6.0162,5.5918,11.9956],[5.9782,5.568,10.9756],[5.9694,5.5644,13.2101],[5.9583,5.5642,18.2044],[5.9455,5.5706,20.9558],[5.9345,5.5738,12.6811],[5.9321,5.5794,16.0572],[5.9205,5.5913,10.2046],[5.911,5.6062,10.3215],[5.9054,5.6089,9.5794]]]]}
,"properties": {"GID_2": "NGA.10.19_1","GID_0": "NGA","country": "Nigeria","GID_1": "NGA.10_1","province": "Delta","NL_NAME_1": "NA","county": "UghelliNorth","VARNAME_2": "NA","NL_NAME_2": "NA","TYPE_2": "LocalAuthority","ENGTYPE_2": "LocalAuthority","CC_2": "NA","HASC_2": "NA","name": "Ughelli_North.county","area_km2": 823.9893,"hist_schema_id": "Elevation0-9000","hist_area_km2": {"0": 360.3199,"25": 463.6694}}}