{"type":"Feature","properties":{"GID_2":"NGA.3.31_1","GID_0":"NGA","country":"Nigeria","GID_1":"NGA.3_1","province":"AkwaIbom","NL_NAME_1":"NA","county":"Uyo","VARNAME_2":"NA","NL_NAME_2":"NA","TYPE_2":"LocalAuthority","ENGTYPE_2":"LocalAuthority","CC_2":"NA","HASC_2":"NA","name":"Uyo.county"},
"geometry":{"type": "MultiPolygon","coordinates": [[[[7.7905,4.8815,43.4029],[7.7941,4.8757,43.4951],[7.8102,4.8773,28.9529],[7.8158,4.8786,31.8047],[7.8172,4.8804,31.6381],[7.8233,4.9031,40.6841],[7.8232,4.9211,39.6968],[7.8272,4.9569,59.9354],[7.8312,4.9626,55.1576],[7.8359,4.9653,58.4389],[7.8369,4.9706,57.9113],[7.8412,4.9774,63.7441],[7.841,4.9825,66.3348],[7.8429,4.9871,69.5589],[7.848,4.9893,64.4931],[7.8545,4.9873,63.2361],[7.8607,4.9893,57.4901],[7.8734,4.9856,58.5607],[7.8971,4.9827,60.6674],[7.9212,4.9897,55.4874],[7.9283,4.9868,62.554],[7.9319,4.9826,55.3862],[7.9549,4.9764,51.2903],[7.9736,4.9655,60.5823],[7.9931,4.9737,62.798],[8.0076,4.9852,59.0199],[8.0151,4.9922,59.632],[8.0143,5.0008,64.9879],[8.0134,5.0022,63.03],[8.0054,5.0039,62.8967],[7.9996,5.0029,65.5866],[7.9985,5.0084,59.8804],[7.9911,5.0205,45.9782],[7.9875,5.0404,46.3029],[7.9825,5.0451,43.7915],[7.9828,5.0513,49.6296],[7.9621,5.0664,14.0601],[7.9533,5.0672,17.8805],[7.9499,5.0698,19.0252],[7.9275,5.0693,24.5733],[7.9197,5.0676,58.741],[7.92,5.0604,71.9912],[7.9126,5.0573,70.2248],[7.8927,5.0425,66.2234],[7.8781,5.0351,64.6947],[7.8611,5.0239,72.8123],[7.853,5.0245,73.5258],[7.8355,5.0294,61.18],[7.8331,5.0345,66.6738],[7.8237,5.0418,72.5593],[7.8205,5.067,72.7114],[7.8142,5.0807,79.7201],[7.8078,5.084,82.0774],[7.7937,5.0795,75.6782],[7.8084,5.0506,69.1603],[7.8055,5.04,55.211],[7.8064,5.0276,69.394],[7.8113,5.0118,61.9965],[7.8171,5.0048,68.9868],[7.8186,4.9956,71.4077],[7.8187,4.973,56.4692],[7.8133,4.9655,53.3221],[7.8002,4.9002,42.666],[7.7905,4.8815,43.4029]]]]}}