{"type":"Feature","properties":{"GID_2":"NGA.33.4_1","GID_0":"NGA","country":"Nigeria","GID_1":"NGA.33_1","province":"Rivers","NL_NAME_1":"NA","county":"Akuku-Toru","VARNAME_2":"NA","NL_NAME_2":"NA","TYPE_2":"LocalAuthority","ENGTYPE_2":"LocalAuthority","CC_2":"NA","HASC_2":"NA","name":"Akuku-Toru.county"},
"geometry":{"type": "MultiPolygon","coordinates": [[[[6.7551,4.4626,1.2332],[6.754,4.4629,0.8886],[6.7507,4.4601,0.0],[6.7565,4.4601,0.0],[6.7551,4.4626,1.2332]]],
[[[6.7907,4.5782,5.1756],[6.7904,4.5773,5.1756],[6.7924,4.579,0.8439],[6.7915,4.579,1.8406],[6.7907,4.5782,5.1756]]],
[[[6.8001,4.5871,3.3606],[6.7999,4.5871,3.3606],[6.7999,4.5868,4.1319],[6.8001,4.5871,3.3606]]],
[[[6.6974,4.4504,0.0],[6.6972,4.4504,0.0],[6.6974,4.4502,0.0],[6.6974,4.4504,0.0]]],
[[[6.7038,4.5301,2.5224],[6.7026,4.5307,0.0],[6.6999,4.5276,7.7518],[6.699,4.5238,20.2681],[6.701,4.5207,17.7477],[6.7035,4.5232,0.0],[6.7038,4.5301,2.5224]]],
[[[6.6824,4.6206,3.457],[6.6973,4.6128,4.7527],[6.7126,4.6079,4.3979],[6.7146,4.6135,1.6639],[6.7124,4.6201,0.8317],[6.7126,4.6285,1.8474],[6.7146,4.6318,4.7829],[6.7135,4.6357,2.3991],[6.7168,4.6374,1.7401],[6.7179,4.6421,0.0],[6.7118,4.6504,0.8272],[6.6982,4.6551,1.0465],[6.6968,4.6582,4.6151],[6.6976,4.6588,0.7039],[6.6985,4.6557,2.2316],[6.7049,4.6549,0.0],[6.7046,4.6596,2.8793],[6.7076,4.6649,0.0],[6.711,4.6671,8.1457],[6.7115,4.6665,1.073],[6.709,4.6651,0.0],[6.7054,4.6593,1.0229],[6.7057,4.6557,0.0],[6.7082,4.6524,6.0591],[6.7138,4.6524,2.4839],[6.7201,4.6449,1.0447],[6.7199,4.6368,4.3025],[6.7154,4.6243,0.0],[6.7168,4.616,3.3458],[6.7213,4.6124,0.5333],[6.7282,4.6174,0.0],[6.7293,4.6207,1.6725],[6.7246,4.634,0.0],[6.7274,4.6429,7.1319],[6.7249,4.6465,0.0],[6.719,4.6493,0.7533],[6.7185,4.6521,1.178],[6.7237,4.6574,1.0513],[6.7274,4.6646,1.5368],[6.7279,4.6629,1.5496],[6.7246,4.6574,1.0513],[6.7196,4.6529,3.8252],[6.7193,4.6504,0.7533],[6.7285,4.6446,2.3066],[6.7265,4.639,0.71],[6.7326,4.6224,2.8196],[6.7326,4.6182,1.6193],[6.739,4.6146,4.2539],[6.7438,4.6143,5.613],[6.7496,4.6229,10.4284],[6.7565,4.6232,0.0],[6.7565,4.6263,1.3519],[6.7504,4.6276,5.8741],[6.7488,4.6332,0.5736],[6.7532,4.6396,0.4287],[6.7582,4.6401,0.0],[6.7613,4.6379,3.7283],[6.7635,4.6382,0.0],[6.7615,4.6457,0.0],[6.7629,4.651,1.7834],[6.7549,4.654,9.9016],[6.7607,4.6532,0.0],[6.7635,4.6513,1.7834],[6.7624,4.6454,1.0974],[6.7646,4.6424,0.1046],[6.7643,4.6374,0.0],[6.761,4.6363,1.3581],[6.7568,4.639,0.0],[6.754,4.639,0.4287],[6.7501,4.6326,0.5736],[6.751,4.6288,9.6889],[6.7582,4.6274,1.0239],[6.7579,4.6229,0.3635],[6.7507,4.6212,4.708],[6.7493,4.6176,0.0],[6.7435,4.6132,2.0955],[6.7385,4.6132,1.7656],[6.7329,4.616,0.0],[6.7285,4.614,5.1301],[6.7265,4.604,3.198],[6.7285,4.5957,13.9699],[6.7301,4.5943,0.0],[6.7321,4.5821,1.7288],[6.7315,4.5707,0.0],[6.7246,4.551,1.2597],[6.7213,4.5499,0.0],[6.7146,4.5432,0.0],[6.7104,4.5354,0.7495],[6.7063,4.5215,0.0],[6.7001,4.5112,6.3762],[6.6996,4.5024,16.3137],[6.7032,4.499,0.477],[6.6979,4.4979,2.1112],[6.6965,4.496,0.0],[6.6985,4.4907,1.7259],[6.701,4.4707,0.0],[6.7107,4.4551,0.0],[6.724,4.4585,7.6407],[6.7251,4.4629,4.4478],[6.7288,4.4649,1.2897],[6.7301,4.4704,0.0],[6.7354,4.4707,2.6065],[6.7363,4.4746,0.0],[6.7388,4.4754,3.6227],[6.7376,4.4799,3.0453],[6.7415,4.4818,4.6927],[6.7415,4.4854,0.8376],[6.7421,4.4815,4.6927],[6.7382,4.4796,5.6632],[6.7393,4.4751,3.6227],[6.7368,4.4743,0.0],[6.7368,4.471,2.9403],[6.736,4.4701,1.5302],[6.7313,4.4704,0.0],[6.7301,4.4651,5.0379],[6.7265,4.4629,0.6441],[6.7243,4.4579,7.6407],[6.7143,4.4549,0.0],[6.7113,4.4524,0.0],[6.7251,4.4435,0.0],[6.7299,4.4435,0.8399],[6.7346,4.4557,1.1054],[6.7385,4.4593,2.362],[6.749,4.4607,13.5202],[6.7562,4.4657,1.6846],[6.7554,4.4704,7.6114],[6.7515,4.4746,0.0],[6.756,4.4707,0.472],[6.7568,4.4654,1.9539],[6.756,4.464,0.0],[6.759,4.4615,5.1406],[6.7632,4.4529,1.8497],[6.769,4.4515,1.6441],[6.7713,4.4537,1.6708],[6.7713,4.4579,0.3489],[6.7729,4.4576,0.3489],[6.7715,4.4565,1.2235],[6.7715,4.4529,1.6708],[6.7693,4.451,1.6441],[6.7626,4.4521,0.0],[6.759,4.451,4.1166],[6.7615,4.4524,0.0],[6.7568,4.4579,2.9794],[6.7371,4.4565,4.7139],[6.7338,4.446,2.5298],[6.7285,4.4415,2.2732],[6.7235,4.4418,5.107],[6.714,4.4463,1.7111],[6.7099,4.4465,1.7582],[6.7096,4.4379,1.3094],[6.7143,4.4246,0.2897],[6.7165,4.4076,0.761],[6.7235,4.4101,0.0],[6.7243,4.4157,2.6595],[6.7274,4.416,2.3653],[6.7335,4.4129,1.425],[6.7329,4.4196,0.0],[6.7349,4.4221,5.3221],[6.7371,4.4215,2.7335],[6.7376,4.4154,3.6017],[6.7404,4.4157,1.7256],[6.7471,4.4249,1.4559],[6.7507,4.4243,4.9012],[6.7521,4.4229,1.8079],[6.7515,4.4201,1.9179],[6.7549,4.4182,0.0],[6.7718,4.4151,1.0085],[6.7746,4.4126,0.0],[6.7787,4.4129,0.4579],[6.7799,4.4157,1.1778],[6.7818,4.4138,0.0],[6.7787,4.4121,0.4579],[6.7746,4.4118,4.6148],[6.7699,4.4143,0.5356],[6.769,4.4107,13.4155],[6.7668,4.4093,1.2524],[6.7657,4.4138,0.0],[6.7512,4.4179,2.6984],[6.7479,4.4235,9.1228],[6.744,4.4174,1.1091],[6.7401,4.4146,2.0018],[6.7368,4.4151,3.6017],[6.7354,4.421,0.0],[6.7343,4.4121,3.6862],[6.731,4.4118,3.9881],[6.7254,4.4149,2.395],[6.7251,4.4107,4.0544],[6.7232,4.4082,4.4969],[6.7196,4.4085,6.1816],[6.7129,4.4038,0.0],[6.7143,4.3732,0.4927],[6.7129,4.3638,0.0],[6.7143,4.3599,0.0],[6.7224,4.3535,0.8354],[6.7351,4.3496,0.0],[6.7657,4.3471,8.4807],[6.7996,4.351,0.0],[6.8146,4.3554,3.463],[6.8496,4.3576,2.5347],[6.8278,4.3805,13.3116],[6.8216,4.3961,2.4373],[6.8049,4.4457,2.8812],[6.7981,4.4725,0.0],[6.7916,4.5113,7.0679],[6.7833,4.5412,3.8389],[6.7853,4.5476,3.4574],[6.7844,4.5647,3.1147],[6.7866,4.5743,1.2345],[6.791,4.5796,1.8406],[6.7932,4.5799,0.8439],[6.7988,4.5854,1.5546],[6.7993,4.5893,4.7914],[6.7949,4.591,12.2952],[6.7993,4.5904,4.7914],[6.8001,4.5872,3.3606],[6.8111,4.6016,2.8057],[6.8194,4.6166,6.3691],[6.8156,4.6276,0.0],[6.8065,4.6371,0.0],[6.8001,4.6476,0.0],[6.7857,4.656,0.0],[6.7751,4.6671,7.7843],[6.7721,4.6776,8.6844],[6.7729,4.6902,11.5123],[6.7659,4.7058,5.7993],[6.758,4.7131,11.7598],[6.7537,4.7219,2.7514],[6.7407,4.7311,3.5631],[6.7265,4.7348,13.5413],[6.7092,4.7355,3.5361],[6.6939,4.7323,10.8463],[6.686,4.7283,12.0284],[6.6733,4.7251,13.0818],[6.6666,4.7254,13.4558],[6.64,4.7339,16.2972],[6.6214,4.7271,12.2849],[6.6271,4.7125,10.1654],[6.6291,4.6958,4.8495],[6.6428,4.652,1.4627],[6.6532,4.6405,3.2725],[6.6824,4.6206,3.457]]],
[[[6.7232,4.5615,1.2764],[6.7221,4.5626,0.0],[6.7218,4.5604,0.0],[6.7224,4.5604,0.0],[6.7232,4.5615,1.2764]]]]}}