{"type": "Feature","bbox": [3.709,7.0449,4.0189,7.3382],"geometry": {"type": "MultiPolygon","coordinates": [[[[4.0095,7.1038,101.4415],[4.0054,7.1341,87.5704],[4.0082,7.1675,117.0825],[4.0134,7.2011,117.7769],[4.0139,7.2197,153.1108],[4.0189,7.2422,157.6802],[4.013,7.2633,162.2917],[3.9974,7.2838,138.6224],[3.9902,7.2899,128.2261],[3.9769,7.2957,181.2897],[3.9568,7.3108,206.0365],[3.9532,7.3168,186.8723],[3.9407,7.3295,174.6212],[3.9364,7.3382,179.5526],[3.925,7.3256,194.9628],[3.9043,7.3144,176.5047],[3.8934,7.3125,171.2541],[3.8823,7.3118,155.4926],[3.869,7.3146,157.8137],[3.8648,7.3116,135.4708],[3.8549,7.3111,136.238],[3.8448,7.315,156.7778],[3.8135,7.3199,181.3038],[3.8049,7.3166,191.8001],[3.7892,7.3046,164.0733],[3.7522,7.2643,131.5882],[3.7558,7.2581,127.5757],[3.7541,7.2223,161.0151],[3.7635,7.2065,125.6442],[3.7719,7.1787,126.5443],[3.7785,7.1324,104.2975],[3.7686,7.1173,90.7376],[3.7576,7.1106,94.8724],[3.7144,7.0677,73.9138],[3.709,7.0494,72.3997],[3.715,7.0449,72.3574],[3.7349,7.048,82.2175],[3.751,7.0464,90.3647],[3.7695,7.0488,95.9214],[3.8134,7.049,84.4082],[3.8312,7.051,85.8626],[3.8331,7.0553,82.4918],[3.8395,7.0527,100.7656],[3.857,7.0584,121.4425],[3.8809,7.0568,102.4468],[3.8981,7.0586,80.9393],[3.9061,7.0562,70.9604],[3.9223,7.0614,86.7183],[3.9324,7.0684,78.9595],[3.9451,7.071,110.0062],[3.9574,7.0763,104.1954],[3.9678,7.0881,68.4054],[3.9818,7.0983,75.6526],[4.0095,7.1038,101.4415]]]]}
,"properties": {"GID_2": "NGA.31.25_1","GID_0": "NGA","country": "Nigeria","GID_1": "NGA.31_1","province": "Oyo","NL_NAME_1": "NA","county": "Oluyole","VARNAME_2": "NA","NL_NAME_2": "NA","TYPE_2": "LocalAuthority","ENGTYPE_2": "LocalAuthority","CC_2": "NA","HASC_2": "NA","name": "Oluyole.county","area_km2": 764.7337,"hist_schema_id": "Elevation0-9000","hist_area_km2": {"50": 1.2414,"75": 62.4042,"100": 189.7473,"125": 205.6898,"150": 165.0536,"175": 99.2295,"200": 36.9095,"225": 3.5121,"250": 0.6519,"275": 0.2103,"300": 0.0841}}}