{"type":"Feature","properties":{"GID_2":"NGA.2.5_1","GID_0":"NGA","country":"Nigeria","GID_1":"NGA.2_1","province":"Adamawa","NL_NAME_1":"NA","county":"Gombi","VARNAME_2":"NA","NL_NAME_2":"NA","TYPE_2":"LocalAuthority","ENGTYPE_2":"LocalAuthority","CC_2":"NA","HASC_2":"NA","name":"Gombi.county"},
"geometry":{"type": "MultiPolygon","coordinates": [[[[12.5216,9.3026,231.6013],[12.531,9.3015,404.3156],[12.5333,9.2957,414.5405],[12.5393,9.2969,410.7],[12.5561,9.3119,456.4308],[12.566,9.3231,340.0995],[12.5688,9.3209,341.4751],[12.5684,9.3018,541.1241],[12.5833,9.2476,158.8314],[12.5857,9.2432,154.8343],[12.5902,9.2408,154.5],[12.602,9.2234,158.4599],[12.6072,9.2202,160.2344],[12.645,9.2144,164.4764],[12.6782,9.2134,173.6853],[12.6839,9.2163,184.1549],[12.7115,9.2239,206.7657],[12.7155,9.2317,208.5453],[12.7218,9.2519,189.7326],[12.7048,9.2804,184.265],[12.7005,9.304,185.2135],[12.7024,9.3273,161.7466],[12.7183,9.3904,185.0278],[12.7214,9.4217,221.4493],[12.7218,9.4788,275.2736],[12.7255,9.5,253.2619],[12.7401,9.5307,193.7413],[12.7561,9.5574,188.3748],[12.791,9.6085,197.5027],[12.7791,9.6074,197.6988],[12.7172,9.5814,220.4884],[12.69,9.5641,225.0242],[12.6704,9.5492,224.9552],[12.6575,9.5442,243.1079],[12.6276,9.5636,249.9733],[12.5974,9.5891,279.8764],[12.5657,9.6054,298.0789],[12.5469,9.6067,315.0468],[12.5198,9.594,295.6151],[12.4918,9.5781,266.3017],[12.4638,9.5499,231.3088],[12.4317,9.5329,192.6058],[12.4043,9.5143,178.7486],[12.3972,9.5121,178.7194],[12.3878,9.515,176.754],[12.374,9.4861,158.788],[12.3771,9.4759,161.2734],[12.385,9.4712,163.1284],[12.3997,9.4584,199.6487],[12.4122,9.4439,201.6412],[12.4299,9.4304,195.9516],[12.4522,9.4085,171.4256],[12.4549,9.3997,171.3935],[12.4625,9.3914,174.4429],[12.465,9.3826,178.5041],[12.4753,9.3688,189.1152],[12.5045,9.3225,255.2582],[12.521,9.3051,224.5863],[12.5216,9.3026,231.6013]]]]}}