{"type":"Feature","properties":{"GID_2":"NGA.15.6_1","GID_0":"NGA","country":"Nigeria","GID_1":"NGA.15_1","province":"FederalCapitalTerritory","NL_NAME_1":"NA","county":"Kwali","VARNAME_2":"NA","NL_NAME_2":"NA","TYPE_2":"LocalAuthority","ENGTYPE_2":"LocalAuthority","CC_2":"NA","HASC_2":"NA","name":"Kwali.county"},
"geometry":{"type": "MultiPolygon","coordinates": [[[[6.9675,8.4904,183.8875],[6.9783,8.5052,245.477],[6.9876,8.5138,190.1145],[6.994,8.5349,230.1031],[7.0002,8.5461,317.6372],[7.0109,8.5542,307.3886],[7.0556,8.5783,310.9774],[7.0735,8.6029,189.2384],[7.0889,8.6151,191.3387],[7.1002,8.641,189.0071],[7.0919,8.6676,204.9456],[7.0841,8.6758,202.0923],[7.0798,8.6922,201.5037],[7.0786,8.7171,164.293],[7.0803,8.724,161.3211],[7.0865,8.7345,176.4995],[7.0961,8.7452,185.4791],[7.1075,8.7514,206.2643],[7.1279,8.7585,213.8933],[7.1513,8.7640999999999991,214.2896],[7.163,8.774,222.6898],[7.1651,8.7862,230.7196],[7.1615,8.7959,248.5096],[7.1537,8.8096,289.5975],[7.1428,8.8246,412.5488],[7.1106,8.8401,273.418],[7.0962,8.8625,212.0374],[7.0856,8.8677,205.9333],[7.0819,8.8784,207.4734],[7.0721,8.8857,199.9877],[7.0597,8.892,189.0322],[7.0537,8.8901,203.57],[7.0341,8.8898,219.6949],[7.0155,8.8929,195.5283],[6.9919,8.9204,157.2674],[6.9716,8.9185,148.5373],[6.9208,8.9018,126.6656],[6.9051,8.8993,126.2965],[6.8845,8.899,112.1809],[6.8733,8.9022,137.3031],[6.8541,8.9145,201.4861],[6.8505,8.909,205.6895],[6.8514,8.8744,139.0305],[6.8474,8.8558,122.187],[6.8408,8.8359,98.4479],[6.8214,8.8033,85.0509],[6.7964,8.7823,78.7493],[6.7892,8.767,81.9665],[6.7883,8.7423,91.6185],[6.7935,8.7206,80.9931],[6.7941,8.6978,86.1001],[6.7903,8.6769,125.332],[6.7824,8.6632,135.0981],[6.7905,8.6471,136.2131],[6.7813,8.6189,170.5907],[6.7873,8.5935,144.9871],[6.7923,8.5853,187.6258],[6.7916,8.5602,264.7574],[6.8088,8.554,211.3253],[6.8548,8.5435,85.5442],[6.8772,8.5452,142.3064],[6.8926,8.5436,115.7288],[6.9271,8.525,178.8491],[6.9416,8.5084,232.3706],[6.9598,8.5026,242.9763],[6.9675,8.4904,183.8875]]]]}}