{"type": "Feature","bbox": [8.1905,4.751,8.3485,4.9484],"geometry": {"type": "MultiPolygon","coordinates": [[[[8.2206,4.8447,1.0],[8.249,4.8129,13.4948],[8.2758,4.788,1.0],[8.2866,4.7832,1.0],[8.3084,4.7673,0.5],[8.3142,4.7599,0.5],[8.3179,4.751,3.1028],[8.3485,4.7787,0.0],[8.3471,4.7876,0.5],[8.3474,4.8113,8.6779],[8.3416,4.824,1.0],[8.3309,4.8373,4.4483],[8.3231,4.8504,8.1968],[8.2986,4.8637,6.013],[8.2943,4.8695,11.2858],[8.2931,4.8813,7.5686],[8.2946,4.8873,6.4352],[8.2986,4.8906,2.6379],[8.302,4.9019,6.0325],[8.3016,4.9079,5.6294],[8.3058,4.9214,2.8151],[8.3049,4.9263,6.6025],[8.2855,4.9381,7.4711],[8.2792,4.9444,8.9094],[8.2695,4.9482,8.7247],[8.2615,4.9484,8.5281],[8.2507,4.9422,6.0098],[8.2395,4.931,13.0656],[8.2243,4.9067,8.4832],[8.2072,4.8857,2.8987],[8.1905,4.8803,5.1262],[8.2206,4.8447,1.0]]]]}
,"properties": {"GID_2": "NGA.9.9_1","GID_0": "NGA","country": "Nigeria","GID_1": "NGA.9_1","province": "CrossRiver","NL_NAME_1": "NA","county": "CalabarSouth","VARNAME_2": "NA","NL_NAME_2": "NA","TYPE_2": "LocalAuthority","ENGTYPE_2": "LocalAuthority","CC_2": "NA","HASC_2": "NA","name": "Calabar_South.county","area_km2": 182.5302,"hist_schema_id": "Elevation0-9000","hist_area_km2": {"0": 177.5447,"25": 4.7109,"50": 0.2747}}}