{"type": "Feature","bbox": [8.7308,10.7269,9.6363,11.3455],"geometry": {"type": "MultiPolygon","coordinates": [[[[9.6279,11.0456,451.4909],[9.6243,11.0708,460.6378],[9.6052,11.1248,471.7819],[9.6098,11.1481,472.5754],[9.6226,11.1731,466.655],[9.6329,11.2021,461.1119],[9.6363,11.2224,450.0461],[9.6339,11.2397,440.0247],[9.5779,11.2427,449.7807],[9.5686,11.2681,466.1198],[9.549,11.3011,458.6697],[9.5119,11.3128,443.8559],[9.4578,11.2895,443.5196],[9.4414,11.2923,441.8916],[9.3883,11.308,475.7107],[9.3378,11.328,455.1382],[9.2409,11.3455,467.4986],[9.2224,11.3421,462.9825],[9.1872,11.3296,488.2999],[9.1696,11.3198,469.9384],[9.1356,11.3078,475.907],[9.1172,11.3094,468.4008],[9.0988,11.3263,473.744],[9.0715,11.3216,478.9656],[9.0314,11.2966,493.8985],[9.0206,11.279,487.3955],[8.999,11.2615,505.5835],[8.981,11.244,513.4379],[8.9637,11.2326,518.1628],[8.9609,11.2247,521.9625],[8.944,11.2126,527.6767],[8.9222,11.1851,558.8384],[8.9012,11.147,611.476],[8.8735,11.1127,628.6824],[8.8569,11.0957,637.1563],[8.824,11.0876,634.1875],[8.7803,11.0901,627.5547],[8.7638,11.0832,621.1033],[8.7501,11.0568,595.9614],[8.738,11.0104,591.4564],[8.7308,10.9545,616.2572],[8.7333,10.8919,631.5032],[8.7372,10.8445,631.2077],[8.7445,10.8128,648.8732],[8.7625,10.7868,658.0704],[8.7894,10.7615,792.498],[8.8143,10.7775,652.894],[8.8295,10.7848,673.1536],[8.8401,10.7944,701.9009],[8.8553,10.8039,800.9414],[8.8706,10.8078,925.1293],[8.8961,10.81,885.392],[8.9439,10.7973,707.2337],[8.9644,10.7856,730.1587],[8.9874,10.7795,737.915],[9.0005,10.7685,900.1606],[9.0106,10.7484,844.649],[9.0272,10.7332,843.7222],[9.0857,10.7269,761.8546],[9.1786,10.735,675.1989],[9.1998,10.7386,668.9546],[9.2398,10.7497,615.9343],[9.2459,10.7569,624.7066],[9.2703,10.7685,612.0125],[9.4101,10.7756,549.4882],[9.445,10.7804,540.3454],[9.5468,10.8117,519.9899],[9.5609,10.8182,529.032],[9.5892,10.8274,487.5393],[9.5983,10.8298,493.2964],[9.6093,10.8299,492.0267],[9.6213,10.863,495.1309],[9.6227,10.8836,501.1222],[9.6283,10.9145,489.8356],[9.6324,11.0012,455.2057],[9.6289,11.0198,452.9486],[9.6279,11.0456,451.4909]]]]}
,"properties": {"GID_2": "NGA.5.15_1","GID_0": "NGA","country": "Nigeria","GID_1": "NGA.5_1","province": "Bauchi","NL_NAME_1": "NA","county": "Ningi","VARNAME_2": "NA","NL_NAME_2": "NA","TYPE_2": "LocalAuthority","ENGTYPE_2": "LocalAuthority","CC_2": "NA","HASC_2": "NA","name": "Ningi.county","area_km2": 5196.448,"hist_schema_id": "Elevation0-9000","hist_area_km2": {"425": 0.062,"450": 171.55,"475": 659.766,"500": 663.259,"525": 440.936,"550": 269.591,"575": 209.863,"600": 295.523,"625": 436.57,"650": 484.725,"675": 425.495,"700": 360.407,"725": 238.928,"750": 161.833,"775": 112.968,"800": 67.49,"825": 55.007,"850": 49.703,"875": 24.337,"900": 16.757,"925": 12.051,"950": 8.825,"975": 8.617,"1000": 7.18,"1025": 5.182,"1050": 3.829,"1075": 2.893,"1100": 1.665,"1125": 0.937,"1150": 0.458,"1175": 0.042}}}