{"type":"Feature","properties":{"GID_2":"NGA.18.8_1","GID_0":"NGA","country":"Nigeria","GID_1":"NGA.18_1","province":"Jigawa","NL_NAME_1":"NA","county":"Garki","VARNAME_2":"NA","NL_NAME_2":"NA","TYPE_2":"LocalAuthority","ENGTYPE_2":"LocalAuthority","CC_2":"NA","HASC_2":"NA","name":"Garki.county"},
"geometry":{"type": "MultiPolygon","coordinates": [[[[8.7689,12.3888,405.8553],[8.7718,12.3841,405.5436],[8.7824,12.3469,403.1616],[8.7819,12.3371,402.8887],[8.7759,12.3255,404.627],[8.7733,12.3149,404.1702],[8.7897,12.2927,396.2943],[8.8031,12.2861,399.1657],[8.8272,12.2869,411.3177],[8.8583,12.2798,401.69],[8.891,12.2772,407.0108],[8.9046,12.273,405.4744],[8.9225,12.2756,394.3837],[8.9421,12.2821,391.9084],[8.9585,12.2854,389.9093],[8.9729,12.2939,388.0576],[9.0105,12.2995,386.6016],[9.0432,12.2981,385.3006],[9.0551,12.2929,383.596],[9.0819,12.2907,382.5499],[9.121,12.2956,382.015],[9.1636,12.297,381.6505],[9.2061,12.2711,380.7404],[9.2303,12.2619,379.3438],[9.25,12.257,380.5992],[9.2751,12.2565,378.8441],[9.3251,12.2618,377.9325],[9.3528,12.2669,377.9289],[9.3758,12.2733,377.5296],[9.4198,12.2876,373.6949],[9.4435,12.2996,373.8235],[9.4558,12.3082,373.7189],[9.463,12.3163,372.53],[9.474,12.3252,372.6996],[9.489,12.3481,369.8742],[9.4815,12.347,370.0026],[9.4716,12.3423,371.1985],[9.4657,12.3353,370.4395],[9.438,12.3464,372.0573],[9.4128,12.3454,372.7529],[9.3783,12.3559,373.1924],[9.3588,12.3769,371.1936],[9.3442,12.3825,375.8694],[9.3232,12.3962,372.3854],[9.2849,12.3998,374.4555],[9.259,12.408,373.5381],[9.2386,12.4065,375.1746],[9.2192,12.408,376.4338],[9.2077,12.4166,374.5639],[9.193,12.4349,375.8161],[9.1697,12.4488,375.447],[9.1666,12.4624,376.2645],[9.1488,12.4791,376.122],[9.1187,12.4892,375.6746],[9.1042,12.4915,377.1175],[9.0633,12.4879,378.3036],[9.0495,12.4892,378.3103],[9.0253,12.4957,379.9714],[9.0168,12.5009,380.7417],[9.0103,12.5072,381.244],[8.9965,12.5127,382.0811],[8.9865,12.5269,383.4322],[8.9857,12.5355,383.4972],[8.9789,12.5468,384.4168],[8.9753,12.5585,384.908],[8.9771,12.5661,384.1035],[8.9682,12.5661,383.5646],[8.9487,12.5563,385.9886],[8.9389,12.5433,385.0693],[8.9193,12.4943,388.5568],[8.8932,12.4714,391.7128],[8.8736,12.4649,395.4493],[8.8605,12.4551,396.0193],[8.8573,12.4486,397.0225],[8.8605,12.4159,397.9923],[8.8507,12.3964,396.9261],[8.8213,12.3931,396.7728],[8.7789,12.3931,402.4514],[8.7689,12.3888,405.8553]]]]}}