{"type":"Feature","properties":{"GID_2":"NGA.30.2_1","GID_0":"NGA","country":"Nigeria","GID_1":"NGA.30_1","province":"Osun","NL_NAME_1":"NA","county":"AtakumosaWest","VARNAME_2":"NA","NL_NAME_2":"NA","TYPE_2":"LocalAuthority","ENGTYPE_2":"LocalAuthority","CC_2":"NA","HASC_2":"NA","name":"Atakumosa_West.county"},
"geometry":{"type": "MultiPolygon","coordinates": [[[[4.5314,7.586,296.7134],[4.5385,7.5885,294.0096],[4.5461,7.589,399.248],[4.5546,7.5873,405.042],[4.5648,7.5751,294.5017],[4.5719,7.5603,288.007],[4.5725,7.5522,288.1777],[4.5835,7.5197,278.7227],[4.5931,7.515,285.3359],[4.5959,7.5156,293.326],[4.6108,7.5094,381.1174],[4.6279,7.4973,387.1633],[4.641,7.4773,273.7415],[4.6537,7.4515,311.598],[4.6513,7.4444,303.7381],[4.6457,7.4452,302.2596],[4.6488,7.4366,303.4708],[4.6543,7.4349,304.6728],[4.6702,7.4042,389.6071],[4.6838,7.3886,257.0328],[4.6912,7.3762,282.6943],[4.6972,7.3611,254.7358],[4.7018,7.3433,307.4457],[4.7007,7.3348,285.421],[4.6843,7.304,271.8145],[4.6897,7.2792,296.5779],[4.6897,7.253,259.435],[4.6923,7.2423,315.534],[4.703,7.2359,252.9468],[4.7137,7.2249,238.6287],[4.732,7.2181,214.8264],[4.7373,7.2187,193.8282],[4.7373,7.2298,216.8958],[4.7445,7.2465,204.0906],[4.7466,7.2626,222.7699],[4.7579,7.2788,210.7153],[4.7661,7.2872,231.8513],[4.778,7.3095,228.5411],[4.7773,7.3215,240.8595],[4.7713,7.3352,246.1882],[4.7585,7.3553,243.0199],[4.7521,7.3775,250.6464],[4.7499,7.3953,276.7949],[4.7449,7.4122,240.0011],[4.7411,7.462,254.383],[4.7521,7.492,263.974],[4.7643,7.5024,287.0574],[4.7785,7.5227,315.0261],[4.7824,7.5357,303.5272],[4.7825,7.557,377.2579],[4.7702,7.5535,296.3094],[4.7617,7.5529,292.9012],[4.7527,7.5415,296.7202],[4.7436,7.5345,306.6637],[4.7311,7.5341,350.5102],[4.7236,7.5381,367.2459],[4.721,7.5635,389.5152],[4.7191,7.5714,391.7112],[4.7126,7.5837,378.2052],[4.7069,7.5872,392.057],[4.7041,7.5864,378.8347],[4.6895,7.5984,372.1083],[4.6813,7.6183,506.6392],[4.6681,7.6314,338.7756],[4.6407,7.6462,294.5872],[4.6394,7.6499,308.8911],[4.6434,7.6551,308.2823],[4.6648,7.6555,326.5382],[4.669,7.6588,344.615],[4.6555,7.6777,323.2309],[4.6537,7.6824,337.8678],[4.6436,7.6955,359.4218],[4.6337,7.7002,358.2598],[4.6279,7.698,338.1848],[4.6154,7.7058,339.3817],[4.609,7.7117,350.5672],[4.5945,7.7147,330.8077],[4.5891,7.7107,341.4605],[4.5806,7.7108,333.1926],[4.5711,7.7057,320.7744],[4.5655,7.7077,330.1724],[4.5637,7.706,324.7267],[4.5755,7.68,338.3311],[4.5813,7.6714,322.2063],[4.5833,7.649,278.5069],[4.5786,7.632,310.2238],[4.5746,7.6231,300.6735],[4.5603,7.6116,282.1412],[4.5364,7.5986,278.4462],[4.5314,7.586,296.7134]]]]}}