{"type":"Feature","properties":{"GID_2":"NGA.23.4_1","GID_0":"NGA","country":"Nigeria","GID_1":"NGA.23_1","province":"Kogi","NL_NAME_1":"NA","county":"Bassa","VARNAME_2":"NA","NL_NAME_2":"NA","TYPE_2":"LocalAuthority","ENGTYPE_2":"LocalAuthority","CC_2":"NA","HASC_2":"NA","name":"Bassa.county"},
"geometry":{"type": "MultiPolygon","coordinates": [[[[6.7066,7.4517,31.2609],[6.7144,7.45,41.309],[6.743,7.4521,74.0152],[6.7483,7.4508,95.7248],[6.7547,7.4463,104.2806],[6.7599,7.44,202.2566],[6.7698,7.4251,93.065],[6.7703,7.417,84.5103],[6.7763,7.4116,65.1799],[6.7841,7.4092,54.8565],[6.8038,7.4183,70.1024],[6.806,7.4273,66.9198],[6.8058,7.4434,93.9821],[6.8077,7.4597,88.1287],[6.8062,7.4913,131.5612],[6.8081,7.509,177.4654],[6.8078,7.5249,344.1647],[6.8246,7.5627,254.4858],[6.8468,7.5828,295.016],[6.8571,7.5902,477.6018],[6.8733,7.5952,371.7935],[6.9173,7.6026,200.1945],[6.932,7.6125,217.8801],[6.9416,7.6234,257.8011],[6.948,7.6338,283.0992],[6.9764,7.6647,198.1561],[6.9894,7.6679,283.3931],[7.0053,7.669,265.7122],[7.0284,7.6664,241.7727],[7.0897,7.6789,267.5431],[7.1071,7.6869,285.1888],[7.1338,7.7074,393.7061],[7.1397,7.7184,401.5634],[7.1528,7.7297,168.7155],[7.1817,7.7594,290.6257],[7.1898,7.7641,400.7868],[7.2413,7.7784,335.5331],[7.2729,7.7924,294.0165],[7.3113,7.8042,227.911],[7.3193,7.8096,158.7837],[7.3327,7.8264,198.6596],[7.3358,7.8335,216.8891],[7.3334,7.8398,210.6275],[7.3325,7.8571,255.7477],[7.3369,7.8892,252.8586],[7.3418,7.9021,212.7361],[7.3533,7.9148,149.0043],[7.3626,7.9215,155.4044],[7.3762,7.9487,134.3051],[7.3777,7.9588,131.3194],[7.3849,7.9732,116.0022],[7.3977,7.982,108.8504],[7.4105,8.0,114.6635],[7.4262,8.0355,89.0257],[7.3685,8.0291,46.7343],[7.3321,8.0175,46.7428],[7.2635,8.0013,46.9406],[7.2357,7.9963,44.5809],[7.1881,7.9823,42.0],[7.1682,7.9748,42.0],[7.1156,7.9499,43.5385],[7.0847,7.9382,47.2537],[7.0656,7.9274,44.2363],[7.0187,7.9093,42.0],[6.9977,7.8981,42.0],[6.9635,7.8668,44.331],[6.9569,7.857,42.9962],[6.949,7.8525,42.03],[6.9038,7.8394,42.4944],[6.8708,7.8345,41.8516],[6.8548,7.829,41.7743],[6.8248,7.8154,43.5327],[6.7716,7.7838,45.5117],[6.7587,7.7493,37.0],[6.7573,7.7085,35.5],[6.7596,7.6797,35.0945],[6.7524,7.6508,102.317],[6.7416,7.6353,211.0461],[6.7223,7.5983,55.6268],[6.6986,7.5763,30.0],[6.6971,7.5501,34.0427],[6.6976,7.5256,41.0052],[6.7066,7.4517,31.2609]]]]}}