{"type":"Feature","properties":{"GID_2":"NGA.13.11_1","GID_0":"NGA","country":"Nigeria","GID_1":"NGA.13_1","province":"Ekiti","NL_NAME_1":"NA","county":"Ikole","VARNAME_2":"NA","NL_NAME_2":"NA","TYPE_2":"LocalAuthority","ENGTYPE_2":"LocalAuthority","CC_2":"NA","HASC_2":"NA","name":"Ikole.county"},
"geometry":{"type": "MultiPolygon","coordinates": [[[[5.6577,7.8211,479.8242],[5.6507,7.8224,503.4641],[5.639,7.8281,510.7103],[5.6295,7.8379,510.0669],[5.6209,7.8503,494.3902],[5.6172,7.861,501.3365],[5.6158,7.8795,510.2479],[5.6081,7.8983,513.4266],[5.608,7.9117,505.0503],[5.6094,7.9234,467.9532],[5.6219,7.9393,456.7293],[5.6291,7.9448,480.6294],[5.6361,7.9599,419.1482],[5.6464,7.9719,416.1271],[5.6681,7.9822,354.9681],[5.6742,7.9911,365.4134],[5.6726,8.0042,362.0872],[5.6635,8.0155,358.5198],[5.641,8.0207,377.8539],[5.5792,8.0134,384.4113],[5.5606,8.0073,384.8116],[5.5376,7.9957,402.6166],[5.5338,7.9909,411.3294],[5.5268,7.9866,394.025],[5.5179,7.9939,401.4113],[5.5173,8.0226,422.4407],[5.5196,8.0546,345.9396],[5.5184,8.0629,338.696],[5.536,8.0696,325.3622],[5.5215,8.0689,332.8891],[5.5169,8.0715,342.4473],[5.4681,8.0642,410.9929],[5.4429,8.0681,427.6239],[5.4096,8.062,390.7786],[5.3931,8.0556,360.1093],[5.3766,8.0467,350.6927],[5.3719,8.0405,350.5208],[5.3719,8.0297,368.3574],[5.3681,8.0212,367.8675],[5.3768,8.0153,384.316],[5.3874,8.0036,369.6168],[5.3943,7.9876,405.9993],[5.4133,7.9635,511.2128],[5.4151,7.9444,505.2569],[5.4091,7.93,483.3307],[5.4155,7.9264,486.3971],[5.4182,7.9215,484.4538],[5.4284,7.9114,482.0312],[5.4308,7.9015,471.0692],[5.4279,7.8951,488.4467],[5.4204,7.8906,509.3987],[5.4183,7.875,508.0678],[5.4207,7.8634,489.7089],[5.4153,7.8598,509.8638],[5.4123,7.8417,522.4766],[5.4092,7.8369,546.5614],[5.4104,7.8286,524.0052],[5.4134,7.8239,528.5007],[5.4138,7.8108,519.6848],[5.4159,7.81,509.058],[5.4196,7.7975,512.6182],[5.4154,7.7905,518.1339],[5.4117,7.7774,525.3589],[5.4032,7.7678,531.6913],[5.3988,7.7384,548.5464],[5.4015,7.7186,479.2785],[5.4056,7.7021,401.5199],[5.4118,7.6843,407.6627],[5.4168,7.6778,392.3551],[5.4259,7.6705,394.6559],[5.4339,7.6682,384.0275],[5.4487,7.6556,395.4199],[5.4556,7.6524,414.3758],[5.4689,7.6518,403.2722],[5.4804,7.6481,405.5963],[5.5008,7.6544,425.9733],[5.5187,7.6504,417.8519],[5.5424,7.6699,436.0576],[5.5598,7.6772,431.3119],[5.5695,7.6911,476.6976],[5.5823,7.7012,452.6175],[5.5969,7.7201,480.1805],[5.6146,7.7272,513.5032],[5.6316,7.7527,557.0824],[5.6386,7.7756,520.6041],[5.6391,7.7882999999999996,513.9516],[5.6414,7.7905,508.3231],[5.6508,7.8139,505.4571],[5.6577,7.8211,479.8242]]]]}}