{"type": "Feature","bbox": [7.4626,4.4699,8.3438,5.5291],"geometry": {"type": "MultiPolygon","coordinates": [[[[8.3196,4.5576,0.0],[8.3224,4.5624,0.0],[8.3185,4.5607,0.0],[8.3179,4.559,0.0],[8.3196,4.5576,0.0]]],
[[[8.2615,4.5901,1.2283],[8.2638,4.5899,0.0],[8.2665,4.5932,6.0849],[8.2721,4.5932,1.4231],[8.276,4.5896,1.845],[8.279,4.5832,0.0],[8.2893,4.576,2.2875],[8.2921,4.5765,0.0],[8.2949,4.5799,0.0],[8.2954,4.5835,0.8957],[8.3004,4.5862,0.0],[8.3026,4.5907,0.0],[8.3076,4.5946,0.9117],[8.3054,4.6101,0.4947],[8.3085,4.6135,0.0],[8.3179,4.6143,9.0204],[8.3174,4.6268,3.5649],[8.3276,4.6415,2.1083],[8.3257,4.6463,2.4212],[8.3121,4.6546,4.5008],[8.3085,4.6624,2.0756],[8.3096,4.6718,9.0859],[8.3135,4.6718,2.8413],[8.3163,4.661,0.0],[8.3201,4.6621,5.9556],[8.3243,4.6682,2.8451],[8.3254,4.6943,1.5549],[8.3237,4.7088,1.7809],[8.3162,4.7171,0.0],[8.314,4.7176,0.0],[8.311,4.716,8.0978],[8.3137,4.719,4.948],[8.3115,4.7224,2.9179],[8.3149,4.7232,0.0],[8.3165,4.7262,0.0],[8.3143,4.739,7.6705],[8.3182,4.7465,9.2088],[8.3178,4.7521,0.0],[8.3142,4.7599,0.5],[8.3084,4.7673,0.5],[8.2866,4.7832,1.0],[8.2758,4.788,1.0],[8.249,4.8129,13.4948],[8.188,4.8831,7.1699],[8.1702,4.8943,6.9496],[8.1366,4.9285,10.8685],[8.1217,4.9523,7.021],[8.093,4.9893,7.8225],[8.0815,5.0081,13.0212],[8.0715,5.0309,10.0874],[8.0552,5.0912,8.9126],[8.0539,5.1099,10.7266],[8.0549,5.1339,15.279],[8.0579,5.1456,8.8029],[8.059,5.1732,7.4284],[8.0651,5.19,3.6672],[8.0638,5.2098,6.3958],[8.0587,5.224,14.644],[8.0475,5.2327,12.0366],[8.0275,5.2391,11.5046],[8.0086,5.2544,10.9054],[7.9786,5.2674,6.6847],[7.934,5.264,23.3454],[7.9168,5.2571,64.8793],[7.9016,5.2583,70.2644],[7.8932,5.2707,84.1513],[7.8889,5.2896,19.4312],[7.8754,5.2947,13.3062],[7.8648,5.3237,5.8123],[7.8766,5.3441,19.4753],[7.8777,5.3533,16.829],[7.8834,5.3633,14.8372],[7.8971,5.365,9.5205],[7.8878,5.3778,8.1966],[7.8748,5.3905,11.6752],[7.8536,5.4072,35.972],[7.8442,5.4122,44.9235],[7.8258,5.416,35.2971],[7.8125,5.4208,33.0187],[7.7915,5.4343,24.4319],[7.7681,5.4555,26.7865],[7.7625,5.4681,31.043],[7.7587,5.4896,25.649],[7.7503,5.5022,23.3162],[7.7394,5.5134,35.9663],[7.7232,5.5211,47.6741],[7.6845,5.5282,64.0055],[7.6605,5.5291,48.5713],[7.6454,5.5259,80.6949],[7.6408,5.5112,92.458],[7.6469,5.488,50.9076],[7.6498,5.4654,40.4071],[7.6494,5.4543,33.9916],[7.6447,5.4343,38.6242],[7.6364,5.4241,41.0947],[7.6327,5.4066,55.0093],[7.622,5.3881,53.8647],[7.6196,5.3717,58.1215],[7.6248,5.3645,73.6512],[7.6385,5.3652,76.4592],[7.6528,5.3691,104.9871],[7.6609,5.3671,99.1759],[7.6496,5.3276,115.5726],[7.6379,5.3131,120.1105],[7.624,5.3101,120.9165],[7.5852,5.3117,76.2283],[7.5634,5.3171,90.9907],[7.5395,5.3157,69.7446],[7.5289,5.3108,95.048],[7.5217,5.2998,107.185],[7.5206,5.2876,108.6302],[7.5271,5.2755,107.4663],[7.5339,5.2669,104.5544],[7.5379,5.2562,101.1238],[7.5373,5.2479,97.1139],[7.5273,5.2121,94.628],[7.5184,5.1622,67.3516],[7.518,5.1232,79.3369],[7.5216,5.1019,76.0172],[7.5286,5.0828,67.2766],[7.5222,5.0673,71.6377],[7.5177,5.0505,68.3572],[7.5097,5.0361,64.1014],[7.5005,5.0261,58.5166],[7.4865,5.0199,55.0306],[7.469,5.0047,57.5624],[7.4704,4.9923,50.208],[7.4628,4.9818,37.8373],[7.4626,4.9679,16.6675],[7.4664,4.9579,44.9102],[7.4759,4.9472,16.4927],[7.4763,4.9282,17.4703],[7.4655,4.9019,35.7639],[7.4944,4.8474,10.5188],[7.4993,4.8206,9.914],[7.4941,4.8144,8.3192],[7.5127,4.7929,12.825],[7.5278,4.7608,1.0],[7.531,4.7428,1.0],[7.5381,4.7235,11.4608],[7.5369,4.706,1.0],[7.5304,4.6929,0.5],[7.5227,4.6543,7.3178],[7.5253,4.6333,8.1034],[7.5261,4.5947,2.4355],[7.5321,4.5806,4.6802],[7.5239,4.5754,5.0504],[7.5233,4.565,3.2462],[7.5334,4.5457,1.2979],[7.5413,4.5399,0.0],[7.5499,4.5479,2.297],[7.5574,4.5485,3.6838],[7.5699,4.5443,4.0268],[7.5746,4.5454,0.0],[7.579,4.5499,3.7586],[7.5837,4.5507,6.0735],[7.5876,4.5479,1.2273],[7.5893,4.5429,0.0],[7.591,4.5429,4.117],[7.5957,4.5504,1.9036],[7.6071,4.5582,0.0],[7.6085,4.561,5.249],[7.6085,4.5635,4.9356],[7.6015,4.5707,0.0],[7.596,4.5696,0.0],[7.5951,4.5668,8.5019],[7.5932,4.5685,0.0],[7.5968,4.5721,6.9893],[7.6032,4.5712,0.7215],[7.6051,4.574,4.2752],[7.6104,4.5763,7.1473],[7.6115,4.5751,9.7576],[7.606,4.5729,0.0],[7.6046,4.5699,4.0005],[7.6093,4.5637,1.4279],[7.6079,4.5571,0.0],[7.6107,4.5565,0.0],[7.6182,4.5612,10.1083],[7.6243,4.561,2.8393],[7.6265,4.5635,1.9493],[7.6249,4.5604,6.5959],[7.619,4.5596,4.1493],[7.6151,4.5571,0.0],[7.6104,4.5529,3.2921],[7.6096,4.5499,7.2005],[7.6085,4.554,3.1743],[7.6029,4.5543,3.1815],[7.5951,4.5429,6.5225],[7.5915,4.5404,8.088],[7.5876,4.5424,6.5633],[7.586,4.5471,1.2273],[7.5821,4.5496,0.0],[7.5754,4.5421,0.0],[7.5513,4.546,0.9298],[7.5474,4.5421,0.0],[7.5451,4.5312,1.7854],[7.5529,4.5199,0.0],[7.5607,4.514,4.5044],[7.5685,4.514,9.8612],[7.5726,4.5124,4.5793],[7.5757,4.5143,5.1062],[7.5824,4.5135,3.573],[7.5851,4.519,6.3487],[7.5896,4.5204,4.3526],[7.5946,4.5201,3.9977],[7.5982,4.5151,5.4768],[7.6046,4.5165,10.6018],[7.6049,4.5151,3.5588],[7.5976,4.5143,5.4768],[7.5946,4.5193,3.9977],[7.5896,4.5196,4.3526],[7.5846,4.5174,5.9599],[7.5837,4.5132,3.573],[7.5757,4.5135,8.3485],[7.5746,4.511,0.0],[7.5879,4.5046,0.9199],[7.5976,4.4965,0.6218],[7.6018,4.4901,2.0205],[7.6015,4.4799,0.0],[7.6099,4.4729,3.0957],[7.6185,4.4738,3.8855],[7.6229,4.4799,3.6033],[7.6218,4.4815,1.045],[7.6246,4.4804,0.0],[7.6238,4.4763,1.5705],[7.6257,4.4765,0.0],[7.6415,4.4824,0.0],[7.6485,4.4879,4.5203],[7.6585,4.4904,0.0],[7.6629,4.4943,0.0],[7.6615,4.4976,0.0],[7.6535,4.4965,3.0898],[7.6599,4.4976,1.8551],[7.6607,4.4988,0.7541],[7.6585,4.5012,0.5967],[7.6507,4.5001,6.6821],[7.6412,4.501,4.1089],[7.6454,4.5015,2.9225],[7.6501,4.501,0.0],[7.6457,4.5054,5.6598],[7.6513,4.5015,0.0],[7.6579,4.5029,0.0],[7.6554,4.5101,0.9066],[7.6504,4.5143,0.0],[7.6365,4.5104,6.9094],[7.634,4.5115,6.5829],[7.6335,4.514,3.6681],[7.6365,4.5112,3.0684],[7.6482,4.5143,0.7081],[7.649,4.5218,3.2269],[7.6454,4.5238,5.1195],[7.6438,4.5276,2.3638],[7.6451,4.5324,6.9173],[7.6521,4.5312,2.4658],[7.6537,4.5349,7.9623],[7.6604,4.5404,0.0],[7.669,4.544,3.3054],[7.6715,4.5476,2.9017],[7.6754,4.5499,1.2533],[7.6799,4.5501,1.944],[7.686,4.5557,4.376],[7.6865,4.5549,1.8023],[7.6849,4.5526,3.5928],[7.6801,4.5493,1.944],[7.6715,4.5468,4.2065],[7.669,4.5424,1.0938],[7.6649,4.5415,8.478],[7.6568,4.5365,2.4621],[7.6524,4.5304,6.0451],[7.6457,4.5318,7.9778],[7.6446,4.5276,2.3638],[7.6463,4.524,5.2811],[7.6499,4.5221,5.0437],[7.6507,4.5149,0.0],[7.6546,4.5132,0.8437],[7.6576,4.5146,2.7967],[7.666,4.5135,0.0],[7.6724,4.5199,0.0],[7.6793,4.5199,0.0],[7.6843,4.5285,4.4136],[7.691,4.529,2.2055],[7.7026,4.5382,1.905],[7.7046,4.5376,1.3067],[7.6915,4.5282,7.9968],[7.6849,4.5279,2.466],[7.6801,4.5193,0.0],[7.6865,4.5188,4.9047],[7.6929,4.5118,0.792],[7.6951,4.5115,2.1554],[7.701,4.5168,1.9247],[7.7049,4.5182,3.1591],[7.7238,4.5182,3.8901],[7.7296,4.5238,11.5277],[7.7332,4.5251,2.3492],[7.7318,4.5229,0.7126],[7.7246,4.5188,0.0],[7.7288,4.5124,4.5028],[7.7329,4.5099,3.3502],[7.7379,4.5126,3.6614],[7.7446,4.5118,2.1588],[7.7824,4.5179,3.9248],[7.8082,4.5179,0.0],[7.8374,4.5229,0.0],[7.8388,4.5246,5.0788],[7.8499,4.5246,0.0],[7.9246,4.534,2.6166],[7.926,4.5354,0.7957],[7.924,4.539,1.5828],[7.9265,4.5362,0.0],[7.9349,4.5382,0.913],[7.9326,4.536,0.3656],[7.9465,4.5354,0.0],[7.9807,4.5382,0.0],[7.9854,4.5424,0.0],[8.0015,4.5404,1.5593],[8.0118,4.5429,3.5531],[8.1007,4.546,4.1499],[8.1351,4.5443,0.0],[8.1657,4.5465,3.3554],[8.1935,4.5449,3.1353],[8.2249,4.5413,4.8699],[8.2651,4.5335,0.0],[8.2779,4.5346,0.0],[8.2832,4.5376,3.0606],[8.2821,4.539,2.3825],[8.2799,4.5376,3.4626],[8.2818,4.5449,0.0],[8.2824,4.5554,0.6822],[8.2812,4.5576,3.3227],[8.2832,4.5574,0.6041],[8.2901,4.5635,0.0],[8.2949,4.5707,0.6299],[8.2949,4.5732,0.7923],[8.291,4.5726,3.1076],[8.2846,4.5751,3.6364],[8.2801,4.5801,3.465],[8.2774,4.5804,9.6248],[8.2704,4.5785,2.484],[8.2699,4.574,4.824],[8.2671,4.5707,3.7593],[8.256,4.5682,2.3838],[8.2579,4.5696,2.2591],[8.2576,4.5738,2.3227],[8.2549,4.5765,2.2711],[8.2563,4.5765,2.2711],[8.2579,4.5749,2.3227],[8.2585,4.5699,2.2591],[8.2671,4.5721,0.0],[8.269,4.574,4.0869],[8.2696,4.5788,1.0492],[8.276,4.5821,3.7504],[8.2749,4.5871,7.8567],[8.271,4.5924,0.0],[8.2654,4.591,1.3541],[8.2649,4.5893,0.0],[8.2618,4.589,1.2283],[8.2599,4.5904,1.7683],[8.2599,4.5954,2.283],[8.2638,4.6001,2.0091],[8.2626,4.6032,1.2359],[8.2424,4.6054,1.484],[8.2532,4.6057,4.3819],[8.2635,4.6035,1.0102],[8.2643,4.6026,1.0102],[8.264,4.599,2.0091],[8.2601,4.5943,2.283],[8.2615,4.5901,1.2283]]],
[[[8.331,4.6371,0.0],[8.3265,4.6371,0.0],[8.3185,4.6251,4.2396],[8.3196,4.6132,1.0125],[8.3093,4.6118,4.7709],[8.3071,4.6101,4.9116],[8.3082,4.6024,3.8919],[8.3115,4.5951,0.0],[8.3118,4.5893,0.0],[8.314,4.5871,1.5447],[8.3213,4.5865,0.0],[8.3313,4.5907,0.0],[8.3432,4.6032,0.0],[8.3438,4.6107,0.0],[8.3393,4.6132,1.5192],[8.3387,4.6263,0.5878],[8.331,4.6371,0.0]]],
[[[7.6115,4.4715,0.0],[7.6101,4.4729,3.0957],[7.611,4.4699,0.0],[7.6137,4.4704,0.0],[7.6132,4.4724,0.0],[7.6129,4.471,0.0],[7.6115,4.4715,0.0]]],
[[[7.556,4.5038,1.1338],[7.556,4.504,1.1338],[7.5557,4.5041,1.1338],[7.556,4.5038,1.1338]]],
[[[7.6833,4.5185,3.4275],[7.6732,4.5193,0.0],[7.6687,4.5138,2.0846],[7.6638,4.5118,3.8667],[7.6571,4.5129,0.9278],[7.6568,4.5107,2.3706],[7.6624,4.5049,4.2917],[7.6657,4.4979,0.0],[7.6704,4.496,4.9778],[7.6801,4.4951,0.0],[7.7029,4.5024,12.0131],[7.7115,4.5029,0.0],[7.7385,4.5093,4.1158],[7.7757,4.5132,0.0],[7.7796,4.5149,0.0],[7.7788,4.5154,0.0],[7.7693,4.514,0.0],[7.7679,4.5149,0.0],[7.7629,4.5132,1.9564],[7.7446,4.511,2.1588],[7.7379,4.5121,3.6614],[7.7326,4.509,3.3502],[7.7299,4.5101,3.1287],[7.7238,4.5174,3.8901],[7.7146,4.5163,1.7464],[7.7049,4.5174,3.1591],[7.6957,4.511,2.1554],[7.6935,4.5107,0.792],[7.6887,4.516,8.5393],[7.6833,4.5185,3.4275]]]]}
,"properties": {"GID_1": "NGA.3_1","GID_0": "NGA","country": "Nigeria","province": "AkwaIbom","VARNAME_1": "NA","NL_NAME_1": "NA","TYPE_1": "State","ENGTYPE_1": "State","CC_1": "NA","HASC_1": "NG.AK","ISO_1": "NG-AK","name": "Akwa_Ibom.province","area_km2": 6765.129,"hist_schema_id": "Elevation0-9000","hist_area_km2": {"0": 1089.28,"25": 2389.504,"50": 1780.947,"75": 1019.712,"100": 387.687,"125": 97.851,"150": 0.148}}}