{"type":"Feature","properties":{"ISO3166-1-Alpha-3":"NGA","country":"Nigeria","fill":"#FF0","id":"2842","name":"Akwa Ibom"},
"geometry":{"type": "Polygon","coordinates": [[[7.89712,5.36497,9.5205],[7.84513,5.40556,46.9076],[7.78881,5.43696,25.0789],[7.7547,5.48928,25.8901],[7.7053,5.52411,75.6894],[7.66716,5.52992,55.6113],[7.64081,5.51114,92.458],[7.6469,5.44251,31.4692],[7.622,5.38804,53.8647],[7.62127,5.37425,57.3212],[7.64587,5.36699,95.4139],[7.6562,5.34802,130.0555],[7.65,5.32936,111.0929],[7.62086,5.31043,121.7775],[7.57011,5.31745,95.0914],[7.52526,5.30526,111.5488],[7.52329,5.28485,106.3493],[7.53394,5.26681,104.5544],[7.53549,5.24733,97.5874],[7.52185,5.18496,89.9078],[7.51761,5.14142,82.3404],[7.52371,5.09522,73.2251],[7.51771,5.05044,68.3572],[7.48526,5.01773,55.8973],[7.46283,4.98171,37.8373],[7.47616,4.93311,18.0004],[7.47017,4.91497,41.6627],[7.46717,4.89854,37.0709],[7.48919,4.85885,11.2891],[7.49632,4.81738,9.7659],[7.50851,4.79209,12.8036],[7.52608,4.76423,6.031],[7.53477,4.72664,10.2972],[7.53353,4.70269,2.8538],[7.53354,4.7027,2.8538],[7.54477,4.711,5.5391],[7.55104,4.711,11.7331],[7.53305,4.66429,15.6771],[7.52963,4.63886,12.5052],[7.54477,4.62157,11.4774],[7.54029,4.61176,11.666],[7.53736,4.6079,8.9143],[7.55551,4.58491,6.3386],[7.55844,4.57998,5.6867],[7.55454,4.56948,8.5517],[7.54762,4.56363,5.3077],[7.54078,4.55915,5.9433],[7.53736,4.55329,6.4259],[7.53932,4.54182,0.6644],[7.54762,4.54116,5.8575],[7.55934,4.54291,8.7628],[7.57203,4.53901,5.0197],[7.56642,4.53571,6.9646],[7.56365,4.53278,5.9537],[7.56178,4.52953,5.8508],[7.55844,4.52534,7.551],[7.64698,4.51911,5.2413],[7.6609,4.51545,12.3713],[7.67384,4.50218,5.9652],[7.70314,4.49754,0.0],[7.73552,4.49921,0.0],[7.75709,4.50487,0.0],[7.75066,4.50878,0.0],[7.74293,4.51122,1.7228],[7.73365,4.51219,5.4813],[7.72291,4.5117,13.4891],[7.73048,4.5223699999999996,0.7126],[7.74236,4.52631,10.2226],[7.75506,4.52481,13.3603],[7.7645,4.51919,6.5298],[7.93531,4.53901,2.9406],[7.97934,4.53901,1.8836],[7.99871,4.54141,3.5533],[8.03199,4.55878,8.2007],[8.05128,4.55939,6.2701],[8.09295,4.55329,15.2446],[8.17856,4.55329,16.2491],[8.23552,4.54686,8.264],[8.27906,4.54682,5.0888],[8.28858,4.54857,0.0],[8.29835,4.55329,0.0],[8.31202,4.58369,0.0],[8.32154,4.59984,7.3456],[8.34108,4.61156,0.0],[8.35646,4.62556,0.0],[8.35353,4.64887,0.0],[8.34449,4.65656,0.0],[8.33318,4.65998,0.0],[8.3235,4.66559,0.0],[8.31951,4.67992,5.5841],[8.32097,4.68915,12.1437],[8.32895,4.71149,0.0],[8.33237,4.71776,0.0],[8.32,4.73436,0.0],[8.30494,4.77733,0.5],[8.29921,4.78234,1.0],[8.29906,4.78237,1.0],[8.28738,4.78462,1.0],[8.24904,4.81283,13.4948],[8.13163,4.93492,5.0771],[8.09576,4.98564,11.519],[8.069,5.03569,9.0633],[8.05515,5.09111,8.9126],[8.06248,5.21345,4.2196],[8.04585,5.23276,2.6391],[8.0013,5.26035,11.246],[7.97546,5.26715,4.9803],[7.91676,5.25704,67.9634],[7.89681,5.27244,83.8743],[7.88534,5.29092,22.27],[7.86901,5.33355,7.1963],[7.89712,5.36497,9.5205]]]}}