{"type":"Feature","properties":{"GID_2":"NGA.29.13_1","GID_0":"NGA","country":"Nigeria","GID_1":"NGA.29_1","province":"Ondo","NL_NAME_1":"NA","county":"Odigbo","VARNAME_2":"NA","NL_NAME_2":"NA","TYPE_2":"LocalAuthority","ENGTYPE_2":"LocalAuthority","CC_2":"NA","HASC_2":"NA","name":"Odigbo.county"},
"geometry":{"type": "MultiPolygon","coordinates": [[[[4.3531,6.6182,13.3352],[4.3544,6.6097,13.3106],[4.3605,6.5983,19.2068],[4.3869,6.578,53.1329],[4.4056,6.5759,29.2405],[4.4314,6.5692,36.6318],[4.457,6.5676,40.7353],[4.4645,6.565,28.2404],[4.4717,6.5651,34.3088],[4.4798,6.5677,36.9189],[4.4883,6.5662,18.3119],[4.4941,6.567,20.498],[4.5002,6.5731,36.9699],[4.517,6.5841,19.9422],[4.5262,6.5941,34.2366],[4.5336,6.6099,39.1599],[4.5437,6.6208,32.4199],[4.562,6.6287,54.0762],[4.566,6.6362,27.2413],[4.5807,6.6481,71.1019],[4.5856,6.6485,54.4389],[4.5885,6.6453,61.1537],[4.5936,6.6608,44.6832],[4.6066,6.6788,62.7768],[4.6161,6.7116,79.4628],[4.6216,6.7228,94.5482],[4.6314,6.7327,99.7558],[4.6401,6.7388,106.2764],[4.6545,6.734,116.3726],[4.6689,6.7356,122.3417],[4.6736,6.7313,115.3898],[4.6823,6.7275,102.506],[4.7088,6.7218,91.4193],[4.7177,6.7168,68.7448],[4.7279,6.7044,61.4416],[4.7351,6.6815,80.6043],[4.7451,6.6728,48.261],[4.7665,6.6369,21.6725],[4.8027,6.5951,11.4556],[4.8161,6.5851,11.6194],[4.8473,6.5876,15.627],[4.865,6.5866,33.9691],[4.8721,6.6374,27.1044],[4.8792,6.6497,45.9889],[4.8902,6.6572,45.9891],[4.9036,6.6597,60.0892],[4.945,6.6627,49.7909],[4.9846,6.6604,45.5835],[4.9952,6.657,45.0442],[4.9987,6.6505,37.2256],[5.0044,6.6449,39.6818],[5.0165,6.6481,34.1541],[5.0231,6.6579,45.3111],[5.0348,6.6833,80.6131],[5.0688,6.7166,48.5842],[5.0736,6.7243,39.1725],[5.0588,6.7292,64.3243],[5.0463,6.7389,80.2923],[5.0382999999999996,6.7595,63.166],[5.0277,6.7707,87.3509],[5.0052,6.7902,108.0735],[4.9952,6.8153,98.237],[4.9871,6.844,158.5143],[4.9879,6.867,183.3457],[4.9785,6.8985,138.4565],[4.9712,6.9026,167.3493],[4.9596,6.9134,185.7279],[4.9445,6.9344,201.5547],[4.9142,6.9561,258.3376],[4.8965,6.9612,296.5504],[4.8808,6.9585,264.247],[4.8605,6.9577,264.5424],[4.8371,6.9512,253.9596],[4.7957,6.9346,229.4586],[4.7734,6.9211,159.2507],[4.7502,6.8996,120.1578],[4.7271,6.8873,159.6771],[4.6659,6.8665,145.6669],[4.6498,6.8686,161.0441],[4.6326,6.8733,130.4967],[4.6206,6.873,141.238],[4.597,6.8571,92.8991],[4.5791,6.8488,92.7766],[4.5579,6.849,91.189],[4.5374,6.8557,99.779],[4.5208,6.8335,58.2428],[4.5087,6.8258,62.3158],[4.4939,6.8129,43.6256],[4.4746,6.8056,53.957],[4.4607,6.7973,38.8766],[4.4292,6.7667,33.8059],[4.4021,6.7444,48.7776],[4.3968,6.7331,21.3755],[4.3839,6.7179,36.481],[4.3633,6.685,26.5616],[4.3539,6.6649,43.7163],[4.3558,6.6344,15.7084],[4.3523,6.6234,11.8139],[4.3531,6.6182,13.3352]]]]}}