{"type": "Feature","bbox": [7.523,8.6416,8.0809,9.3624],"geometry": {"type": "MultiPolygon","coordinates": [[[[7.523,8.8075,588.3887],[7.55,8.781,394.3715],[7.5682,8.7669,315.6737],[7.5938,8.7499,273.8946],[7.6261,8.7242,259.6322],[7.6629,8.7029,239.6878],[7.7055,8.6973,256.4628],[7.725,8.7032,219.3095],[7.7565,8.6978,274.3482],[7.791,8.6896,263.7554],[7.808,8.6767,262.2353],[7.8343,8.6601,242.9878],[7.8762,8.6552,248.9368],[7.9172,8.6416,254.5783],[7.9186,8.6527,237.939],[7.9113,8.6855,241.3725],[7.9143,8.7306,267.6403],[7.9196,8.7566,273.7173],[7.9189,8.7815,281.9672],[7.9143,8.8133,312.0188],[7.9077,8.8192,296.3316],[7.8952,8.8153,283.2691],[7.8781,8.814,296.2523],[7.8609,8.8037,308.0752],[7.8494,8.782,291.0292],[7.8356,8.7704,278.9835],[7.8215,8.7663,274.164],[7.7932,8.7698,286.3412],[7.7802,8.7778,296.5144],[7.7675,8.7824,284.076],[7.7482,8.8127,321.0076],[7.7531,8.8278,358.3226],[7.7692,8.8557,344.2756],[7.7853,8.8692,354.5522],[7.7967,8.8861,348.3796],[7.7979,8.9079,367.7609],[7.8033,8.9247,362.2165],[7.8226,8.9354,342.3251],[7.844,8.9447,339.965],[7.8629,8.9568,331.541],[7.8777,8.9743,338.5645],[7.9018,8.9984,347.7062],[7.9054,9.0058,360.7745],[7.9108,9.0098,370.5732],[7.9161,9.0196,419.9166],[7.9233,9.0282,367.9297],[7.9321,9.0445,366.0217],[7.9466,9.0615,374.9155],[7.9581,9.066,357.2643],[7.9738,9.0639,357.4064],[7.9933,9.0798,418.2763],[8.0012,9.0894,410.7146],[8.0099,9.11,472.9309],[8.0236,9.1249,438.5038],[8.0283,9.1285,424.3299],[8.0475,9.1363,386.371],[8.057,9.1457,399.1118],[8.0603,9.1443,375.6743],[8.0652,9.1467,375.4796],[8.0809,9.1591,387.8241],[8.0775,9.1962,428.9341],[8.0709,9.2097,441.8968],[8.0608,9.222,453.5364],[8.0536,9.2252,444.0696],[8.034,9.242,441.7819],[7.9998,9.2537,770.0935],[7.9928,9.2612,640.4644],[7.9915,9.2694,605.782],[7.993,9.2992,686.8958],[7.9875,9.3134,546.5576],[7.9623,9.331,456.3799],[7.9579,9.3387,559.8309],[7.9402,9.3562,639.8425],[7.9321,9.3604,618.6875],[7.9224,9.3624,480.3104],[7.9113,9.3611,623.0726],[7.9061,9.3568,592.3022],[7.8893,9.3393,601.4725],[7.8883,9.3301,466.8907],[7.8794,9.3228,476.3134],[7.8656,9.2922,408.987],[7.8643,9.2821,412.371],[7.8543,9.2745,410.5086],[7.8508,9.2657,386.9546],[7.8319,9.2498,375.0898],[7.8269,9.2483,375.6391],[7.8161,9.2473,385.0814],[7.8093,9.2483,388.323],[7.7992,9.2541,406.2237],[7.7929,9.2603,424.8615],[7.7809,9.2654,395.9077],[7.7593,9.2614,432.346],[7.7529,9.2641,424.7556],[7.7492,9.2679,422.3877],[7.7396,9.2715,425.8002],[7.7356,9.276,435.9352],[7.7342,9.2813,448.7067],[7.7199,9.2901,427.1768],[7.7049,9.2923,452.6105],[7.6999,9.2879,454.9067],[7.6875,9.282,616.4719],[7.6807,9.2826,634.5615],[7.6739,9.2881,597.7761],[7.6693,9.2952,603.2324],[7.6664,9.3137,708.9648],[7.6642,9.3199,701.3152],[7.6596,9.3254,732.8273],[7.6517,9.3276,744.8883],[7.6476,9.3271,725.7722],[7.6258,9.3107,724.0782],[7.6265,9.2973,699.8089],[7.6285,9.2911,690.0038],[7.6248,9.2717,666.9725],[7.6179,9.2617,651.7369],[7.6012,9.2606,646.4353],[7.5928,9.2508,685.3655],[7.5762,9.204,694.0603],[7.5711,9.1815,752.5859],[7.5644,9.1662,716.9624],[7.5586,9.1461,676.5641],[7.5599,9.1207,715.2936],[7.5562,9.0975,734.7361],[7.5581,9.0786,590.1347],[7.5574,9.0559,594.4218],[7.5657,9.0207,432.2261],[7.5652,9.0075,423.1462],[7.5629,9.004,427.5314],[7.5619,8.9982,416.9536],[7.5628,8.9689,393.9269],[7.5572,8.9521,385.2185],[7.5597,8.9325,410.0626],[7.5568,8.9083,385.5052],[7.5464,8.8819,456.3207],[7.5429,8.8633,426.4874],[7.5379,8.8558,435.9088],[7.5344,8.8402,481.7856],[7.5247,8.8237,512.4995],[7.523,8.8075,588.3887]]]]}
,"properties": {"GID_2": "NGA.26.4_1","GID_0": "NGA","country": "Nigeria","GID_1": "NGA.26_1","province": "Nasarawa","NL_NAME_1": "NA","county": "Karu","VARNAME_2": "NA","NL_NAME_2": "NA","TYPE_2": "LocalAuthority","ENGTYPE_2": "LocalAuthority","CC_2": "NA","HASC_2": "NA","name": "Karu.county","area_km2": 2658.014,"hist_schema_id": "Elevation0-9000","hist_area_km2": {"225": 20.141,"250": 126.055,"275": 219.206,"300": 175.555,"325": 154.422,"350": 250.327,"375": 386.112,"400": 413.015,"425": 270.16,"450": 166.555,"475": 104.552,"500": 68.55,"525": 40.963,"550": 30.518,"575": 27.523,"600": 25.597,"625": 26.516,"650": 28.337,"675": 23.859,"700": 26.329,"725": 27.544,"750": 23.59,"775": 13.167,"800": 3.915,"825": 2.114,"850": 0.774,"875": 0.586,"900": 0.628,"925": 0.377,"950": 0.67,"975": 0.335,"1000": 0.021}}}