{"type":"Feature","properties":{"GID_2":"NGA.24.10_1","GID_0":"NGA","country":"Nigeria","GID_1":"NGA.24_1","province":"Kwara","NL_NAME_1":"NA","county":"Isin","VARNAME_2":"NA","NL_NAME_2":"NA","TYPE_2":"LocalAuthority","ENGTYPE_2":"LocalAuthority","CC_2":"NA","HASC_2":"NA","name":"Isin.county"},
"geometry":{"type": "MultiPolygon","coordinates": [[[[4.8996,8.3587,358.1432],[4.893,8.3279,420.5],[4.8928,8.3014,405.3102],[4.8955,8.2806,443.0394],[4.9007,8.2582,447.1408],[4.9109,8.2384,434.6323],[4.9132999999999996,8.2294,445.2232],[4.9214,8.2161,411.9704],[4.9442,8.1952,450.4898],[4.9706,8.1761,524.9673],[4.9843,8.168,491.8701],[5.0205,8.1545,559.8824],[5.0301,8.1491,584.8212],[5.0689,8.136,530.3225],[5.0788,8.1339,577.7767],[5.0935,8.1325,549.0855],[5.1037,8.1349,537.0351],[5.1124,8.1408,516.0505],[5.1308,8.1667,480.9112],[5.1424,8.1753,480.2344],[5.1606,8.183,484.2999],[5.1711,8.19,498.2191],[5.1795,8.1864,514.9824],[5.1992,8.1714,493.9964],[5.215,8.1989,440.8634],[5.2249,8.21,472.5345],[5.2307,8.2235,375.0092],[5.2383,8.228,313.6839],[5.2083,8.2274,385.1795],[5.1986,8.2243,413.7075],[5.1899,8.2288,414.4052],[5.1823,8.2557,412.9573],[5.1832,8.2688,398.5711],[5.1902,8.3026,277.9854],[5.1858,8.3174,278.5469],[5.17,8.3391,318.9363],[5.158,8.3513,321.8433],[5.138,8.3578,443.9028],[5.1235,8.3597,538.5992],[5.0895,8.3557,413.997],[5.0721,8.3465,391.3137],[5.0595,8.3359,535.066],[5.0416,8.3284,457.3098],[5.0199,8.3264,427.6366],[4.9661,8.3382,435.1993],[4.9436,8.3455,361.9132],[4.9213,8.3504,382.4401],[4.8996,8.3587,358.1432]]]]}}