{"type": "Feature","bbox": [6.3466,6.7693,6.6708,7.1485],"geometry": {"type": "MultiPolygon","coordinates": [[[[6.5097,6.779,87.5225],[6.5204,6.7798,103.1393],[6.535,6.7699,55.4577],[6.5546,6.7693,36.3691],[6.5769,6.7701,33.6705],[6.6238,6.7781,26.151],[6.6257,6.7883,21.0],[6.6208,6.7993,21.0],[6.6125,6.8043,32.7086],[6.605,6.8231,21.4225],[6.6211,6.8461,23.0081],[6.6273,6.8635,21.5],[6.6399,6.8804,21.5],[6.6468,6.8953,21.5],[6.6507,6.9118,21.5],[6.6566,6.9168,25.7526],[6.6708,6.9596,29.0598],[6.6584,6.9588,27.3725],[6.6304,6.9625,30.7047],[6.5807,6.9735,34.9593],[6.5626,6.9782,35.9065],[6.5302,6.9911,35.9854],[6.517,7.0013,37.9604],[6.5096,7.0132,60.2359],[6.5108,7.0311,57.0101],[6.5147,7.0407,55.5603],[6.5161,7.0557,76.3835],[6.5187,7.0639,110.9063],[6.518,7.0731,155.8522],[6.5063,7.0927,235.1662],[6.4999,7.1099,266.7314],[6.4846,7.1348,190.5263],[6.4741,7.1449,203.6313],[6.4622,7.1481,190.2791],[6.4291,7.1447,242.2073],[6.394,7.1485,168.6751],[6.3934,7.1428,185.4688],[6.3987,7.1169,245.5637],[6.3998,7.0853,254.4483],[6.3782,7.0624,196.6087],[6.3686,7.054,144.7824],[6.3614,7.0502,94.092],[6.3572,7.0455,109.5182],[6.3584,7.0374,123.6502],[6.379,7.0253,98.8208],[6.3915,7.0135,73.6186],[6.3822,6.9957,64.4921],[6.3546,6.9731,60.5379],[6.3481,6.9525,56.4997],[6.3466,6.9339,61.5886],[6.3516,6.9262,61.1749],[6.3615,6.9249,59.7227],[6.3698,6.9266,63.8036],[6.4067,6.9423,47.4135],[6.4237,6.9365,48.2233],[6.4339,6.9402,48.2002],[6.4497,6.9321,45.8899],[6.4618,6.9218,44.865],[6.4728,6.9066,46.7698],[6.4741,6.9036,48.8203],[6.4727,6.9009,50.846],[6.4754,6.8969,56.5344],[6.4882,6.8909,55.8206],[6.4985,6.8813,47.5401],[6.5043,6.8715,42.4253],[6.5083,6.859,39.9284],[6.5072,6.8503,50.1696],[6.5046,6.8457,56.8213],[6.5107,6.8265,58.1222],[6.5032,6.819,55.6032],[6.505,6.8024,75.184],[6.509,6.7917,80.5229],[6.5097,6.779,87.5225]]]]}
,"properties": {"GID_2": "NGA.12.7_1","GID_0": "NGA","country": "Nigeria","GID_1": "NGA.12_1","province": "Edo","NL_NAME_1": "NA","county": "EtsakoCentral","VARNAME_2": "NA","NL_NAME_2": "NA","TYPE_2": "LocalAuthority","ENGTYPE_2": "LocalAuthority","CC_2": "NA","HASC_2": "NA","name": "Etsako_Central.county","area_km2": 682.7353,"hist_schema_id": "Elevation0-9000","hist_area_km2": {"25": 252.5276,"50": 216.1956,"75": 52.9472,"100": 26.4509,"125": 14.7295,"150": 11.4887,"175": 13.5293,"200": 14.7701,"225": 16.7477,"250": 20.8923,"275": 17.3994,"300": 13.8436,"325": 8.5628,"350": 2.6508}}}