{"type": "Feature","bbox": [4.933,7.6641,5.1185,7.9338],"geometry": {"type": "MultiPolygon","coordinates": [[[[5.0945,7.6641,524.8986],[5.1052,7.6985,546.3204],[5.1062,7.7309,566.9263],[5.1171,7.7782,453.5568],[5.1185,7.7943,480.4496],[5.1161,7.816,516.9731],[5.089,7.8914,566.0126],[5.0757,7.911,536.5815],[5.0643,7.9192,497.3983],[5.0546,7.9219,488.3186],[5.0275,7.9338,497.896],[5.0074,7.9189,519.444],[4.9914,7.9141,496.0988],[4.9723,7.9038,493.3434],[4.9461,7.8796,380.8099],[4.933,7.8571,533.4578],[4.9493,7.8421,397.2154],[4.9537,7.8328,390.9693],[4.9525,7.8292,382.2884],[4.9618,7.8168,378.8724],[4.9695,7.7959,385.4275],[4.9852,7.7696,393.994],[5.0047,7.7449,435.8666],[5.0478,7.717,452.8105],[5.0608,7.7034,460.1858],[5.0881,7.669,519.8813],[5.0945,7.6641,524.8986]]]]}
,"properties": {"GID_2": "NGA.13.9_1","GID_0": "NGA","country": "Nigeria","GID_1": "NGA.13_1","province": "Ekiti","NL_NAME_1": "NA","county": "Ijero","VARNAME_2": "NA","NL_NAME_2": "NA","TYPE_2": "LocalAuthority","ENGTYPE_2": "LocalAuthority","CC_2": "NA","HASC_2": "NA","name": "Ijero.county","area_km2": 348.3501,"hist_schema_id": "Elevation0-9000","hist_area_km2": {"375": 5.083,"400": 48.6692,"425": 75.7671,"450": 62.8896,"475": 50.2844,"500": 38.1026,"525": 27.4538,"550": 25.2278,"575": 11.9107,"600": 2.6678,"625": 0.273,"650": 0.021}}}