{"type": "Feature","bbox": [9.2537,8.3472,9.7582,9.1094],"geometry": {"type": "MultiPolygon","coordinates": [[[[9.6155,8.3512,136.0799],[9.6776,8.3472,141.969],[9.7582,8.359,105.0717],[9.7552,8.3681,102.96],[9.7408,8.3885,102.3244],[9.7339,8.3939,102.7054],[9.7129,8.4166,108.7795],[9.7048,8.4327,113.3401],[9.6984,8.4572,110.134],[9.6684,8.5005,120.7751],[9.6597,8.5216,132.0783],[9.6586,8.5369,123.05],[9.646,8.557,133.2147],[9.6383,8.577,126.1289],[9.6313,8.6138,153.4453],[9.6313,8.6448,160.0826],[9.6357,8.6877,152.3404],[9.6399,8.7046,158.5282],[9.6491,8.7257,152.0924],[9.6616,8.7437,160.8329],[9.6714,8.753,152.9756],[9.688,8.7591,162.3484],[9.6964,8.7592,154.9133],[9.7173,8.7692,146.9428],[9.7273,8.7764,153.6622],[9.7375,8.7909,157.6873],[9.7379,8.8708,200.5925],[9.7352,8.8831,213.1088],[9.7265,8.8814,211.9],[9.719,8.8876,217.397],[9.703,8.8913,233.9179],[9.6918,8.8996,241.8168],[9.6473,8.945,248.8477],[9.6277,8.9575,245.5453],[9.608,8.9589,261.1587],[9.5905,8.9665,230.2175],[9.5474,8.9656,244.3627],[9.5278,8.9675,269.3009],[9.504,8.9578,252.4084],[9.4805,8.952,232.8627],[9.459,8.9399,237.1025],[9.44,8.9354,230.978],[9.4235,8.9273,240.0784],[9.4104,8.9421,265.0902],[9.3896,8.9778,273.097],[9.3869,9.0009,276.755],[9.3805,9.0069,279.8745],[9.347,9.0034,262.8376],[9.329,9.0054,288.3831],[9.3152,9.0091,280.9645],[9.3046,9.0184,293.9913],[9.2997,9.0255,308.1052],[9.3054,9.0422,315.0537],[9.3281,9.0789,329.0067],[9.3349,9.1041,356.0378],[9.3309,9.1065,355.1623],[9.2945,9.1094,361.9622],[9.2954,9.0862,334.5404],[9.2904,9.0561,354.1953],[9.2857,9.0389,339.4862],[9.2905,9.013,310.4407],[9.288,9.0051,306.1443],[9.2777,8.997,324.3059],[9.2769,8.988,317.7714],[9.2949,8.9584,281.632],[9.3025,8.9205,257.5168],[9.3019,8.8947,244.0467],[9.314,8.86,237.9068],[9.3283,8.8428,239.8031],[9.3598,8.8187,231.44],[9.3655,8.8051,250.3083],[9.358,8.789,219.0038],[9.3333,8.7969,237.584],[9.3227,8.7958,256.9071],[9.3219,8.757,251.5454],[9.3285,8.7249,217.9692],[9.3181,8.7081,218.075],[9.3219,8.6637,202.6602],[9.3158,8.6459,208.3178],[9.301,8.6129,182.8057],[9.2855,8.5853,170.5479],[9.262,8.5329,137.7933],[9.2552,8.4987,124.3478],[9.2537,8.4737,109.2811],[9.2564,8.4618,105.2805],[9.3839,8.4973,132.2509],[9.4715,8.4568,131.1041],[9.5512,8.4276,146.0419],[9.5919,8.3944,140.8638],[9.6155,8.3512,136.0799]]]]}
,"properties": {"GID_2": "NGA.32.16_1","GID_0": "NGA","country": "Nigeria","GID_1": "NGA.32_1","province": "Plateau","NL_NAME_1": "NA","county": "Shendam","VARNAME_2": "NA","NL_NAME_2": "NA","TYPE_2": "LocalAuthority","ENGTYPE_2": "LocalAuthority","CC_2": "NA","HASC_2": "NA","name": "Shendam.county","area_km2": 2500.298,"hist_schema_id": "Elevation0-9000","hist_area_km2": {"100": 34.357,"125": 307.255,"150": 579.114,"175": 474.538,"200": 408.063,"225": 421.34,"250": 174.253,"275": 56.777,"300": 12.314,"325": 17.065,"350": 13.316,"375": 0.44,"400": 0.293,"425": 0.272,"450": 0.147,"475": 0.293,"500": 0.168,"525": 0.209,"550": 0.084}}}