{"type":"Feature","properties":{"GID_2":"NGA.31.32_1","GID_0":"NGA","country":"Nigeria","GID_1":"NGA.31_1","province":"Oyo","NL_NAME_1":"NA","county":"SakiWest","VARNAME_2":"NA","NL_NAME_2":"NA","TYPE_2":"LocalAuthority","ENGTYPE_2":"LocalAuthority","CC_2":"NA","HASC_2":"NA","name":"Saki_West.county"},
"geometry":{"type": "MultiPolygon","coordinates": [[[[2.7414,8.4487,216.462],[2.7659,8.4462,247.8202],[2.7852,8.4523,278.307],[2.8151,8.4472,298.9098],[2.828,8.4483,273.0015],[2.8379,8.4445,244.0062],[2.8518,8.4463,274.6484],[2.8837,8.4386,265.898],[2.89,8.4415,294.2666],[2.9123,8.44,334.6263],[2.9774,8.4299,349.2935],[3.026,8.4254,323.9497],[3.0427,8.4168,281.2639],[3.0579,8.414,295.905],[3.0758,8.4075,281.1812],[3.0976,8.4115,325.18],[3.1307,8.4061,307.4798],[3.1452,8.4056,336.9432],[3.1664,8.4147,336.6774],[3.1746,8.4111,364.6016],[3.1892,8.4125,416.4691],[3.1969,8.4066,372.3088],[3.2016,8.3978,361.7701],[3.2167,8.3918,362.8459],[3.2196,8.3952,381.2605],[3.2288,8.3962,356.4028],[3.2388,8.3893,320.0054],[3.2556,8.3828,344.5433],[3.2841,8.3782,308.1596],[3.322,8.384,291.9217],[3.3446,8.3947,304.3391],[3.3528,8.4051,297.069],[3.3523,8.4273,321.7791],[3.361,8.4561,339.3278],[3.3735,8.4875,328.0402],[3.3997,8.5216,351.69],[3.4075,8.536,338.3828],[3.4454,8.5646,408.0401],[3.4507,8.568,425.2652],[3.4533,8.5672,424.9673],[3.4496,8.6229,457.1521],[3.427,8.6455,482.5879],[3.4101,8.6567,481.5525],[3.3875,8.6567,437.9049],[3.3763,8.668,445.4411],[3.3763,8.685,381.5395],[3.3706,8.6963,448.6902],[3.3763,8.7132,436.5959],[3.3763,8.7301,421.2999],[3.4045,8.7583,437.388],[3.3988,8.7865,418.4936],[3.4016,8.8279,441.9395],[3.3854,8.8168,440.8827],[3.3689,8.8085,432.959],[3.3588,8.8006,421.0192],[3.3438,8.7965,400.9452],[3.3035,8.778,387.2075],[3.2914,8.7683,389.343],[3.2737,8.764,371.4463],[3.2672,8.7576,388.6925],[3.2458,8.7483,359.4351],[3.2307,8.7458,391.2714],[3.2244,8.7528,393.6891],[3.2222,8.7579,379.8916],[3.215,8.7562,398.4572],[3.2057,8.7649,370.2253],[3.2003,8.7742,340.6274],[3.189,8.7774,343.2943],[3.1768,8.7802,362.0867],[3.1591,8.7717,354.2629],[3.1476,8.7731,355.3583],[3.1411,8.7697,335.6147],[3.1275,8.7584,338.6399],[3.1152,8.7515,320.6278],[3.1011,8.7372,334.3117],[3.0892,8.7304,334.7703],[3.0795,8.7163,305.8564],[3.0666,8.7064,320.0155],[3.0548,8.7031,355.2589],[3.0478,8.6991,369.5873],[3.0459,8.6929,363.2269],[3.0356,8.6841,368.1008],[3.0251,8.6787,334.6442],[3.0089,8.6734,319.1955],[3.0039,8.6668,332.8161],[2.9616,8.6327,323.8874],[2.9598,8.6261,308.5625],[2.9456,8.6182,305.6241],[2.9457,8.6099,330.8839],[2.9426,8.6024,321.6401],[2.9254,8.5939,324.3473],[2.9194,8.5947,308.5454],[2.9184,8.5896,325.7902],[2.9011,8.5904,308.6361],[2.8879,8.5874,314.0376],[2.8756,8.5867,317.6137],[2.8524,8.5781,314.0995],[2.836,8.5756,276.1842],[2.8171,8.5801,304.2238],[2.8111,8.5781,286.914],[2.8011,8.5778,265.3674],[2.7893,8.5725,258.6771],[2.7592,8.5384,244.8164],[2.7496,8.5331,241.0631],[2.7619,8.5225,241.0582],[2.7618,8.5053,229.3225],[2.7507,8.4934,225.9163],[2.75,8.4897,239.5704],[2.7569,8.4826,226.8143],[2.7491,8.4728,231.8898],[2.7442,8.462,220.3053],[2.7414,8.4487,216.462]]]]}}