{"type": "Feature","bbox": [6.8083,5.8531,7.0372,6.0095],"geometry": {"type": "MultiPolygon","coordinates": [[[[6.96,5.9979,165.2329],[6.9477,6.0055,142.7408],[6.937,6.0095,133.0785],[6.9285,5.998,96.6415],[6.9237,5.9879,103.2263],[6.9061,5.9721,108.1464],[6.8992,5.9701,115.8344],[6.8929,5.9642,91.3526],[6.8884,5.9593,61.7708],[6.8855,5.9517,54.8328],[6.8695,5.9319,115.4652],[6.8581,5.9268,43.8571],[6.847,5.9268,39.0529],[6.8429,5.9287,42.5352],[6.8396,5.9353,27.3034],[6.8364,5.9221,74.0566],[6.8337,5.9178,76.6376],[6.8249,5.9117,70.7418],[6.8216,5.9067,68.6893],[6.8083,5.9001,59.4966],[6.8229,5.8728,70.2072],[6.8279,5.8686,68.9585],[6.8344,5.8567,70.1866],[6.8546,5.8531,115.1155],[6.8577,5.8588,148.1396],[6.8607,5.8705,151.891],[6.8622,5.8913,52.0156],[6.8676,5.8972,51.9288],[6.8776,5.9021,70.9914],[6.8895,5.8977,73.3846],[6.9118,5.8936,59.2409],[6.9196,5.8944,43.7071],[6.9258,5.89,48.9018],[6.9459,5.8861,62.0887],[6.9572,5.8975,47.0315],[6.9753,5.9048,37.9325],[7.0343,5.9181,51.569],[7.0318,5.9236,65.3305],[7.0372,5.93,62.3938],[7.0081,5.9464,66.7265],[6.9843,5.953,172.9811],[6.9726,5.9611,142.411],[6.9677,5.9708,153.4716],[6.9615,5.9732,145.3223],[6.96,5.9979,165.2329]]]]}
,"properties": {"GID_2": "NGA.4.15_1","GID_0": "NGA","country": "Nigeria","GID_1": "NGA.4_1","province": "Anambra","NL_NAME_1": "NA","county": "NnewiSouth","VARNAME_2": "NA","NL_NAME_2": "NA","TYPE_2": "LocalAuthority","ENGTYPE_2": "LocalAuthority","CC_2": "NA","HASC_2": "NA","name": "Nnewi_South.county","area_km2": 169.1957,"hist_schema_id": "Elevation0-9000","hist_area_km2": {"25": 6.2003,"50": 45.0465,"75": 59.0491,"100": 32.3498,"125": 15.2679,"150": 9.6372,"175": 1.6448}}}