{"type":"Feature","properties":{"GID_2":"NGA.14.17_1","GID_0":"NGA","country":"Nigeria","GID_1":"NGA.14_1","province":"Enugu","NL_NAME_1":"NA","county":"Uzo-Uwani","VARNAME_2":"NA","NL_NAME_2":"NA","TYPE_2":"LocalAuthority","ENGTYPE_2":"LocalAuthority","CC_2":"NA","HASC_2":"NA","name":"Uzo-Uwani.county"},
"geometry":{"type": "MultiPolygon","coordinates": [[[[6.9152,6.711,24.4337],[6.9261,6.7085,26.1025],[6.9386,6.7108,25.2173],[6.9505,6.7154,54.4774],[6.9763,6.7134,50.8094],[6.9908,6.7083,38.0175],[7.0157,6.6906,38.8611],[7.0235,6.6881,40.7733],[7.0378,6.6877,45.8087],[7.0489,6.6893,52.253],[7.0801,6.6766,69.3687],[7.0914,6.6738,71.0674],[7.1092,6.6618,88.3544],[7.115,6.649,104.8993],[7.1085,6.6343,90.8896],[7.0947,6.5933,74.3009],[7.0826,6.5759,63.377],[7.0553,6.5575,41.3397],[7.0374,6.537,40.5754],[7.0253,6.5174,38.0677],[7.0274,6.516,36.7656],[7.0254,6.5095,39.2832],[7.0292,6.5019,36.9112],[7.0193,6.4884,32.2908],[7.0192,6.478,25.2302],[7.0129,6.4638,26.361],[7.0382,6.4636,26.197],[7.0598,6.4702,28.9051],[7.0788,6.4795,30.6283],[7.096,6.4986,40.7807],[7.0956,6.5046,66.1624],[7.098,6.5105,57.1141],[7.1258,6.5451,75.3899],[7.1313,6.5563,75.7416],[7.1325,6.5759,103.3724],[7.1397,6.6055,67.5499],[7.1396,6.6119,71.8081],[7.1655,6.6465,123.3466],[7.187,6.6611,114.0059],[7.2074,6.6709,123.7466],[7.2224,6.6718,216.8717],[7.2544,6.6664,219.4094],[7.2611,6.6677,213.0121],[7.2635,6.6711,213.3833],[7.2624,6.6769,212.5836],[7.2653,6.684,207.3069],[7.2652,6.6904,217.323],[7.2671,6.6973,264.0713],[7.2663,6.7019,233.5692],[7.3055,6.7167,269.3412],[7.3118,6.7235,274.4669],[7.3096,6.7298,258.6989],[7.3102,6.7371,304.3465],[7.3022,6.7414,253.8608],[7.2966,6.7517,265.0489],[7.2898,6.7555,305.9945],[7.2832,6.7616,247.5332],[7.278,6.7732,285.8716],[7.277,6.7787,398.5398],[7.2838,6.8298,342.1358],[7.2828,6.836,320.4594],[7.2752,6.8536,329.1547],[7.2649,6.8577,299.5507],[7.2535,6.866,228.6494],[7.2177,6.8816,253.6626],[7.2085,6.8926,200.4256],[7.1863,6.904,184.0881],[7.1768,6.9116,147.0593],[7.1602,6.9036,125.6685],[7.1125,6.8698,115.3524],[7.1087,6.8634,107.4531],[7.0816,6.8396,102.1064],[7.0719,6.8248,87.0666],[7.0443,6.7944,61.0545],[7.0322,6.7828,47.1797],[7.021,6.7784,54.1513],[7.0122,6.7774,45.2779],[7.001,6.7829,42.9665],[6.99,6.8024,35.5471],[6.9804,6.8107,41.1944],[6.9796,6.8154,42.8102],[6.9676,6.8162,37.5869],[6.9691,6.8395,26.9001],[6.9684,6.8465,32.7613],[6.9647,6.8529,31.5111],[6.95,6.8571,27.6332],[6.9433,6.8533,30.3208],[6.9319,6.8219,29.2472],[6.9222,6.805,26.0951],[6.9169,6.7919,32.1919],[6.9072,6.7824,33.4243],[6.9059,6.7762,33.988],[6.913,6.7696,27.6531],[6.9143,6.7306,29.3785],[6.913,6.7209,26.4512],[6.9152,6.711,24.4337]]]]}}