{"type": "Feature","bbox": [10.4775,12.7686,11.0478,13.102],"geometry": {"type": "MultiPolygon","coordinates": [[[[10.5423,12.7686,343.6062],[10.5605,12.7899,344.0586],[10.5783,12.8073,344.0963],[10.5998,12.813,343.8189],[10.6143,12.82,343.5497],[10.6749,12.8369,341.9325],[10.7024,12.8426,340.6436],[10.7239,12.8384,341.6068],[10.7592,12.8491,341.507],[10.7791,12.8489,339.6016],[10.8158,12.8549,338.4569],[10.8983,12.8561,337.5381],[10.9178,12.8521,334.6906],[10.9723,12.8498,335.0941],[11.017,12.8535,334.602],[11.0283,12.859,333.9306],[11.0468,12.8642,334.8142],[11.0478,12.8699,337.7017],[11.0435,12.8746,337.1678],[11.0426,12.9119,335.1389],[11.0352,12.9394,336.7434],[11.0145,12.9546,337.3643],[10.9805,12.9698,336.4826],[10.9592,12.9762,337.9276],[10.9223,12.9696,337.0798],[10.8959,12.969,336.6382],[10.8786,12.9703,336.9555],[10.8562,12.9799,337.8155],[10.8521,12.9871,337.8279],[10.8448,12.9952,338.3304],[10.854,13.0189,337.887],[10.8687,13.0383,336.2889],[10.8671,13.0556,336.1337],[10.8601,13.085,340.217],[10.8358,13.0861,341.0217],[10.8159,13.102,342.2832],[10.7757,13.0992,346.5759],[10.7374,13.0912,342.3046],[10.7103,13.0886,338.4872],[10.6899,13.0822,340.3422],[10.6727,13.0725,338.8741],[10.6521,13.0567,340.1709],[10.6446,13.0483,340.0768],[10.6418,13.0393,339.4138],[10.6439,13.026,339.2896],[10.6521,13.0195,339.3933],[10.6635,13.0198,339.1606],[10.6859,13.0244,340.0421],[10.7006,13.0215,340.4206],[10.7111,13.0116,340.5732],[10.7061,13.0008,343.2911],[10.6716,12.9931,338.8769],[10.6583,12.9939,339.1611],[10.6236,12.9918,340.4742],[10.5774,12.9939,339.859],[10.5292,12.9921,341.9186],[10.5147,12.984,341.9769],[10.4866,12.9603,340.9875],[10.4792,12.9487,342.4507],[10.4775,12.9316,342.8528],[10.4842,12.9125,343.6954],[10.5156,12.88,343.0818],[10.5568,12.8426,344.7495],[10.5597,12.836,343.6435],[10.5539,12.8286,344.4647],[10.5421,12.8187,345.2701],[10.4975,12.8075,345.6188],[10.4845,12.7989,346.1763],[10.4776,12.7923,345.9979],[10.5014,12.7994,345.4397],[10.5312,12.7853,344.3565],[10.5423,12.7686,343.6062]]]]}
,"properties": {"GID_2": "NGA.36.10_1","GID_0": "NGA","country": "Nigeria","GID_1": "NGA.36_1","province": "Yobe","NL_NAME_1": "NA","county": "Karasuwa","VARNAME_2": "NA","NL_NAME_2": "NA","TYPE_2": "LocalAuthority","ENGTYPE_2": "LocalAuthority","CC_2": "NA","HASC_2": "NA","name": "Karasuwa.county","area_km2": 1162.205,"hist_schema_id": "Elevation0-9000","hist_area_km2": {"325": 212.6488,"350": 949.5562}}}