{"type": "Feature","bbox": [6.8396,5.9268,6.937,6.0516],"geometry": {"type": "MultiPolygon","coordinates": [[[[6.8396,5.9353,27.3034],[6.8429,5.9287,42.5352],[6.847,5.9268,39.0529],[6.8581,5.9268,43.8571],[6.8695,5.9319,115.4652],[6.8855,5.9517,54.8328],[6.8884,5.9593,61.7708],[6.8929,5.9642,91.3526],[6.8992,5.9701,115.8344],[6.9061,5.9721,108.1464],[6.9237,5.9879,103.2263],[6.9285,5.998,96.6415],[6.937,6.0095,133.0785],[6.9249,6.0079,113.13],[6.9159,6.0182,143.5197],[6.9134,6.0236,151.9076],[6.9105,6.0248,158.6992],[6.9106,6.0312,171.5584],[6.8845,6.0485,167.4148],[6.8744,6.0516,153.0531],[6.8725,6.0475,148.2805],[6.8662,5.9974,91.2677],[6.8635,5.9896,70.4775],[6.8636,5.9816,49.0301],[6.8614,5.9735,76.4659],[6.8475,5.9551,113.9385],[6.8396,5.9353,27.3034]]]]}
,"properties": {"GID_2": "NGA.4.14_1","GID_0": "NGA","country": "Nigeria","GID_1": "NGA.4_1","province": "Anambra","NL_NAME_1": "NA","county": "NnewiNorth","VARNAME_2": "NA","NL_NAME_2": "NA","TYPE_2": "LocalAuthority","ENGTYPE_2": "LocalAuthority","CC_2": "NA","HASC_2": "NA","name": "Nnewi_North.county","area_km2": 64.63006,"hist_schema_id": "Elevation0-9000","hist_area_km2": {"25": 1.13879,"50": 4.5127,"75": 16.53219,"100": 15.83611,"125": 13.34767,"150": 6.55756,"175": 6.70504}}}