{"type": "Feature","bbox": [12.4408,12.3905,13.0532,13.0302],"geometry": {"type": "MultiPolygon","coordinates": [[[[12.8954,13.0302,298.7159],[12.8662,12.9809,296.3432],[12.8367,12.9527,299.4503],[12.7999,12.9042,301.0049],[12.7348,12.8445,302.7448],[12.6997,12.7937,303.5937],[12.6453,12.7625,304.9588],[12.6161,12.7413,307.5324],[12.5784,12.7241,309.6095],[12.5494,12.7059,310.8437],[12.4893,12.6786,312.4668],[12.4896,12.673,312.741],[12.4598,12.6062,316.8822],[12.4408,12.5818,318.5003],[12.4702,12.5714,317.7152],[12.5061,12.5436,314.4301],[12.5284,12.5126,313.6976],[12.5539,12.4945,312.9954],[12.6008,12.4836,310.2058],[12.6421,12.4835,307.3605],[12.6921,12.4605,307.2411],[12.7042,12.438,306.2411],[12.7277,12.4165,306.8453],[12.756,12.4196,305.6496],[12.8011,12.4118,305.592],[12.8903,12.4094,305.2601],[12.9166,12.3966,303.1608],[12.9252,12.3905,304.3909],[12.9295,12.4235,301.4563],[12.9365,12.4396,301.2569],[12.9405,12.4459,302.1517],[12.9507,12.4564,301.1941],[12.9775,12.5048,298.3206],[12.9859,12.5265,297.4394],[13.0152,12.6179,297.2503],[13.0333,12.6666,295.1614],[13.052,12.7428,294.9184],[13.0532,12.7763,296.6329],[13.0475,12.7987,296.9866],[13.0422,12.8102,296.1801],[13.032,12.8059,295.9636],[13.0163,12.8029,289.5917],[12.9991,12.8093,298.8369],[12.9861,12.8169,294.2972],[12.9795,12.8288,297.7971],[12.9774,12.8472,296.8857],[12.976,12.9088,296.8385],[12.9698,12.9269,298.3808],[12.9593,12.9458,297.1591],[12.9379,12.973,298.4371],[12.9096,13.0134,298.2687],[12.8954,13.0302,298.7159]]]]}
,"properties": {"GID_2": "NGA.8.9_1","GID_0": "NGA","country": "Nigeria","GID_1": "NGA.8_1","province": "Borno","NL_NAME_1": "NA","county": "Gubio","VARNAME_2": "NA","NL_NAME_2": "NA","TYPE_2": "LocalAuthority","ENGTYPE_2": "LocalAuthority","CC_2": "NA","HASC_2": "NA","name": "Gubio.county","area_km2": 2505.432,"hist_schema_id": "Elevation0-9000","hist_area_km2": {"300": 2440.705,"325": 64.727}}}