{"type": "Feature","bbox": [7.7971,8.5386,8.2358,9.1591],"geometry": {"type": "MultiPolygon","coordinates": [[[[8.0809,9.1591,387.8241],[8.0652,9.1467,375.4796],[8.0603,9.1443,375.6743],[8.057,9.1457,399.1118],[8.0475,9.1363,386.371],[8.0283,9.1285,424.3299],[8.0236,9.1249,438.5038],[8.0099,9.11,472.9309],[8.0012,9.0894,410.7146],[7.9933,9.0798,418.2763],[7.9738,9.0639,357.4064],[7.9581,9.066,357.2643],[7.9466,9.0615,374.9155],[7.9321,9.0445,366.0217],[7.9233,9.0282,367.9297],[7.9161,9.0196,419.9166],[7.9108,9.0098,370.5732],[7.9054,9.0058,360.7745],[7.9018,8.9984,347.7062],[7.8777,8.9743,338.5645],[7.8629,8.9568,331.541],[7.844,8.9447,339.965],[7.8226,8.9354,342.3251],[7.8033,8.9247,362.2165],[7.7979,8.9079,367.7609],[7.7971,8.8939,371.3723],[7.8237,8.8886,333.3501],[7.8788,8.8725,312.0283],[7.8988,8.8558,300.4854],[7.9055,8.8405,305.0432],[7.903,8.8177,292.7441],[7.9077,8.8192,296.3316],[7.9143,8.8133,312.0188],[7.9189,8.7815,281.9672],[7.9196,8.7566,273.7173],[7.9143,8.7306,267.6403],[7.9113,8.6855,241.3725],[7.9186,8.6527,237.939],[7.9172,8.6416,254.5783],[7.9542,8.6272,264.8131],[7.9757999999999996,8.6217,248.9698],[8.0285,8.6031,275.7415],[8.0537,8.5902,295.3907],[8.1229,8.5471,165.0646],[8.1486,8.5386,156.7348],[8.1571,8.5392,174.0933],[8.1552,8.559,213.3405],[8.1683,8.5862,205.9418],[8.1761,8.6137,215.7026],[8.2069,8.6754,267.9196],[8.2234,8.6968,201.1406],[8.2355,8.7609,271.5845],[8.2333,8.7946,299.7982],[8.2358,8.8353,367.3755],[8.2346,8.8632,387.5332],[8.2289,8.8831,395.7464],[8.1962,8.9143,398.537],[8.1835,8.9401,412.9477],[8.1738,8.9675,414.5415],[8.1709,9.0006,460.3672],[8.1738,9.0081,476.7651],[8.1613,9.0331,488.5162],[8.1235,9.0074,472.6103],[8.1125,9.0041,489.2457],[8.1048,9.0041,418.579],[8.0939,9.0073,463.748],[8.0831,9.0194,391.6457],[8.0824,9.0284,414.5987],[8.0796,9.0295,452.9386],[8.0767,9.0405,403.9863],[8.0759,9.0532,384.6721],[8.0809,9.1591,387.8241]]]]}
,"properties": {"GID_2": "NGA.26.7_1","GID_0": "NGA","country": "Nigeria","GID_1": "NGA.26_1","province": "Nasarawa","NL_NAME_1": "NA","county": "Kokona","VARNAME_2": "NA","NL_NAME_2": "NA","TYPE_2": "LocalAuthority","ENGTYPE_2": "LocalAuthority","CC_2": "NA","HASC_2": "NA","name": "Kokona.county","area_km2": 1793.615,"hist_schema_id": "Elevation0-9000","hist_area_km2": {"150": 2.264,"175": 12.705,"200": 25.679,"225": 42.406,"250": 93.391,"275": 211.528,"300": 286.506,"325": 370.863,"350": 347.969,"375": 229.74,"400": 106.671,"425": 32.586,"450": 15.58,"475": 11.727,"500": 2.848,"525": 0.67,"550": 0.272,"575": 0.168,"600": 0.042}}}