{"type": "Feature","bbox": [8.336,12.5506,8.7305,12.712],"geometry": {"type": "MultiPolygon","coordinates": [[[[8.7305,12.6779,398.9939],[8.7159,12.6873,400.8584],[8.7151,12.6919,400.374],[8.7094,12.7003,398.4494],[8.7055,12.712,400.5247],[8.6802,12.6977,402.4503],[8.6809,12.6906,401.3428],[8.6774,12.6818,401.4745],[8.669,12.67,402.6663],[8.6613,12.6655,399.3764],[8.6153,12.6508,407.5152],[8.5706,12.6341,410.1953],[8.5664,12.632,409.9449],[8.5653,12.6292,410.6337],[8.5571,12.6229,411.7667],[8.5455,12.6197,411.6248],[8.5298,12.6184,414.3684],[8.5124,12.6198,415.3724],[8.5091,12.6204,414.2454],[8.5055,12.6262,416.2115],[8.5042,12.6351,415.23],[8.5057,12.646,417.2277],[8.5113,12.6641,419.4848],[8.5182,12.6736,419.8443],[8.5235,12.6847,419.9002],[8.5191,12.6909,421.8341],[8.5095,12.694,426.5086],[8.5064,12.6977,427.6488],[8.4948,12.7044,438.45],[8.4798,12.7086,444.6479],[8.4732,12.7072,450.3847],[8.4639,12.702,458.7209],[8.4552,12.691,465.1645],[8.4376,12.6768,496.0251],[8.4353,12.6707,509.5123],[8.43,12.6647,476.7398],[8.4182,12.6555,459.7579],[8.4142,12.6555,476.8765],[8.4106,12.6585,459.4899],[8.401,12.6616,448.581],[8.3655,12.6478,454.5458],[8.3485,12.6263,463.3188],[8.3452,12.6241,469.7607],[8.3422,12.6113,472.5282],[8.336,12.5987,465.7157],[8.3368,12.5905,475.6458],[8.3397,12.5847,514.5453],[8.343,12.582,485.8405],[8.3607,12.5792,553.3062],[8.3836,12.579,463.7287],[8.4125,12.5861,439.2713],[8.432,12.5711,424.7977],[8.4411,12.5606,420.2433],[8.4466,12.5506,428.4281],[8.4711,12.5634,422.0965],[8.4911,12.5717,421.1641],[8.5414,12.5773,414.0345],[8.552,12.5772,414.2244],[8.5742,12.5697,411.6659],[8.6134,12.5619,406.8001],[8.6238,12.5708,406.5884],[8.6309,12.5798,404.8517],[8.6422,12.5876,400.835],[8.6675,12.5967,400.6684],[8.6833,12.6001,397.5602],[8.6932,12.6053,399.5819],[8.6951,12.61,400.7582],[8.6927,12.6182,401.2566],[8.6872,12.6221,402.6149],[8.6861,12.626,402.4136],[8.6818,12.628,402.0611],[8.6828,12.6356,402.5486],[8.7042,12.6525,402.6841],[8.7224,12.6702,398.2188],[8.7269,12.6721,400.5561],[8.7305,12.6779,398.9939]]]]}
,"properties": {"GID_2": "NGA.18.17_1","GID_0": "NGA","country": "Nigeria","GID_1": "NGA.18_1","province": "Jigawa","NL_NAME_1": "NA","county": "Kazaure","VARNAME_2": "NA","NL_NAME_2": "NA","TYPE_2": "LocalAuthority","ENGTYPE_2": "LocalAuthority","CC_2": "NA","HASC_2": "NA","name": "Kazaure.county","area_km2": 367.0342,"hist_schema_id": "Elevation0-9000","hist_area_km2": {"400": 156.3724,"425": 110.7967,"450": 67.3401,"475": 28.6143,"500": 2.5657,"525": 0.4345,"550": 0.7243,"575": 0.1862}}}