{"type": "Feature","bbox": [5.5632,9.4702,6.217,9.9266],"geometry": {"type": "MultiPolygon","coordinates": [[[[6.1964,9.7569,169.9888],[6.1965,9.7639,182.1132],[6.2075,9.8044,178.0913],[6.217,9.8322,176.3978],[6.212,9.8601,159.148],[6.2004,9.8812,139.6268],[6.1789,9.8884,135.9723],[6.1753,9.8908,153.8458],[6.1691,9.883,139.0213],[6.1643,9.8723,129.6169],[6.1499,9.852,129.7602],[6.1213,9.8233,146.4899],[6.0941,9.8145,165.7994],[6.0558,9.8139,123.4634],[6.0182,9.8172,187.9808],[5.9833,9.8152,215.9995],[5.9638,9.8242,170.1129],[5.9507,9.8391,146.5147],[5.942,9.8438,127.2538],[5.9378,9.8569,133.2982],[5.94,9.8683,150.0537],[5.9448,9.8762,193.8557],[5.939,9.893,105.7322],[5.9385,9.9098,144.8965],[5.9472,9.9266,168.5979],[5.9052,9.9113,122.4214],[5.8863,9.8938,98.0039],[5.8587,9.8545,139.7368],[5.8473,9.8313,176.5114],[5.8372,9.8155,174.4365],[5.827,9.7881,145.2651],[5.8224,9.7703,133.5718],[5.8098,9.7498,164.4266],[5.808,9.739,158.7178],[5.8028,9.7264,123.7645],[5.7969,9.7167,147.1673],[5.7871,9.7094,177.9075],[5.7722,9.7058,229.2281],[5.7418,9.7221,236.7498],[5.7076,9.7314,256.6201],[5.6703,9.7273,202.6885],[5.6582,9.7237,184.7872],[5.6048,9.7188,229.7277],[5.5855,9.7197,227.885],[5.5632,9.7234,271.8008],[5.5709,9.7168,242.6042],[5.5743,9.6968,215.9777],[5.5788,9.6883,200.8944],[5.5824,9.6765,185.3453],[5.5892,9.6724,191.2971],[5.5997,9.6617,209.118],[5.6149,9.6552,177.228],[5.6723,9.6115,186.0754],[5.6844,9.6005,174.0135],[5.6928,9.5828,186.2592],[5.7064,9.5622,159.9846],[5.7097,9.5486,153.4169],[5.7193,9.5321,125.8787],[5.7229,9.521,130.2323],[5.743,9.4887,104.1523],[5.7561,9.4743,98.2539],[5.7667,9.4702,114.1856],[5.7753,9.4754,132.3406],[5.782,9.4829,120.1728],[5.7865,9.491,125.9437],[5.7966,9.4943,144.0989],[5.8028,9.4983,150.4025],[5.8285,9.4861,177.4172],[5.8426,9.4724,149.733],[5.8529,9.4718,127.1613],[5.8675,9.475,111.0042],[5.8761,9.4827,126.7199],[5.8886,9.4888,114.2375],[5.8932,9.4928,97.0674],[5.9015,9.5026,82.4487],[5.903,9.5181,84.2004],[5.9089,9.5272,79.822],[5.9239,9.5409,80.9562],[5.9507,9.5472,82.4049],[5.9838,9.5492,98.4555],[5.9994,9.5454,122.2627],[6.0152,9.5368,121.7559],[6.0249,9.5402,108.5589],[6.0304,9.546,99.1682],[6.0537,9.5486,133.4694],[6.0682,9.5478,155.4993],[6.0798,9.5535,160.1627],[6.0932,9.5679,147.4463],[6.0969,9.5682,128.8681],[6.1088,9.5621,120.1749],[6.1291,9.5445,121.6966],[6.139,9.5329,144.312],[6.1528,9.527,149.931],[6.1782,9.527,146.551],[6.1824,9.5252,147.0768],[6.1924,9.5105,136.63],[6.1993,9.5208,150.9182],[6.2011,9.5421,159.4208],[6.1903,9.5542,142.665],[6.1801,9.5728,135.2707],[6.1694,9.6135,152.1006],[6.1661,9.6398,146.7479],[6.1709,9.6671,141.7367],[6.1797,9.679,157.9917],[6.1916,9.7006,161.7685],[6.1957,9.7246,160.6322],[6.1964,9.7569,169.9888]]]]}
,"properties": {"GID_2": "NGA.27.25_1","GID_0": "NGA","country": "Nigeria","GID_1": "NGA.27_1","province": "Niger","NL_NAME_1": "NA","county": "Wushishi","VARNAME_2": "NA","NL_NAME_2": "NA","TYPE_2": "LocalAuthority","ENGTYPE_2": "LocalAuthority","CC_2": "NA","HASC_2": "NA","name": "Wushishi.county","area_km2": 1886.295,"hist_schema_id": "Elevation0-9000","hist_area_km2": {"75": 159.555,"100": 472.045,"125": 502.563,"150": 390.712,"175": 149.098,"200": 100.572,"225": 78.249,"250": 29.028,"275": 2.821,"300": 0.961,"325": 0.314,"350": 0.293,"375": 0.084}}}