{"type": "Feature","bbox": [8.046,7.7628,8.4996,8.5435],"geometry": {"type": "MultiPolygon","coordinates": [[[[8.2319,7.8488,61.248],[8.2548,7.8416,56.8316],[8.2722,7.8439,58.3365],[8.3005,7.8238,58.5703],[8.3257,7.7987,65.6537],[8.3496,7.7911,63.897],[8.367,7.7809,64.0811],[8.3817,7.7765,64.6109],[8.412,7.7628,60.9765],[8.4303,7.7805,66.0323],[8.4318,7.8024,81.2862],[8.4121,7.8574,83.1656],[8.3913,7.9016,76.0413],[8.3868,7.9206,80.9939],[8.3721,7.9515,99.7596],[8.3655,7.9738,108.1005],[8.3558,7.9899,155.1904],[8.353,8.0125,140.9828],[8.3546,8.0305,164.0742],[8.3579,8.0482,182.4431],[8.3669,8.0647,180.5337],[8.3711,8.0766,176.6817],[8.3911,8.0993,164.6393],[8.4549,8.1347,202.7596],[8.4969,8.1421,163.7663],[8.4996,8.1781,172.5615],[8.4884,8.2239,202.1038],[8.4871,8.2449,219.5803],[8.4971,8.262,199.7706],[8.4932,8.2913,222.6484],[8.4932,8.3508,189.1034],[8.4793,8.4049,184.5139],[8.4469,8.4518,178.2695],[8.4268,8.4653,129.7276],[8.4119,8.4727,159.3246],[8.3307,8.4835,125.122],[8.3004,8.4957,96.0249],[8.2682,8.5018,84.2989],[8.2423,8.5099,91.1448],[8.229,8.5165,93.426],[8.2183,8.5269,109.3727],[8.1886,8.5435,129.2545],[8.1745,8.5405,155.4612],[8.1571,8.5392,174.0933],[8.1583,8.5267,188.7656],[8.2024,8.4119,111.7672],[8.2037,8.3914,135.1073],[8.1955,8.3724,142.2807],[8.1699,8.3599,126.0311],[8.1447,8.3525,109.6215],[8.0798,8.3481,74.61],[8.0519,8.3195,85.3483],[8.0502,8.3032,97.8259],[8.0729,8.2952,72.9815],[8.0988,8.2962,90.0216],[8.131,8.2931,127.4967],[8.1523,8.2807,130.5062],[8.1641,8.2575,122.1919],[8.156,8.2279,157.8073],[8.159,8.1691,104.6956],[8.152,8.1466,120.3801],[8.1166,8.1145,94.6471],[8.084,8.0927,80.3302],[8.0523,8.0631,90.2032],[8.046,8.0309,98.785],[8.046,8.0116,80.6836],[8.0524,7.9953,81.6104],[8.062,7.988,74.3054],[8.0675,7.9471,59.1849],[8.0667,7.9104,60.0183],[8.0905,7.903,60.2634],[8.1475,7.8688,59.6479],[8.1701,7.8576,65.1468],[8.2229,7.8516,61.1921],[8.2319,7.8488,61.248]]]]}
,"properties": {"GID_2": "NGA.26.3_1","GID_0": "NGA","country": "Nigeria","GID_1": "NGA.26_1","province": "Nasarawa","NL_NAME_1": "NA","county": "Doma","VARNAME_2": "NA","NL_NAME_2": "NA","TYPE_2": "LocalAuthority","ENGTYPE_2": "LocalAuthority","CC_2": "NA","HASC_2": "NA","name": "Doma.county","area_km2": 2604.855,"hist_schema_id": "Elevation0-9000","hist_area_km2": {"50": 210.521,"75": 304.141,"100": 289.115,"125": 454.575,"150": 473.932,"175": 322.287,"200": 242.288,"225": 119.526,"250": 48.754,"275": 37.108,"300": 30.643,"325": 24.535,"350": 20.379,"375": 13.537,"400": 9.402,"425": 3.211,"450": 0.63,"475": 0.231,"500": 0.042}}}