{"type": "Feature","bbox": [13.1369,11.7805,13.2587,11.9557],"geometry": {"type": "MultiPolygon","coordinates": [[[[13.157,11.9557,308.0067],[13.1623,11.9339,309.6201],[13.164,11.8699,317.0393],[13.155,11.8417,323.6063],[13.138,11.8111,333.8727],[13.1369,11.8024,331.9341],[13.1619,11.8055,331.3675],[13.1815,11.8016,320.327],[13.2118,11.8009,319.0144],[13.2223,11.7941,316.7214],[13.2271,11.7887,319.4478],[13.2308,11.7813,320.4563],[13.2379,11.7805,318.8016],[13.2538,11.7932,317.2792],[13.2587,11.8055,316.2744],[13.2571,11.8205,314.7614],[13.2496,11.8351,312.9597],[13.2437,11.8603,311.8354],[13.2289,11.8977,310.1493],[13.2171,11.9067,309.3875],[13.1905,11.9227,312.359],[13.1792,11.9323,310.8317],[13.1662,11.9488,308.6161],[13.157,11.9557,308.0067]]]]}
,"properties": {"GID_2": "NGA.8.22_1","GID_0": "NGA","country": "Nigeria","GID_1": "NGA.8_1","province": "Borno","NL_NAME_1": "NA","county": "Maiduguri","VARNAME_2": "NA","NL_NAME_2": "NA","TYPE_2": "LocalAuthority","ENGTYPE_2": "LocalAuthority","CC_2": "NA","HASC_2": "NA","name": "Maiduguri.county","area_km2": 131.7842,"hist_schema_id": "Elevation0-9000","hist_area_km2": {"300": 34.5645,"325": 97.1989,"350": 0.0208}}}