{"type": "Feature","bbox": [7.9769,11.0861,8.5118,11.4955],"geometry": {"type": "MultiPolygon","coordinates": [[[[8.5118,11.1279,609.4263],[8.508,11.1328,604.0057],[8.4868,11.1467,609.0482],[8.4634,11.1717,609.3324],[8.4211,11.2034,649.2275],[8.3815,11.2128,614.7299],[8.3642,11.2145,638.3995],[8.3366,11.2124,605.8318],[8.3119,11.2212,596.3062],[8.2943,11.2358,572.525],[8.2795,11.2618,571.2195],[8.2551,11.287,555.192],[8.2277,11.2983,577.6975],[8.1946,11.3066,584.5049],[8.1634,11.3201,581.0998],[8.1377,11.3357,605.7839],[8.1208,11.3546,604.1348],[8.1126,11.3761,625.9877],[8.1123,11.3956,633.3718],[8.1463,11.4597,599.992],[8.1412,11.4796,590.4415],[8.1229,11.4926,581.0432],[8.1032,11.4955,580.2314],[8.0838,11.4923,579.0057],[8.059,11.4848,584.8099],[8.0374,11.4758,597.6273],[8.0107,11.4759,604.1603],[7.9769,11.4575,618.722],[7.9827,11.452,619.0938],[8.0077,11.3917,660.894],[8.0185,11.3776,676.1043],[8.0429,11.3329,660.7385],[8.0645,11.3131,658.2449],[8.0727,11.3018,649.4359],[8.0907,11.269,630.2219],[8.0967,11.2651,621.0198],[8.1082,11.2417,631.8914],[8.1118,11.2404,637.8624],[8.1207,11.2289,642.5518],[8.1218,11.2238,653.274],[8.1137,11.2124,663.0977],[8.0997,11.2063,649.0303],[8.0835,11.202,655.7319],[8.0606,11.1998,647.2352],[8.0184,11.2005,634.0701],[8.0351,11.1883,637.5592],[8.0846,11.1629,643.3021],[8.0974,11.15,653.8367],[8.1298,11.1332,639.3553],[8.1449,11.1275,633.2786],[8.1756,11.1053,647.053],[8.1925,11.1115,661.0824],[8.217,11.1143,665.7475],[8.2402,11.1142,667.2584],[8.3053,11.0998,648.7501],[8.3305,11.0965,676.7227],[8.3528,11.0861,684.8854],[8.3738,11.087,676.4023],[8.3856,11.0966,673.7875],[8.3884,11.1095,671.3603],[8.387,11.1218,660.6754],[8.3799,11.1353,648.9429],[8.3626,11.1597,616.4997],[8.3586,11.1768,620.4465],[8.3666,11.1882,612.4193],[8.3734,11.1859,621.7151],[8.3816,11.1705,627.8935],[8.396,11.1579,629.1092],[8.421,11.1309,656.0771],[8.4436,11.1237,648.6873],[8.4621,11.1222,643.2226],[8.4797,11.1224,632.2247],[8.5118,11.1279,609.4263]]]]}
,"properties": {"GID_2": "NGA.19.5_1","GID_0": "NGA","country": "Nigeria","GID_1": "NGA.19_1","province": "Kaduna","NL_NAME_1": "NA","county": "Ikara","VARNAME_2": "NA","NL_NAME_2": "NA","TYPE_2": "LocalAuthority","ENGTYPE_2": "LocalAuthority","CC_2": "NA","HASC_2": "NA","name": "Ikara.county","area_km2": 902.9219,"hist_schema_id": "Elevation0-9000","hist_area_km2": {"550": 3.7219,"575": 56.1535,"600": 199.1918,"625": 285.833,"650": 247.2402,"675": 104.6659,"700": 5.7828,"725": 0.312,"750": 0.0208}}}