{"type":"Feature","properties":{"GID_2":"NGA.32.1_1","GID_0":"NGA","country":"Nigeria","GID_1":"NGA.32_1","province":"Plateau","NL_NAME_1":"NA","county":"BarkinLadi","VARNAME_2":"NA","NL_NAME_2":"NA","TYPE_2":"LocalAuthority","ENGTYPE_2":"LocalAuthority","CC_2":"NA","HASC_2":"NA","name":"Barkin_Ladi.county"},
"geometry":{"type": "MultiPolygon","coordinates": [[[[8.6864,9.3167,1123.7084],[8.7145,9.3284,1194.8489],[8.7459,9.3369,1327.9097],[8.7535,9.3449,1338.2722],[8.7939,9.3635,1320.605],[8.7994,9.3737,1314.5336],[8.8172,9.3839,1288.4243],[8.8263,9.3921,1273.504],[8.8494,9.4014,1347.3005],[8.9263,9.4093,1370.4001],[8.9389,9.4153,1372.4128],[8.9696,9.4234,1336.3672],[8.9733,9.428,1342.3809],[8.9894,9.4773,1267.0905],[8.9987,9.4982,1273.6633],[9.0016,9.5212,1278.8225],[9.0093,9.5464,1275.6792],[9.021,9.5674,1245.6127],[9.0716,9.61,1087.2334],[9.085,9.63,1095.8521],[9.0864,9.6452,1086.8463],[9.0743,9.6677,1037.0208],[9.0751,9.6853,1013.8776],[9.0646,9.6953,1011.5696],[9.0404,9.6954,1050.9214],[9.0175,9.6912,1127.3185],[9.0017,9.6946,1152.4508],[8.9789,9.7048,1205.9336],[8.9789,9.708,1179.2388],[8.9714,9.7162,1192.8374],[8.9599,9.7461,1247.0916],[8.9609,9.7795,1235.7612],[8.9569,9.8022,1228.8766],[8.951,9.8175,1248.0577],[8.9535,9.8233,1236.8257],[8.9532,9.8345,1250.7748],[8.946,9.8306,1272.073],[8.9293,9.8112,1301.5964],[8.9159,9.7666,1280.7067],[8.9151,9.7465,1252.9731],[8.8978,9.7203,1251.8434],[8.8852,9.7134,1240.1816],[8.8602,9.6559,1277.0281],[8.847,9.6384,1269.7991],[8.8291,9.6359,1243.8542],[8.8482,9.6127,1269.234],[8.8517,9.5916,1262.9226],[8.8533,9.5679,1265.3958],[8.8516,9.5568,1297.9425],[8.8439,9.5408,1302.13],[8.8177,9.5197,1218.525],[8.8069,9.5052,1214.558],[8.7985,9.4828,1244.3701],[8.7955,9.4661,1252.625],[8.7756,9.4403,1198.5741],[8.7602,9.4067,1198.2019],[8.7411,9.3866,1266.2964],[8.7228,9.3768,1359.6902],[8.6896,9.3528,702.4745],[8.6744,9.347,558.7083],[8.679,9.3391,906.3926],[8.6864,9.3167,1123.7084]]]]}}