{"type": "Feature","bbox": [4.7292,7.8483,4.8809,8.0182],"geometry": {"type": "MultiPolygon","coordinates": [[[[4.8015,7.8572,440.1076],[4.8094,7.8514,518.2391],[4.8184,7.8483,469.3001],[4.8361,7.8595,517.5867],[4.8412,7.8605,537.6326],[4.8464,7.859,585.1771],[4.8471,7.869,546.4749],[4.8494,7.8726,522.3462],[4.8693,7.8771,397.0073],[4.8726,7.8805,391.1511],[4.8791,7.8834,386.784],[4.8809,7.8926,372.0011],[4.8732,7.9185,407.1721],[4.8702,7.9165,409.2701],[4.8631,7.9364,413.1655],[4.8564,7.9488,434.2601],[4.8514,7.9539,450.545],[4.8361,7.9775,533.6968],[4.8337,7.9872,464.613],[4.8357,7.9922,495.4794],[4.8325,7.998,453.1534],[4.8209,8.0058,443.8315],[4.8105,8.0171,444.2802],[4.8051,8.0182,433.1516],[4.807,8.0146,444.3062],[4.8111,8.0118,463.5089],[4.8095,7.9968,454.7999],[4.8048,7.9796,484.7051],[4.7931,7.9692,556.5096],[4.7872,7.9599,596.7157],[4.7837,7.9574,602.2247],[4.7822,7.95,514.7461],[4.7681,7.9337,483.504],[4.7631,7.9292,463.4076],[4.7583,7.9272,443.1514],[4.7414,7.942,519.7346],[4.7292,7.9469,477.9547],[4.7292,7.9401,430.9761],[4.7323,7.9329,468.0671],[4.7346,7.9202,443.4702],[4.7394,7.9134,438.6893],[4.7586,7.8898,447.2073],[4.7677,7.8818,422.4834],[4.7905,7.8685,423.0962],[4.8015,7.8572,440.1076]]]]}
,"properties": {"GID_2": "NGA.30.5_1","GID_0": "NGA","country": "Nigeria","GID_1": "NGA.30_1","province": "Osun","NL_NAME_1": "NA","county": "Boluwaduro","VARNAME_2": "NA","NL_NAME_2": "NA","TYPE_2": "LocalAuthority","ENGTYPE_2": "LocalAuthority","CC_2": "NA","HASC_2": "NA","name": "Boluwaduro.county","area_km2": 149.8142,"hist_schema_id": "Elevation0-9000","hist_area_km2": {"375": 2.9612,"400": 13.2936,"425": 19.1318,"450": 18.2275,"475": 18.5633,"500": 20.6427,"525": 23.1211,"550": 19.278,"575": 10.9199,"600": 3.171,"625": 0.441,"650": 0.063}}}