{"type":"Feature","properties":{"GID_2":"NGA.19.20_1","GID_0":"NGA","country":"Nigeria","GID_1":"NGA.19_1","province":"Kaduna","NL_NAME_1":"NA","county":"Sanga","VARNAME_2":"NA","NL_NAME_2":"NA","TYPE_2":"LocalAuthority","ENGTYPE_2":"LocalAuthority","CC_2":"NA","HASC_2":"NA","name":"Sanga.county"},
"geometry":{"type": "MultiPolygon","coordinates": [[[[8.1321,9.0132,488.9205],[8.1613,9.0331,488.5162],[8.1674,9.0391,482.8873],[8.1971,9.075,462.8058],[8.2285,9.1093,463.5753],[8.2429,9.1399,443.186],[8.2492,9.1469,459.8572],[8.2637,9.1556,471.653],[8.2853,9.1521,489.2928],[8.2936,9.1425,486.0479],[8.3094,9.132,476.1024],[8.3393,9.1276,480.3436],[8.3711,9.1281,497.4315],[8.386,9.1164,504.4927],[8.4188,9.0728,562.9344],[8.4406,9.0524,845.1518],[8.4573,9.0333,468.053],[8.4599,9.0193,427.3664],[8.467,9.0028,402.6322],[8.4934,8.9998,384.0374],[8.5068,9.0007,366.7908],[8.5329,9.0074,404.3969],[8.5462,9.0189,412.0737],[8.57,9.0618,430.4629],[8.5995,9.1056,501.3677],[8.6207,9.1485,568.4359],[8.6245,9.1621,551.6811],[8.6424,9.1958,866.5852],[8.6507,9.2047,739.6998],[8.66,9.2048,1110.2321],[8.6612,9.2124,1250.8237],[8.668,9.231,1060.2252],[8.6793,9.2498,1356.386],[8.687,9.2681,911.8953],[8.6901,9.2886,990.4434],[8.6886,9.3077,909.7068],[8.679,9.3391,906.3926],[8.6689,9.3564,542.2878],[8.6413,9.3757,530.5757],[8.6173,9.4021,539.5631],[8.5998,9.4252,539.964],[8.5949,9.436,548.5758],[8.5842,9.4482,585.6652],[8.5785,9.4588,563.4216],[8.5498,9.4509,563.512],[8.54,9.4448,546.3054],[8.5229,9.4323,537.7063],[8.5119,9.4158,536.5184],[8.4962,9.4033,521.9404],[8.4658,9.3708,489.1522],[8.4612,9.348,507.8339],[8.46,9.3245,496.9209],[8.4505,9.3045,475.9805],[8.4276,9.2975,473.8486],[8.4147,9.2915,472.339],[8.4113,9.2703,481.5795],[8.4159,9.2501,489.8605],[8.4179,9.232,498.1011],[8.3861,9.2338,514.8082],[8.3627,9.2456,497.3499],[8.316,9.232,484.619],[8.303,9.2341,491.1655],[8.2815,9.2433,472.2945],[8.2639,9.2428,469.4214],[8.2517,9.2401,451.2729],[8.2483,9.2292,464.3645],[8.252,9.2131,453.0923],[8.2502,9.2032,471.1956],[8.2195,9.1814,483.145],[8.1993,9.1444,473.2826],[8.1875,9.1293,492.6468],[8.1751,9.1195,491.5223],[8.1402,9.0556,476.6559],[8.1359,9.0406,504.8106],[8.1296,9.0264,508.0586],[8.1298,9.016,501.1781],[8.1321,9.0132,488.9205]]]]}}