{"type": "Feature","bbox": [12.4358,9.2007,12.5966,9.3231],"geometry": {"type": "MultiPolygon","coordinates": [[[[12.4358,9.24,183.1937],[12.4441,9.2359,173.18],[12.4493,9.2284,161.7205],[12.4729,9.2118,167.0164],[12.494,9.2043,177.6058],[12.4987,9.2049,181.4924],[12.5138,9.2007,169.9826],[12.546,9.2053,158.9056],[12.5562,9.2118,161.7101],[12.5855,9.2173,188.8862],[12.5851,9.2229,193.393],[12.5904,9.2253,159.8801],[12.5966,9.231,158.6745],[12.5902,9.2408,154.5],[12.5857,9.2432,154.8343],[12.5833,9.2476,158.8314],[12.5684,9.3018,541.1241],[12.5688,9.3209,341.4751],[12.566,9.3231,340.0995],[12.5561,9.3119,456.4308],[12.5393,9.2969,410.7],[12.5333,9.2957,414.5405],[12.531,9.3015,404.3156],[12.5235,9.3028,232.9031],[12.5149,9.3018,208.2503],[12.5011,9.2974,190.2208],[12.4836,9.2877,154.7529],[12.4653,9.2746,200.0307],[12.4383,9.2513,183.6108],[12.4382,9.2394,177.6479],[12.4358,9.24,183.1937]]]]}
,"properties": {"GID_2": "NGA.2.20_1","GID_0": "NGA","country": "Nigeria","GID_1": "NGA.2_1","province": "Adamawa","NL_NAME_1": "NA","county": "YolaNorth","VARNAME_2": "NA","NL_NAME_2": "NA","TYPE_2": "LocalAuthority","ENGTYPE_2": "LocalAuthority","CC_2": "NA","HASC_2": "NA","name": "Yola_North.county","area_km2": 140.1232,"hist_schema_id": "Elevation0-9000","hist_area_km2": {"150": 63.7446,"175": 26.7024,"200": 14.8781,"225": 6.5079,"250": 4.7711,"275": 5.2732,"300": 4.4989,"325": 1.9042,"350": 1.7785,"375": 2.6992,"400": 1.5902,"425": 1.4228,"450": 1.0462,"475": 1.5902,"500": 1.0671,"525": 0.4603,"550": 0.1674,"575": 0.0209}}}