{"type": "Feature","bbox": [7.2173,9.5158,8.1259,10.1588],"geometry": {"type": "MultiPolygon","coordinates": [[[[7.2289,10.0101,463.9432],[7.2629,10.0071,525.7935],[7.2742,9.9977,514.5184],[7.2794,9.9815,498.9887],[7.278,9.9567,525.2586],[7.2824,9.935,565.526],[7.2821,9.9004,571.0439],[7.297,9.8383,501.5067],[7.2986,9.7888,475.7676],[7.2944,9.774,506.364],[7.2885,9.7645,501.4246],[7.2605,9.7584,492.9761],[7.2363,9.7579,470.1902],[7.2219,9.7512,459.106],[7.2173,9.741,453.7769],[7.2201,9.7264,476.1238],[7.2383,9.7141,497.7683],[7.2561,9.7079,508.3113],[7.2839,9.7015,504.1383],[7.2968,9.6923,503.8655],[7.2984,9.683,496.6437],[7.2942,9.6661,492.3683],[7.2872,9.6582,510.18],[7.2833,9.6438,511.9814],[7.3017,9.6311,490.3878],[7.3189,9.6259,519.2082],[7.3319,9.6179,532.4581],[7.3398,9.606,541.023],[7.3412,9.5877,515.2451],[7.3261,9.5684,512.9272],[7.3005,9.5485,520.1265],[7.2913,9.5369,516.1542],[7.287,9.5186,506.3074],[7.2957,9.5168,510.6462],[7.3079,9.5174,517.2002],[7.3644,9.547,551.308],[7.378,9.5508,553.7824],[7.4075,9.5541,521.5299],[7.4184,9.5584,529.5587],[7.4277,9.5707,611.142],[7.4354,9.5775,575.3474],[7.4396,9.578,552.1341],[7.4561,9.5737,575.2768],[7.4829,9.5638,564.5341],[7.5034,9.5596,561.8965],[7.5173,9.5549,578.9003],[7.5342,9.5534,566.4619],[7.5419,9.5482,563.4956],[7.5631,9.5403,557.6873],[7.5786,9.5383,547.4626],[7.6083,9.5449,574.8812],[7.6199,9.5422,555.5627],[7.6354,9.5449,572.4005],[7.6507,9.5448,594.7244],[7.6655,9.5406,626.0604],[7.6835,9.552,638.2645],[7.687,9.5627,622.6403],[7.7012,9.5889,592.8208],[7.7273,9.6144,589.5728],[7.7374,9.6276,593.1503],[7.7669,9.6503,624.0],[7.7891,9.6637,728.007],[7.7984,9.6603,669.5831],[7.8154,9.6385,736.0845],[7.8268,9.6195,713.2227],[7.8534,9.6072,708.279],[7.8666,9.5889,711.3976],[7.9029,9.5645,771.0286],[7.9112,9.5545,757.9061],[7.9142,9.5433,783.8488],[7.9264,9.5257,780.9606],[7.9316,9.521,756.9529],[7.9374,9.5215,755.2537],[7.955,9.5158,748.0999],[8.021,9.5382,727.9366],[8.0647,9.545,731.9829],[8.0809,9.5538,749.1832],[8.081,9.5667,736.0906],[8.0841,9.5755,716.9229],[8.0959,9.5909,734.0344],[8.1233,9.6097,754.5792],[8.1253,9.602,746.8991],[8.1259,9.6123,753.3754],[8.1168,9.6407,740.1868],[8.1058,9.6587,754.9182],[8.0877,9.6753,729.1902],[8.0526,9.6916,721.9358],[8.0199,9.6932,702.5193],[8.0021,9.7076,712.2955],[7.9943,9.7269,730.9301],[7.9963,9.7662,740.0112],[7.9934,9.7858,697.7802],[7.9837,9.8229,740.6511],[7.9754,9.8455,740.6305],[7.9729,9.8593,712.2653],[7.9659,9.8793,704.0721],[7.9653,9.893,703.094],[7.9752,9.9272,770.2133],[7.9893,9.9678,770.7743],[8.0228,10.0305,779.4667],[8.0467,10.0612,768.8404],[8.0495,10.0754,752.4823],[8.0404,10.0859,760.141],[8.0283,10.0893,740.0223],[7.961,10.076599999999999,783.0348],[7.9185,10.0614,782.881],[7.8946,10.0563,767.277],[7.8749,10.049,735.4431],[7.8557,10.0361,756.2427],[7.8331,10.0271,800.7456],[7.7767,10.0139,751.1821],[7.7651,10.0168,734.9156],[7.7421,10.0258,684.3613],[7.7303,10.04,693.2717],[7.7144,10.0556,703.9355],[7.6899,10.088,668.4197],[7.6718,10.1031,644.5705],[7.6387,10.1588,604.8567],[7.6258,10.1565,628.3405],[7.6049,10.158,605.3584],[7.5721,10.1567,587.2863],[7.5591,10.1507,602.4877],[7.5511,10.143,590.3908],[7.5513,10.1331,597.8866],[7.5486,10.1202,613.6215],[7.5332,10.1144,627.2134],[7.5279,10.1163,607.1886],[7.4972,10.1072,585.9679],[7.466,10.1118,553.1282],[7.4419,10.1077,536.7584],[7.4241,10.1023,545.6425],[7.3932,10.0834,493.7068],[7.3869,10.0706,501.5795],[7.3833,10.0574,532.5439],[7.3605,10.0524,497.7159],[7.3517,10.0576,490.6905],[7.3392,10.0562,487.2951],[7.3256,10.0501,485.7288],[7.3093,10.0391,573.5152],[7.2838,10.0297,484.5756],[7.2576,10.0272,462.5231],[7.2501,10.0239,472.4065],[7.2289,10.0101,463.9432]]]]}
,"properties": {"GID_2": "NGA.19.8_1","GID_0": "NGA","country": "Nigeria","GID_1": "NGA.19_1","province": "Kaduna","NL_NAME_1": "NA","county": "Kachia","VARNAME_2": "NA","NL_NAME_2": "NA","TYPE_2": "LocalAuthority","ENGTYPE_2": "LocalAuthority","CC_2": "NA","HASC_2": "NA","name": "Kachia.county","area_km2": 4626.0,"hist_schema_id": "Elevation0-9000","hist_area_km2": {"450": 10.781,"475": 71.877,"500": 193.892,"525": 414.662,"550": 592.353,"575": 506.732,"600": 378.08,"625": 355.077,"650": 257.118,"675": 252.719,"700": 338.179,"725": 459.538,"750": 385.198,"775": 242.697,"800": 123.984,"825": 29.366,"850": 8.106,"875": 3.761,"900": 1.609,"925": 0.272}}}