{"type":"Feature","properties":{"GID_2":"NGA.37.3_1","GID_0":"NGA","country":"Nigeria","GID_1":"NGA.37_1","province":"Zamfara","NL_NAME_1":"NA","county":"Birnin-Magaji/Kiyaw","VARNAME_2":"NA","NL_NAME_2":"NA","TYPE_2":"LocalAuthority","ENGTYPE_2":"LocalAuthority","CC_2":"NA","HASC_2":"NA","name":"Birnin-Magaji_Kiyaw.county"},
"geometry":{"type": "MultiPolygon","coordinates": [[[[7.0563,12.6312,474.1422],[7.038,12.6301,455.1572],[7.0148,12.6239,460.8199],[6.986,12.6208,447.418],[6.9688,12.6103,434.3445],[6.9521,12.6117,444.8452],[6.9174,12.6051,437.4793],[6.8966,12.6098,424.3111],[6.8882,12.6044,422.1489],[6.8704,12.6023,407.9608],[6.8571,12.599,416.4921],[6.8347,12.5888,429.1776],[6.8102,12.5634,457.1116],[6.7896,12.5521,463.7989],[6.7849,12.5511,468.9054],[6.7801,12.5511,468.2896],[6.7787,12.5621,463.8177],[6.7873,12.5772,448.2474],[6.7901,12.5867,444.7148],[6.7884,12.5913,436.5564],[6.777,12.5933,442.0117],[6.7494,12.5836,459.1028],[6.7402,12.5844,445.6228],[6.7368,12.5878,443.4811],[6.7243,12.5872,433.3784],[6.7139,12.5818,423.97],[6.6979,12.5687,432.8392],[6.686,12.5707,431.8655],[6.6823,12.5607,423.1071],[6.675,12.5551,418.5245],[6.668,12.5412,420.4819],[6.6674,12.5305,420.462],[6.6704,12.4929,415.3502],[6.6817,12.4478,402.334],[6.6981,12.419,408.2585],[6.7099,12.4099,407.1267],[6.7198,12.3983,410.1535],[6.7391,12.395,410.0048],[6.7723,12.3805,416.0769],[6.7959,12.3602,410.605],[6.8179,12.3459,404.3229],[6.8217,12.3402,417.3505],[6.8273,12.3404,414.8365],[6.8247,12.3434,415.4057],[6.8277,12.343,416.7187],[6.8358,12.3465,423.5856],[6.8716,12.3494,426.2301],[6.9175,12.3598,458.9759],[6.9627,12.3665,464.5603],[6.9985,12.3657,453.8498],[7.0257,12.3611,454.9518],[7.0946,12.3805,433.6025],[7.097,12.3927,431.9533],[7.0993,12.4277,448.9479],[7.0818,12.4644,453.1966],[7.078,12.4785,453.579],[7.0718,12.554,438.467],[7.062,12.592,459.1505],[7.0563,12.6312,474.1422]]]]}}