{"type":"Feature","properties":{"GID_2":"NGA.37.13_1","GID_0":"NGA","country":"Nigeria","GID_1":"NGA.37_1","province":"Zamfara","NL_NAME_1":"NA","county":"Tsafe","VARNAME_2":"NA","NL_NAME_2":"NA","TYPE_2":"LocalAuthority","ENGTYPE_2":"LocalAuthority","CC_2":"NA","HASC_2":"NA","name":"Tsafe.county"},
"geometry":{"type": "MultiPolygon","coordinates": [[[[7.2419,11.91,539.7659],[7.2419,11.9209,531.8834],[7.2337,11.9374,524.4182],[7.215,11.96,498.964],[7.1895,11.9799,512.0684],[7.1717,11.9965,504.9201],[7.1309,12.015,497.7731],[7.1106,12.0342,470.138],[7.1321,12.0709,473.571],[7.1397,12.0914,503.2846],[7.0526,12.1354,487.8096],[7.0161,12.1441,559.3641],[6.9842,12.1493,466.2039],[6.9145,12.1521,489.1801],[6.8786,12.145,510.2711],[6.8399,12.1301,492.6011],[6.7759,12.0863,490.9855],[6.744,12.0594,481.1859],[6.7101,11.999,504.598],[6.7001,11.9492,553.2937],[6.6961,11.9175,563.5881],[6.6951,11.8799,548.21489999999994],[6.6852,11.8338,576.0617],[6.6938,11.7715,554.6316],[6.6993,11.7508,570.7512],[6.7195,11.729,572.8931],[6.7465,11.7175,598.4127],[6.7694,11.7034,596.7534],[6.8055,11.6934,629.8815],[6.8317,11.6994,606.3236],[6.8694,11.6867,620.3696],[6.8945,11.6801,626.1825],[6.9075,11.7141,612.4599],[6.9134,11.7663,559.4664],[6.918,11.7777,545.6491],[6.9293,11.7873,561.6036],[6.9422,11.7911,564.2903],[6.9604,11.7876,582.39],[7.0031,11.7918,608.6437],[7.0491,11.7932,624.4205],[7.0629,11.7793,637.9061],[7.0696,11.7793,645.8607],[7.1181,11.8156,618.3449],[7.1234,11.8256,608.333],[7.1386,11.8332,583.053],[7.1409,11.8378,582.2316],[7.1486,11.8425,583.7366],[7.1574,11.8934,563.4999],[7.1719,11.8924,596.1331],[7.1966,11.8818,563.6737],[7.2113,11.8806,563.6404],[7.2296,11.8914,593.4237],[7.2418,11.9063,542.7894],[7.2419,11.91,539.7659]]]]}}