{"type": "Feature","bbox": [8.1116,12.6099,8.3797,12.8347],"geometry": {"type": "MultiPolygon","coordinates": [[[[8.3672,12.6488,454.8405],[8.371,12.6577,456.5085],[8.37,12.6626,458.8972],[8.3735,12.6843,463.6143],[8.3723,12.6988,460.6482],[8.3736,12.7239,462.2185],[8.3712,12.7474,467.2451],[8.3737,12.75,464.2126],[8.3735,12.7634,458.1115],[8.3701,12.7721,466.0702],[8.3698,12.7806,472.8165],[8.3763,12.8102,466.4296],[8.3797,12.8192,459.6519],[8.3347,12.8256,462.0284],[8.2999,12.8347,452.0057],[8.2803,12.8338,449.5031],[8.2032,12.8221,493.1091],[8.1576,12.8179,487.448],[8.132,12.8128,509.0575],[8.1246,12.8081,505.2035],[8.1232,12.7817,517.9241],[8.1248,12.7654,524.0669],[8.1128,12.7114,511.601],[8.1116,12.689,516.4456],[8.1134,12.6637,529.2655],[8.1272,12.6619,532.9596],[8.1444,12.6634,514.5199],[8.153,12.6663,520.4079],[8.1647,12.6639,507.225],[8.1666,12.6598,498.8904],[8.172,12.6573,493.6086],[8.1789,12.6442,491.3613],[8.185,12.6394,499.4097],[8.1887,12.6406,496.7935],[8.2024,12.6507,505.3076],[8.2049,12.6542,503.3138],[8.2121,12.6571,491.7303],[8.231,12.6554,484.4563],[8.2362,12.6495,492.615],[8.2482,12.6431,483.0701],[8.2613,12.6315,485.3923],[8.2672,12.6288,487.7216],[8.273,12.6109,497.7511],[8.2878,12.6099,485.7393],[8.3023,12.6126,477.8277],[8.3178,12.6232,472.989],[8.3342,12.6299,464.4849],[8.3384,12.6297,462.6523],[8.3436,12.6235,468.1345],[8.3469,12.6247,469.7607],[8.3623,12.645,454.6501],[8.3672,12.6488,454.8405]]]]}
,"properties": {"GID_2": "NGA.18.12_1","GID_0": "NGA","country": "Nigeria","GID_1": "NGA.18_1","province": "Jigawa","NL_NAME_1": "NA","county": "Gwiwa","VARNAME_2": "NA","NL_NAME_2": "NA","TYPE_2": "LocalAuthority","ENGTYPE_2": "LocalAuthority","CC_2": "NA","HASC_2": "NA","name": "Gwiwa.county","area_km2": 562.8519,"hist_schema_id": "Elevation0-9000","hist_area_km2": {"450": 44.2563,"475": 301.3181,"500": 170.6408,"525": 46.6368}}}