{"type":"Feature","properties":{"GID_2":"NGA.36.9_1","GID_0":"NGA","country":"Nigeria","GID_1":"NGA.36_1","province":"Yobe","NL_NAME_1":"NA","county":"Jakusko","VARNAME_2":"NA","NL_NAME_2":"NA","TYPE_2":"LocalAuthority","ENGTYPE_2":"LocalAuthority","CC_2":"NA","HASC_2":"NA","name":"Jakusko.county"},
"geometry":{"type": "MultiPolygon","coordinates": [[[[10.8486,11.8649,384.0573],[10.8536,11.8735,381.6885],[10.8845,11.9083,379.8785],[10.9041,11.9332,373.5854],[10.9239,11.9617,371.6164],[10.9321,11.977,364.1112],[10.9732,12.002,370.5236],[10.983,12.0219,369.7235],[10.9911,12.0316,368.6462],[11.0551,12.069,364.5729],[11.0641,12.0702,365.2169],[11.0774,12.0857,364.9444],[11.0899,12.0975,364.1002],[11.1076,12.121,361.0469],[11.1179,12.1413,361.0415],[11.1291,12.1529,360.5959],[11.1373,12.1668,360.1045],[11.1464,12.1971,356.6743],[11.1525,12.2108,355.8842],[11.1814,12.2549,353.0194],[11.1878,12.2612,352.0852],[11.1986,12.2802,349.3505],[11.2209,12.2951,352.6823],[11.2296,12.3171,346.2451],[11.2411,12.3355,343.7194],[11.2527,12.3515,345.3474],[11.281,12.3836,343.8146],[11.2846,12.3849,344.8075],[11.2668,12.4057,347.0242],[11.256,12.4219,344.4843],[11.2368,12.4441,345.7846],[11.2219,12.4662,347.8351],[11.205,12.4846,346.0415],[11.1948,12.4873,345.1561],[11.1832,12.4839,344.8697],[11.1731,12.4836,344.2577],[11.1274,12.4911,344.002],[11.1175,12.4904,344.4379],[11.1092,12.492,345.2499],[11.0991,12.4962,342.5985],[11.0733,12.5225,346.177],[11.0547,12.5562,339.1579],[11.0027,12.6212,339.1536],[10.9942,12.6358,338.8709],[10.9908,12.6509,339.834],[10.9906,12.6633,338.3779],[10.9939,12.6912,339.0711],[10.9975,12.7076,338.2468],[11.0108,12.7304,338.2429],[11.022,12.7455,337.9878],[11.0283,12.7584,336.4529],[11.0277,12.7694,334.9445],[11.0128,12.7955,337.8611],[11.0105,12.8046,334.9801],[11.0075,12.804,335.5521],[10.9619,12.8169,337.0864],[10.9325,12.8175,337.8866],[10.895,12.8086,338.7486],[10.8681,12.8002,338.6196],[10.858,12.7965,338.8824],[10.8513,12.7922,338.3074],[10.8091,12.7779,339.1689],[10.7884,12.7731,339.5588],[10.7672,12.7602,341.6407],[10.7476,12.7509,339.8967],[10.6996,12.7337,341.9777],[10.6738,12.7282,342.6195],[10.6544,12.7196,343.5473],[10.6388,12.7092,341.7399],[10.6058,12.6764,344.0262],[10.5861,12.6635,344.1136],[10.5806,12.6574,345.5135],[10.5839,12.6192,345.0117],[10.5954,12.5485,348.1322],[10.6047,12.5072,347.7338],[10.6288,12.4836,346.4507],[10.6654,12.4619,347.1298],[10.7037,12.4326,346.7822],[10.7344,12.4043,349.4854],[10.7529,12.3578,348.2794],[10.7611,12.3067,349.6588],[10.7653,12.2453,359.0529],[10.7623,12.2165,358.9333],[10.791,12.1785,360.293],[10.8133,12.1425,363.6867],[10.8173,12.088,366.7912],[10.8167,12.0353,364.5182],[10.822,11.9924,366.1857],[10.8373,11.9493,366.6246],[10.8356,11.9185,377.9532],[10.8406,11.8878,381.8217],[10.8486,11.8649,384.0573]]]]}}