{"type":"Feature","properties":{"GID_2":"NGA.30.3_1","GID_0":"NGA","country":"Nigeria","GID_1":"NGA.30_1","province":"Osun","NL_NAME_1":"NA","county":"Aiyedade","VARNAME_2":"NA","NL_NAME_2":"NA","TYPE_2":"LocalAuthority","ENGTYPE_2":"LocalAuthority","CC_2":"NA","HASC_2":"NA","name":"Aiyedade.county"},
"geometry":{"type": "MultiPolygon","coordinates": [[[[4.3611,6.9909,96.8469],[4.3628,6.9963,88.8131],[4.3631,7.0129,106.3678],[4.3655,7.0204,109.054],[4.3582,7.042,110.5766],[4.3595,7.0512,111.7799],[4.3654,7.0596,109.9198],[4.3696,7.0731,124.9776],[4.3803,7.0912,115.2007],[4.3864,7.097,122.9321],[4.3859,7.1139,145.4011],[4.3946,7.1202,142.7751],[4.3902,7.1345,116.1498],[4.3919,7.1423,121.4074],[4.3941,7.1895,124.5864],[4.3916,7.2071,129.9115],[4.392,7.2168,134.697],[4.3931,7.2271,139.783],[4.4037,7.226,144.1936],[4.4053,7.2285,155.8036],[4.4061,7.2504,152.6613],[4.4039,7.2686,150.7653],[4.3959,7.3031,170.9526],[4.4029,7.3083,176.5233],[4.413,7.3295,184.5705],[4.4097,7.3411,164.0606],[4.3992,7.3468,166.7676],[4.3821,7.3614,168.4239],[4.3745,7.3751,190.6247],[4.3758,7.3869,188.7852],[4.381,7.3948,176.8433],[4.394,7.4273,206.8642],[4.3903,7.4391,193.4229],[4.3893,7.4491,191.4191],[4.3881,7.4622,202.5763],[4.3899,7.4712,193.2575],[4.3978,7.4791,212.6759],[4.4185,7.4868,218.4011],[4.424,7.4978,221.7105],[4.4269,7.5097,228.2713],[4.4324,7.5172,232.5422],[4.4438,7.5249,244.6238],[4.4893,7.5439,281.3571],[4.5054,7.5549,272.565],[4.5111,7.5636,256.8905],[4.5195,7.5681,254.764],[4.527,7.576,267.2255],[4.5364,7.5986,278.4462],[4.5159,7.5898,254.6001],[4.4819,7.5853,286.2915],[4.4689,7.5807,270.9176],[4.4535,7.5814,256.6218],[4.4438,7.5848,242.3982],[4.4365,7.5847,240.4438],[4.4248,7.58,252.506],[4.3911,7.5751,255.2062],[4.3839,7.5754,252.2695],[4.3755,7.5818,279.826],[4.3715,7.5897,266.8804],[4.3679,7.6084,287.7977],[4.3652,7.6137,289.1021],[4.3476,7.6108,257.3967],[4.3452,7.6074,259.8743],[4.339,7.6059,249.3027],[4.335,7.5995,234.3814],[4.3362,7.5917,254.0346],[4.3056,7.5696,255.2086],[4.3021,7.5625,268.1334],[4.2941,7.5541,255.8946],[4.2848,7.5336,254.9866],[4.2952,7.5085,219.9492],[4.2911,7.4975,213.8312],[4.2785,7.4757999999999996,223.2348],[4.2751,7.4667,256.667],[4.2638,7.4503,220.0887],[4.2549,7.4428,206.5815],[4.2763,7.4365,215.6932],[4.2876,7.4365,221.0446],[4.2986,7.4333,247.7127],[4.3042,7.4261,257.619],[4.3051,7.4199,250.1524],[4.2996,7.4098,240.9868],[4.3016,7.4056,227.1687],[4.3062,7.4021,225.5846],[4.3093,7.3956,221.9991],[4.3028,7.3793,217.4418],[4.3174,7.3521,207.7331],[4.3244,7.3472,216.3377],[4.3303,7.3226,211.792],[4.3279,7.3181,198.3244],[4.3198,7.3159,209.0329],[4.31,7.3094,207.6072],[4.3014,7.3091,200.426],[4.2879,7.3012,200.3743],[4.2885,7.2923,211.9612],[4.2726,7.2637,206.4057],[4.2663,7.2459,258.1147],[4.2607,7.2416,207.0154],[4.2184,7.2264,213.954],[4.2076,7.2268,201.2955],[4.18,7.219,177.7394],[4.1674,7.2107,165.5191],[4.1563,7.2088,169.6609],[4.1458,7.2023,151.6534],[4.135,7.2048,131.3312],[4.1257,7.2141,118.1275],[4.1029,7.2303,113.8767],[4.0965,7.2121,113.9181],[4.0901,7.1864,114.6251],[4.0771,7.1125,122.21],[4.085,7.1117,95.2287],[4.0936,7.1185,100.9703],[4.1213,7.13,147.8514],[4.1361,7.1457,141.0668],[4.144,7.1479,174.1608],[4.1591,7.1416,167.6086],[4.1675,7.1281,163.3775],[4.1718,7.1128,168.4646],[4.1712,7.0863,142.1123],[4.1728,7.0701,110.2969],[4.177,7.0589,122.5632],[4.1942,7.0547,94.2759],[4.2088,7.0591,97.3758],[4.2233,7.0699,110.3234],[4.2482,7.0824,157.8458],[4.2552,7.0878,148.858],[4.271,7.091,177.1986],[4.2982,7.0906,148.3019],[4.3258,7.0815,157.8919],[4.3533,7.0243,154.1375],[4.3611,6.9909,96.8469]]]]}}