{"type": "Feature","bbox": [5.8062,7.3391,5.9901,7.5219],"geometry": {"type": "MultiPolygon","coordinates": [[[[5.9901,7.5189,303.3258],[5.9773,7.5219,295.4333],[5.9602,7.5195,316.4656],[5.9423,7.5119,304.9992],[5.9095,7.5074,322.2338],[5.8915,7.5066,341.1339],[5.8786,7.5096,326.1367],[5.8537,7.5093,333.6594],[5.8355,7.5084,336.7282],[5.8062,7.504,397.588],[5.8062,7.4672,575.6587],[5.8133,7.4374,496.1766],[5.8131,7.424,385.244],[5.8193,7.4083,339.2877],[5.8234,7.402,357.4559],[5.8368,7.3932,377.4503],[5.8513,7.3884,356.4758],[5.8837,7.3664,324.6751],[5.9009,7.3571,315.6172],[5.9095,7.3498,283.1162],[5.9251,7.3426,276.1534],[5.9472,7.3418,297.8024],[5.9596,7.3391,274.377],[5.9664,7.3399,260.6986],[5.9678,7.3417,275.7751],[5.961,7.3462,305.4593],[5.9595,7.3561,328.0399],[5.9504,7.3775,302.5692],[5.9484,7.3863,307.6471],[5.9489,7.399,303.4575],[5.953,7.4102,283.9728],[5.9577,7.4143,289.5789],[5.9617,7.4237,295.8671],[5.9626,7.4329,296.9503],[5.9578,7.4374,317.0911],[5.9387,7.44,321.9397],[5.9337,7.4454,317.2843],[5.93,7.4462,318.2593],[5.9235,7.4597,328.0562],[5.9242,7.4723,357.5453],[5.9264,7.482,358.8143],[5.9312,7.4888,340.1119],[5.9434,7.5011,322.1866],[5.946,7.5075,301.1523],[5.9493,7.5097,293.3764],[5.955,7.5073,288.9106],[5.9744,7.5075,356.5767],[5.9901,7.5189,303.3258]]]]}
,"properties": {"GID_2": "NGA.29.2_1","GID_0": "NGA","country": "Nigeria","GID_1": "NGA.29_1","province": "Ondo","NL_NAME_1": "NA","county": "AkokoSouth-East","VARNAME_2": "NA","NL_NAME_2": "NA","TYPE_2": "LocalAuthority","ENGTYPE_2": "LocalAuthority","CC_2": "NA","HASC_2": "NA","name": "Akoko_South-East.county","area_km2": 232.8815,"hist_schema_id": "Elevation0-9000","hist_area_km2": {"250": 0.8411,"275": 6.2451,"300": 25.2089,"325": 45.9795,"350": 54.9345,"375": 39.1038,"400": 18.5639,"425": 10.5118,"450": 8.4936,"475": 6.7696,"500": 4.8774,"525": 4.8773,"550": 3.8262,"575": 1.7029,"600": 0.6517,"625": 0.2313,"650": 0.0631}}}