{"type": "Feature","bbox": [4.5377,9.3485,5.9922,10.282],"geometry": {"type": "MultiPolygon","coordinates": [[[[4.5931,9.424,107.2788],[4.6166,9.4691,124.0022],[4.6211,9.4885,189.929],[4.6222,9.516,200.7452],[4.6363,9.5647,232.2136],[4.657,9.6,221.9114],[4.6712,9.6022,228.5171],[4.7006,9.5667,258.3375],[4.7364,9.5405,268.1642],[4.7885,9.5475,244.5191],[4.807,9.5359,221.8034],[4.8183,9.4856,207.0095],[4.8066,9.4393,152.0458],[4.8044,9.4185,127.2456],[4.8062,9.3994,129.1687],[4.8131,9.3832,100.0],[4.8292,9.3677,137.0397],[4.8577,9.3569,155.0142],[4.8891,9.3493,211.4738],[4.9246,9.3485,233.4641],[4.9402,9.3533,247.5662],[5.0207,9.3887,209.8288],[5.0685,9.4225,171.793],[5.0984,9.4362,189.3761],[5.1485,9.4496,199.7193],[5.2239,9.4799,181.5237],[5.2478,9.4936,162.9029],[5.2653,9.506,162.636],[5.2758,9.5396,188.5233],[5.2715,9.5534,194.3988],[5.273,9.5613,186.3902],[5.2698,9.5785,153.1816],[5.2754,9.6176,161.1031],[5.2815,9.6311,180.0508],[5.2851,9.6542,154.014],[5.2844,9.6727,179.1742],[5.2875,9.694,186.382],[5.2923,9.701,192.3119],[5.3004,9.7073,170.729],[5.3266,9.7115,180.4341],[5.3487,9.7184,206.6953],[5.3856,9.725,238.5753],[5.4019,9.7261,233.6121],[5.4694,9.7469,213.6679],[5.482,9.7456,189.1087],[5.4992,9.7359,177.7765],[5.5112,9.7231,145.6854],[5.5378,9.71,181.407],[5.5663,9.6835,181.7066],[5.5782,9.6751,175.051],[5.5817,9.677,185.3453],[5.5788,9.6883,200.8944],[5.5743,9.6968,215.9777],[5.5709,9.7168,242.6042],[5.5632,9.7234,271.8008],[5.5855,9.7197,227.885],[5.6048,9.7188,229.7277],[5.6582,9.7237,184.7872],[5.6703,9.7273,202.6885],[5.7076,9.7314,256.6201],[5.7418,9.7221,236.7498],[5.7722,9.7058,229.2281],[5.7871,9.7094,177.9075],[5.7969,9.7167,147.1673],[5.8028,9.7264,123.7645],[5.808,9.739,158.7178],[5.8098,9.7498,164.4266],[5.8224,9.7703,133.5718],[5.827,9.7881,145.2651],[5.8372,9.8155,174.4365],[5.8473,9.8313,176.5114],[5.8587,9.8545,139.7368],[5.8863,9.8938,98.0039],[5.9052,9.9113,122.4214],[5.9472,9.9266,168.5979],[5.967,9.9524,192.097],[5.9803,9.9871,179.9011],[5.9886,10.0163,206.4333],[5.9868,10.0417,204.4252],[5.9922,10.049,205.76],[5.9774,10.0665,219.5501],[5.9367,10.1047,253.7316],[5.8982,10.1336,270.1873],[5.8779,10.1384,259.0658],[5.8417,10.1651,235.1451],[5.8172,10.1775,227.2097],[5.8023,10.1916,231.9244],[5.7847,10.2044,240.0274],[5.7446,10.2211,234.5788],[5.7107,10.232,237.9436],[5.6764,10.2218,255.6288],[5.6223,10.2113,269.1853],[5.5984,10.2182,279.4035],[5.5684,10.2172,245.683],[5.5171,10.2091,253.6272],[5.4719,10.1944,307.585],[5.4366,10.1919,321.8386],[5.4273,10.1999,324.1906],[5.4076,10.2249,325.9196],[5.3881,10.2434,336.6655],[5.3776,10.251,356.2264],[5.3577,10.2501,348.9144],[5.3038,10.2398,325.2945],[5.2723,10.2557,300.3062],[5.2609,10.2583,297.2752],[5.2393,10.2577,289.3824],[5.2173,10.2604,292.0397],[5.1868,10.2791,251.433],[5.1787,10.282,247.8344],[5.1641,10.2788,236.4411],[5.1501,10.2782,247.698],[5.141,10.268,249.8743],[5.0796,10.2225,252.5909],[5.0365,10.2113,248.3967],[4.9958,10.1984,257.8483],[4.9689,10.1877,252.5037],[4.9237,10.1614,283.7122],[4.9222,10.1507,252.4631],[4.9169,10.1368,303.3878],[4.9126,10.1058,284.3634],[4.9062,10.0413,295.5444],[4.9039,9.9843,277.4848],[4.8899,9.9649,253.2045],[4.8642,9.9582,217.3634],[4.8399,9.9684,257.6383],[4.8205,9.9848,261.1092],[4.7939,9.9989,269.368],[4.7798,9.9962,283.8881],[4.7439,9.9736,255.5579],[4.7211,9.9561,194.3039],[4.7029,9.9365,187.6035],[4.6728,9.9092,150.7008],[4.6579,9.8873,138.3789],[4.6299,9.824,100.0],[4.626,9.7888,115.9312],[4.6312,9.7658,100.0],[4.6265,9.7188,102.3471],[4.6116,9.6863,102.6595],[4.6003,9.6696,100.0],[4.5924,9.6534,100.0],[4.5863,9.6332,100.0],[4.5784,9.6167,100.0],[4.5633,9.6032,102.1276],[4.5518,9.5869,100.4578],[4.5447,9.5737,100.4602],[4.5377,9.5447,100.0],[4.5389,9.5316,100.0],[4.544,9.5124,100.0],[4.5518,9.4954,106.2178],[4.5784,9.4606,142.7664],[4.5828,9.4509,128.9062],[4.581,9.4357,152.6659],[4.5931,9.424,107.2788]]]]}
,"properties": {"GID_2": "NGA.27.16_1","GID_0": "NGA","country": "Nigeria","GID_1": "NGA.27_1","province": "Niger","NL_NAME_1": "NA","county": "Mashegu","VARNAME_2": "NA","NL_NAME_2": "NA","TYPE_2": "LocalAuthority","ENGTYPE_2": "LocalAuthority","CC_2": "NA","HASC_2": "NA","name": "Mashegu.county","area_km2": 9116.067,"hist_schema_id": "Elevation0-9000","hist_area_km2": {"100": 115.02,"125": 306.273,"150": 689.175,"175": 997.02,"200": 1224.441,"225": 1476.827,"250": 1505.536,"275": 1363.108,"300": 879.283,"325": 430.764,"350": 116.431,"375": 10.874,"400": 1.211,"425": 0.104}}}