{"type": "Feature","bbox": [7.7874,7.0731,8.1109,7.3482],"geometry": {"type": "MultiPolygon","coordinates": [[[[7.9719,7.0731,148.6685],[7.9835,7.0866,136.6238],[7.9914,7.0922,119.6983],[8.0072,7.0965,121.2824],[8.0183,7.1021,117.167],[8.0266,7.1027,110.0769],[8.0459,7.1099,110.4736],[8.0581,7.1196,95.5629],[8.0746,7.1274,102.7594],[8.0946,7.1407,125.4753],[8.1045,7.1532,148.295],[8.1108,7.1743,141.577],[8.1104,7.1872,138.3555],[8.1056,7.1951,131.6272],[8.1051,7.2052,131.0474],[8.1108,7.2123,132.5811],[8.1109,7.2213,148.3972],[8.1074,7.2331,138.3109],[8.1058,7.2359,143.6107],[8.0971,7.2372,145.4811],[8.0874,7.2341,143.9609],[8.0627,7.2341,150.7612],[8.0487,7.2405,140.9058],[8.0355,7.2491,138.5498],[8.015,7.266,136.5231],[8.0023,7.2796,160.6971],[7.9942,7.2926,153.8058],[7.9943,7.3011,163.5834],[7.9899,7.3111,190.2821],[7.9856,7.3158,187.7172],[7.9709,7.3234,195.5712],[7.9601,7.3255,208.8342],[7.9248,7.324,211.7367],[7.8739,7.3412,237.9375],[7.8559,7.3443,219.8114],[7.8475,7.3482,225.6569],[7.8415,7.2938,169.2332],[7.8208,7.2248,206.1658],[7.8102,7.1998,167.5416],[7.7874,7.1733,180.5475],[7.7968,7.1672,184.6451],[7.8108,7.1667,189.197],[7.8107,7.1561,204.9446],[7.8226,7.1534,204.7791],[7.8363,7.1437,188.0168],[7.8485,7.143,187.0488],[7.8672,7.1316,199.2506],[7.8776,7.1298,199.5957],[7.9106,7.1187,166.6074],[7.9347,7.1065,160.636],[7.9538,7.0924,164.2186],[7.9619,7.0816,158.5829],[7.9719,7.0731,148.6685]]]]}
,"properties": {"GID_2": "NGA.7.16_1","GID_0": "NGA","country": "Nigeria","GID_1": "NGA.7_1","province": "Benue","NL_NAME_1": "NA","county": "Ohimini","VARNAME_2": "NA","NL_NAME_2": "NA","TYPE_2": "LocalAuthority","ENGTYPE_2": "LocalAuthority","CC_2": "NA","HASC_2": "NA","name": "Ohimini.county","area_km2": 631.8603,"hist_schema_id": "Elevation0-9000","hist_area_km2": {"75": 0.3576,"100": 49.9419,"125": 134.4826,"150": 148.2358,"175": 148.6692,"200": 108.9103,"225": 31.6521,"250": 9.0851,"275": 0.5257}}}