{"type": "Feature","bbox": [8.4801,11.9881,8.5499,12.0291],"geometry": {"type": "MultiPolygon","coordinates": [[[[8.5016,11.9889,488.6652],[8.5269,11.9881,487.3343],[8.5308,11.9965,478.532],[8.5364,12.0011,480.4955],[8.5405,12.0081,481.1454],[8.5499,12.014099999999999,474.9376],[8.5399,12.016,475.3876],[8.5178,12.0117,473.6632],[8.5049,12.0185,479.5399],[8.5022,12.0243,472.1443],[8.4924,12.0291,482.9756],[8.487,12.0291,484.6793],[8.4801,12.0179,484.4888],[8.482,12.0082,491.5385],[8.4879,12.0052,490.4783],[8.486,11.9913,492.1725],[8.5016,11.9889,488.6652]]]]}
,"properties": {"GID_2": "NGA.20.31_1","GID_0": "NGA","country": "Nigeria","GID_1": "NGA.20_1","province": "Kano","NL_NAME_1": "NA","county": "Nasarawa","VARNAME_2": "Nassarawa","NL_NAME_2": "NA","TYPE_2": "LocalAuthority","ENGTYPE_2": "LocalAuthority","CC_2": "NA","HASC_2": "NA","name": "Nasarawa.county","area_km2": 19.10008,"hist_schema_id": "Elevation0-9000","hist_area_km2": {"475": 16.25885,"500": 2.75828,"525": 0.08296}}}