{"type":"Feature","properties":{"GID_2":"NGA.10.23_1","GID_0":"NGA","country":"Nigeria","GID_1":"NGA.10_1","province":"Delta","NL_NAME_1":"NA","county":"WarriNorth","VARNAME_2":"NA","NL_NAME_2":"NA","TYPE_2":"LocalAuthority","ENGTYPE_2":"LocalAuthority","CC_2":"NA","HASC_2":"NA","name":"Warri_North.county"},
"geometry":{"type": "MultiPolygon","coordinates": [[[[5.1143,5.6651,1.8387],[5.1203,5.6666,5.5231],[5.1307,5.6641,3.4185],[5.1552,5.6709,1.5607],[5.1887,5.6758,1.9167],[5.2036,5.68,4.1245],[5.226,5.6816,1.132],[5.2403,5.6805,16.3691],[5.2474,5.6951,5.8231],[5.2486,5.7068,4.0068],[5.2418,5.7029,1.6361],[5.2396,5.6996,0.0],[5.2401,5.6951,2.991],[5.2365,5.6915,2.2022],[5.2321,5.6912,1.5661],[5.2268,5.6949,1.1815],[5.2229,5.7051,8.8609],[5.204,5.7165,1.3219],[5.1963,5.7157,0.0],[5.1949,5.7107,0.6403],[5.1954,5.716,0.0],[5.194,5.7179,0.8479],[5.1815,5.7212,0.9056],[5.1757,5.7271,1.1213],[5.1749,5.734,0.0],[5.1774,5.7451,5.5031],[5.1763,5.7488,0.6675],[5.1607,5.7468,6.1751],[5.156,5.7501,1.2306],[5.1538,5.7554,0.0],[5.156,5.7693,0.0],[5.1488,5.7799,16.6491],[5.1437,5.7946,3.1713],[5.1396,5.8007,0.0],[5.1238,5.8076,0.5172],[5.1076,5.8079,7.6477],[5.1015,5.806,0.0],[5.0946,5.8004,17.435],[5.0954,5.7965,17.8531],[5.0918,5.7962,0.0],[5.0907,5.7946,1.3066],[5.0829,5.754,0.2902],[5.0779,5.7424,0.0],[5.0799,5.7388,6.2172],[5.0796,5.729,0.0],[5.0821,5.7187,0.0],[5.0999,5.6918,0.0],[5.1112,5.6671,1.6638],[5.1143,5.6651,1.8387]]],
[[[5.331,5.7871,0.0],[5.334,5.7935,2.3269],[5.3532,5.8076,8.0006],[5.3499,5.8115,1.6312],[5.3296,5.809,1.137],[5.3226,5.8129,0.0],[5.3215,5.819,2.4842],[5.3326,5.8237,0.0],[5.3335,5.829,0.0],[5.3313,5.8399,0.0],[5.334,5.8429,0.7161],[5.3338,5.8454,3.666],[5.319,5.8488,0.0],[5.3074,5.8574,0.642],[5.3065,5.8604,0.0],[5.3085,5.8663,0.6969],[5.3068,5.8729,0.6271],[5.3126,5.8779,1.3724],[5.3126,5.8801,0.0],[5.3057,5.8863,3.5024],[5.2999,5.8799,2.6179],[5.2976,5.8796,3.2189],[5.2946,5.8815,5.4652],[5.2904,5.8915,1.5455],[5.2929,5.9049,8.7435],[5.2846,5.9037,19.0192],[5.2757,5.8985,5.1402],[5.2693,5.8921,4.2886],[5.2638,5.8907,3.6223],[5.264,5.8871,8.1443],[5.2626,5.8868,0.0],[5.261,5.8799,6.996],[5.256,5.8743,7.0992],[5.249,5.8699,7.378],[5.2474,5.8649,0.0],[5.2504,5.8568,8.6063],[5.251,5.8501,7.3354],[5.2515,5.8315,7.0257],[5.2499,5.8274,0.0],[5.2432,5.8224,1.7468],[5.2293,5.8193,0.0],[5.2196,5.8085,7.8571],[5.2193,5.8054,0.0],[5.2212,5.8029,0.0],[5.2318,5.8001,0.0],[5.2382,5.7935,0.0],[5.2429,5.8004,0.5369],[5.244,5.8118,3.4162],[5.246,5.8149,2.1052],[5.244,5.8004,0.5369],[5.2374,5.7879,0.0],[5.2332,5.7849,0.0],[5.2326,5.7824,0.0],[5.2504,5.7815,0.7687],[5.2524,5.7838,0.7937],[5.2543,5.7754,1.1421],[5.2504,5.7804,0.0],[5.2329,5.7807,1.5214],[5.2315,5.7846,8.0335],[5.234,5.7943,0.0],[5.2307,5.794,0.0],[5.2299,5.7885,3.1442],[5.2271,5.7871,0.5819],[5.2293,5.789,3.1634],[5.2296,5.7932,1.5362],[5.2207,5.799,0.4171],[5.2176,5.8049,0.0],[5.2187,5.811,1.0978],[5.2238,5.8176,0.0],[5.2315,5.8229,4.9055],[5.2465,5.8271,1.2003],[5.249,5.8307,4.84],[5.2462,5.8607,4.38],[5.2329,5.8693,8.0742],[5.2307,5.869,2.8417],[5.2268,5.8646,23.6419],[5.2218,5.8632,17.3464],[5.2182,5.8593,20.4229],[5.1965,5.8535,8.3411],[5.186,5.8432,20.0043],[5.1779,5.8385,1.1901],[5.1765,5.834,26.0359],[5.1699,5.8279,12.9733],[5.1546,5.8207,7.5554],[5.1451,5.8129,0.0],[5.146,5.804,19.0845],[5.1515,5.7865,0.0],[5.1604,5.7688,1.4015],[5.1607,5.7626,4.124],[5.1576,5.7529,0.0],[5.1746,5.7524,0.6409],[5.1715,5.7571,12.0476],[5.1751,5.7646,0.0],[5.1718,5.7715,2.7196],[5.1732,5.7749,0.0],[5.1785,5.7757,6.7379],[5.1829,5.7696,10.4702],[5.1854,5.7696,2.834],[5.1887,5.7735,3.8688],[5.1932,5.7735,5.2098],[5.1887,5.7721,3.8688],[5.186,5.7685,6.1828],[5.1824,5.7685,6.3279],[5.1776,5.7746,11.3227],[5.1729,5.7729,3.0746],[5.176,5.7676,3.3736],[5.176,5.7624,0.0],[5.1729,5.7574,4.2355],[5.1757,5.7554,1.4065],[5.1751,5.7513,1.2835],[5.179,5.7474,1.1502],[5.1801,5.7413,0.0],[5.1765,5.7282,0.5575],[5.1796,5.7254,0.0],[5.1887,5.7226,3.0187],[5.1951,5.7187,0.0],[5.206,5.7176,2.8497],[5.2168,5.7113,4.3051],[5.2257,5.7038,2.8473],[5.2274,5.6965,0.0],[5.2321,5.6921,4.5013],[5.2371,5.6932,0.0],[5.2385,5.7018,0.0],[5.244,5.7054,0.6274],[5.2443,5.7093,1.1789],[5.2385,5.7088,1.828],[5.2443,5.7101,1.1789],[5.2451,5.7068,0.0],[5.2471,5.7068,2.4276],[5.2534,5.7201,6.8186],[5.257,5.7189,6.8873],[5.259,5.7094,1.6344],[5.2746,5.7094,1.8762],[5.2795,5.7107,8.9598],[5.2886,5.702,1.8506],[5.2894,5.6944,4.8685],[5.2999,5.6976,0.0],[5.2979,5.6993,0.1203],[5.2985,5.7074,1.4747],[5.2949,5.7104,2.7931],[5.2993,5.7074,1.4747],[5.2987,5.6993,0.1203],[5.2999,5.6982,0.0],[5.3038,5.699,11.9049],[5.3051,5.7051,0.0],[5.3071,5.7071,4.0767],[5.314,5.7082,1.27],[5.3188,5.714,2.239],[5.3193,5.7246,1.7795],[5.3226,5.7313,0.0],[5.3393,5.7432,0.0],[5.3393,5.746,0.0],[5.331,5.7601,0.0],[5.331,5.7679,0.0],[5.3332,5.7718,0.0],[5.3332,5.7765,0.0],[5.331,5.7871,0.0]]],
[[[5.5564,6.0115,16.5296],[5.557,6.0142,19.5862],[5.5459,6.0035,14.0795],[5.5435,5.9959,14.9893],[5.5331,5.9815,17.211],[5.5046,5.988,3.1592],[5.4679,6.02,2.5618],[5.4456,6.0248,14.0583],[5.4065,6.0181,12.4048],[5.3944,6.0139,7.0446],[5.3656,6.0171,12.3789],[5.3463,6.0255,13.5016],[5.3303,6.0205,13.8355],[5.3201,6.0156,13.2105],[5.3191,5.999,8.3359],[5.3335,5.9736,13.0756],[5.3251,5.9565,9.9157],[5.3027,5.9402,4.6678],[5.259,5.9043,8.6067],[5.2322,5.9031,19.1395],[5.2314,5.9431,14.5405],[5.2208,5.9843,14.5511],[5.2322,6.0316,8.7037],[5.2326,6.045,17.3651],[5.2298,6.0548,15.6857],[5.2149,6.0665,12.9366],[5.2029,6.0817,14.153],[5.1152,6.127,14.606],[5.0037,5.8557,7.1848],[5.0099,5.8479,3.692],[5.0099,5.8438,3.7286],[5.011,5.8446,3.7286],[5.011,5.8424,1.1356],[5.0199,5.8315,7.1901],[5.0274,5.8163,0.837],[5.0315,5.8115,1.1439],[5.0374,5.7954,0.0],[5.0438,5.7838,13.4061],[5.0557,5.7715,0.0],[5.0604,5.7696,6.3073],[5.0663,5.7696,10.0448],[5.0715,5.776,0.0],[5.0729,5.7879,6.3285],[5.0757,5.7954,0.0],[5.0865,5.8076,1.6269],[5.0968,5.8157,17.6132],[5.1093,5.8237,4.531],[5.1299,5.8313,0.0],[5.1463,5.8393,1.6219],[5.159,5.8479,1.0171],[5.1654,5.8549,0.6893],[5.2071,5.8757,10.029],[5.2182,5.8793,0.0],[5.2221,5.884,6.6003],[5.2385,5.8857,3.9296],[5.2424,5.8876,0.854],[5.2551,5.899,6.0128],[5.2663,5.9043,5.6662],[5.2674,5.909,3.8212],[5.2718,5.9129,9.3915],[5.2904,5.9171,4.0471],[5.2962,5.9087,7.558],[5.2915,5.8938,6.2894],[5.2937,5.8843,1.6014],[5.2968,5.8807,3.6396],[5.299,5.8807,4.567],[5.3026,5.8863,2.2337],[5.3068,5.8874,4.0548],[5.314,5.8807,2.5447],[5.3135,5.8771,1.3724],[5.3076,5.8724,0.6271],[5.3101,5.8649,7.5089],[5.3074,5.8607,0.0],[5.3076,5.8585,0.642],[5.3135,5.8554,1.4358],[5.3193,5.8496,0.0],[5.324,5.8499,2.7627],[5.3371,5.8446,3.5995],[5.3326,5.8396,0.0],[5.3349,5.8301,2.1024],[5.3332,5.8226,1.9416],[5.3229,5.8185,11.2312],[5.3226,5.8154,7.266],[5.3265,5.8113,3.3917],[5.3343,5.8099,0.62],[5.3438,5.8129,2.2664],[5.3496,5.8129,1.2088],[5.3524,5.8118,0.439],[5.3546,5.8063,0.0],[5.3638,5.8026,3.0631],[5.3676,5.8143,5.3609],[5.3738,5.8168,2.4599],[5.3796,5.8235,1.6395],[5.3863,5.8254,0.0],[5.3976,5.8251,0.4759],[5.4085,5.8201,0.0],[5.4104,5.8215,2.0859],[5.4121,5.8287,1.5719],[5.4165,5.8326,2.8373],[5.4249,5.8243,0.0],[5.4335,5.8271,3.2211],[5.4418,5.8226,5.9376],[5.4507,5.826,3.4236],[5.4549,5.826,2.3984],[5.4621,5.8154,0.6945],[5.4637,5.8071,5.6837],[5.4676,5.8071,10.3895],[5.4693,5.8101,8.1099],[5.4715,5.8093,1.3117],[5.471,5.8071,1.5316],[5.4637,5.8054,2.4541],[5.4722,5.8003,13.5393],[5.4848,5.7964,3.3658],[5.4954,5.7962,3.0721],[5.5085,5.7865,0.0],[5.5157,5.7913,2.1629],[5.5146,5.8043,0.0],[5.5185,5.8138,1.291],[5.5221,5.8165,0.0],[5.5296,5.8165,1.1384],[5.524,5.8035,1.6596],[5.5249,5.7971,10.1852],[5.5282,5.7946,1.1116],[5.5429,5.7915,3.7406],[5.551,5.7813,2.044],[5.5596,5.7796,2.6945],[5.5662,5.7763,1.3571],[5.5596,5.7788,2.6945],[5.5532,5.779,0.0],[5.5479,5.7818,1.6368],[5.5393,5.791,3.6161],[5.526,5.7943,1.7324],[5.5232,5.7979,0.0],[5.5226,5.8026,1.6596],[5.5271,5.8113,0.0],[5.5271,5.814,0.0],[5.5238,5.8151,9.7218],[5.5214,5.814,0.0],[5.5227,5.8119,11.143],[5.5208,5.7967,2.2928],[5.5234,5.7877,3.448],[5.5277,5.7814,1.5534],[5.5329,5.7762,1.1572],[5.549,5.7732,2.4477],[5.5562,5.7728,3.5511],[5.5691,5.7756,0.8851],[5.5708,5.7783,0.0],[5.5668,5.7987,2.0852],[5.5556,5.8254,1.3336],[5.5525,5.8298,1.1801],[5.5456,5.8334,2.622],[5.5434,5.8406,2.8688],[5.546,5.844,1.3686],[5.5494,5.8557,11.6797],[5.5382999999999996,5.8625,2.9481],[5.5469,5.8698,6.5277],[5.5501,5.8824,6.7073],[5.5481,5.8866,5.3801],[5.5261,5.8927,11.1315],[5.5124,5.9044,1.8386],[5.5086,5.9112,7.3109],[5.5004,5.9194,13.6066],[5.498,5.9289,11.3642],[5.5002,5.9314,14.7765],[5.508,5.9299,13.8179],[5.5332,5.9327,0.0],[5.5378,5.9351,0.0],[5.5425,5.9406,0.0],[5.5547,5.965,9.9911],[5.5554,5.9698,16.6673],[5.5525,5.9761,10.641],[5.5552,5.9832,15.5868],[5.5519,5.9946,14.9213],[5.5572,6.0076,14.7569],[5.5564,6.0115,16.5296]]]]}}