{"type":"Feature","properties":{"GID_2":"NGA.12.18_1","GID_0":"NGA","country":"Nigeria","GID_1":"NGA.12_1","province":"Edo","NL_NAME_1":"NA","county":"Uhunmwonde","VARNAME_2":"NA","NL_NAME_2":"NA","TYPE_2":"LocalAuthority","ENGTYPE_2":"LocalAuthority","CC_2":"NA","HASC_2":"NA","name":"Uhunmwonde.county"},
"geometry":{"type": "MultiPolygon","coordinates": [[[[5.6255,6.4062,96.5538],[5.6321,6.4015,85.5763],[5.6655,6.3968,116.6491],[5.6711,6.3902,110.5168],[5.6722,6.3826,107.6732],[5.6793,6.3691,105.6819],[5.6812,6.3562,99.8519],[5.6938,6.324,31.4415],[5.7006,6.3174,27.9655],[5.7244,6.3158,72.9174],[5.7459,6.307,68.0119],[5.7645,6.2882,51.4256],[5.7772,6.2716,28.705],[5.7854,6.2643,47.6301],[5.7923,6.2543,26.0979],[5.7911,6.2509,25.1367],[5.7946,6.2495,18.8405],[5.7942,6.2534,27.0486],[5.7995,6.253,27.6847],[5.8052,6.2488,27.9614],[5.8165,6.2482,27.9243],[5.8284,6.2452,30.0839],[5.8874,6.2396,37.1236],[5.8998,6.2394,55.0286],[5.9241,6.242,64.4623],[5.9311,6.2462,83.718],[5.9402,6.2534,93.5812],[5.9438,6.2589,80.8579],[5.9457,6.2658,82.6323],[5.9547,6.2778,92.8958],[5.9718,6.2928,104.168],[5.9835,6.3066,113.5773],[5.9988,6.3119,118.7492],[6.0019,6.3148,124.3454],[6.0165,6.3206,130.8664],[6.023,6.3214,129.5782],[6.0356,6.3306,133.9031],[6.0564,6.3363,144.938],[6.063,6.3431,164.1827],[6.0732,6.3486,170.6246],[6.0784,6.3539,181.3217],[6.0865,6.3588,168.7766],[6.0981,6.3724,174.0051],[6.1031,6.3829,185.6289],[6.111,6.3901,126.779],[6.1085,6.4043,112.7473],[6.1024,6.4145,104.1696],[6.0893,6.4311,99.2433],[6.087,6.441,124.3081],[6.0878,6.45,133.0092],[6.0831,6.4623,119.744],[6.0729,6.4735,105.7893],[6.0694,6.4805,103.4791],[6.0624,6.5034,127.5221],[6.0527,6.5193,160.8193],[6.0453,6.5452,177.9744],[6.046,6.5731,123.9603],[6.0538,6.5877,123.1451],[6.0599,6.5943,164.0548],[6.0594,6.6058,176.7604],[6.0621,6.6177,182.701],[6.0652,6.6502,252.5581],[6.0625,6.6693,292.033],[6.0573,6.6763,271.43],[6.0529,6.6868,248.9147],[6.0371,6.6983,146.5713],[6.0246,6.72,261.868],[6.0191,6.7258,306.4947],[6.01,6.7317,336.7114],[6.0012,6.7446,278.4399],[5.9951,6.7502,261.243],[5.9793,6.7601,176.9436],[5.9707,6.7681,156.2534],[5.9477,6.7736,139.3869],[5.9122,6.773,102.479],[5.8897,6.7799,85.6387],[5.8549,6.7835,80.8699],[5.8468,6.7858,82.8226],[5.8399,6.7692,86.8524],[5.8379,6.7589,91.4984],[5.8284,6.7431,147.6057],[5.824,6.725,239.032],[5.8093,6.7017,279.8909],[5.8023,6.6862,278.4459],[5.7996,6.6717,281.3215],[5.7651,6.5956,211.5252],[5.7559,6.5701,142.0185],[5.7446,6.5549,149.3081],[5.7327,6.5434,143.6957],[5.7049,6.5215,83.5295],[5.6858,6.5098,89.7291],[5.6647,6.4943,79.5793],[5.6324,6.4656,124.8923],[5.6233,6.4551,134.7476],[5.6117,6.4387,119.6063],[5.6097,6.4127,111.5526],[5.6255,6.4062,96.5538]]]]}}