{"type":"Feature","properties":{"GID_2":"NGA.20.11_1","GID_0":"NGA","country":"Nigeria","GID_1":"NGA.20_1","province":"Kano","NL_NAME_1":"NA","county":"Doguwa","VARNAME_2":"NA","NL_NAME_2":"NA","TYPE_2":"LocalAuthority","ENGTYPE_2":"LocalAuthority","CC_2":"NA","HASC_2":"NA","name":"Doguwa.county"},
"geometry":{"type": "MultiPolygon","coordinates": [[[[8.7318,10.9627,613.7298],[8.7167,10.9794,603.3113],[8.7154,10.9879,610.6557],[8.7102,10.9957,638.1356],[8.6956,10.9983,606.5793],[8.6778,11.0143,584.874],[8.6735,11.0212,593.4372],[8.6727,11.0547,592.1652],[8.6673,11.0736,572.5005],[8.6639,11.0786,574.9281],[8.6521,11.0843,563.2036],[8.641,11.0922,576.1512],[8.6346,11.0986,575.3434],[8.6307,11.1055,568.3934],[8.6283,11.1131,559.9177],[8.6294,11.1628,563.8348],[8.6242,11.1886,561.3587],[8.6207,11.219,549.8058],[8.6166,11.2278,549.7133],[8.6091,11.2339,542.8259],[8.6011,11.2343,546.3317],[8.5636,11.2139,565.8011],[8.5268,11.1786,583.8239],[8.5129,11.1697,595.258],[8.4959,11.1525,600.7064],[8.4872,11.1468,604.9547],[8.508,11.1328,604.0057],[8.5227,11.1138,616.7712],[8.5379,11.0848,608.6572],[8.5499,11.0572,605.8008],[8.566,11.0303,606.5038],[8.5698,11.0123,620.1235],[8.5721,10.9685,611.619],[8.5558,10.9295,653.45],[8.5407,10.8746,887.8555],[8.5395,10.851,785.9366],[8.559,10.7544,737.3525],[8.5557,10.7268,732.8064],[8.544,10.7092,720.2819],[8.5243,10.7014,703.603],[8.4972,10.6997,690.254],[8.4867,10.6938,701.1868],[8.4777,10.6813,727.1125],[8.4874,10.6481,721.028],[8.5047,10.6309,723.6862],[8.5229,10.6279,722.328],[8.5459,10.6282,705.6042],[8.5735,10.6256,734.6907],[8.6181,10.6154,747.9326],[8.6258,10.6001,735.9294],[8.6499,10.5714,772.2827],[8.6564,10.566,782.3931],[8.6758,10.5548,810.5372],[8.7243,10.5444,843.0746],[8.7456,10.5503,806.9938],[8.7572,10.558,794.024],[8.7693,10.5803,773.4011],[8.7804,10.5946,751.6181],[8.7991,10.6234,738.2353],[8.8127,10.6528,721.0389],[8.8206,10.685,714.8632],[8.8193,10.717,706.5509],[8.8069,10.7435,746.4963],[8.7625,10.7868,658.0704],[8.7445,10.8128,648.8732],[8.7372,10.8445,631.2077],[8.7333,10.8919,631.5032],[8.7308,10.9545,616.2572],[8.7318,10.9627,613.7298]]]]}}