{"type": "Feature","bbox": [8.6165,9.7143,8.9616,10.3435],"geometry": {"type": "MultiPolygon","coordinates": [[[[8.785,10.3357,835.897],[8.7791,10.3311,843.8555],[8.7756,10.2847,849.6968],[8.7667,10.2617,843.564],[8.7455,10.2368,838.5326],[8.7101,10.225,814.671],[8.6794,10.2028,844.2803],[8.6631,10.174,823.0665],[8.645,10.1232,814.5311],[8.6421,10.1001,832.5908],[8.6414,10.0798,859.5336],[8.6508,10.0576,870.7622],[8.6634,10.0347,918.4116],[8.6756,9.9972,948.3389],[8.6756,9.9783,923.4063],[8.6571,9.9594,915.8865],[8.6369,9.9467,874.2075],[8.6315,9.9291,913.7849],[8.6343,9.8975,1100.5591],[8.6287,9.8112,839.0452],[8.6243,9.793,831.3059],[8.6231,9.7724,859.1046],[8.6316,9.7387,1211.0522],[8.6248,9.7216,1178.0353],[8.6165,9.7143,1180.1377],[8.6414,9.7173,1052.4297],[8.6563,9.7219,1084.2571],[8.6645,9.7266,1120.8317],[8.7264,9.7472,1196.3898],[8.743,9.7587,1214.3589],[8.7503,9.7759,1199.8141],[8.7547,9.7911,1193.698],[8.76,9.8395,1182.5828],[8.7731,9.8849,1228.2849],[8.7787,9.9126,1237.8674],[8.7873,9.9353,1228.6855],[8.7908,9.9519,1222.8243],[8.7973,9.9594,1233.5486],[8.812,9.9686,1230.9045],[8.8274,9.9822,1165.0621],[8.8387,9.9867,1197.1069],[8.8475,9.9972,1168.8838],[8.8604,10.0069,1126.9238],[8.8778,10.0122,1096.8593],[8.8993,10.0162,994.2484],[8.9323,10.0262,911.8628],[8.9605,10.0237,903.6859],[8.9616,10.1429,875.9689],[8.9587,10.1682,880.3762],[8.9608,10.1848,871.5065],[8.9579,10.2266,1072.7614],[8.9482,10.2617,1102.7369],[8.9117,10.3219,1061.4573],[8.9061,10.3281,1208.2512],[8.8869,10.3363,1001.2838],[8.8612,10.3423,859.3428],[8.8098,10.3435,820.8325],[8.7914,10.3407,828.9595],[8.785,10.3357,835.897]]]]}
,"properties": {"GID_2": "NGA.32.2_1","GID_0": "NGA","country": "Nigeria","GID_1": "NGA.32_1","province": "Plateau","NL_NAME_1": "NA","county": "Bassa","VARNAME_2": "NA","NL_NAME_2": "NA","TYPE_2": "LocalAuthority","ENGTYPE_2": "LocalAuthority","CC_2": "NA","HASC_2": "NA","name": "Bassa.county","area_km2": 1478.416,"hist_schema_id": "Elevation0-9000","hist_area_km2": {"800": 12.417,"825": 72.932,"850": 130.588,"875": 149.858,"900": 125.932,"925": 91.205,"950": 72.112,"975": 68.775,"1000": 70.074,"1025": 60.543,"1050": 58.92,"1075": 62.993,"1100": 81.812,"1125": 95.432,"1150": 101.517,"1175": 103.551,"1200": 83.729,"1225": 30.01,"1250": 5.012,"1275": 0.772,"1300": 0.209,"1325": 0.021}}}