{"type": "Feature","bbox": [6.8231,8.8898,7.166,9.2357],"geometry": {"type": "MultiPolygon","coordinates": [[[[6.8548,8.914,201.4861],[6.8733,8.9022,137.3031],[6.8845,8.899,112.1809],[6.9051,8.8993,126.2965],[6.9208,8.9018,126.6656],[6.9716,8.9185,148.5373],[6.9919,8.9204,157.2674],[7.0155,8.8929,195.5283],[7.0341,8.8898,219.6949],[7.0537,8.8901,203.57],[7.0665,8.8941,185.1271],[7.0729,8.901,183.4848],[7.0705,8.9011,179.9],[7.061,8.9105,167.9208],[7.0662,8.9226,181.7409],[7.0904,8.9473,202.6333],[7.0973,8.9601,208.335],[7.1175,8.9828,232.2568],[7.1248,8.9978,255.7637],[7.1228,8.9978,251.9674],[7.1238,8.9996,255.6429],[7.137,9.0166,289.5517],[7.1473,9.0269,271.1304],[7.1505,9.0343,278.4532],[7.1574,9.0434,285.8736],[7.1611,9.0527,306.203],[7.1599,9.0537,303.0896],[7.166,9.0756,263.3318],[7.164,9.0976,265.284],[7.156,9.0956,258.9577],[7.1459,9.099,247.7771],[7.1177,9.1299,220.5555],[7.0901,9.1505,331.7018],[7.0738,9.1663,241.1945],[7.0631,9.1794,231.4317],[7.0162,9.2146,263.5822],[7.0075,9.2256,264.5297],[6.979,9.2357,241.2336],[6.9632,9.2324,237.8286],[6.9425,9.22,249.6149],[6.933,9.2123,238.2115],[6.9212,9.2093,230.0925],[6.9189,9.2058,218.1422],[6.919,9.1952,221.4445],[6.9149,9.1835,223.0732],[6.9083,9.1774,233.6194],[6.8943,9.1718,222.217],[6.877,9.1703,190.3156],[6.8709,9.1683,203.5236],[6.8681,9.1641,215.6701],[6.8678,9.1561,209.3421],[6.8598,9.1447,290.7092],[6.8418,9.1388,327.1605],[6.8343,9.1352,375.308],[6.8294,9.1306,309.7472],[6.8276,9.1245,287.4452],[6.8282,9.1158,317.8071],[6.8231,9.1095,371.7677],[6.83,9.1005,245.2513],[6.8508,9.0872,194.9441],[6.8546,9.0801,188.6776],[6.8559,9.0707,177.2691],[6.8442,9.0538,172.9912],[6.8382,9.0344,170.0316],[6.8549,8.9987,157.0494],[6.8503,8.9986,170.4663],[6.8473,8.9648,163.7597],[6.8513,8.9426,171.2102],[6.8513,8.929,172.6454],[6.8559,8.9244,158.9356],[6.8548,8.914,201.4861]]]]}
,"properties": {"GID_2": "NGA.15.4_1","GID_0": "NGA","country": "Nigeria","GID_1": "NGA.15_1","province": "FederalCapitalTerritory","NL_NAME_1": "NA","county": "Gwagwalada","VARNAME_2": "NA","NL_NAME_2": "NA","TYPE_2": "LocalAuthority","ENGTYPE_2": "LocalAuthority","CC_2": "NA","HASC_2": "NA","name": "Gwagwalada.county","area_km2": 968.907,"hist_schema_id": "Elevation0-9000","hist_area_km2": {"100": 0.0838,"125": 28.1914,"150": 129.3011,"175": 218.4092,"200": 248.5522,"225": 175.9774,"250": 90.9953,"275": 38.7069,"300": 18.9472,"325": 10.2794,"350": 5.1922,"375": 2.7635,"400": 1.0887,"425": 0.335,"450": 0.0628,"475": 0.0209}}}