{"type": "Feature","bbox": [4.0286,7.5221,4.2656,7.7405],"geometry": {"type": "MultiPolygon","coordinates": [[[[4.2656,7.6226,287.7955],[4.2459,7.6275,273.2746],[4.2342,7.6333,276.8669],[4.2274,7.6387,249.9798],[4.2174,7.6474,246.544],[4.2084,7.6597,266.1476],[4.1979,7.6682,256.3558],[4.1936,7.6747,268.0917],[4.1852,7.6827,252.5027],[4.1778,7.6957,270.7369],[4.158,7.7115,247.3646],[4.1384,7.7142,239.9656],[4.1105,7.71,220.0966],[4.1015,7.712,228.6422],[4.0965,7.7195,221.2552],[4.0803,7.7294,236.5089],[4.0672,7.7405,229.8905],[4.0598,7.6965,272.5581],[4.0471,7.6681,243.4439],[4.0286,7.6504,272.7099],[4.0353,7.6213,263.1344],[4.0582,7.601,244.0116],[4.0854,7.5837,235.6778],[4.1112,7.5478,207.3771],[4.1174,7.5299,217.3032],[4.1232,7.5221,221.8889],[4.1497,7.5529,193.4972],[4.1611,7.5594,231.578],[4.1742,7.573,222.7361],[4.23,7.5983,254.0643],[4.243,7.6057,242.708],[4.247,7.61,256.3543],[4.254,7.6124,280.3549],[4.2656,7.6226,287.7955]]]]}
,"properties": {"GID_2": "NGA.30.23_1","GID_0": "NGA","country": "Nigeria","GID_1": "NGA.30_1","province": "Osun","NL_NAME_1": "NA","county": "Iwo","VARNAME_2": "NA","NL_NAME_2": "NA","TYPE_2": "LocalAuthority","ENGTYPE_2": "LocalAuthority","CC_2": "NA","HASC_2": "NA","name": "Iwo.county","area_km2": 300.8397,"hist_schema_id": "Elevation0-9000","hist_area_km2": {"175": 0.1681,"200": 21.605,"225": 133.6954,"250": 120.4492,"275": 24.4386,"300": 0.4833}}}