{"type": "Feature","bbox": [8.1552,8.3927,9.076,9.0333],"geometry": {"type": "MultiPolygon","coordinates": [[[[8.9888,8.4974,118.6016],[8.9888,8.4995,115.7225],[8.9849,8.4998,115.4037],[8.9516,8.5145,124.9004],[8.9439,8.5215,118.1141],[8.9284,8.5479,132.3981],[8.9307,8.5806,119.4671],[8.936,8.6073,131.0025],[8.9317,8.6422,164.1072],[8.928,8.6547,137.8605],[8.9105,8.6693,127.6278],[8.8942,8.6938,132.813],[8.8914,8.7047,136.4002],[8.8838,8.7214,150.5774],[8.8868,8.7304,158.1098],[8.8833,8.7313,164.4037],[8.889,8.7575,205.0476],[8.8936,8.766,174.6437],[8.9052,8.7704,148.4811],[8.9141,8.7795,149.8142],[8.9146,8.7839,163.6316],[8.921,8.79,169.8913],[8.9339,8.8188,189.5327],[8.9391,8.8254,200.4194],[8.9555,8.8388,209.0798],[8.9627,8.8423,193.6864],[8.9705,8.8443,204.4252],[8.9791,8.8432,190.0169],[8.9855,8.8455,194.4565],[9.0024,8.8568,215.8284],[9.009,8.8665,223.5816],[9.0195,8.8773,243.7873],[9.0262,8.8913,252.2163],[9.035,8.8985,253.9521],[9.0476,8.9147,242.9612],[9.0633,8.9418,269.4867],[9.0656,8.9564,292.6837],[9.0752,8.9748,310.5567],[9.076,8.9888,333.5997],[9.0674,9.0024,387.2788],[9.0576,9.0076,362.9642],[9.0548,9.0127,367.2802],[9.0436,9.0242,454.632],[9.0267,9.0333,759.913],[9.0118,9.0302,776.2909],[8.9849,9.0173,865.9694],[8.9819,9.0154,832.6832],[8.982,9.0117,792.1182],[8.9511,9.0135,849.9724],[8.9222,9.0116,691.7174],[8.9108,9.0123,376.6423],[8.8879,9.0171,618.6014],[8.8871,9.003,438.9504],[8.8826,8.991,294.1289],[8.8709,8.9651,290.8347],[8.8597,8.9324,231.2041],[8.8462,8.91,231.0099],[8.8304,8.8863,220.3649],[8.813,8.8668,203.4482],[8.7782,8.8393,163.4487],[8.7628,8.8315,169.8198],[8.7296,8.829,184.5644],[8.6989,8.8291,201.572],[8.6715,8.8335,171.59],[8.6428,8.8291,196.3987],[8.6131,8.8182,194.3241],[8.6193,8.8136,201.9399],[8.6226,8.8055,215.1863],[8.6322,8.8007,230.9609],[8.6538,8.796,283.8306],[8.6813,8.7854,249.1017],[8.6914,8.7665,243.5888],[8.6925,8.7467,211.44],[8.6888,8.7219,200.5823],[8.6695,8.6959,158.0206],[8.6341,8.6634,156.4624],[8.5994,8.6566,198.7254],[8.5712,8.663,195.132],[8.5208,8.6614,171.1313],[8.5025,8.6522,164.7202],[8.4663,8.6535,170.6582],[8.4498,8.6451,157.9053],[8.441,8.6316,140.0206],[8.4244,8.6192,131.4795],[8.4031,8.6108,130.8378],[8.3217,8.6138,122.9058],[8.3064,8.6083,145.7921],[8.298,8.6015,139.0035],[8.2865,8.5898,135.1709],[8.2785,8.5694,108.0636],[8.2612,8.5542,99.698],[8.2411,8.553,104.5897],[8.2305,8.5799,117.5185],[8.2336,8.604,130.003],[8.2343,8.6429,161.8312],[8.2377,8.6839,160.2104],[8.2289,8.6965,189.8547],[8.224,8.7007,210.7865],[8.2234,8.6968,201.1406],[8.2069,8.6754,267.9196],[8.1916,8.6464,208.4123],[8.1761,8.6137,215.7026],[8.1683,8.5862,205.9418],[8.1552,8.559,213.3405],[8.1571,8.5392,174.0933],[8.1745,8.5405,155.4612],[8.1886,8.5435,129.2545],[8.2183,8.5269,109.3727],[8.229,8.5165,93.426],[8.2423,8.5099,91.1448],[8.2682,8.5018,84.2989],[8.3004,8.4957,96.0249],[8.3307,8.4835,125.122],[8.4119,8.4727,159.3246],[8.4268,8.4653,129.7276],[8.4469,8.4518,178.2695],[8.4793,8.4049,184.5139],[8.4824,8.3928,181.9499],[8.5504,8.3927,218.5432],[8.5741,8.3999,206.6539],[8.5978,8.4133,196.9355],[8.6009,8.4307,215.5533],[8.5955,8.4444,210.7036],[8.5932,8.456,196.7118],[8.6026,8.4664,235.0017],[8.6137,8.4704,218.4922],[8.6396,8.4736,228.6958],[8.6701,8.474,225.7457],[8.7012,8.4721,210.5733],[8.726,8.466,199.1433],[8.755,8.45,206.6931],[8.7723,8.4324,207.9313],[8.7962,8.4155,223.4939],[8.8065,8.4063,203.0227],[8.8296,8.3992,186.9777],[8.8564,8.3983,163.6387],[8.9033,8.404,144.1212],[8.9577,8.3991,133.904],[8.9761,8.4004,135.8198],[8.9793,8.4015,130.9009],[8.9682,8.417,129.4384],[8.965,8.4464,150.4972],[8.9715,8.4692,136.4819],[8.9838,8.5,115.4037],[8.9888,8.4974,118.6016]]]]}
,"properties": {"GID_2": "NGA.26.8_1","GID_0": "NGA","country": "Nigeria","GID_1": "NGA.26_1","province": "Nasarawa","NL_NAME_1": "NA","county": "Lafia","VARNAME_2": "NA","NL_NAME_2": "NA","TYPE_2": "LocalAuthority","ENGTYPE_2": "LocalAuthority","CC_2": "NA","HASC_2": "NA","name": "Lafia.county","area_km2": 2784.486,"hist_schema_id": "Elevation0-9000","hist_area_km2": {"75": 14.321,"100": 102.085,"125": 336.178,"150": 642.761,"175": 661.602,"200": 457.49,"225": 238.196,"250": 105.706,"275": 53.829,"300": 30.704,"325": 18.096,"350": 14.744,"375": 12.398,"400": 8.126,"425": 6.304,"450": 5.927,"475": 4.922,"500": 5.089,"525": 5.11,"550": 4.566,"575": 4.88,"600": 5.989,"625": 6.387,"650": 5.068,"675": 4.44,"700": 4.733,"725": 4.837,"750": 4.188,"775": 3.937,"800": 4.188,"825": 3.12,"850": 2.534,"875": 1.256,"900": 0.419,"925": 0.209,"950": 0.105,"1000": 0.042}}}