{"type":"Feature","properties":{"GID_2":"NGA.31.21_1","GID_0":"NGA","country":"Nigeria","GID_1":"NGA.31_1","province":"Oyo","NL_NAME_1":"NA","county":"OgbomoshoNorth","VARNAME_2":"NA","NL_NAME_2":"NA","TYPE_2":"LocalAuthority","ENGTYPE_2":"LocalAuthority","CC_2":"NA","HASC_2":"NA","name":"Ogbomosho_North.county"},
"geometry":{"type": "MultiPolygon","coordinates": [[[[4.3109,8.0688,359.2934],[4.3208,8.0804,403.7428],[4.3251,8.0882,396.5157],[4.3312,8.1054,364.4854],[4.3335,8.1226,400.0403],[4.33,8.151,386.9316],[4.3226,8.1772,374.5179],[4.3219,8.1864,371.8645],[4.3095,8.2184,388.9573],[4.2987,8.237,379.8009],[4.2993,8.2444,361.9517],[4.3056,8.2509,376.3528],[4.2519,8.2258,339.497],[4.2307,8.2128,314.6059],[4.2234,8.206,325.5341],[4.2156,8.193,331.1059],[4.2054,8.1616,320.5899],[4.1929,8.146,286.3994],[4.1843,8.1246,300.2557],[4.1902,8.12,322.006],[4.1994,8.117,321.5291],[4.2326,8.1179,326.7414],[4.2575,8.0856,334.5932],[4.2701,8.0834,348.5813],[4.2803,8.0841,337.4991],[4.3013,8.0715,365.7166],[4.3109,8.0688,359.2934]]]]}}