{"type": "Feature","bbox": [4.1818,12.4901,4.8074,12.8145],"geometry": {"type": "MultiPolygon","coordinates": [[[[4.1818,12.592,213.7495],[4.2063,12.587,210.2942],[4.2307,12.5663,200.3624],[4.2444,12.5406,199.1864],[4.2481,12.5263,198.7311],[4.2478,12.5168,198.9694],[4.2534,12.5035,198.9137],[4.2634,12.4944,199.3711],[4.2741,12.4961,226.966],[4.292,12.4919,228.0549],[4.305,12.4962,238.111],[4.3273,12.4918,240.9983],[4.3631,12.4925,238.4573],[4.3811,12.4901,232.8136],[4.4255,12.4964,232.8583],[4.4393,12.5007,233.3925],[4.4797,12.5192,241.7681],[4.4985,12.523,240.4057],[4.5002,12.5264,237.8069],[4.5122,12.5327,240.7474],[4.5427,12.5444,253.5627],[4.5795,12.5702,250.9271],[4.6522,12.6052,265.8413],[4.7644,12.634,285.6212],[4.8034,12.6405,276.5023],[4.8074,12.6671,280.2896],[4.7687,12.6689,276.7816],[4.6998,12.6623,292.0107],[4.6866,12.667,284.6428],[4.6687,12.6791,279.3399],[4.655,12.6831,274.5389],[4.6471,12.6948,284.5363],[4.6374,12.703,274.2615],[4.6231,12.7072,247.8482],[4.6075,12.7153,244.7194],[4.5856,12.7116,242.7418],[4.5622,12.7113,238.4771],[4.5591,12.7266,224.9172],[4.5542,12.7397,228.7775],[4.5482,12.75,227.9576],[4.5324,12.7588,213.5824],[4.4929,12.7727,213.0515],[4.474,12.766,215.3057],[4.4357,12.7623,212.8102],[4.4166,12.772,232.6103],[4.3969,12.7914,252.212],[4.381,12.8145,250.7488],[4.3541,12.7896,251.1453],[4.3464,12.759,249.9931],[4.3324,12.7408,252.3187],[4.3213,12.7317,251.6969],[4.2944,12.727,246.3259],[4.2779,12.7204,270.2988],[4.2696,12.7159,285.6269],[4.2539,12.6991,266.4835],[4.2518,12.6854,256.5241],[4.2433,12.6618,243.3579],[4.2307,12.6418,235.6211],[4.2213,12.6287,233.1888],[4.213,12.6203,230.4233],[4.1942,12.6081,222.0097],[4.1818,12.592,213.7495]]]]}
,"properties": {"GID_2": "NGA.22.3_1","GID_0": "NGA","country": "Nigeria","GID_1": "NGA.22_1","province": "Kebbi","NL_NAME_1": "NA","county": "Argungu","VARNAME_2": "NA","NL_NAME_2": "NA","TYPE_2": "LocalAuthority","ENGTYPE_2": "LocalAuthority","CC_2": "NA","HASC_2": "NA","name": "Argungu.county","area_km2": 1207.8122,"hist_schema_id": "Elevation0-9000","hist_area_km2": {"200": 389.5413,"225": 360.2857,"250": 318.2854,"275": 121.9912,"300": 16.8603,"325": 0.8069,"350": 0.0414}}}