{"type":"Feature","properties":{"GID_2":"NGA.26.1_1","GID_0":"NGA","country":"Nigeria","GID_1":"NGA.26_1","province":"Nasarawa","NL_NAME_1":"NA","county":"Akwanga","VARNAME_2":"NA","NL_NAME_2":"NA","TYPE_2":"LocalAuthority","ENGTYPE_2":"LocalAuthority","CC_2":"NA","HASC_2":"NA","name":"Akwanga.county"},
"geometry":{"type": "MultiPolygon","coordinates": [[[[8.1613,9.0331,488.5162],[8.1738,9.0081,476.7651],[8.1709,9.0006,460.3672],[8.1738,8.9675,414.5415],[8.1835,8.9401,412.9477],[8.1962,8.9143,398.537],[8.2289,8.8831,395.7464],[8.2347,8.8615,385.883],[8.288,8.8695,425.3762],[8.3149,8.8766,394.3385],[8.3444,8.8761,413.7371],[8.4218,8.8861,421.9074],[8.4898,8.8803,329.15],[8.5032,8.8765,314.5207],[8.5042,8.8879,327.4836],[8.4989,8.9295,331.2403],[8.5005,9.0003,369.7022],[8.4799,9.0005,385.7865],[8.467,9.0028,402.6322],[8.4599,9.0193,427.3664],[8.4573,9.0333,468.053],[8.4406,9.0524,845.1518],[8.4188,9.0728,562.9344],[8.386,9.1164,504.4927],[8.3711,9.1281,497.4315],[8.3393,9.1276,480.3436],[8.3094,9.132,476.1024],[8.2936,9.1425,486.0479],[8.2853,9.1521,489.2928],[8.2637,9.1556,471.653],[8.2492,9.1469,459.8572],[8.2429,9.1399,443.186],[8.2285,9.1093,463.5753],[8.1613,9.0331,488.5162]]]]}}