{"type":"Feature","properties":{"GID_2":"NGA.2.15_1","GID_0":"NGA","country":"Nigeria","GID_1":"NGA.2_1","province":"Adamawa","NL_NAME_1":"NA","county":"MubiSouth","VARNAME_2":"NA","NL_NAME_2":"NA","TYPE_2":"LocalAuthority","ENGTYPE_2":"LocalAuthority","CC_2":"NA","HASC_2":"NA","name":"Mubi_South.county"},
"geometry":{"type": "MultiPolygon","coordinates": [[[[13.4676,10.2584,800.9221],[13.4588,10.2586,964.2914],[13.4378,10.2645,1048.3113],[13.4321,10.2644,974.9903],[13.4021,10.2614,655.5033],[13.3765,10.2554,631.5344],[13.3724,10.2463,637.0131],[13.345,10.2095,727.6389],[13.3323,10.1837,721.0627],[13.3145,10.1375,818.2655],[13.316,10.1101,1028.9421],[13.303,10.0938,1094.5322],[13.317,10.101,1028.7472],[13.3429,10.1228,965.4827],[13.3465,10.1136,1020.2178],[13.3572,10.1128,960.5862],[13.3625,10.1144,1071.1206],[13.3648,10.1193,1018.1306],[13.369,10.1206,1035.6038],[13.3858,10.1206,908.0217],[13.3918,10.1249,1009.5313],[13.4072,10.1259,999.2731],[13.4308,10.1333,901.2206],[13.4361,10.1372,965.0314],[13.4373,10.1458,988.434],[13.4434,10.1539,1013.7567],[13.4675,10.164,936.6315],[13.4657,10.1771,939.7661],[13.4693,10.1842,942.6046],[13.4691,10.1943,969.0869],[13.4728,10.1975,941.2594],[13.4828,10.1994,854.6589],[13.4832,10.2013,850.8155],[13.4753,10.2227,765.7276],[13.4749,10.2318,734.9647],[13.4686,10.2358,723.6271],[13.4666,10.2398,746.3417],[13.4656,10.2462,836.3409],[13.4676,10.2584,800.9221]]]]}}