{"type": "Feature","bbox": [5.0708,7.9972,5.4562,8.3093],"geometry": {"type": "MultiPolygon","coordinates": [[[[5.1944,8.0016,498.7159],[5.1968,8.0144,494.4456],[5.1919,8.0224,492.0448],[5.1926,8.0249,488.5814],[5.1834,8.0382,512.8958],[5.1766,8.0595,508.9038],[5.176,8.068,486.1026],[5.1852,8.0794,497.1665],[5.2058,8.0963,470.7092],[5.2314,8.1134,517.6594],[5.2645,8.1313,515.3795],[5.2767,8.1336,413.372],[5.3065,8.1331,496.3229],[5.3248,8.1385,335.8266],[5.3404,8.1484,314.6929],[5.3811,8.1678,305.6782],[5.3967,8.1652,320.4941],[5.416,8.1736,309.5248],[5.4482,8.1809,342.3775],[5.4562,8.1812,356.2205],[5.4303,8.1992,306.701],[5.4169,8.2118,282.1438],[5.4147,8.2199,279.7869],[5.4156,8.2225,292.8997],[5.3926,8.2411,308.2281],[5.3768,8.2619,291.9438],[5.3704,8.2775,315.5795],[5.3527,8.3093,295.8625],[5.342,8.3041,298.9837],[5.3229,8.2916,266.0004],[5.3049,8.2656,360.0175],[5.2993,8.2599,284.6783],[5.2984,8.2496,306.7608],[5.2907,8.241,307.5205],[5.2693,8.2312,438.4053],[5.2472,8.2313,298.1374],[5.2307,8.2235,375.0092],[5.2249,8.21,472.5345],[5.215,8.1989,440.8634],[5.1906,8.1588,500.3431],[5.19,8.1457,506.7033],[5.1849,8.1335,498.2732],[5.1737,8.1227,532.4623],[5.1622,8.1155,564.5428],[5.1374,8.0894,559.5665],[5.1031,8.0653,570.0239],[5.085,8.0481,562.1492],[5.0772,8.036,574.6998],[5.0708,8.0334,574.5074],[5.075,8.0266,554.2079],[5.0806,8.0065,551.4231],[5.085,8.0027,558.2303],[5.0974,7.9986,547.768],[5.1084,7.9972,519.4253],[5.1289,8.0054,512.2585],[5.1573,8.0199,522.6838],[5.1697,8.0188,501.9004],[5.1851,8.0128,509.0068],[5.1944,8.0016,498.7159]]]]}
,"properties": {"GID_2": "NGA.24.14_1","GID_0": "NGA","country": "Nigeria","GID_1": "NGA.24_1","province": "Kwara","NL_NAME_1": "NA","county": "Oke-Ero","VARNAME_2": "NA","NL_NAME_2": "NA","TYPE_2": "LocalAuthority","ENGTYPE_2": "LocalAuthority","CC_2": "NA","HASC_2": "NA","name": "Oke-Ero.county","area_km2": 419.2067,"hist_schema_id": "Elevation0-9000","hist_area_km2": {"250": 1.7834,"275": 14.9608,"300": 55.3773,"325": 66.1645,"350": 42.0969,"375": 14.9842,"400": 10.3461,"425": 8.3944,"450": 13.4944,"475": 38.4291,"500": 54.1118,"525": 50.1288,"550": 38.9424,"575": 9.6148,"600": 0.3358,"625": 0.042}}}