{"type":"Feature","properties":{"featurecla":"Plateau","name":"Jos Plateau","namealt":null,"region":"Africa","subregion":null,"min_label":6.0,"max_label":11.0,"scalerank":6},
"geometry":{"type": "Polygon","coordinates": [[[9.33521569102129,10.381720282025384,729.0159],[9.2293807300837329,10.588934637494106,626.8973],[9.0440779957087045,10.672735907025341,804.9451],[9.0089217457087614,10.593390203900341,827.1141],[8.80164635508379,10.425848699994106,808.6924],[8.68690026133379,10.192084051556591,856.8952],[8.5634871753962614,10.01569244999412,801.8231],[8.3827010425837045,9.8349063171815629,773.4905],[8.2812606128962329,9.6673648132753272,763.6455],[8.2768660816462329,9.51300690311912,742.6492],[8.48853600352129,9.420416571087884,524.2542],[8.5546981128962614,9.1998965515566056,578.5645],[8.6561385425837329,8.9749820007753129,407.2367],[8.86780846445879,8.9749820007753129,295.6991],[9.3527938160212329,9.01471588749412,280.4906],[9.6086531910212045,9.04999420780662,281.0696],[9.87757408945879,9.1558291687440914,278.9364],[9.8996688160212614,9.3013369812440772,306.6309],[9.79822838633379,9.3983218445253129,353.9348],[9.6571151050837329,9.5615298523378556,679.2819],[9.5512801441462614,9.6893985046815772,671.9993],[9.6174422535212329,9.9142520203065629,595.5985],[9.7099715503962614,10.156805731244091,566.5514],[9.7408553394587329,10.311163641400299,663.6917],[9.6174422535212329,10.478766180462841,563.6255],[9.5116072925837614,10.364081121869134,656.9186],[9.33521569102129,10.381720282025384,729.0159]]]}}