{"type": "Feature","bbox": [4.69178307383379,4.2786319031190772,7.22156220501941,6.2100894226503129],"geometry": {"type": "MultiPolygon","coordinates": [[[[7.22156220501941,4.4311143206886356,9.0447],[7.18763268320879,4.4198062195253556,4.7687],[6.26160729258379,4.3271548523378129,4.2117],[6.07642662852129,4.2874820007753129,0.0],[5.9040953843310149,4.4067929508872226,1.5327],[6.06763756602129,4.2786319031190772,0.0],[7.1700545582087614,4.410956121869134,4.6553],[7.22156220501941,4.4311143206886356,9.0447]]],
[[[5.6267001485209107,4.6930405551448624,0.0],[5.4768157154848041,4.9303431676949,18.2693],[5.5119735035212329,4.851935125775384,15.2556],[5.6267001485209107,4.6930405551448624,0.0]]],
[[[5.2081157567479011,5.4795998963995913,9.9154],[5.1239119800837329,5.6633364929627987,4.4709],[4.80640709727129,6.0866763367128129,1.182],[4.7465651299188494,6.1387050026721823,0.9166],[4.9827986988337614,5.83087799686912,0.0],[5.2081157567479011,5.4795998963995913,9.9154]]],
[[[4.7817500208887509,6.207598988129746,7.1075],[4.69178307383379,6.2100894226503129,0.9318],[4.7229076021346827,6.1695322300468831,1.3157],[4.7817500208887509,6.207598988129746,7.1075]]]]}
,"properties": {"featurecla": "Delta","name": "Niger Delta","namealt": null,"region": "Africa","subregion": null,"min_label": 4.0,"max_label": 8.0,"scalerank": 3,"area_km2": 429.9943,"hist_schema_id": "Elevation0-9000","hist_area_km2": {"0": 348.6393,"25": 81.3549}}}