{"type": "Feature","bbox": [6.9158,4.8912,7.1863,5.198],"geometry": {"type": "MultiPolygon","coordinates": [[[[7.1863,4.992,18.2743],[7.1694,4.9886,18.7505],[7.163,4.9836,21.6988],[7.1407,4.9739,28.6128],[7.1248,4.9748,25.173],[7.116,4.9849,32.5696],[7.112,5.0059,33.4368],[7.1099,5.0184,37.897],[7.1145,5.0351,40.0465],[7.1167,5.0699,42.3741],[7.1203,5.0811,43.53],[7.1198,5.1053,42.2316],[7.122,5.115,41.0682],[7.1192,5.1279,45.1782],[7.1228,5.1341,44.4324],[7.1241,5.1414,46.0673],[7.1313,5.1475,45.0095],[7.1379,5.1566,52.3429],[7.1446,5.1719,50.0035],[7.1447,5.1777,50.6634],[7.1502,5.1866,53.9736],[7.149,5.1952,52.7695],[7.1371,5.1977,51.9413],[7.1027,5.1972,46.6079],[7.0943,5.1934,45.1851],[7.0795,5.1925,47.1696],[7.0605,5.185,40.4833],[7.0357,5.1798,34.4051],[6.9809,5.1916,49.2221],[6.9598,5.198,50.6065],[6.9473,5.1959,48.4315],[6.9189,5.1979,41.4481],[6.9159,5.1931,37.7674],[6.9158,5.1869,42.3558],[6.9194,5.1647,44.2473],[6.9273,5.1436,37.6417],[6.9423,5.1152,42.5448],[6.9472,5.1018,31.5065],[6.96,5.0795,33.9391],[6.9623,5.0681,32.4995],[6.9716,5.0419,32.7031],[7.0117,4.983,25.3703],[7.0181,4.9759,27.6104],[7.0171,4.9614,30.9061],[7.0087,4.9526,25.6251],[7.0062,4.9439,23.8935],[7.0098,4.9341,22.6079],[7.0095,4.9295,22.374],[7.0149,4.9239,22.0486],[7.05,4.9134,22.6416],[7.0811,4.8912,17.9501],[7.1209,4.9,23.4044],[7.1285,4.9003,25.0252],[7.1317,4.9146,23.2028],[7.1387,4.9165,13.5445],[7.1548,4.9167,16.801],[7.167,4.9596,16.8954],[7.178,4.9832,18.9202],[7.1863,4.992,18.2743]]]]}
,"properties": {"GID_2": "NGA.33.11_1","GID_0": "NGA","country": "Nigeria","GID_1": "NGA.33_1","province": "Rivers","NL_NAME_1": "NA","county": "Etche","VARNAME_2": "NA","NL_NAME_2": "NA","TYPE_2": "LocalAuthority","ENGTYPE_2": "LocalAuthority","CC_2": "NA","HASC_2": "NA","name": "Etche.county","area_km2": 568.9162,"hist_schema_id": "Elevation0-9000","hist_area_km2": {"0": 2.8728,"25": 377.026,"50": 189.0174}}}