{"type": "Feature","bbox": [4.5524,7.2376,4.6745,7.4465],"geometry": {"type": "MultiPolygon","coordinates": [[[[4.6485,7.4389,296.9231],[4.6332,7.4465,262.7033],[4.6106,7.4126,293.9003],[4.5917,7.4013,246.4615],[4.5729,7.4013,248.6733],[4.5709,7.4032,258.4053],[4.5661,7.3728,243.7683],[4.5524,7.3516,299.9953],[4.571,7.3584,228.6763],[4.5789,7.3512,228.9086],[4.5936,7.3281,220.3099],[4.5951,7.323,231.2274],[4.5941,7.3182,227.8282],[4.5779,7.2885,183.1367],[4.5882,7.2793,198.2167],[4.589,7.2733,191.2955],[4.5849,7.2511,172.759],[4.5855,7.2418,193.0665],[4.5872,7.2376,199.8019],[4.5982,7.2421,215.6216],[4.5999,7.2496,206.0735],[4.608,7.2643,209.6233],[4.6096,7.2817,200.6752],[4.6077,7.2878,187.5409],[4.62,7.3088,200.1575],[4.6192,7.3152,207.7065],[4.621,7.3251,207.9941],[4.6171,7.3318,205.2364],[4.615,7.3448,218.541],[4.6115,7.3513,213.0572],[4.6102,7.3582,215.853],[4.6136,7.369,270.6427],[4.6219,7.3693,251.2156],[4.6273,7.3722,256.0298],[4.6369,7.3709,248.9945],[4.6579,7.3844,294.7066],[4.666,7.3877,370.0791],[4.6708,7.3966,418.4467],[4.6745,7.3982,309.5013],[4.6543,7.4349,304.6728],[4.6488,7.4366,303.4708],[4.6485,7.4389,296.9231]]]]}
,"properties": {"GID_2": "NGA.30.11_1","GID_0": "NGA","country": "Nigeria","GID_1": "NGA.30_1","province": "Osun","NL_NAME_1": "NA","county": "IfeEast","VARNAME_2": "NA","NL_NAME_2": "NA","TYPE_2": "LocalAuthority","ENGTYPE_2": "LocalAuthority","CC_2": "NA","HASC_2": "NA","name": "Ife_East.county","area_km2": 102.65563,"hist_schema_id": "Elevation0-9000","hist_area_km2": {"175": 4.4377,"200": 17.68691,"225": 21.72205,"250": 17.99871,"275": 16.3158,"300": 12.82539,"325": 5.84503,"350": 2.43894,"375": 1.13537,"400": 0.69384,"425": 0.58871,"450": 0.29436,"475": 0.33641,"500": 0.23128,"525": 0.0841,"550": 0.02102}}}