{"type":"Feature","properties":{"GID_2":"NGA.20.39_1","GID_0":"NGA","country":"Nigeria","GID_1":"NGA.20_1","province":"Kano","NL_NAME_1":"NA","county":"Tofa","VARNAME_2":"NA","NL_NAME_2":"NA","TYPE_2":"LocalAuthority","ENGTYPE_2":"LocalAuthority","CC_2":"NA","HASC_2":"NA","name":"Tofa.county"},
"geometry":{"type": "MultiPolygon","coordinates": [[[[8.2159,12.0083,516.0572],[8.249,12.0045,510.1528],[8.2734,11.9832,513.6437],[8.28,11.972,511.3733],[8.3009,11.946,480.5598],[8.311,11.9273,472.3297],[8.3203,11.9138,466.8199],[8.3454,11.9107,461.0545],[8.3676,11.9107,451.4288],[8.383,11.9162,449.4355],[8.3809,11.9194,456.1293],[8.3979,11.945,448.3522],[8.4037,11.9575,449.1493],[8.4086,11.9764,454.1027],[8.4057,11.9742,452.8357],[8.4042,11.9767,452.2024],[8.3981,11.9784,456.9992],[8.3873,11.9884,467.1485],[8.3748,11.997,474.9787],[8.3715,12.0022,472.0522],[8.3573,12.0145,481.1021],[8.2991,12.054,489.4177],[8.2918,12.0624,481.2867],[8.282,12.0676,489.5191],[8.27,12.0767,479.3705],[8.2548,12.0843,492.6115],[8.2162,12.0944,497.5764],[8.2202,12.0887,491.4062],[8.2219,12.0643,509.3573],[8.2265,12.0503,506.9275],[8.2285,12.0349,504.9269],[8.2159,12.0083,516.0572]]]]}}