{"type": "Feature","bbox": [10.5423,12.4836,11.2015,12.8642],"geometry": {"type": "MultiPolygon","coordinates": [[[[11.1979,12.4871,345.638],[11.2006,12.4862,346.054],[11.2015,12.49,344.7404],[11.1984,12.5101,346.1841],[11.1731,12.557,341.5074],[11.1684,12.5745,345.0799],[11.1691,12.5921,338.9081],[11.1662,12.6067,338.4595],[11.149,12.6445,337.4066],[11.1094,12.6817,336.2203],[11.0669,12.7077,337.6855],[11.0526,12.7204,338.6665],[11.0384,12.7413,337.6615],[11.0355,12.7485,338.1471],[11.0258,12.7534,337.5026],[10.9975,12.7077,338.2468],[10.9939,12.6912,339.0711],[10.9906,12.6633,338.3779],[10.9908,12.6509,339.834],[10.9942,12.6358,338.8709],[11.0027,12.6212,339.1536],[11.0547,12.5562,339.1579],[11.0733,12.5225,346.177],[11.0991,12.4962,342.5985],[11.1092,12.492,345.2499],[11.1175,12.4904,344.4379],[11.1274,12.4911,344.002],[11.1731,12.4836,344.2577],[11.1832,12.4839,344.8697],[11.1979,12.4871,345.638]]],
[[[10.5798,12.6656,343.3463],[10.5806,12.6574,345.5135],[10.5861,12.6635,344.1136],[10.6058,12.6764,344.0262],[10.6388,12.7092,341.7399],[10.6544,12.7196,343.5473],[10.6738,12.7282,342.6195],[10.6996,12.7337,341.9777],[10.7476,12.7509,339.8967],[10.7672,12.7602,341.6407],[10.7884,12.7731,339.5588],[10.7973,12.7743,338.7758],[10.8513,12.7922,338.3074],[10.858,12.7965,338.8824],[10.8681,12.8002,338.6196],[10.895,12.8086,338.7486],[10.9325,12.8175,337.8866],[10.9619,12.8169,337.0864],[11.0075,12.804,335.5521],[11.0105,12.8046,334.9801],[11.0089,12.8184,333.7699],[11.0282,12.8169,334.2679],[11.0435,12.8233,336.6182],[11.0508,12.8368,337.4474],[11.0468,12.8642,334.8142],[11.0283,12.859,333.9306],[11.017,12.8535,334.602],[10.9723,12.8498,335.0941],[10.9178,12.8521,334.6906],[10.8983,12.8561,337.5381],[10.8158,12.8549,338.4569],[10.7791,12.8489,339.6016],[10.7592,12.8491,341.507],[10.7239,12.8384,341.6068],[10.7024,12.8426,340.6436],[10.6749,12.8369,341.9325],[10.6143,12.82,343.5497],[10.5998,12.813,343.8189],[10.5783,12.8073,344.0963],[10.5605,12.7899,344.0586],[10.5423,12.7686,343.6062],[10.5669,12.7314,342.278],[10.5798,12.6656,343.3463]]]]}
,"properties": {"GID_2": "NGA.36.1_1","GID_0": "NGA","country": "Nigeria","GID_1": "NGA.36_1","province": "Yobe","NL_NAME_1": "NA","county": "Bade","VARNAME_2": "NA","NL_NAME_2": "NA","TYPE_2": "LocalAuthority","ENGTYPE_2": "LocalAuthority","CC_2": "NA","HASC_2": "NA","name": "Bade.county","area_km2": 816.0318,"hist_schema_id": "Elevation0-9000","hist_area_km2": {"325": 154.7495,"350": 661.2822}}}