{"type":"Feature","properties":{"GID_2":"NGA.3.29_1","GID_0":"NGA","country":"Nigeria","GID_1":"NGA.3_1","province":"AkwaIbom","NL_NAME_1":"NA","county":"Uruan","VARNAME_2":"NA","NL_NAME_2":"NA","TYPE_2":"LocalAuthority","ENGTYPE_2":"LocalAuthority","CC_2":"NA","HASC_2":"NA","name":"Uruan.county"},
"geometry":{"type": "MultiPolygon","coordinates": [[[[7.9992,4.8895,50.2644],[8.0271,4.8918,54.2869],[8.0319,4.891,41.2442],[8.0415,4.8858,48.1545],[8.0496,4.8861,48.0677],[8.0634,4.8803,45.7534],[8.0766,4.8644,39.5318],[8.084,4.8611,43.3331],[8.0928,4.8607,45.9895],[8.0968,4.8655,45.263],[8.0981,4.8758,42.602],[8.1024,4.8871,48.2734],[8.1065,4.8928,50.9547],[8.1184,4.9066,50.9259],[8.1271,4.9124,23.418],[8.1398,4.9252,13.9604],[8.1217,4.9523,7.021],[8.093,4.9893,7.8225],[8.0815,5.0081,13.0212],[8.0715,5.0309,10.0874],[8.0602,5.0706,13.582],[8.0552,5.0912,8.9126],[8.054,5.1118,14.7262],[8.0416,5.107,11.2328],[8.0032,5.0982,22.7348],[7.9967,5.0948,20.9155],[7.9676,5.0933,70.7025],[7.9521,5.0898,60.0926],[7.9358,5.08,16.9551],[7.9287,5.0702,24.5733],[7.9331,5.0701,44.7491],[7.9328,5.0685,49.9388],[7.9499,5.0698,19.0252],[7.9533,5.0672,17.8805],[7.9621,5.0664,14.0601],[7.9724,5.06,55.7391],[7.9828,5.0513,49.6296],[7.9825,5.0451,43.7915],[7.9875,5.0404,46.3029],[7.9911,5.0205,45.9782],[7.9985,5.0084,59.8804],[7.9996,5.0029,65.5866],[8.0054,5.0039,62.8967],[8.0134,5.0022,63.03],[8.0143,5.0008,64.9879],[8.0151,4.9922,59.632],[8.0076,4.9852,59.0199],[7.9931,4.9737,62.798],[7.9766,4.9666,61.6204],[7.981,4.9539,49.59],[7.9863,4.9496,56.8469],[7.9869,4.9436,58.2233],[7.9924,4.9302,53.4157],[7.9935,4.9237,53.7632],[7.992,4.918,52.5262],[7.9944,4.9094,53.6048],[7.9975,4.9047,48.5058],[7.9992,4.8895,50.2644]]]]}}