{"type":"Feature","properties":{"GID_2":"NGA.3.11_1","GID_0":"NGA","country":"Nigeria","GID_1":"NGA.3_1","province":"AkwaIbom","NL_NAME_1":"NA","county":"Ika","VARNAME_2":"NA","NL_NAME_2":"NA","TYPE_2":"LocalAuthority","ENGTYPE_2":"LocalAuthority","CC_2":"NA","HASC_2":"NA","name":"Ika.county"},
"geometry":{"type": "MultiPolygon","coordinates": [[[[7.4935,5.023,57.4801],[7.4865,5.0199,55.0306],[7.469,5.0047,57.5624],[7.4704,4.9923,50.208],[7.4628,4.9818,37.8373],[7.4626,4.9679,16.6675],[7.4664,4.9579,44.9102],[7.4759,4.9472,16.4927],[7.4757999999999996,4.9271,17.4703],[7.5013,4.929,40.0095],[7.5129,4.9323,53.7319],[7.5203,4.9372,51.6829],[7.5454,4.9755,59.2651],[7.5682,5.0037,64.4466],[7.5785,5.0114,61.7386],[7.5846,5.0184,64.3223],[7.6019,5.0299,71.6124],[7.6064,5.0367,71.5195],[7.6104,5.0352,69.8305],[7.6161,5.0402,41.4063],[7.6218,5.0507,52.7516],[7.6184,5.0529,55.0939],[7.6039,5.0533,31.872],[7.5786,5.0462,71.5201],[7.5671,5.0471,71.264],[7.5598,5.0555,70.2409],[7.5449,5.0622,71.8665],[7.5372,5.0697,69.3475],[7.529,5.0737,66.3267],[7.525,5.0741,69.8195],[7.5177,5.0505,68.3572],[7.5097,5.0361,64.1014],[7.5005,5.0261,58.5166],[7.4935,5.023,57.4801]]]]}}