{"type":"Feature","properties":{"GID_2":"NGA.37.12_1","GID_0":"NGA","country":"Nigeria","GID_1":"NGA.37_1","province":"Zamfara","NL_NAME_1":"NA","county":"Talata-Mafara","VARNAME_2":"NA","NL_NAME_2":"NA","TYPE_2":"LocalAuthority","ENGTYPE_2":"LocalAuthority","CC_2":"NA","HASC_2":"NA","name":"Talata-Mafara.county"},
"geometry":{"type": "MultiPolygon","coordinates": [[[[6.1907,12.1718,384.6568],[6.1906,12.1754,386.6204],[6.1983,12.1956,388.8517],[6.2042,12.2275,405.8644],[6.2032,12.2578,399.6016],[6.211,12.2921,413.9418],[6.2206,12.324,398.5034],[6.2367,12.3665,381.7829],[6.2486,12.3837,378.0058],[6.2629,12.3914,362.8401],[6.2803,12.4039,359.5487],[6.2756,12.4149,353.1809],[6.2689,12.4239,348.5108],[6.2408,12.4452,347.5872],[6.2309,12.4501,336.174],[6.2175,12.4522,334.0067],[6.2055,12.4619,331.8608],[6.1963,12.4772,342.5472],[6.1947,12.4935,333.5656],[6.2032,12.5062,332.5],[6.2069,12.5252,332.5],[6.212,12.5378,332.5],[6.2086,12.5572,357.2939],[6.2054,12.5703,361.3018],[6.1968,12.5837,344.9724],[6.1808,12.6014,341.8407],[6.1626,12.615,337.5327],[6.1318,12.59,328.5559],[6.1018,12.5592,310.2392],[6.0874,12.5412,329.1399],[6.063,12.4999,354.9931],[6.0366,12.4766,358.413],[5.9897,12.4409,357.8414],[5.9815,12.4322,349.7442],[5.975,12.4213,349.0066],[5.972,12.4129,352.5427],[5.9731,12.3577,378.307],[5.9805,12.346,383.7978],[5.977,12.3452,384.9032],[5.9826,12.3412,380.7319],[5.9848,12.3238,378.5526],[5.9978,12.2847,374.9071],[5.9971,12.2692,370.8222],[6.0122,12.2459,346.8188],[6.0234,12.1872,365.827],[6.0348,12.1734,353.7312],[6.0736,12.1671,359.868],[6.1224,12.1674,358.0662],[6.1654,12.1632,376.2607],[6.1907,12.1718,384.6568]]]]}}