{"type": "Feature","bbox": [11.5259,9.4049,12.0581,9.7214],"geometry": {"type": "MultiPolygon","coordinates": [[[[11.8343,9.7214,439.3274],[11.7249,9.6586,452.2849],[11.6804,9.6295,757.7528],[11.6261,9.6065,326.718],[11.5673,9.5956,221.7214],[11.5259,9.592,200.5486],[11.5363,9.567,292.2303],[11.5779,9.497,141.9453],[11.614,9.4288,132.8431],[11.6322,9.4049,131.8661],[11.6588,9.4223,129.7159],[11.6726,9.4262,132.1841],[11.6968,9.43,136.4539],[11.707,9.44,137.7725],[11.7082,9.4444,133.1549],[11.7295,9.4452,139.6819],[11.755,9.464,133.2612],[11.8034,9.4858,138.9902],[11.8359,9.492,138.9491],[11.8525,9.4929,139.3397],[11.8821,9.5,139.5957],[11.9209,9.4997,138.0234],[11.9482,9.4983,135.0],[11.9784,9.4904,138.1818],[11.998,9.4823,142.4312],[12.0311,9.4778,144.7059],[12.0397,9.4814,141.3058],[12.0517,9.4976,143.8527],[12.0576,9.5328,146.0735],[12.0558,9.5495,147.2842],[12.0576,9.5545,147.6009],[12.0581,9.5728,150.1923],[12.0556,9.6213,150.8981],[12.0536,9.6386,155.786],[12.0506,9.6482,155.9604],[11.9822,9.6691,292.9495],[11.9525,9.682,195.9815],[11.91,9.6901,261.3314],[11.8409,9.7166,427.8667],[11.8343,9.7214,439.3274]]]]}
,"properties": {"GID_2": "NGA.2.9_1","GID_0": "NGA","country": "Nigeria","GID_1": "NGA.2_1","province": "Adamawa","NL_NAME_1": "NA","county": "Lamurde","VARNAME_2": "NA","NL_NAME_2": "NA","TYPE_2": "LocalAuthority","ENGTYPE_2": "LocalAuthority","CC_2": "NA","HASC_2": "NA","name": "Lamurde.county","area_km2": 1167.7524,"hist_schema_id": "Elevation0-9000","hist_area_km2": {"125": 240.1093,"150": 459.0205,"175": 128.5402,"200": 64.0032,"225": 38.4817,"250": 33.3207,"275": 27.7202,"300": 28.3681,"325": 20.0477,"350": 18.1242,"375": 16.3052,"400": 18.1442,"425": 18.6663,"450": 13.9424,"475": 10.6609,"500": 7.1074,"525": 6.2504,"550": 5.1216,"575": 3.4284,"600": 2.9267,"625": 2.2577,"650": 2.0696,"675": 1.1289,"700": 0.9616,"725": 0.5853,"750": 0.2509,"775": 0.1881,"800": 0.0209}}}