{"type":"Feature","properties":{"GID_2":"NGA.5.13_1","GID_0":"NGA","country":"Nigeria","GID_1":"NGA.5_1","province":"Bauchi","NL_NAME_1":"NA","county":"Kirfi","VARNAME_2":"NA","NL_NAME_2":"NA","TYPE_2":"LocalAuthority","ENGTYPE_2":"LocalAuthority","CC_2":"NA","HASC_2":"NA","name":"Kirfi.county"},
"geometry":{"type": "MultiPolygon","coordinates": [[[[10.8477,10.1971,462.9727],[10.8419,10.2443,427.2709],[10.8432,10.2871,415.0377],[10.8497,10.3824,389.2247],[10.8364,10.4178,397.9932],[10.8161,10.4613,377.081],[10.7795,10.4786,369.1582],[10.7287,10.4927,431.3003],[10.6998,10.5032,434.2995],[10.6855,10.5216,408.6954],[10.6789,10.5562,392.0496],[10.6788,10.5976,439.382],[10.6714,10.636,481.5879],[10.6531,10.6632,505.6162],[10.6065,10.684,455.3233],[10.5665,10.6993,374.5605],[10.5456,10.6826,419.5358],[10.5213,10.6584,403.2751],[10.5102,10.6498,380.0563],[10.475,10.6168,332.6907],[10.4492,10.6254,339.0114],[10.4101,10.6198,389.9519],[10.3747,10.6108,463.9404],[10.35,10.5975,487.6869],[10.3151,10.5628,459.5735],[10.3008,10.546,453.1701],[10.2788,10.5105,476.8163],[10.2661,10.4851,472.725],[10.264,10.4699,484.438],[10.2769,10.4375,482.5873],[10.3052,10.3853,423.6619],[10.3152,10.3617,371.6415],[10.3198,10.3356,397.8339],[10.3176,10.3059,438.1979],[10.348,10.3069,416.151],[10.3754,10.3033,407.6921],[10.4032,10.2956,382.6021],[10.4344,10.2738,350.623],[10.4593,10.2442,365.1536],[10.49,10.2132,401.8006],[10.5183,10.1882,402.283],[10.5345,10.1781,385.542],[10.5543,10.1705,360.8397],[10.5976,10.1727,333.9849],[10.6281,10.1523,271.8792],[10.6494,10.1412,297.6418],[10.728,10.164,347.8831],[10.7547,10.1803,349.459],[10.7782,10.1899,381.0566],[10.791,10.1934,398.5742],[10.8477,10.1971,462.9727]]]]}}