{"type":"Feature","properties":{"GID_2":"NGA.30.24_1","GID_0":"NGA","country":"Nigeria","GID_1":"NGA.30_1","province":"Osun","NL_NAME_1":"NA","county":"Obokun","VARNAME_2":"NA","NL_NAME_2":"NA","TYPE_2":"LocalAuthority","ENGTYPE_2":"LocalAuthority","CC_2":"NA","HASC_2":"NA","name":"Obokun.county"},
"geometry":{"type": "MultiPolygon","coordinates": [[[[4.9182,7.773,520.6946],[4.9134,7.7885,549.6168],[4.9154,7.8111,514.5174],[4.9219,7.8247,388.0943],[4.9141,7.8227,417.7432],[4.9054,7.8256,385.8971],[4.9022,7.8291,401.7345],[4.8906,7.8341,371.6642],[4.8815,7.8453,379.7716],[4.8793,7.8505,381.9692],[4.8601,7.8503,468.4679],[4.8494,7.8576,583.6822],[4.8412,7.8605,537.6326],[4.8361,7.8595,517.5867],[4.8184,7.8483,469.3001],[4.8094,7.8514,518.2391],[4.8005,7.858,440.1076],[4.7955,7.8592,423.3171],[4.7846,7.8567,467.636],[4.7695,7.8641,385.0013],[4.7632,7.863,390.9338],[4.7581,7.8601,379.923],[4.7377,7.8648,391.4533],[4.7151,7.8562,374.5201],[4.704,7.85,384.8919],[4.6969,7.8427,368.4093],[4.6859,7.8019,369.9429],[4.6843,7.7906,361.3832],[4.677,7.7818,360.7571],[4.6698,7.7648,350.094],[4.6649,7.7582,333.9547],[4.6577,7.759,325.9485],[4.6517,7.7573,337.9567],[4.645,7.7588,353.7471],[4.6351,7.7564,331.8018],[4.6253,7.7507,323.7968],[4.6263,7.7428,330.5547],[4.6251,7.7396,326.1721],[4.612,7.7144,332.6801],[4.609,7.7117,350.5672],[4.6154,7.7058,339.3817],[4.6279,7.698,338.1848],[4.6337,7.7002,358.2598],[4.6436,7.6955,359.4218],[4.6704,7.6572,353.1245],[4.7,7.6498,371.0117],[4.7077,7.6506,366.182],[4.7145,7.6479,357.0013],[4.7258,7.6473,376.3239],[4.7314,7.6493,369.2014],[4.7556,7.6502,367.0548],[4.7619,7.6547,376.3065],[4.7632,7.6603,366.8529],[4.7676,7.6655,366.3462],[4.7713,7.6767,370.2842],[4.7817,7.6915,379.8796],[4.7991,7.7106,350.8608],[4.804,7.7188,368.3454],[4.812,7.7242,369.3849],[4.8502,7.7224,376.6535],[4.8808,7.7186,388.5936],[4.8901,7.7212,399.3365],[4.9048,7.7166,414.7256],[4.9193,7.7147,484.7371],[4.9266,7.7433,475.1672],[4.9182,7.773,520.6946]]]]}}