{"type":"Feature","properties":{"GID_2":"NGA.7.17_1","GID_0":"NGA","country":"Nigeria","GID_1":"NGA.7_1","province":"Benue","NL_NAME_1":"NA","county":"Oju","VARNAME_2":"NA","NL_NAME_2":"NA","TYPE_2":"LocalAuthority","ENGTYPE_2":"LocalAuthority","CC_2":"NA","HASC_2":"NA","name":"Oju.county"},
"geometry":{"type": "MultiPolygon","coordinates": [[[[8.1566,6.7604,65.8023],[8.1712,6.7645,71.7635],[8.2061,6.7649,72.7376],[8.2129,6.7839,47.4008],[8.2226,6.8022,46.9845],[8.2509,6.7812,51.5467],[8.2566,6.7347,51.438],[8.2646,6.7124,44.7938],[8.2789,6.6859,48.5981],[8.2951,6.6731,42.1226],[8.3403,6.6837,59.5027],[8.3785,6.7153,102.3002],[8.4004,6.7436,135.5744],[8.4315,6.7509,118.072],[8.4648,6.7399,93.3107],[8.5268,6.7377,89.7441],[8.5774,6.7512,66.6877],[8.5921,6.7611,77.993],[8.6135,6.772,61.174],[8.628,6.7821,82.4514],[8.6278,6.8027,79.1785],[8.6177,6.8305,72.0089],[8.6165,6.8431,54.9465],[8.5818,6.8564,73.9377],[8.5487,6.8768,72.587],[8.5318,6.8833,78.8954],[8.5124,6.9018,87.1536],[8.5082,6.9118,91.2596],[8.4938,6.9344,111.0411],[8.4901,6.9455,177.0957],[8.4792,6.9561,166.3223],[8.4618,6.9672,132.3478],[8.4357,6.9897,131.3632],[8.4193,7.0027,116.3369],[8.411,7.0073,124.0845],[8.41,6.998,129.4585],[8.4063,6.9877,128.3109],[8.4077,6.9727,111.2281],[8.4017,6.9465,113.6029],[8.3892,6.9396,101.5076],[8.3772,6.9255,88.1653],[8.3682,6.9121,94.4138],[8.342,6.889,93.6313],[8.2955,6.8944,61.2235],[8.2798,6.8945,53.9981],[8.2493,6.9042,57.8331],[8.2345,6.9201,73.2958],[8.2244,6.9217,74.5491],[8.2121,6.9196,78.7222],[8.1827,6.9219,71.8879],[8.1324,6.9384,82.9789],[8.1043,6.943,83.3076],[8.0909,6.943,87.5135],[8.0966,6.9049,77.5989],[8.1015,6.8931,73.2331],[8.1048,6.873,84.5803],[8.1146,6.8482,69.4099],[8.1118,6.8335,64.1441],[8.1186,6.8002,64.2823],[8.1261,6.7911,61.6288],[8.1357,6.787,59.3696],[8.1393,6.7819,63.9734],[8.146,6.779,63.3048],[8.1532,6.7699,61.5335],[8.1566,6.7604,65.8023]]]]}}