{"type":"Feature","properties":{"GID_2":"NGA.30.18_1","GID_0":"NGA","country":"Nigeria","GID_1":"NGA.30_1","province":"Osun","NL_NAME_1":"NA","county":"IleshaEast","VARNAME_2":"NA","NL_NAME_2":"NA","TYPE_2":"LocalAuthority","ENGTYPE_2":"LocalAuthority","CC_2":"NA","HASC_2":"NA","name":"Ilesha_East.county"},
"geometry":{"type": "MultiPolygon","coordinates": [[[[4.8213,7.5697,410.6883],[4.8137,7.5898,441.9785],[4.8141,7.599,442.5467],[4.8089,7.6088,390.4856],[4.8061,7.6197,397.0854],[4.7922,7.6482,504.891],[4.7829,7.6369,403.4299],[4.7715,7.632,402.0771],[4.7558,7.6201,381.7941],[4.7488,7.6105,376.2726],[4.7395,7.6074,400.6192],[4.7348,7.6031,401.2028],[4.729,7.6016,408.6061],[4.7089,7.586,389.304],[4.7126,7.5837,378.2052],[4.7191,7.5714,391.7112],[4.7236,7.5381,367.2459],[4.7311,7.5341,350.5102],[4.7436,7.5345,306.6637],[4.7527,7.5415,296.7202],[4.7617,7.5529,292.9012],[4.7702,7.5535,296.3094],[4.7843,7.5574,363.1139],[4.7999,7.564,367.7637],[4.8168,7.5672,423.3884],[4.8213,7.5697,410.6883]]]]}}