{"type":"Feature","properties":{"GID_2":"NGA.10.25_1","GID_0":"NGA","country":"Nigeria","GID_1":"NGA.10_1","province":"Delta","NL_NAME_1":"NA","county":"WarriSouth-West","VARNAME_2":"NA","NL_NAME_2":"NA","TYPE_2":"LocalAuthority","ENGTYPE_2":"LocalAuthority","CC_2":"NA","HASC_2":"NA","name":"Warri_South-West.county"},
"geometry":{"type": "MultiPolygon","coordinates": [[[[5.673,5.4667,1.4416],[5.6588,5.4734,10.4363],[5.646,5.4837,8.0646],[5.6485,5.4782,2.5565],[5.6485,5.4735,3.0967],[5.6507,5.4704,3.4091],[5.649,5.4654,2.8451],[5.6518,5.4621,5.069],[5.6521,5.4601,1.776],[5.6518,5.4585,6.6586],[5.6493,5.4574,1.9057],[5.6496,5.4551,0.9593],[5.6568,5.4529,1.6483],[5.6607,5.4565,0.4983],[5.6629,5.4571,1.8921],[5.6651,5.451,0.0],[5.6704,5.4543,4.7861],[5.6913,5.4579,2.5883],[5.6993,5.4615,7.8155],[5.7074,5.4679,5.9441],[5.709,5.4757,1.6498],[5.7073,5.4776,3.988],[5.7001,5.4718,1.1484],[5.6996,5.4665,1.3387],[5.673,5.4667,1.4416]]],
[[[5.6024,5.5118,0.0],[5.5996,5.5121,0.0],[5.5896,5.5043,0.7383],[5.5801,5.5024,0.0],[5.5657,5.5024,0.0],[5.5551,5.5046,0.0],[5.5501,5.5037,2.5005],[5.5504,5.4996,1.359],[5.5568,5.489,0.0],[5.551,5.4774,18.6877],[5.566,5.4718,0.0],[5.5682,5.4804,0.0],[5.5724,5.4843,7.8813],[5.5835,5.4857,6.4613],[5.5926,5.4921,3.6722],[5.5957,5.4896,3.2573],[5.596,5.4854,1.6339],[5.5988,5.4804,1.0896],[5.6038,5.4779,2.4435],[5.6074,5.4813,4.6985],[5.6118,5.4824,3.7537],[5.6163,5.491,5.1897],[5.6212,5.4949,7.1134],[5.6254,5.4929,2.2994],[5.626,5.4838,0.933],[5.631,5.4868,1.8833],[5.6365,5.4874,2.8002],[5.6393,5.4832,5.8532],[5.6426,5.4838,5.195],[5.6426,5.4851,5.195],[5.6404,5.4857,0.9763],[5.6407,5.4874,0.732],[5.6424,5.4886,0.0],[5.6402,5.4914,1.4538],[5.6235,5.4991,5.3875],[5.6125,5.5023,1.4997],[5.606,5.5099,2.0172],[5.6024,5.5118,0.0]]],
[[[5.5662,5.3868,7.5906],[5.5626,5.3876,1.4286],[5.5615,5.3865,6.334],[5.5632,5.3832,2.0498],[5.5746,5.3776,5.8427],[5.5729,5.3846,5.2455],[5.5662,5.3868,7.5906]]],
[[[5.6074,5.3796,1.7365],[5.6138,5.3813,1.0223],[5.6176,5.3868,3.0307],[5.6171,5.3885,1.6082],[5.6082,5.3843,1.4262],[5.5907,5.3807,0.0],[5.5901,5.3793,3.2604],[5.5999,5.3782,0.0],[5.6074,5.3796,1.7365]]],
[[[5.6687,5.4,4.606],[5.6823,5.4131,1.3111],[5.6946,5.4149,5.174],[5.6893,5.4204,1.1108],[5.6821,5.4224,0.0],[5.671,5.4221,0.0],[5.664,5.4276,1.4053],[5.6574,5.4279,2.188],[5.6465,5.414,4.1094],[5.6363,5.3937,2.5468],[5.6351,5.3932,4.3281],[5.6368,5.4007,0.0],[5.6257,5.3946,2.3307],[5.6135,5.3801,4.1719],[5.6398,5.3829,2.4603],[5.6598,5.3897,5.5051],[5.6687,5.4,4.606]]],
[[[5.6413,5.4079,4.634],[5.6407,5.4087,4.634],[5.6376,5.4057,4.9464],[5.6363,5.4015,0.0],[5.6393,5.4024,2.4929],[5.6413,5.4079,4.634]]],
[[[5.4924,5.6428,0.8448],[5.5018,5.6475,0.9525],[5.5081,5.6543,0.6808],[5.499,5.6618,6.6506],[5.4793,5.6607,0.0],[5.4668,5.6646,1.317],[5.4657,5.6662,1.2032],[5.4663,5.6763,2.0731],[5.4682,5.6782,2.3004],[5.4749,5.6788,2.0869],[5.4743,5.6813,5.5904],[5.4713,5.6826,0.0],[5.4618,5.6846,0.9966],[5.4568,5.684,1.3804],[5.4518,5.6765,1.4379],[5.4379,5.6701,5.2506],[5.4335,5.6654,7.5607],[5.4335,5.6601,1.4961],[5.4376,5.6546,0.3135],[5.4443,5.6529,2.2144],[5.4504,5.646,0.6485],[5.4551,5.6432,0.5126],[5.4693,5.6393,2.7138],[5.4824,5.6318,0.0],[5.484,5.6315,0.0],[5.484,5.6329,4.6606],[5.4796,5.6368,1.2852],[5.479,5.6393,1.9938],[5.4835,5.6415,2.1325],[5.4913,5.6404,2.7206],[5.4896,5.6457,2.8099],[5.4907,5.6507,3.7629],[5.4926,5.6507,8.9709],[5.4968,5.6468,2.3577],[5.4957,5.6465,2.3577],[5.491,5.6496,3.5156],[5.4904,5.6465,2.8099],[5.4924,5.6428,0.8448]]],
[[[5.3313,5.7879,0.0],[5.3313,5.7881,0.0],[5.331,5.7879,0.0],[5.3313,5.7879,0.0]]],
[[[5.477,5.7991,2.1629],[5.4629,5.8057,0.9925],[5.4604,5.8149,0.6945],[5.454,5.8249,2.9901],[5.4446,5.8215,2.9097],[5.439,5.8221,0.0],[5.4321,5.8257,0.0],[5.4249,5.8232,1.2487],[5.4157,5.8287,1.8257],[5.4121,5.8201,2.2087],[5.4093,5.819,1.1897],[5.399,5.8229,4.6133],[5.3812,5.8226,0.0],[5.3749,5.8151,3.1999],[5.3677,5.8107,3.4634],[5.3671,5.8024,4.2223],[5.3615,5.801,0.8085],[5.3571,5.8035,3.8909],[5.3524,5.8032,3.6369],[5.3335,5.7876,5.6468],[5.3332,5.7835,3.0125],[5.3368,5.7754,3.3921],[5.334,5.7596,0.0],[5.3424,5.7482,2.1044],[5.3426,5.7426,0.9332],[5.3365,5.7346,3.3346],[5.3246,5.7263,5.8459],[5.3224,5.7204,0.0],[5.3285,5.7149,0.0],[5.3418,5.7126,7.8438],[5.3479,5.709,4.5594],[5.3549,5.6976,0.0],[5.3579,5.6957,4.9794],[5.3643,5.6963,3.9939],[5.3776,5.7021,6.13],[5.4037,5.7046,1.9997],[5.4101,5.7068,0.0],[5.4149,5.7104,1.7725],[5.4426,5.7429,3.5558],[5.4563,5.7485,0.0],[5.454,5.7549,2.1764],[5.4579,5.7496,0.0],[5.461,5.7485,1.8072],[5.4724,5.7371,2.2119],[5.484,5.7076,0.0],[5.4885,5.7057,4.7199],[5.5107,5.7076,4.3048],[5.5151,5.7157,0.0],[5.5154,5.7196,0.8058],[5.4979,5.7413,0.0],[5.496,5.7465,2.5596],[5.4971,5.7551,1.3015],[5.5038,5.7668,1.4552],[5.5068,5.7682,0.3475],[5.5115,5.7674,1.3872],[5.5143,5.7618,2.4216],[5.5185,5.7582,0.0],[5.5268,5.7554,0.0],[5.5326,5.7549,0.0],[5.5354,5.7563,1.3221],[5.536,5.7624,5.1039],[5.5338,5.7674,0.0],[5.5301,5.7704,7.6578],[5.5179,5.774,0.5763],[5.5079,5.7799,1.3168],[5.5065,5.7846,0.4568],[5.5085,5.7865,0.0],[5.4954,5.7962,3.0721],[5.4848,5.7964,3.3658],[5.477,5.7991,2.1629]]],
[[[5.1441,5.6678,2.9575],[5.1307,5.6641,3.4185],[5.1203,5.6666,5.5231],[5.1143,5.6643,1.8387],[5.1218,5.6499,4.3297],[5.1418,5.6243,0.9265],[5.1696,5.5982,0.0],[5.1793,5.594,0.4586],[5.1818,5.5943,3.9191],[5.194,5.6038,0.0],[5.1751,5.6182,1.3744],[5.1782,5.6163,0.7872],[5.1807,5.6174,2.1706],[5.1801,5.6146,4.8587],[5.1946,5.6049,0.0],[5.199,5.6087,0.0],[5.2101,5.6126,0.0],[5.2124,5.616,0.2368],[5.2099,5.6188,8.5835],[5.2146,5.6163,0.0],[5.229,5.6229,6.6007],[5.2426,5.6254,0.0],[5.254,5.6257,6.6754],[5.2907,5.6188,5.4407],[5.2935,5.6235,8.0232],[5.2943,5.6424,0.2983],[5.2982,5.6574,2.124],[5.3026,5.6699,15.9398],[5.3085,5.6796,0.0],[5.3113,5.6876,16.3161],[5.321,5.7026,0.0],[5.3213,5.7063,0.0],[5.3201,5.7104,9.6518],[5.3182,5.7118,0.0],[5.314,5.7071,1.27],[5.3068,5.706,1.3721],[5.3038,5.6982,1.9726],[5.2894,5.6944,4.8685],[5.2886,5.702,1.8506],[5.2795,5.7107,8.9598],[5.2746,5.7094,1.8762],[5.259,5.7094,1.6344],[5.257,5.7189,6.8873],[5.2534,5.7201,6.8186],[5.2491,5.709,0.9803],[5.2504,5.7085,0.8064],[5.2486,5.7068,4.0068],[5.2474,5.6951,5.8231],[5.2403,5.6805,16.3691],[5.226,5.6816,1.132],[5.2036,5.68,4.1245],[5.1887,5.6758,1.9167],[5.1552,5.6709,1.5607],[5.1441,5.6678,2.9575]]],
[[[5.4607,5.7443,0.0],[5.4538,5.7443,2.0825],[5.4435,5.7343,0.0],[5.431,5.7176,2.1784],[5.4201,5.7085,1.3747],[5.4082,5.7013,0.0],[5.3818,5.6965,0.0],[5.3724,5.6926,0.6551],[5.359,5.6924,0.0],[5.3554,5.6932,1.1506],[5.3382,5.7099,7.6007],[5.3299,5.7113,0.0],[5.3274,5.7046,0.0],[5.3279,5.6887,0.0],[5.3257,5.6799,3.0718],[5.3093,5.6493,0.0],[5.3076,5.6432,0.0],[5.3118,5.6279,0.0],[5.3174,5.6185,0.0],[5.3218,5.614,5.8159],[5.3235,5.609,7.38],[5.3357,5.606,0.4606],[5.3546,5.5985,0.0],[5.3679,5.5985,0.0],[5.3762,5.601,0.0],[5.3776,5.6029,11.9283],[5.381,5.6029,5.8707],[5.3818,5.6087,17.1704],[5.3924,5.6218,0.0],[5.3979,5.6404,4.1806],[5.4057,5.6501,2.1349],[5.4071,5.6501,0.0],[5.4065,5.6543,4.8827],[5.4107,5.656,2.1411],[5.4079,5.6535,4.1464],[5.4079,5.6504,0.0],[5.4324,5.6526,0.4831],[5.4312,5.6649,1.8657],[5.4329,5.669,1.8852],[5.4388,5.6743,4.2815],[5.4499,5.679,3.0266],[5.4568,5.6871,3.3464],[5.4657,5.6865,1.7761],[5.4765,5.6815,0.0],[5.4763,5.6774,0.0],[5.469,5.6757,2.2843],[5.4674,5.6699,2.0604],[5.4685,5.6654,0.0],[5.4804,5.6624,5.2873],[5.4979,5.6637,0.0],[5.5096,5.656,2.9743],[5.5112,5.6601,5.6645],[5.5124,5.6788,2.1517],[5.5176,5.6887,1.5499],[5.5193,5.6954,3.6141],[5.5226,5.6971,1.0506],[5.5232,5.6999,0.4823],[5.5201,5.699,1.4104],[5.5165,5.7032,1.221],[5.5176,5.7054,1.0751],[5.516,5.7065,1.1508],[5.5174,5.709,0.3484],[5.5104,5.7054,2.7705],[5.4957,5.7026,1.6595],[5.4885,5.7026,0.9855],[5.4843,5.7043,0.6588],[5.4732,5.7199,0.6086],[5.4646,5.741,0.0],[5.4607,5.7443,0.0]]],
[[[5.3976,5.4838,0.661],[5.3957,5.4846,0.4612],[5.3963,5.4821,0.0],[5.3968,5.4821,0.9236],[5.3976,5.4838,0.661]]],
[[[5.521,5.4032,3.4341],[5.5196,5.4043,0.0],[5.5199,5.3996,3.5763],[5.5151,5.3993,1.832],[5.5157,5.3957,0.9014],[5.5274,5.3968,1.3914],[5.5235,5.3987,9.1798],[5.5251,5.3999,0.0],[5.5246,5.4015,0.0],[5.521,5.4032,3.4341]]],
[[[5.5401,5.5057,0.0],[5.5354,5.5062,1.9003],[5.5229,5.504,0.0],[5.5176,5.5004,0.0],[5.5088,5.4515,1.7612],[5.5112,5.4401,0.0],[5.5135,5.439,0.0],[5.5121,5.4374,0.0],[5.5132,5.4301,0.0],[5.5165,5.4254,0.0],[5.5229,5.4229,5.318],[5.5263,5.4157,4.5317],[5.5335,5.4171,12.8315],[5.5368,5.4146,0.0],[5.5449,5.4285,0.0],[5.5538,5.4271,5.1566],[5.5529,5.4351,0.0],[5.5579,5.4343,2.2465],[5.5568,5.4393,4.4823],[5.5607,5.4396,1.4662],[5.559,5.4424,3.3603],[5.559,5.444,1.4077],[5.5604,5.444,1.4077],[5.5629,5.4388,0.0],[5.561,5.4374,1.3883],[5.5582,5.439,0.0],[5.5593,5.4349,2.653],[5.5582,5.4335,5.6656],[5.554,5.4338,0.0],[5.554,5.4324,1.8112],[5.5574,5.4318,6.2478],[5.5596,5.429,0.9611],[5.5613,5.4321,5.5484],[5.5665,5.4332,0.0],[5.5657,5.4282,2.2905],[5.5699,5.4285,2.8393],[5.5729,5.4268,3.6733],[5.5738,5.424,3.7594],[5.5765,5.4246,7.5653],[5.5735,5.4235,3.9317],[5.5721,5.4268,3.6733],[5.5649,5.4279,1.6895],[5.566,5.4324,0.0],[5.5615,5.4315,2.785],[5.5599,5.4285,3.1306],[5.5579,5.4285,4.052],[5.556,5.431,0.0],[5.5546,5.4246,2.7991],[5.5451,5.4265,3.9013],[5.5399,5.4124,0.0],[5.5346,5.411,0.3838],[5.5326,5.4138,0.0],[5.5226,5.4126,4.2762],[5.5265,5.4049,0.7747],[5.5313,5.3999,0.0],[5.5368,5.3985,0.9954],[5.5451,5.3924,2.923],[5.5668,5.3896,1.5216],[5.5801,5.3832,0.0],[5.5899,5.3815,0.0],[5.5971,5.3851,1.9668],[5.5985,5.3874,2.6373],[5.5982,5.3932,2.7092],[5.5818,5.4143,2.4919],[5.5801,5.4204,2.3323],[5.5821,5.4232,0.3541],[5.5868,5.426,6.6312],[5.5988,5.4257,7.2719],[5.6115,5.4226,2.5654],[5.6196,5.4271,1.4532],[5.6204,5.4257,1.093],[5.619,5.4263,1.093],[5.6157,5.4226,0.7017],[5.609,5.4212,1.3218],[5.5888,5.4251,8.5212],[5.5835,5.4232,0.3541],[5.581,5.4187,2.9409],[5.5993,5.394,1.8658],[5.5996,5.384,2.3159],[5.6124,5.3871,5.005],[5.6307,5.3996,4.0791],[5.6487,5.4187,1.0809],[5.6568,5.434,0.8178],[5.6568,5.434,0.8178],[5.6568,5.434,0.8178],[5.6649,5.4493,0.0],[5.6626,5.4565,3.3405],[5.6571,5.4524,1.6483],[5.6487,5.4551,2.6441],[5.6487,5.4576,1.9057],[5.6512,5.4588,6.531],[5.6512,5.4618,5.3287],[5.6485,5.4651,2.8451],[5.6501,5.4701,3.4091],[5.6479,5.4732,3.0967],[5.6454,5.4865,10.0814],[5.6413,5.4871,0.732],[5.6435,5.4846,5.4089],[5.6418,5.4824,3.9137],[5.6385,5.4829,2.33],[5.6363,5.4868,7.9802],[5.6313,5.4863,5.1362],[5.6293,5.484,8.4468],[5.6263,5.4829,0.9374],[5.6254,5.4835,0.9374],[5.6249,5.4926,2.2994],[5.6215,5.4943,7.1134],[5.6168,5.4907,3.0037],[5.6121,5.4818,4.2867],[5.6076,5.4807,4.6985],[5.604,5.4774,2.4435],[5.6021,5.4774,2.2049],[5.5974,5.481,1.9975],[5.5943,5.4896,3.2573],[5.5924,5.4907,0.0],[5.5874,5.4843,1.569],[5.5749,5.4826,0.0],[5.5699,5.4804,14.3343],[5.5671,5.4707,0.0],[5.5535,5.4724,0.68],[5.5496,5.4749,0.0],[5.5493,5.4801,0.0],[5.5546,5.4904,7.7582],[5.5451,5.5021,0.0],[5.5401,5.5057,0.0]]],
[[[5.6568,5.434,0.8178],[5.6568,5.434,0.8178],[5.6579,5.4299,2.4269],[5.664,5.4285,1.4053],[5.6715,5.4232,0.0],[5.6876,5.4221,3.7485],[5.6918,5.4204,1.3799],[5.6968,5.4144,0.0],[5.7088,5.4124,1.9754],[5.7421,5.4146,1.3726],[5.7796,5.4363,13.4401],[5.7837,5.451,9.4812],[5.7806,5.4545,5.2041],[5.7591,5.4662,8.7101],[5.749,5.4686,10.2001],[5.7488,5.4753,4.9633],[5.752,5.488,4.6432],[5.7509,5.49,4.276],[5.7477,5.4905,3.8844],[5.7343,5.4899,2.033],[5.7285,5.486,2.912],[5.7085,5.4781,3.988],[5.7101,5.4757,4.9334],[5.709,5.4699,3.3026],[5.7051,5.4643,7.7054],[5.699,5.461,7.8155],[5.7004,5.4579,2.6908],[5.6976,5.4604,5.7955],[5.6918,5.4574,2.5883],[5.6774,5.4554,9.5543],[5.6676,5.4524,1.2826],[5.661,5.4396,0.0],[5.6568,5.434,0.8178]]],
[[[5.5322,5.5465,5.5411],[5.5305,5.5525,1.4595],[5.5259,5.5554,4.2201],[5.5107,5.5774,0.0],[5.5057,5.571,1.1814],[5.4965,5.5693,0.0],[5.491,5.551,0.0],[5.4937,5.5454,1.4228],[5.4935,5.541,2.5057],[5.4804,5.5393,1.4401],[5.481,5.5321,3.8508],[5.4749,5.5265,24.1461],[5.4718,5.5257,2.8515],[5.4713,5.5199,5.1508],[5.4746,5.5171,4.6994],[5.4743,5.5138,0.0],[5.4715,5.5129,1.6232],[5.4674,5.5143,1.2549],[5.4668,5.5121,3.2433],[5.4713,5.509,5.5489],[5.4718,5.5043,7.749],[5.4646,5.4951,11.0904],[5.4599,5.4815,2.0939],[5.4551,5.4776,1.2644],[5.4438,5.4776,4.5784],[5.4429,5.4735,0.0],[5.4449,5.4668,8.0745],[5.4432,5.4643,0.0],[5.4393,5.4624,0.0],[5.4332,5.4632,3.1007],[5.4321,5.4621,3.1007],[5.4349,5.4501,0.0],[5.4382,5.4499,3.0171],[5.4443,5.4462,0.0],[5.4471,5.4501,0.0],[5.4513,5.4507,5.7136],[5.4582,5.4429,3.5449],[5.4607,5.4451,3.048],[5.4601,5.4504,2.0862],[5.4621,5.4596,3.2369],[5.4685,5.4651,3.8134],[5.4696,5.4688,3.6776],[5.4701,5.4657,4.2835],[5.4635,5.4585,11.4641],[5.4607,5.4413,2.5634],[5.4554,5.4426,8.2678],[5.4507,5.4487,10.4965],[5.4451,5.4443,5.1269],[5.4337,5.4465,2.8797],[5.4301,5.4385,6.9212],[5.4224,5.434,0.0],[5.4185,5.429,3.8467],[5.4185,5.4257,4.1457],[5.4226,5.421,1.0472],[5.4315,5.419,5.7945],[5.451,5.4093,1.2357],[5.4585,5.4085,1.8072],[5.4654,5.4029,0.5866],[5.4699,5.4029,3.0003],[5.4746,5.4063,2.5929],[5.4857,5.4263,0.7809],[5.4907,5.4421,1.5435],[5.4932,5.4582,0.9759],[5.4985,5.4774,4.1593],[5.5068,5.4951,0.0],[5.5135,5.5043,9.4323],[5.5146,5.5093,0.0],[5.5304,5.5176,0.0],[5.5293,5.5201,10.8586],[5.5213,5.5213,4.5301],[5.5201,5.5229,5.2398],[5.5271,5.5246,3.7795],[5.5379,5.5193,1.1418],[5.5521,5.5201,0.0],[5.564,5.5171,4.2603],[5.5696,5.5207,0.0],[5.5685,5.5263,1.1311],[5.5665,5.5282,11.4121],[5.5519,5.5344,8.4018],[5.5329,5.5327,3.3041],[5.5332,5.5382,6.2909],[5.5365,5.5418,4.4439],[5.5322,5.5465,5.5411]]],
[[[5.4101,5.5118,0.0],[5.404,5.5124,0.0],[5.3988,5.511,0.0],[5.394,5.5035,0.0],[5.3946,5.4896,5.1553],[5.3951,5.4874,2.0465],[5.3996,5.4857,1.1081],[5.3993,5.4793,1.2383],[5.4026,5.4796,2.0546],[5.3999,5.4857,1.1081],[5.4001,5.489,7.5232],[5.4021,5.491,3.1764],[5.4057,5.4926,1.4475],[5.4146,5.4921,0.4047],[5.416,5.4932,1.0565],[5.4165,5.4985,2.8346],[5.4107,5.5046,1.4345],[5.4101,5.5118,0.0]]],
[[[5.3681,5.4276,18.3389],[5.3777,5.4201,16.3262],[5.414,5.4084,6.5333],[5.4312,5.4006,2.1087],[5.4171,5.4146,0.0],[5.4143,5.4193,6.6248],[5.4076,5.454,1.2676],[5.3985,5.471,0.0],[5.3857,5.4771,0.0],[5.3751,5.4732,2.4073],[5.3729,5.476,1.5395],[5.3732,5.4821,11.7518],[5.3718,5.4851,6.4474],[5.3618,5.4835,7.0558],[5.3599,5.4776,2.2055],[5.3571,5.4774,1.3346],[5.3524,5.4857,0.7818],[5.3446,5.4876,3.6771],[5.3404,5.4935,1.0196],[5.3424,5.5007,0.2443],[5.3396,5.5029,0.4785],[5.3396,5.5126,0.5008],[5.3365,5.5129,0.5101],[5.336,5.509,0.0],[5.3326,5.5079,1.7751],[5.3313,5.5093,0.0],[5.3318,5.5129,0.0],[5.3276,5.5151,4.6042],[5.3293,5.5157,1.6627],[5.3329,5.5138,2.3301],[5.3329,5.5088,3.6481],[5.3349,5.5096,0.0],[5.334,5.5121,1.0855],[5.336,5.514,3.6739],[5.3399,5.5135,0.5008],[5.3413,5.5035,1.1734],[5.3438,5.5007,2.0298],[5.3421,5.4929,2.19],[5.3465,5.4882,0.6433],[5.3521,5.4876,4.9819],[5.3579,5.479,3.3787],[5.3593,5.479,3.3787],[5.3604,5.484,2.6516],[5.3668,5.4849,0.0],[5.369,5.4871,0.0],[5.3663,5.4918,0.0],[5.3663,5.4968,0.9081],[5.359,5.5007,2.8002],[5.3554,5.5093,1.8016],[5.3551,5.5118,3.4683],[5.3601,5.5163,0.0],[5.3535,5.5262,0.3695],[5.3529,5.5335,1.5457],[5.3579,5.5335,0.3184],[5.3574,5.5376,0.0],[5.361,5.5415,0.6601],[5.3546,5.5501,4.7767],[5.3535,5.5568,0.0],[5.3565,5.5657,2.5711],[5.3726,5.5788,1.8164],[5.374,5.5835,0.0],[5.3732,5.5857,0.5901],[5.3615,5.5832,3.7648],[5.3443,5.5832,0.9554],[5.3296,5.5851,1.4353],[5.3126,5.5901,4.8372],[5.3085,5.5857,4.3246],[5.3038,5.5835,10.5349],[5.3088,5.5868,4.3246],[5.3104,5.5921,0.0],[5.301,5.594,3.2769],[5.2896,5.599,0.0],[5.2818,5.5982,1.3996],[5.2729,5.6004,3.2509],[5.2388,5.6029,0.0],[5.2129,5.6013,0.0],[5.206,5.5985,0.0],[5.2043,5.5929,0.0],[5.2057,5.5901,1.3044],[5.2051,5.5862,3.5793],[5.2035,5.584,2.067],[5.2032,5.5862,0.0],[5.2015,5.5862,1.9405],[5.1835,5.5699,1.8368],[5.179,5.5688,0.0],[5.171,5.5529,0.2368],[5.1671,5.5485,1.2982],[5.1629,5.5482,0.6334],[5.1596,5.5446,0.0],[5.1582,5.5376,0.8126],[5.1635,5.5293,0.0],[5.1796,5.5104,0.0],[5.2001,5.4815,1.9838],[5.2204,5.4593,3.3369],[5.2285,5.4526,3.3539],[5.2434,5.4597,5.2502],[5.2566,5.4625,11.6216],[5.2679,5.4611,10.6681],[5.3002,5.467,10.2217],[5.3194,5.4545,11.8679],[5.33,5.4543,11.4735],[5.3375,5.4452,15.2446],[5.3681,5.4276,18.3389]]],
[[[5.3646,5.5382,1.0586],[5.3596,5.5376,0.5274],[5.3593,5.5329,0.3184],[5.3543,5.529,0.0],[5.3554,5.5251,1.2941],[5.3615,5.5174,2.1224],[5.3599,5.5132,2.4791],[5.3562,5.5107,2.6711],[5.3601,5.5007,1.8318],[5.3665,5.4976,2.1142],[5.3682,5.489,2.4597],[5.3743,5.4849,4.7478],[5.3749,5.4754,0.0],[5.3762,5.4749,0.0],[5.3835,5.4796,2.6354],[5.3868,5.4796,2.463],[5.394,5.4754,0.0],[5.3951,5.4779,0.0],[5.3918,5.489,0.0],[5.3926,5.4988,0.0],[5.3913,5.5037,0.0],[5.4018,5.5238,0.0],[5.4018,5.5271,0.0],[5.4004,5.5293,1.1255],[5.3965,5.5307,0.0],[5.3807,5.529,1.3537],[5.3646,5.5382,1.0586]]],
[[[5.4893,5.6032,0.0],[5.4876,5.6043,0.3003],[5.4876,5.5985,1.346],[5.4951,5.5901,0.0],[5.4918,5.5846,9.1782],[5.4885,5.5843,2.2256],[5.4882,5.5862,0.0],[5.4846,5.5868,2.4953],[5.4796,5.5843,2.1413],[5.4815,5.5879,0.0],[5.476,5.589,0.422],[5.4754,5.5879,1.6352],[5.4718,5.5879,1.5642],[5.4663,5.5913,0.8248],[5.4632,5.5843,4.3905],[5.4585,5.5826,0.7894],[5.4551,5.5871,0.0],[5.4515,5.5796,0.5812],[5.4496,5.5788,0.0],[5.439,5.5807,0.0],[5.4374,5.5815,20.1425],[5.4365,5.5851,0.0],[5.4324,5.5835,2.2841],[5.4246,5.5835,1.6424],[5.4154,5.5746,1.0373],[5.4124,5.5693,0.0],[5.4129,5.5663,2.689],[5.4101,5.5624,0.4104],[5.409,5.5571,3.0034],[5.4018,5.5496,1.1742],[5.4035,5.5396,1.3337],[5.4024,5.5357,0.0],[5.4051,5.5285,0.8678],[5.4046,5.5238,0.0],[5.4007,5.5157,2.7511],[5.4099,5.5151,0.0],[5.4126,5.5215,2.4196],[5.4165,5.5229,1.5945],[5.4115,5.5151,1.766],[5.4118,5.5068,0.9484],[5.4182,5.4982,1.5434],[5.4182,5.4929,1.3093],[5.4171,5.4918,1.2867],[5.4029,5.4904,7.7145],[5.4007,5.4868,3.643],[5.4046,5.4801,0.0],[5.3996,5.476,0.0],[5.411,5.4576,4.8275],[5.4135,5.4443,2.276],[5.4157,5.4404,0.0],[5.4254,5.4451,0.0],[5.429,5.4501,4.5299],[5.4265,5.4557,0.0],[5.4288,5.4657,0.0],[5.4204,5.4762,3.7713],[5.4204,5.4826,1.9325],[5.4265,5.4899,1.78],[5.4354,5.491,4.1555],[5.4385,5.4946,0.0],[5.4368,5.4999,0.0],[5.4312,5.5076,4.1447],[5.4349,5.5193,2.4299],[5.4301,5.5224,0.5954],[5.4296,5.5279,0.5234],[5.4318,5.5324,2.8014],[5.4362,5.5338,0.0],[5.4357,5.5401,0.0],[5.4332,5.5413,3.3862],[5.4329,5.5449,2.4194],[5.4349,5.5454,1.7134],[5.4343,5.5432,1.3496],[5.4376,5.5401,3.5664],[5.4382,5.5335,3.0439],[5.4321,5.531,0.8838],[5.4362,5.526,2.8035],[5.441,5.5382,1.9944],[5.446,5.5415,0.0],[5.4593,5.5368,0.5864],[5.4579,5.5365,2.4328],[5.4507,5.5388,0.0],[5.4488,5.5404,0.8455],[5.4463,5.5404,9.2447],[5.4424,5.5379,1.6049],[5.439,5.526,1.0461],[5.4354,5.5251,2.4823],[5.4324,5.5268,2.0279],[5.4312,5.5249,0.0],[5.4365,5.5196,2.5518],[5.4351,5.5096,0.0],[5.4415,5.5051,4.3002],[5.4443,5.499,2.3578],[5.4432,5.4993,2.7587],[5.4424,5.5029,0.0],[5.4371,5.5065,1.2466],[5.4371,5.5035,0.0],[5.4401,5.4982,0.9334],[5.4399,5.4924,6.3587],[5.4346,5.4885,5.5423],[5.4254,5.4857,5.6111],[5.4221,5.4779,0.9158],[5.4301,5.4701,0.6457],[5.4315,5.466,1.9089],[5.4374,5.4646,3.6747],[5.4415,5.4649,7.202],[5.4424,5.4663,3.9399],[5.441,5.4746,3.5241],[5.4429,5.479,2.8188],[5.4474,5.4801,0.0],[5.4549,5.479,5.1645],[5.4576,5.4815,4.6888],[5.4626,5.496,2.4872],[5.4701,5.506,4.4897],[5.4688,5.509,0.0],[5.4665,5.5099,2.5788],[5.466,5.5143,1.8418],[5.4679,5.5157,3.1567],[5.4721,5.5149,2.3593],[5.4699,5.5196,2.6156],[5.4701,5.5282,6.4634],[5.4743,5.5285,0.3779],[5.4749,5.5304,2.4444],[5.4796,5.5321,0.0],[5.4793,5.5338,0.0],[5.4732,5.5374,4.2098],[5.4688,5.5351,3.7269],[5.4668,5.5357,1.3444],[5.4651,5.5424,0.0],[5.466,5.5474,0.8259],[5.4649,5.5476,0.8259],[5.4607,5.5449,4.8679],[5.4635,5.5401,1.4712],[5.4635,5.5371,1.2648],[5.4596,5.5363,0.5864],[5.4629,5.5376,1.2648],[5.4601,5.5438,2.969],[5.4612,5.5471,4.9218],[5.4643,5.5482,1.7023],[5.4665,5.5479,2.7893],[5.4657,5.5426,0.0],[5.4679,5.536,1.3444],[5.4735,5.5379,4.2098],[5.4785,5.5346,0.6952],[5.4782,5.5385,1.8947],[5.4807,5.5415,1.7272],[5.4921,5.5426,4.3129],[5.4887,5.5507,3.0738],[5.4921,5.5638,0.0],[5.4968,5.5715,8.7867],[5.5024,5.5715,1.7835],[5.5046,5.5735,2.0566],[5.501,5.5818,1.601],[5.5046,5.5913,4.072],[5.4893,5.6032,0.0]]],
[[[5.4182,5.6385,1.8737],[5.4065,5.639,0.0],[5.4024,5.6368,2.1362],[5.4015,5.6329,5.4344],[5.4051,5.6199,13.1485],[5.4035,5.609,5.8145],[5.3976,5.5965,0.9256],[5.3918,5.5888,0.5188],[5.3818,5.5804,0.0],[5.3771,5.5732,2.7047],[5.3613,5.5651,1.8055],[5.3576,5.5618,2.975],[5.3574,5.5532,8.948],[5.3615,5.5457,6.3705],[5.3799,5.5332,0.0],[5.3893,5.5338,3.0841],[5.3888,5.5404,5.6146],[5.3851,5.5393,1.3247],[5.3815,5.5401,3.6131],[5.3793,5.5482,2.8112],[5.381,5.5507,2.7859],[5.3871,5.5501,0.0],[5.3893,5.556,1.1288],[5.3935,5.5551,1.586],[5.3924,5.5646,0.2987],[5.3938,5.5657,2.5827],[5.4004,5.5657,2.6435],[5.3982,5.5643,0.0],[5.3935,5.5646,0.2987],[5.3951,5.561,1.3143],[5.3946,5.5546,1.5069],[5.3904,5.5549,1.272],[5.3879,5.5488,0.0],[5.3818,5.549,2.3427],[5.3807,5.5457,0.0],[5.3838,5.5401,1.2708],[5.3871,5.5421,2.5177],[5.3904,5.5418,2.1519],[5.3918,5.5349,0.4473],[5.3985,5.5354,0.0],[5.399,5.5529,1.3204],[5.4051,5.5574,0.5602],[5.4143,5.5771,3.4172],[5.4232,5.5854,0.4561],[5.4299,5.5849,0.0],[5.4343,5.586,1.2125],[5.4365,5.5885,0.0],[5.4407,5.5885,0.0],[5.4396,5.5818,0.0],[5.449,5.5799,0.0],[5.4538,5.5874,0.5358],[5.4535,5.5893,2.1947],[5.4571,5.5885,0.9473],[5.4579,5.584,0.8829],[5.4607,5.5835,2.584],[5.4632,5.5851,4.3905],[5.4654,5.5918,0.8248],[5.4707,5.589,1.8782],[5.4751,5.5888,0.422],[5.4768,5.5924,4.8594],[5.481,5.5954,0.0],[5.4796,5.5993,4.444],[5.4829,5.599,0.7749],[5.486,5.601,0.7001],[5.4868,5.6068,1.2306],[5.4807,5.6226,0.0],[5.4626,5.6343,0.0],[5.4407,5.6332,2.7468],[5.4379,5.636,0.0],[5.4229,5.6368,4.7774],[5.4182,5.6385,1.8737]]]]}}