{"type":"Feature","properties":{"GID_2":"NGA.7.7_1","GID_0":"NGA","country":"Nigeria","GID_1":"NGA.7_1","province":"Benue","NL_NAME_1":"NA","county":"GwerEast","VARNAME_2":"NA","NL_NAME_2":"NA","TYPE_2":"LocalAuthority","ENGTYPE_2":"LocalAuthority","CC_2":"NA","HASC_2":"NA","name":"Gwer_East.county"},
"geometry":{"type": "MultiPolygon","coordinates": [[[[8.7673,7.5742,143.6331],[8.7604,7.6107,101.2504],[8.7592,7.6257,117.2628],[8.7678,7.6533,127.5557],[8.716,7.6606,79.684],[8.6966,7.6611,107.9662],[8.6891,7.6564,114.1126],[8.6749,7.6523,121.1898],[8.6652,7.6319,128.2236],[8.6512,7.6096,145.5343],[8.6331,7.5993,143.3425],[8.6192,7.5841,155.8839],[8.6017,7.5697,177.4295],[8.5827,7.5658,164.3207],[8.5599,7.5561,139.8314],[8.5463,7.5529,132.723],[8.5236,7.5509,117.9014],[8.4848,7.5597,100.5047],[8.4745,7.5644,95.5818],[8.4514,7.5789,112.2052],[8.4234,7.6148,126.7223],[8.4047,7.6431,104.042],[8.3738,7.6311,83.952],[8.3621,7.6214,81.8415],[8.3479,7.6134,88.9877],[8.3404,7.6029,110.9692],[8.3323,7.5724,130.482],[8.3256,7.5607,133.7051],[8.302,7.5374,116.2873],[8.2824,7.5235,120.3979],[8.2687,7.5069,122.9458],[8.2561,7.484,158.2157],[8.2414,7.4435,130.0861],[8.2277,7.4255,138.0163],[8.1895,7.3888,134.5076],[8.1661,7.3786,155.0718],[8.1281,7.356,177.3845],[8.1321,7.3301,139.44],[8.1381,7.3201,133.9206],[8.1418,7.3079,131.0212],[8.1492,7.2925,132.1281],[8.1609,7.2571,127.5066],[8.1729,7.2444,141.9843],[8.1875,7.2322,178.2476],[8.1983,7.2175,135.5654],[8.2052,7.201,115.9981],[8.2208,7.1855,102.8062],[8.235,7.1759,102.2247],[8.2503,7.1528,95.8789],[8.2682,7.1053,75.5082],[8.2672,7.0872,85.1996],[8.2835,7.0817,77.4813],[8.2945,7.0758,74.9079],[8.2999,7.0674,69.5838],[8.3074,7.0633,66.7033],[8.3313,7.0549,75.3555],[8.3575,7.0342,85.1094],[8.3685,7.0289,102.0627],[8.3766,7.0313,83.7053],[8.3869,7.0258,83.5653],[8.3946,7.0199,97.7268],[8.3987,7.0146,106.2463],[8.4193,7.0027,116.3369],[8.4415,6.9842,137.8669],[8.4589,7.0147,152.1068],[8.4628,7.0303,150.2732],[8.4745,7.0951,117.1529],[8.4771,7.1257,120.5784],[8.4858,7.1534,133.4086],[8.4876,7.1886,120.58],[8.4932,7.2123,120.9027],[8.4999,7.2248,128.2481],[8.5203,7.2581,168.0743],[8.5577,7.3017,166.3586],[8.5787,7.321,151.5148],[8.6045,7.3558,155.8038],[8.6164,7.365,154.4286],[8.6155,7.3708,152.9364],[8.6246,7.3921,180.3257],[8.6384,7.4147,176.1657],[8.6641,7.4647,152.0148],[8.6946,7.5119,152.7527],[8.7635,7.5639,123.4866],[8.7687,7.5691,134.5822],[8.7673,7.5742,143.6331]]]]}}