{"type":"Feature","properties":{"GID_2":"NGA.30.15_1","GID_0":"NGA","country":"Nigeria","GID_1":"NGA.30_1","province":"Osun","NL_NAME_1":"NA","county":"Ifedayo","VARNAME_2":"NA","NL_NAME_2":"NA","TYPE_2":"LocalAuthority","ENGTYPE_2":"LocalAuthority","CC_2":"NA","HASC_2":"NA","name":"Ifedayo.county"},
"geometry":{"type": "MultiPolygon","coordinates": [[[[5.0275,7.9338,497.896],[5.0397,7.9453,530.9072],[5.0462,7.9607,572.7114],[5.0498,7.9819,569.4726],[5.0644,8.028,576.4841],[5.0636,8.0372,564.1479],[5.0578,8.0394,576.1439],[5.0309,8.0265,535.1492],[5.0072,8.0281,605.4354],[5.002,8.0189,597.1213],[4.9986,8.0088,568.7272],[4.9806,7.9928,661.3839],[4.9716,7.9821,510.9691],[4.9591,7.9618,476.7458],[4.9603,7.9548,521.9672],[4.9628,7.953,635.6151],[4.9672,7.9381,535.9998],[4.953,7.9278,527.2355],[4.9396,7.911,380.3477],[4.9291,7.8918,367.0795],[4.9322,7.8818,535.4998],[4.9414,7.8723,400.8587],[4.9461,7.8796,380.8099],[4.9723,7.9038,493.3434],[4.9914,7.9141,496.0988],[5.0074,7.9189,519.444],[5.0275,7.9338,497.896]]]]}}