{"type":"Feature","properties":{"GID_2":"NGA.2.16_1","GID_0":"NGA","country":"Nigeria","GID_1":"NGA.2_1","province":"Adamawa","NL_NAME_1":"NA","county":"Numan","VARNAME_2":"NA","NL_NAME_2":"NA","TYPE_2":"LocalAuthority","ENGTYPE_2":"LocalAuthority","CC_2":"NA","HASC_2":"NA","name":"Numan.county"},
"geometry":{"type": "MultiPolygon","coordinates": [[[[12.1757,9.6363,262.7618],[12.1408,9.6312,207.1145],[12.1282,9.6319,192.7258],[12.0739,9.6422,153.2552],[12.0506,9.6482,155.9604],[12.0536,9.6386,155.786],[12.0556,9.6213,150.8981],[12.0581,9.5728,150.1923],[12.0576,9.5545,147.6009],[12.0558,9.5495,147.2842],[12.0576,9.5328,146.0735],[12.0517,9.4976,143.8527],[12.0397,9.4814,141.3058],[12.0311,9.4778,144.7059],[12.0136,9.4793,137.5],[11.998,9.4823,142.4312],[11.9784,9.4904,138.1818],[11.9482,9.4983,135.0],[11.8821,9.5,139.5957],[11.8525,9.4929,139.3397],[11.8359,9.492,138.9491],[11.8034,9.4858,138.9902],[11.755,9.464,133.2612],[11.7295,9.4452,139.6819],[11.7082,9.4444,133.1549],[11.707,9.44,137.7725],[11.6968,9.43,136.4539],[11.6726,9.4262,132.1841],[11.6588,9.4223,129.7159],[11.6322,9.4049,131.8661],[11.6374,9.3979,130.2103],[11.6581,9.396,136.9178],[11.7126,9.3806,160.5228],[11.7463,9.36,183.1938],[11.7686,9.3268,212.8408],[11.7905,9.2842,247.1661],[11.8018,9.2579,294.5824],[11.8141,9.2612,314.1656],[11.8368,9.2775,312.1406],[11.8459,9.2949,259.5919],[11.8647,9.3218,223.6567],[11.88,9.3484,208.8698],[11.8882,9.3665,194.3432],[11.897,9.3783,179.2156],[11.9169,9.3893,170.116],[11.941,9.4097,172.4879],[11.9621,9.4205,185.9222],[12.0163,9.4206,182.6603],[12.0578,9.4167,209.8138],[12.0841,9.4186,203.163],[12.1189,9.4268,201.5796],[12.1387,9.4399,158.2779],[12.144,9.4416,163.2561],[12.1498,9.4526,147.7836],[12.1556,9.4689,143.236],[12.1552,9.4932,144.4352],[12.1589,9.5287,144.069],[12.1629,9.5466,151.4997],[12.1685,9.607,226.9872],[12.1749,9.6249,258.1188],[12.1757,9.6363,262.7618]]]]}}