{"type":"Feature","properties":{"GID_2":"NGA.36.13_1","GID_0":"NGA","country":"Nigeria","GID_1":"NGA.36_1","province":"Yobe","NL_NAME_1":"NA","county":"Nguru","VARNAME_2":"NA","NL_NAME_2":"NA","TYPE_2":"LocalAuthority","ENGTYPE_2":"LocalAuthority","CC_2":"NA","HASC_2":"NA","name":"Nguru.county"},
"geometry":{"type": "MultiPolygon","coordinates": [[[[10.3181,12.8012,345.4369],[10.388,12.8249,345.0995],[10.4685,12.7896,345.9081],[10.4776,12.7923,345.9979],[10.4845,12.7989,346.1763],[10.4975,12.8075,345.6188],[10.5421,12.8187,345.2701],[10.5539,12.8286,344.4647],[10.5597,12.836,343.6435],[10.5568,12.8426,344.7495],[10.5156,12.88,343.0818],[10.4842,12.9125,343.6954],[10.4775,12.9316,342.8528],[10.4792,12.9487,342.4507],[10.4866,12.9603,340.9875],[10.5147,12.984,341.9769],[10.5282,12.9915,342.0346],[10.5049,13.0085,342.1669],[10.4731,13.039,342.3585],[10.4514,13.0661,343.523],[10.353,13.1089,344.8434],[10.3219,13.1146,346.7297],[10.2937,13.1078,346.2757],[10.2737,13.1009,346.3645],[10.2526,13.09,345.2215],[10.2391,13.0776,347.1093],[10.2337,13.0561,346.5292],[10.2187,13.035,346.5426],[10.2103,13.0351,347.2211],[10.2107,13.0242,347.2256],[10.2069,13.016,347.6562],[10.2034,12.9854,346.3754],[10.1962,12.9743,347.761],[10.206,12.9688,347.1855],[10.2405,12.893,346.5109],[10.2517,12.824,346.6424],[10.2753,12.784,346.7005],[10.2934,12.7953,346.1027],[10.3181,12.8012,345.4369]]]]}}