{"type":"Feature","properties":{"GID_2":"NGA.27.13_1","GID_0":"NGA","country":"Nigeria","GID_1":"NGA.27_1","province":"Niger","NL_NAME_1":"NA","county":"Lavun","VARNAME_2":"NA","NL_NAME_2":"NA","TYPE_2":"LocalAuthority","ENGTYPE_2":"LocalAuthority","CC_2":"NA","HASC_2":"NA","name":"Lavun.county"},
"geometry":{"type": "MultiPolygon","coordinates": [[[[6.1079,8.7443,57.109],[6.1123,8.744,55.9607],[6.1222,8.7614,59.5485],[6.1439,8.7913,59.9681],[6.1367,8.8027,55.7416],[6.1298,8.8192,55.9881],[6.1104,8.8469,61.669],[6.102,8.8666,59.3091],[6.1031,8.894,67.2186],[6.1083,8.8999,61.8761],[6.1124,8.9116,62.4222],[6.1082,8.9216,61.304],[6.1134,8.9289,62.8699],[6.0983,8.9658,64.6923],[6.0911,8.9772,81.7307],[6.0862,8.9895,82.6102],[6.0883,8.9979,68.1149],[6.0852,8.9981,75.5685],[6.0892,9.0317,93.5958],[6.1179,9.06,66.9112],[6.1257,9.0709,69.2252],[6.1261,9.0774,68.8017],[6.1196,9.0928,74.2216],[6.1219,9.0944,73.2557],[6.112,9.0989,78.3928],[6.0887,9.1065,97.0847],[6.0786,9.1078,111.9554],[6.0729,9.1107,123.8706],[6.0639,9.1203,131.2199],[6.0621,9.1299,124.4228],[6.0454,9.1371,150.309],[6.0405,9.1336,138.3049],[6.0424,9.1161,126.0358],[6.0415,9.1112,113.7551],[6.0367,9.1052,97.5742],[6.0281,9.1003,121.3659],[6.0202,9.0771,132.1316],[6.0103,9.0604,137.6407],[6.0048,9.0547,141.2021],[5.9894,9.0513,159.3843],[5.9707,9.0497,206.2441],[5.9549,9.0519,177.7209],[5.9422,9.0549,163.2669],[5.9399,9.0569,158.9947],[5.908,9.0175,153.2065],[5.8839,9.0019,103.8908],[5.834,8.9575,77.7728],[5.8402,8.9533,83.6883],[5.8508,8.9386,105.9663],[5.8572,8.9337,101.607],[5.8638,8.914,65.2962],[5.8611,8.9076,61.2003],[5.857,8.907,64.314],[5.8494,8.8981,62.8515],[5.8415,8.8948,63.7773],[5.8263,8.8821,63.8282],[5.8274,8.8763,65.0209],[5.8148,8.865,59.575],[5.8062,8.8497,62.6979],[5.7947,8.8403,63.0737],[5.7924,8.8357,62.8031],[5.7939,8.832,64.7888],[5.7874,8.8256,61.5656],[5.7893,8.8169,64.3844],[5.7811,8.8087,60.8366],[5.7812,8.8002,60.1763],[5.7781,8.7924,60.0342],[5.7788,8.7841,59.8254],[5.7748,8.7782,59.2429],[5.7724,8.7575,56.0],[5.7921,8.748,57.5476],[5.8218,8.7385,58.0393],[5.8905,8.7332,57.238],[5.9013,8.7333,59.492],[5.9307,8.7378,55.6625],[5.9396,8.7428,54.0],[5.9561,8.748,60.1079],[5.9692,8.7459,58.4749],[6.0203,8.7543,66.1152],[6.0776,8.7529,53.5176],[6.0966,8.7463,56.2466],[6.1079,8.7443,57.109]]],
[[[5.7659,9.0237,232.8782],[5.7704,9.0242,143.2087],[5.7711,9.0264,141.232],[5.7704,9.0401,110.9671],[5.7759,9.0737,107.3679],[5.7982,9.1522,120.2609],[5.798,9.1709,146.7345],[5.792,9.2048,129.7046],[5.8014,9.2624,127.7759],[5.8205,9.3097,134.1173],[5.8248,9.3242,165.5403],[5.8283,9.3421,127.8199],[5.8268,9.3515,113.8316],[5.8314,9.3647,98.8115],[5.8362,9.3717,77.9068],[5.8511,9.4199,129.2376],[5.8625,9.441,112.2252],[5.8674,9.475,111.0042],[5.8529,9.4718,127.1613],[5.8426,9.4724,149.733],[5.8285,9.4861,177.4172],[5.8028,9.4983,150.4025],[5.7966,9.4943,144.0989],[5.7865,9.491,125.9437],[5.782,9.4829,120.1728],[5.7753,9.4754,132.3406],[5.7667,9.4702,114.1856],[5.7561,9.4743,98.2539],[5.743,9.4887,104.1523],[5.7229,9.521,130.2323],[5.7193,9.5321,125.8787],[5.7097,9.5486,153.4169],[5.7064,9.5622,159.9846],[5.6928,9.5828,186.2592],[5.6844,9.6005,174.0135],[5.6723,9.6115,186.0754],[5.6149,9.6552,177.228],[5.5997,9.6617,209.118],[5.5812,9.6788,179.3913],[5.5817,9.677,185.3453],[5.5782,9.6751,175.051],[5.5663,9.6835,181.7066],[5.5378,9.71,181.407],[5.5112,9.7231,145.6854],[5.4992,9.7359,177.7765],[5.482,9.7456,189.1087],[5.4694,9.7469,213.6679],[5.4019,9.7261,233.6121],[5.3856,9.725,238.5753],[5.3487,9.7184,206.6953],[5.3266,9.7115,180.4341],[5.3004,9.7073,170.729],[5.2923,9.701,192.3119],[5.2875,9.694,186.382],[5.2844,9.6727,179.1742],[5.2851,9.6542,154.014],[5.2815,9.6311,180.0508],[5.2754,9.6176,161.1031],[5.2709,9.592,167.9554],[5.2698,9.5785,153.1816],[5.273,9.5613,186.3902],[5.2715,9.5534,194.3988],[5.2758,9.5396,188.5233],[5.2743,9.5335,183.4093],[5.2904,9.5277,180.0366],[5.3112,9.5127,165.9832],[5.3466,9.4741,179.7346],[5.38,9.4527,201.2428],[5.3931,9.4399,199.2287],[5.4008,9.4287,197.5216],[5.4031,9.4045,200.6917],[5.3841,9.3738,175.5742],[5.3799,9.3497,194.6216],[5.405,9.3165,185.494],[5.4165,9.3047,175.9838],[5.4373,9.2894,187.5127],[5.4517,9.2806,158.3639],[5.4607,9.2772,193.3271],[5.4709,9.2662,193.0537],[5.4741,9.2559,195.1533],[5.4749,9.2439,203.4279],[5.4719,9.2062,118.2745],[5.4628,9.1735,214.927],[5.4623,9.1599,130.1005],[5.4624,9.1472,137.9762],[5.4715,9.1291,214.2847],[5.5048,9.128,242.7536],[5.5165,9.1298,252.993],[5.527,9.1338,249.6818],[5.5552,9.1404,248.2946],[5.5668,9.1479,179.0821],[5.5895,9.167,209.0998],[5.6007,9.172,184.5962],[5.6095,9.1781,173.3485],[5.6267,9.1815,165.3056],[5.6414,9.1812,155.4972],[5.6483,9.1734,218.9419],[5.6494,9.1587,249.6757],[5.6535,9.1412,262.9315],[5.6589,9.1362,272.3268],[5.6645,9.1332,269.9797],[5.6994,9.1246,263.71],[5.7094,9.1258,263.8962],[5.7208,9.1248,202.0781],[5.7349,9.113,210.3105],[5.734,9.0917,256.8048],[5.7176,9.0726,144.9668],[5.704,9.06,267.3302],[5.7058,9.0487,261.3915],[5.7021,9.0312,280.0836],[5.6863,9.0242,152.2375],[5.6851,9.0138,270.8708],[5.7004,9.0013,167.164],[5.7112,8.9989,186.633],[5.7256,8.9999,180.7265],[5.7424,9.0149,263.7998],[5.7509,9.0197,203.6904],[5.7659,9.0237,232.8782]]]]}}