{"type":"Feature","properties":{"GID_2":"NGA.17.19_1","GID_0":"NGA","country":"Nigeria","GID_1":"NGA.17_1","province":"Imo","NL_NAME_1":"NA","county":"Okigwe","VARNAME_2":"NA","NL_NAME_2":"NA","TYPE_2":"LocalAuthority","ENGTYPE_2":"LocalAuthority","CC_2":"NA","HASC_2":"NA","name":"Okigwe.county"},
"geometry":{"type": "MultiPolygon","coordinates": [[[[7.3757,5.8657,258.9373],[7.3689,5.8702,231.8472],[7.3532,5.8758,190.6148],[7.3385,5.8776,196.2997],[7.3156,5.8889,150.719],[7.2963,5.8933,139.64],[7.2825,5.8991,140.8828],[7.2688,5.9065,124.1531],[7.252,5.9259,145.7137],[7.2314,5.9247,129.9641],[7.2257999999999996,5.9225,105.7765],[7.2299,5.9069,116.8535],[7.2384,5.8918,112.0313],[7.2509,5.8787,118.8618],[7.2593,5.8578,111.3038],[7.2482,5.8527,104.7066],[7.2352,5.8525,99.612799999999993],[7.2239,5.8381,105.8569],[7.2323,5.8398,93.4306],[7.2519,5.8303,96.5613],[7.2596,5.8193,95.337],[7.2653,5.798,87.8623],[7.2765,5.7773,92.6073],[7.2858,5.7726,86.2898],[7.3246,5.7433,85.0585],[7.3311,5.731,86.971],[7.3395,5.7214,81.6779],[7.3843,5.6815,88.0372],[7.3857,5.6833,72.382],[7.3961,5.6854,73.4607],[7.3994,5.6879,87.88],[7.4004,5.737,112.7245],[7.3943,5.7595,190.1978],[7.3924,5.7807,205.2497],[7.3933,5.825,220.5731],[7.3782,5.864,248.3605],[7.3757,5.8657,258.9373]]]]}}