{"type":"Feature","properties":{"GID_2":"NGA.6.3_1","GID_0":"NGA","country":"Nigeria","GID_1":"NGA.6_1","province":"Bayelsa","NL_NAME_1":"NA","county":"Kolokuma/Opokuma","VARNAME_2":"NA","NL_NAME_2":"NA","TYPE_2":"LocalAuthority","ENGTYPE_2":"LocalAuthority","CC_2":"NA","HASC_2":"NA","name":"Kolokuma_Opokuma.county"},
"geometry":{"type": "MultiPolygon","coordinates": [[[[6.3848,5.1995,16.1614],[6.3528,5.2075,23.2018],[6.3376,5.2089,22.1628],[6.3051,5.2076,20.5668],[6.2815,5.2036,19.4476],[6.2654,5.1954,23.3658],[6.2582,5.1897,12.8694],[6.2339,5.1577,17.729],[6.2308,5.1347,15.7741],[6.2261,5.1163,15.6615],[6.2214,5.1102,15.0274],[6.1999,5.0939,12.6516],[6.1896,5.0725,18.5256],[6.1667,5.0399,15.7027],[6.1598,5.0264,5.2912],[6.136,4.9911,14.6319],[6.1356,4.9874,11.7419],[6.1387,4.9793,15.4436],[6.1379,4.969,13.8875],[6.1359,4.9602,11.8675],[6.1278,4.9447,1.0],[6.1347,4.9327,18.5055],[6.1394,4.9325,20.5688],[6.1584,4.9232,11.6169],[6.1699,4.9235,17.7813],[6.1794,4.9277,13.3428],[6.1876,4.9338,13.7169],[6.1909,4.9393,14.7831],[6.2112,4.955,16.6544],[6.2286,4.9603,19.43],[6.2329,4.9687,17.7341],[6.2366,4.97,16.2629],[6.2419,4.9681,20.4743],[6.2454,4.9706,20.9092],[6.2693,5.0061,10.5591],[6.2689,5.013,7.7538],[6.2517,5.0168,20.386],[6.2538,5.0214,3.5],[6.261,5.0233,12.2168],[6.2645,5.0269,24.2874],[6.2656,5.0341,14.5428],[6.2716,5.0487,19.9707],[6.2801,5.0493,19.7897],[6.2967,5.0329,11.4222],[6.3048,5.035,4.4684],[6.3079,5.0419,22.7959],[6.3101,5.0619,19.8039],[6.3133,5.0747,17.8858],[6.3298,5.0816,20.8147],[6.3404,5.0828,18.3664],[6.3555,5.0897,12.7212],[6.3651,5.0953,10.8079],[6.3908,5.1151,8.5934],[6.3969,5.1236,13.6174],[6.4048,5.1402,13.605],[6.4088,5.16,17.2733],[6.4056,5.1757,18.8725],[6.3985,5.1809,18.3611],[6.3848,5.1995,16.1614]]]]}}