{"type": "Feature","bbox": [4.2868,7.8737,4.5642,8.302],"geometry": {"type": "MultiPolygon","coordinates": [[[[4.3665,8.302,375.1191],[4.3378,8.2871,372.9847],[4.3309,8.2773,385.2455],[4.2993,8.2444,361.9517],[4.2987,8.237,379.8009],[4.3095,8.2184,388.9573],[4.3219,8.1864,371.8645],[4.3226,8.1772,374.5179],[4.33,8.151,386.9316],[4.3335,8.1226,400.0403],[4.3331,8.1139,357.8949],[4.3251,8.0882,396.5157],[4.3208,8.0804,403.7428],[4.3042,8.062,340.0215],[4.2887,8.0499,336.5933],[4.2868,8.046,317.6044],[4.3103,8.0159,340.6856],[4.3157,8.0026,355.5688],[4.3211,7.9696,376.338],[4.3377,7.9548,350.0609],[4.3517,7.9488,357.4089],[4.3617,7.9422,359.1615],[4.3785,7.923,364.6426],[4.3927,7.9009,382.7004],[4.4117,7.8823,344.3113],[4.4185,7.8737,356.4276],[4.4413,7.8926,381.1615],[4.4428,7.8884,355.1323],[4.4522,7.894,518.4023],[4.4612,7.9086,388.0664],[4.4681,7.9163,394.6286],[4.4726,7.91,395.3888],[4.4885,7.9268,357.7903],[4.5023,7.9344,354.3714],[4.5132,7.9361,355.4974],[4.5391,7.9466,334.0916],[4.5432,7.9405,356.8112],[4.5485,7.948,341.6711],[4.55,7.9547,327.9924],[4.5593,7.9621,353.0155],[4.561,7.966,347.9338],[4.5642,7.9828,343.1016],[4.563,7.9948,338.7729],[4.56,8.0052,361.452],[4.5589,8.0214,365.5141],[4.5558,8.0339,389.2986],[4.5477,8.0449,372.0308],[4.5373,8.0453,345.1991],[4.529,8.0475,367.6315],[4.5244,8.046,369.7255],[4.5129,8.0611,378.8376],[4.4981,8.1038,397.5369],[4.4822,8.1385,386.0443],[4.4764,8.1649,384.1881],[4.4758,8.1831,368.3441],[4.4633,8.1937,356.0583],[4.4628,8.2066,366.4291],[4.4395,8.2248,332.2001],[4.4136,8.2363,353.3514],[4.4068,8.2429,363.7836],[4.3887,8.2679,354.6991],[4.3819,8.2735,349.8131],[4.374,8.2857,366.4875],[4.3665,8.302,375.1191]]]]}
,"properties": {"GID_2": "NGA.31.33_1","GID_0": "NGA","country": "Nigeria","GID_1": "NGA.31_1","province": "Oyo","NL_NAME_1": "NA","county": "Surulere","VARNAME_2": "NA","NL_NAME_2": "NA","TYPE_2": "LocalAuthority","ENGTYPE_2": "LocalAuthority","CC_2": "NA","HASC_2": "NA","name": "Surulere.county","area_km2": 799.1701,"hist_schema_id": "Elevation0-9000","hist_area_km2": {"325": 30.3934,"350": 164.3781,"375": 338.2241,"400": 220.4264,"425": 40.2887,"450": 3.7164,"475": 1.4279,"500": 0.315}}}