{"type": "Feature","bbox": [12.3034,9.5121,13.2081,10.0456],"geometry": {"type": "MultiPolygon","coordinates": [[[[12.3878,9.515,176.754],[12.3972,9.5121,178.7194],[12.4043,9.5143,178.7486],[12.4317,9.5329,192.6058],[12.4638,9.5499,231.3088],[12.4918,9.5781,266.3017],[12.5198,9.594,295.6151],[12.5469,9.6067,315.0468],[12.5657,9.6054,298.0789],[12.5974,9.5891,279.8764],[12.6276,9.5636,249.9733],[12.6575,9.5442,243.1079],[12.6704,9.5492,224.9552],[12.69,9.5641,225.0242],[12.7172,9.5814,220.4884],[12.7791,9.6074,197.6988],[12.791,9.6085,197.5027],[12.7971,9.6184,206.86],[12.8115,9.6297,213.0337],[12.8237,9.6558,221.2809],[12.8238,9.6872,244.499],[12.8271,9.7345,426.5871],[12.8342,9.748,361.5698],[12.8469,9.7427,396.0317],[12.8687,9.7199,437.7282],[12.8934,9.7019,449.6068],[12.9314,9.6844,338.8238],[12.972,9.6626,301.5599],[13.0127,9.6485,432.2802],[13.046,9.6266,284.5971],[13.0807,9.5995,247.924],[13.0896,9.6009,250.902],[13.1399,9.5859,267.0102],[13.1601,9.571,244.614],[13.1719,9.574,251.9717],[13.1868,9.5638,280.8259],[13.1956,9.5605,239.447],[13.1948,9.569,253.178],[13.1964,9.5872,359.0585],[13.1948,9.6159,298.4091],[13.2,9.6673,287.8836],[13.205,9.6984,309.9932],[13.2081,9.7501,379.4054],[13.1896,9.8018,433.9696],[13.1724,9.8386,508.6458],[13.1713,9.8709,516.9591],[13.1647,9.9096,604.9171],[13.1575,9.9664,563.7153],[13.1614,9.9802,558.6538],[13.1604,9.9924,545.4141],[13.1642,10.0037,561.384],[13.1595,10.021,555.9491],[13.1475,10.0153,544.8695],[13.1322,10.0144,543.2025],[13.0818,9.9883,503.4197],[13.0608,9.9792,489.7917],[13.0421,9.9673,507.2912],[13.0189,9.9601,502.9146],[12.9982,9.9607,477.6156],[12.983,9.9662,455.4477],[12.95,9.9932,426.1471],[12.9479,9.9964,436.0013],[12.9474,10.0025,452.7749],[12.9276,10.007,429.7514],[12.9035,10.0092,448.3221],[12.8834,10.0167,435.3748],[12.8697,10.0246,459.2227],[12.8465,10.0328,471.4687],[12.8148,10.0396,473.7676],[12.7833,10.0424,499.7545],[12.7123,10.0447,472.6327],[12.6255,10.042,497.3239],[12.5304,10.0456,596.3342],[12.4405,10.0425,625.8502],[12.4064,10.0382,678.462],[12.3524,10.0374,723.5255],[12.3492,10.0226,717.8311],[12.3357,9.9907,706.3674],[12.3373,9.9526,580.9245],[12.3319,9.9153,636.5402],[12.3229,9.8813,502.6282],[12.3065,9.832,531.0271],[12.3034,9.8002,487.3367],[12.3093,9.7598,465.4008],[12.3181,9.7301,323.7288],[12.3564,9.6556,441.2287],[12.3675,9.6469,379.0622],[12.3786,9.6135,291.3144],[12.3765,9.59,234.0209],[12.3701,9.562,198.9812],[12.3795,9.5401,185.9347],[12.3786,9.5193,175.6098],[12.3878,9.515,176.754]]]]}
,"properties": {"GID_2": "NGA.2.18_1","GID_0": "NGA","country": "Nigeria","GID_1": "NGA.2_1","province": "Adamawa","NL_NAME_1": "NA","county": "Song","VARNAME_2": "NA","NL_NAME_2": "NA","TYPE_2": "LocalAuthority","ENGTYPE_2": "LocalAuthority","CC_2": "NA","HASC_2": "NA","name": "Song.county","area_km2": 4323.028,"hist_schema_id": "Elevation0-9000","hist_area_km2": {"175": 5.959,"200": 122.979,"225": 241.949,"250": 281.286,"275": 296.992,"300": 294.665,"325": 240.356,"350": 188.804,"375": 206.527,"400": 227.234,"425": 265.126,"450": 295.186,"475": 305.363,"500": 282.877,"525": 223.773,"550": 178.85,"575": 151.216,"600": 112.933,"625": 93.153,"650": 74.083,"675": 61.719,"700": 47.077,"725": 34.943,"750": 22.894,"775": 13.057,"800": 10.299,"825": 8.022,"850": 7.019,"875": 5.348,"900": 5.369,"925": 3.844,"950": 3.342,"975": 2.945,"1000": 2.381,"1025": 1.796,"1050": 1.212,"1075": 1.274,"1100": 0.689,"1125": 0.418,"1150": 0.063}}}