{"type": "Feature","bbox": [4.9475,7.4149,5.1959,7.6222],"geometry": {"type": "MultiPolygon","coordinates": [[[[5.1126,7.5993,569.4772],[5.0844,7.6222,573.0535],[5.0827,7.6058,450.9813],[5.0665,7.5616,373.7173],[5.0564,7.5502,368.176],[5.0512,7.5395,369.313],[5.0442,7.5322,375.0018],[5.0316,7.5234,370.1567],[5.0025,7.5219,376.7543],[4.9767,7.5271,357.6399],[4.9475,7.5381,390.7331],[4.9645,7.5035,440.235],[4.9693,7.4902,436.4542],[4.9728,7.4618,389.6092],[4.978,7.4423,348.2908],[4.9915,7.4149,343.6632],[5.0177,7.4227,334.6328],[5.043,7.4336,336.8598],[5.065,7.4383,344.6763],[5.0966,7.4352,410.7961],[5.109,7.4368,397.0296],[5.1106,7.4461,428.672],[5.1418,7.4792,424.6736],[5.1493,7.4862,386.8436],[5.1586,7.4902,380.3089],[5.1654,7.4961,383.6819],[5.1681,7.5068,384.6407],[5.1774,7.5274,399.1788],[5.1766,7.5341,391.8251],[5.1829,7.5531,447.4008],[5.1959,7.5679,415.9073],[5.1743,7.5805,626.8647],[5.1439,7.5934,475.3236],[5.128,7.5958,536.8241],[5.1238,7.5929,525.7479],[5.1126,7.5993,569.4772]]]]}
,"properties": {"GID_2": "NGA.13.4_1","GID_0": "NGA","country": "Nigeria","GID_1": "NGA.13_1","province": "Ekiti","NL_NAME_1": "NA","county": "EkitiSouth-West","VARNAME_2": "NA","NL_NAME_2": "NA","TYPE_2": "LocalAuthority","ENGTYPE_2": "LocalAuthority","CC_2": "NA","HASC_2": "NA","name": "Ekiti_South-West.county","area_km2": 306.2037,"hist_schema_id": "Elevation0-9000","hist_area_km2": {"325": 6.7696,"350": 64.4753,"375": 78.9545,"400": 59.781,"425": 42.8579,"450": 19.5471,"475": 11.3287,"500": 6.8309,"525": 5.2755,"550": 2.7324,"575": 2.0809,"600": 2.2069,"625": 1.8706,"650": 0.7146,"675": 0.4414,"700": 0.2102,"725": 0.1261}}}