{"type":"Feature","properties":{"GID_2":"NGA.31.18_1","GID_0":"NGA","country":"Nigeria","GID_1":"NGA.31_1","province":"Oyo","NL_NAME_1":"NA","county":"Iwajowa","VARNAME_2":"NA","NL_NAME_2":"NA","TYPE_2":"LocalAuthority","ENGTYPE_2":"LocalAuthority","CC_2":"NA","HASC_2":"NA","name":"Iwajowa.county"},
"geometry":{"type": "MultiPolygon","coordinates": [[[[2.6783,7.8974,127.3646],[2.7008,7.9109,142.0499],[2.7088,7.92,143.0366],[2.739,7.9417,164.9414],[2.7581,7.9531,178.6881],[2.7747,7.9664,231.2864],[2.7999,7.9706,227.232],[2.8311,7.9698,235.8848],[2.8618,7.9548,208.0065],[2.8722,7.9426,226.3344],[2.8819,7.9261,265.9635],[2.8884,7.9029,244.3095],[2.8892,7.8535,229.0391],[2.8879,7.8263,214.7348],[2.8909,7.7986,220.5009],[2.9,7.7606,196.3128],[2.9109,7.7382,169.2509],[2.9211,7.7256,155.5151],[2.9347,7.7235,165.8056],[2.9436,7.7608,238.8729],[2.9498,7.813,178.3016],[2.9557,7.8231,167.7806],[2.9591,7.8332,184.0139],[2.9666,7.8404,199.3941],[2.9888,7.8405,170.7577],[2.9961,7.8369,160.4793],[3.0029,7.8306,156.8836],[3.0099,7.8203,160.2356],[3.0117,7.8025,150.259],[3.0108,7.7844,142.3335],[3.0187,7.7882,149.9548],[3.0251,7.7982,141.8078],[3.0331,7.8066,157.4145],[3.0556,7.8129,163.8841],[3.1096,7.8152,212.0338],[3.1288,7.8184,191.7495],[3.1662,7.8186,221.8273],[3.2036,7.8212,215.1475],[3.2429,7.8148,169.0334],[3.247,7.8106,171.4828],[3.2649,7.8158,171.3466],[3.2742,7.8212,166.3575],[3.2852,7.8187,177.8406],[3.3016,7.8184,206.4276],[3.3221,7.8148,170.0771],[3.3752,7.8317,181.5269],[3.3842,7.8576,196.8167],[3.3733,7.8603,197.6679],[3.3445,7.8753,196.3425],[3.3164,7.894,225.907],[3.3025,7.9055,217.7494],[3.2949,7.9178,255.0561],[3.2732,7.9445,274.3432],[3.2665,7.9607,241.9483],[3.2566,7.9904,257.0166],[3.2544,8.0278,239.0544],[3.2581,8.0417,197.9486],[3.2631,8.0513,225.8874],[3.2784,8.0688,240.9936],[3.2851,8.0814,248.8157],[3.2863,8.0996,219.1158],[3.2799,8.119,213.9017],[3.2713,8.1129,221.5445],[3.2461,8.1134,221.7567],[3.2323,8.1148,249.2124],[3.2101,8.1216,277.0597],[3.1875,8.1397,278.9153],[3.1856,8.1485,303.138],[3.1749,8.16,343.3112],[3.1718,8.1674,400.5927],[3.1641,8.1763,368.7303],[3.1538,8.182,339.8811],[3.147,8.1902,346.7125],[3.1386,8.1968,323.5274],[3.1375,8.2023,336.4285],[3.14,8.2108,343.1844],[3.1321,8.2173,313.3762],[3.1137,8.2122,294.0882],[3.076,8.2052,272.7927],[3.0545,8.2033,293.4872],[3.0066,8.2043,260.1619],[2.9812,8.2068,237.6205],[2.9078,8.2004,268.9626],[2.8592,8.1923,303.1366],[2.8443,8.1879,285.8723],[2.8209,8.1941,243.2072],[2.8033,8.1912,221.4614],[2.7921,8.1936,229.9982],[2.7775,8.1893,201.4981],[2.7508,8.1881,152.7556],[2.7482,8.1647,140.1499],[2.744,8.156,137.4921],[2.7366,8.1476,136.1327],[2.7322,8.1389,141.2036],[2.7299,8.1283,132.5242],[2.7325,8.1168,134.2073],[2.7305,8.1049,143.1097],[2.725,8.0923,147.0158],[2.724,8.085,148.5814],[2.7291,8.0705,130.3078],[2.7288,8.0668,132.3936],[2.7233,8.0611,135.0178],[2.7073,8.0,138.456],[2.7045,7.9681,126.8342],[2.6995,7.9527,128.1931],[2.6955,7.9308,128.2806],[2.6909,7.9262,130.0215],[2.6878,7.9134,129.3176],[2.6783,7.8974,127.3646]]]]}}