{"type":"Feature","properties":{"GID_2":"NGA.20.36_1","GID_0":"NGA","country":"Nigeria","GID_1":"NGA.20_1","province":"Kano","NL_NAME_1":"NA","county":"Sumaila","VARNAME_2":"NA","NL_NAME_2":"NA","TYPE_2":"LocalAuthority","ENGTYPE_2":"LocalAuthority","CC_2":"NA","HASC_2":"NA","name":"Sumaila.county"},
"geometry":{"type": "MultiPolygon","coordinates": [[[[9.08,11.3231,478.5034],[9.0789,11.3359,475.9909],[9.0742,11.3447,474.686],[9.0662,11.3502,475.2446],[9.0605,11.3567,473.1008],[9.0535,11.3708,471.9052],[9.0534,11.3801,477.4095],[9.0422,11.3959,492.6555],[9.0382,11.3997,491.2435],[9.0323,11.3985,488.1418],[9.0166,11.4026,478.2256],[8.9987,11.4118,475.0736],[8.9955,11.4223,482.4081],[8.9971,11.4563,483.1181],[8.9943,11.4589,484.0149],[8.9891,11.4582,483.9994],[8.981,11.4531,483.713],[8.9743,11.4439,487.6046],[8.9685,11.4303,499.8515],[8.9658,11.4298,499.3399],[8.9621,11.4316,499.3495],[8.9483,11.4543,490.5102],[8.9488,11.4643,485.9538],[8.9534,11.4682,483.798],[8.9548,11.4747,483.2552],[8.9578,11.4791,476.7555],[8.9655,11.4854,484.2567],[8.9698,11.4843,478.3987],[8.9699,11.4963,481.5023],[8.9663,11.4995,488.2487],[8.9634,11.5129,481.0258],[8.9554,11.5248,474.0788],[8.9425,11.5399,484.8092],[8.9254,11.5539,488.7081],[8.915,11.5602,480.3192],[8.8976,11.5591,484.2559],[8.8627,11.5463,484.9498],[8.8572,11.5423,485.3256],[8.8503,11.534,498.6078],[8.8418,11.5175,514.6183],[8.845,11.5064,530.6682],[8.8426,11.4889,532.0466],[8.8383,11.484,531.9674],[8.8253,11.4748,538.5982],[8.8105,11.4426,561.5736],[8.8071,11.4252,584.2476],[8.807,11.4174,572.9243],[8.7894,11.3992,581.153],[8.7819,11.4007,583.9822],[8.7682,11.396,583.4483],[8.7654,11.3895,578.2883],[8.7569,11.3816,575.5016],[8.7581,11.3797,575.8808],[8.7574,11.3712,574.5828],[8.7532,11.3478,562.3702],[8.7428,11.3193,549.4805],[8.7407,11.3094,554.5822],[8.7292,11.2882,551.1078],[8.721,11.281,545.0604],[8.7052,11.2716,543.7108],[8.6949,11.2602,541.3721],[8.6855,11.2398,560.5471],[8.6832,11.2199,579.6937],[8.6877,11.2068,578.5485],[8.6936,11.1987,576.6558],[8.7033,11.1901,571.4096],[8.7129,11.1842,571.2659],[8.7133,11.177,569.0104],[8.7286,11.1661,564.181],[8.7399,11.1535,568.9963],[8.7463,11.1378,577.2692],[8.7517,11.1287,586.3945],[8.7585,11.1218,594.9626],[8.7639,11.1018,608.1341],[8.7707,11.0905,618.2778],[8.7716,11.0865,624.5552],[8.7803,11.0901,627.5547],[8.824,11.0876,634.1875],[8.8569,11.0957,637.1563],[8.8735,11.1127,628.6824],[8.9012,11.147,611.476],[8.9222,11.1851,558.8384],[8.944,11.2126,527.6767],[8.9609,11.2247,521.9625],[8.9637,11.2326,518.1628],[8.981,11.244,513.4379],[8.999,11.2615,505.5835],[9.0206,11.279,487.3955],[9.0314,11.2966,493.8985],[9.0715,11.3216,478.9656],[9.08,11.3231,478.5034]]]]}}