{"type": "Feature","bbox": [10.3017,8.6898,11.6527,9.6044],"geometry": {"type": "MultiPolygon","coordinates": [[[[11.5259,9.592,200.5486],[11.4787,9.5864,199.824],[11.423,9.5844,235.7336],[11.3125,9.5835,292.0923],[11.2649,9.5858,385.1374],[11.2216,9.5847,624.8356],[11.1747,9.5814,462.4276],[11.1263,9.5752,517.6043],[11.1117,9.5754,452.3761],[11.1001,9.5765,403.3368],[11.0687,9.5864,346.0757],[11.0603,9.5842,345.2178],[11.0423,9.584,325.0627],[11.0043,9.587,316.8868],[10.9277,9.6033,431.3687],[10.9002,9.6044,394.8648],[10.8715,9.5908,403.9499],[10.8341,9.5765,316.5246],[10.7291,9.5267,268.2117],[10.6948,9.5292,229.751],[10.6569,9.5391,224.8658],[10.6346,9.5392,227.5269],[10.5695,9.5051,208.3319],[10.5605,9.4967,192.3539],[10.579,9.4616,197.7033],[10.5857,9.4335,207.4927],[10.5891,9.399,179.4934],[10.5868,9.3577,176.5567],[10.5808,9.3335,189.6773],[10.5918,9.2675,168.8875],[10.5931,9.2379,169.6774],[10.6155,9.2029,162.4804],[10.6303,9.176,158.8074],[10.6339,9.1438,164.6996],[10.6433,9.1167,154.3949],[10.6473,9.0793,154.1104],[10.6383,9.0579,155.0444],[10.6433,9.0218,149.3475],[10.6501,9.0219,149.3883],[10.6499,9.0082,145.3198],[10.655,8.9638,143.4081],[10.6536,8.9329,138.4572],[10.6248,8.8834,171.3859],[10.4926,8.8164,118.0213],[10.4281,8.7892,146.633],[10.3974,8.791,138.9408],[10.3017,8.7693,129.3462],[10.3097,8.7567,141.5504],[10.3319,8.7354,128.3233],[10.3467,8.7252,115.953],[10.3573,8.7259,113.8615],[10.371,8.7189,112.0488],[10.3924,8.6993,106.3211],[10.4109,8.6898,109.2423],[10.4519,8.6956,104.7522],[10.4765,8.7025,105.5492],[10.4897,8.7116,106.8651],[10.5077,8.7173,106.6655],[10.5438,8.7192,103.9262],[10.5748,8.7284,107.6304],[10.5997,8.7325,110.7338],[10.6457,8.7319,110.2124],[10.6918,8.7223,113.4793],[10.7271,8.7219,107.5763],[10.7709,8.7252,113.4327],[10.7989,8.7304,113.8635],[10.8227,8.7375,113.3291],[10.8864,8.7673,124.5388],[10.9042,8.7841,144.0161],[10.9333,8.8333,150.7734],[10.9476,8.864,118.4836],[10.9562,8.8934,113.5518],[10.9602,8.9173,114.5625],[10.9643,8.9318,117.7377],[10.9867,8.9857,116.7263],[10.9913,9.006,118.77],[10.9914,9.0193,119.7372],[10.9926,9.0225,120.4293],[10.9987,9.0225,119.7174],[11.0118,9.047,119.7713],[11.051,9.0731,121.453],[11.0771,9.0797,119.0982],[11.1019,9.0879,120.3059],[11.1301,9.1129,127.5259],[11.18,9.1381,130.9599],[11.2129,9.1458,132.9077],[11.2332,9.155,136.2422],[11.2652,9.1585,144.5028],[11.2905,9.1752,141.2445],[11.3425,9.1954,162.1134],[11.3597,9.2114,137.0171],[11.3668,9.2114,138.8578],[11.3877,9.2236,155.2731],[11.4045,9.2455,145.9655],[11.4165,9.2545,146.7467],[11.4631,9.2867,134.6864],[11.4912,9.2995,137.6345],[11.5244,9.3173,132.8832],[11.5323,9.3255,133.6199],[11.5673,9.3492,142.1717],[11.5874,9.3682,132.0195],[11.6451,9.3897,137.5174],[11.6527,9.3966,137.1679],[11.6374,9.3979,130.2103],[11.614,9.4288,132.8431],[11.5779,9.497,141.9453],[11.5363,9.567,292.2303],[11.5259,9.592,200.5486]]]]}
,"properties": {"GID_2": "NGA.35.8_1","GID_0": "NGA","country": "Nigeria","GID_1": "NGA.35_1","province": "Taraba","NL_NAME_1": "NA","county": "KarimLamido","VARNAME_2": "NA","NL_NAME_2": "NA","TYPE_2": "LocalAuthority","ENGTYPE_2": "LocalAuthority","CC_2": "NA","HASC_2": "NA","name": "Karim_Lamido.county","area_km2": 6901.956,"hist_schema_id": "Elevation0-9000","hist_area_km2": {"100": 226.959,"125": 2073.032,"150": 1158.938,"175": 725.301,"200": 570.713,"225": 369.854,"250": 270.691,"275": 187.824,"300": 189.882,"325": 197.594,"350": 162.038,"375": 122.868,"400": 92.105,"425": 78.845,"450": 69.724,"475": 61.963,"500": 57.758,"525": 51.149,"550": 43.097,"575": 34.941,"600": 30.508,"625": 25.113,"650": 20.806,"675": 16.937,"700": 13.111,"725": 11.521,"750": 9.974,"775": 8.636,"800": 7.318,"825": 5.186,"850": 3.325,"875": 2.258,"900": 0.941,"925": 0.397,"950": 0.272,"975": 0.167,"1000": 0.084,"1025": 0.084}}}