{"type":"Feature","properties":{"GID_2":"NGA.37.5_1","GID_0":"NGA","country":"Nigeria","GID_1":"NGA.37_1","province":"Zamfara","NL_NAME_1":"NA","county":"Bungudu","VARNAME_2":"NA","NL_NAME_2":"NA","TYPE_2":"LocalAuthority","ENGTYPE_2":"LocalAuthority","CC_2":"NA","HASC_2":"NA","name":"Bungudu.county"},
"geometry":{"type": "MultiPolygon","coordinates": [[[[6.3302,11.8608,444.6904],[6.3388,11.8595,451.0789],[6.3597,11.8477,464.0765],[6.3746,11.8372,454.1489],[6.3825,11.8357,463.1356],[6.394,11.8293,475.9033],[6.3991,11.8229,501.9845],[6.404,11.8195,477.1365],[6.4273,11.8109,464.66],[6.4362,11.8022,479.5053],[6.4532,11.7913,496.4149],[6.4644,11.7882,528.6459],[6.4674,11.7889,521.8859],[6.4792,11.7804,525.3364],[6.4834,11.7983,508.3284],[6.4814,11.8161,489.642],[6.4822,11.8242,480.8761],[6.488,11.8312,482.5767],[6.4934,11.8455,501.4446],[6.4972,11.8701,519.3961],[6.5064,11.8829,521.1636],[6.5262,11.9027,507.2929],[6.5349,11.9166,495.1026],[6.5364,11.9303,480.4097],[6.5575,11.9668,487.2304],[6.5628,11.9811,478.9862],[6.5663,12.0013,486.6659],[6.5611,12.0363,476.3719],[6.5545,12.0598,482.3078],[6.5569,12.0714,484.4311],[6.5725,12.0863,491.2585],[6.5783,12.1003,475.1264],[6.5817,12.1146,476.1447],[6.579,12.1303,470.2947],[6.5804,12.1643,443.4371],[6.5882,12.2048,422.2884],[6.5913,12.2311,408.0314],[6.5954,12.2476,428.9293],[6.6016,12.2592,428.7873],[6.6213,12.2813,432.1401],[6.6351,12.2863,433.7055],[6.6643,12.2714,463.6566],[6.6704,12.2596,465.9804],[6.6828,12.242,454.1682],[6.6866,12.23,459.502],[6.7174,12.1677,467.3132],[6.7351,12.1545,454.1943],[6.7524,12.1452,463.1465],[6.7769,12.1383,463.7411],[6.801,12.1371,463.4065],[6.8196,12.1442,484.9139],[6.8272,12.1515,495.877],[6.8321,12.1767,617.5029],[6.83,12.2032,505.327],[6.8202,12.266,448.1523],[6.8223,12.3198,420.0583],[6.8217,12.3402,417.3505],[6.805,12.3393,423.9081],[6.795,12.3417,415.6462],[6.7759,12.3485,421.6808],[6.7679,12.3549,419.4185],[6.7504,12.3595,418.8995],[6.7304,12.3693,399.8398],[6.72,12.3687,417.1281],[6.6862,12.3614,418.8797],[6.6708,12.3555,433.1975],[6.6609,12.3572,435.965],[6.6516,12.3618,442.9856],[6.644,12.3698,436.2216],[6.6252,12.3987,426.0516],[6.6156,12.4087,422.936],[6.599,12.422,424.2512],[6.5928,12.4295,433.8296],[6.5821,12.4497,425.6043],[6.5708,12.4614,432.2561],[6.5493,12.4769,426.6],[6.5124,12.4803,434.2993],[6.5009,12.4799,448.2828],[6.484,12.4751,459.3851],[6.4773,12.47,469.0122],[6.4705,12.4542,446.5879],[6.4668,12.4502,440.5759],[6.4639,12.4417,443.5583],[6.454,12.4279,440.4308],[6.4389,12.411,452.0767],[6.4361,12.4051,462.0305],[6.4365,12.394,471.4903],[6.4407,12.3858,411.1274],[6.4537,12.3739,403.162],[6.4583,12.3656,406.4771],[6.4616,12.3522,416.8136],[6.4623,12.34,413.6397],[6.4502,12.3193,391.6751],[6.449,12.3071,390.4588],[6.4537,12.2976,396.8547],[6.45,12.2844,404.1752],[6.4465,12.2772,409.9519],[6.4278,12.2583,415.86],[6.4019,12.2454,441.4262],[6.3917,12.2374,448.7545],[6.3862,12.23,457.0876],[6.3778,12.2123,485.38],[6.3709,12.1795,486.2354],[6.4019,12.1211,464.2224],[6.4086,12.1048,450.634],[6.4062,12.0939,444.1563],[6.4122,12.0877,441.8384],[6.408,12.0655,428.7336],[6.4093,12.0491,438.426],[6.406,11.9791,448.3435],[6.4012,11.959,460.1317],[6.3748,11.907,459.3833],[6.3632,11.8983,477.0316],[6.3478,11.906,469.6069],[6.3376,11.8983,495.7585],[6.3362,11.8849,448.6269],[6.3302,11.8608,444.6904]]]]}}