{"type":"Feature","properties":{"GID_2":"NGA.10.16_1","GID_0":"NGA","country":"Nigeria","GID_1":"NGA.10_1","province":"Delta","NL_NAME_1":"NA","county":"Patani","VARNAME_2":"NA","NL_NAME_2":"NA","TYPE_2":"LocalAuthority","ENGTYPE_2":"LocalAuthority","CC_2":"NA","HASC_2":"NA","name":"Patani.county"},
"geometry":{"type": "MultiPolygon","coordinates": [[[[6.2938,5.2661,14.2923],[6.2826,5.2727,3.5],[6.2812,5.2751,15.4046],[6.2796,5.2739,15.4046],[6.2747,5.2777,19.1164],[6.2568,5.2349,12.7774],[6.2524,5.2295,3.0],[6.2493,5.2286,3.0],[6.2372,5.2316,10.0413],[6.2313,5.2367,5.3603],[6.2193,5.2409,3.0],[6.2105,5.2398,8.1728],[6.1991,5.2423,17.5758],[6.1958,5.2413,14.5147],[6.189,5.2335,9.4233],[6.1813,5.2302,14.0565],[6.1738,5.2239,17.6831],[6.1721,5.2193,12.9131],[6.1675,5.2256,20.5039],[6.1533,5.2228,9.414],[6.1221,5.2208,18.0789],[6.1092,5.2185,19.4231],[6.0646,5.2048,4.2267],[6.0513,5.2054,6.8804],[6.0065,5.2011,8.025],[5.9962,5.1953,12.4852],[5.9887,5.186,11.9684],[5.9832,5.1725,15.4221],[5.9828,5.1656,9.1926],[5.9755,5.1483,10.1536],[5.9814,5.1482,12.2243],[5.9843,5.138,15.6171],[5.995,5.13,11.0056],[5.9974,5.1214,16.8452],[6.0043,5.1171,17.264],[6.0199,5.1157,16.4578],[6.0279,5.1105,12.8077],[6.0386,5.1108,15.8615],[6.0559,5.1149,18.7673],[6.0714,5.1261,15.9364],[6.0824,5.1509,3.0],[6.0852,5.1527,7.7789],[6.1016,5.1549,11.5338],[6.1147,5.1533,19.3982],[6.1257,5.1485,20.9705],[6.1338,5.1488,18.6038],[6.1601,5.1579,3.0],[6.1687,5.163,4.1549],[6.1748,5.1691,15.2356],[6.1945,5.1755,21.6519],[6.2057,5.1831,3.4755],[6.2064,5.199,8.3431],[6.2024,5.2081,17.2763],[6.2015,5.2206,11.5423],[6.2073,5.2359,3.0],[6.2232,5.2368,8.7195],[6.231,5.2346,8.8567],[6.2373,5.2262,16.3569],[6.2438,5.2249,13.6159],[6.2702,5.2298,4.6164],[6.2779,5.2334,4.4086],[6.2819,5.2391,3.25],[6.2844,5.2399,5.5727],[6.2938,5.2661,14.2923]]]]}}