{"type":"Feature","properties":{"GID_2":"NGA.17.13_1","GID_0":"NGA","country":"Nigeria","GID_1":"NGA.17_1","province":"Imo","NL_NAME_1":"NA","county":"Njaba","VARNAME_2":"NA","NL_NAME_2":"NA","TYPE_2":"LocalAuthority","ENGTYPE_2":"LocalAuthority","CC_2":"NA","HASC_2":"NA","name":"Njaba.county"},
"geometry":{"type": "MultiPolygon","coordinates": [[[[7.0857,5.7155,196.583],[7.0829,5.72,205.5652],[7.0842,5.7269,222.1071],[7.0814,5.729,221.47559999999999],[7.082,5.735,217.4031],[7.0775,5.7393,216.872],[7.0654,5.7325,187.5216],[7.06,5.7411,186.4925],[7.0487,5.7452,169.2625],[7.0191,5.7365,164.3506],[7.0149,5.7373,160.7952],[7.0084,5.7473,149.9974],[7.0047,5.7601,167.1839],[6.9881,5.7497,156.9508],[6.9763,5.7313,139.2486],[6.9782,5.7236,138.534],[6.9867,5.7177,138.2176],[7.0002,5.6963,116.3814],[7.0015,5.6808,84.8951],[7.0054,5.6644,140.9379],[7.0106,5.6556,144.2766],[7.0135,5.6394,140.4196],[7.0584,5.6389,138.4137],[7.0568,5.6442,147.1213],[7.0569,5.6532,151.819],[7.0525,5.6661,152.1982],[7.0537,5.6703,148.6059],[7.0495,5.6791,156.6565],[7.049,5.6929,166.9145],[7.0456,5.7082,119.0542],[7.0552,5.7147,170.2727],[7.0616,5.7162,172.473],[7.0857,5.7155,196.583]]]]}}