{"type": "Feature","bbox": [4.5885,6.3926,4.865,6.7388],"geometry": {"type": "MultiPolygon","coordinates": [[[[4.8544,6.4342,2.908],[4.8467,6.4353,16.2451],[4.8351,6.4433,20.0497],[4.8283,6.4548,28.9063],[4.8268,6.4723,24.0606],[4.8302,6.4854,2.137],[4.8385,6.4988,36.5257],[4.8619,6.5493,17.7839],[4.865,6.5866,33.9691],[4.8473,6.5876,15.627],[4.8161,6.5851,11.6194],[4.8027,6.5951,11.4556],[4.7665,6.6369,21.6725],[4.7451,6.6728,48.261],[4.7351,6.6815,80.6043],[4.7279,6.7044,61.4416],[4.7177,6.7168,68.7448],[4.7088,6.7218,91.4193],[4.6823,6.7275,102.506],[4.6736,6.7313,115.3898],[4.6689,6.7356,122.3417],[4.6545,6.734,116.3726],[4.6401,6.7388,106.2764],[4.6314,6.7327,99.7558],[4.6216,6.7228,94.5482],[4.6161,6.7116,79.4628],[4.6066,6.6788,62.7768],[4.5936,6.6608,44.6832],[4.5885,6.6453,61.1537],[4.5929,6.6431,78.1234],[4.6015,6.6349,61.7716],[4.6072,6.6191,35.0855],[4.6066,6.606,29.6153],[4.597,6.5854,44.9154],[4.593,6.567,33.4042],[4.5926,6.5424,21.6042],[4.5949,6.5394,16.0711],[4.5948,6.5232,26.1626],[4.6172,6.4825,8.6641],[4.6368,6.4638,4.5193],[4.6466,6.4585,14.2344],[4.6476,6.4451,5.65],[4.6714,6.4201,9.1327],[4.6802,6.4073,7.7638],[4.701,6.3979,2.8105],[4.7535,6.3927,13.0957],[4.7687,6.3926,14.853],[4.7873,6.3988,13.0845],[4.8022,6.4063,10.5632],[4.839,6.4138,14.5808],[4.85,6.4233,19.4434],[4.8544,6.4342,2.908]]]]}
,"properties": {"GID_2": "NGA.29.14_1","GID_0": "NGA","country": "Nigeria","GID_1": "NGA.29_1","province": "Ondo","NL_NAME_1": "NA","county": "Okitipupa","VARNAME_2": "NA","NL_NAME_2": "NA","TYPE_2": "LocalAuthority","ENGTYPE_2": "LocalAuthority","CC_2": "NA","HASC_2": "NA","name": "Okitipupa.county","area_km2": 775.4594,"hist_schema_id": "Elevation0-9000","hist_area_km2": {"0": 92.5463,"25": 378.0599,"50": 178.7135,"75": 70.3588,"100": 49.2953,"125": 6.4855}}}