{"type":"Feature","properties":{"GID_2":"NGA.10.18_1","GID_0":"NGA","country":"Nigeria","GID_1":"NGA.10_1","province":"Delta","NL_NAME_1":"NA","county":"Udu","VARNAME_2":"NA","NL_NAME_2":"NA","TYPE_2":"LocalAuthority","ENGTYPE_2":"LocalAuthority","CC_2":"NA","HASC_2":"NA","name":"Udu.county"},
"geometry":{"type": "MultiPolygon","coordinates": [[[[5.8289,5.5432,5.3793],[5.8174,5.5382,6.4967],[5.8046,5.54,6.7899],[5.7899,5.5461,12.9505],[5.7838,5.5436,7.349],[5.7835,5.5381,7.5104],[5.7881,5.5339,1.8903],[5.7903,5.5292,10.1575],[5.7878,5.5194,3.565],[5.7809,5.5038,4.5581],[5.779,5.5018,0.0],[5.775,5.5016,3.7772],[5.777,5.4894,0.0],[5.775,5.4841,5.2414],[5.7709,5.4826,18.102],[5.7611,5.4894,0.3734],[5.7558,5.4952,0.0],[5.7505,5.4901,4.276],[5.7523,5.4884,4.6432],[5.7488,5.4753,4.9633],[5.749,5.4686,10.2001],[5.7591,5.4662,8.7101],[5.7806,5.4545,5.2041],[5.7837,5.451,9.4812],[5.7805,5.4398,15.0399],[5.7909,5.4389,12.8313],[5.7968,5.4337,10.4661],[5.8061,5.4202,10.3543],[5.8096,5.4121,11.738],[5.8139,5.4076,12.3642],[5.8169,5.405,6.6648],[5.8289,5.4035,5.1937],[5.8354,5.405,11.3258],[5.8398,5.4093,7.8013],[5.8645,5.4229,6.021],[5.8745,5.431,6.6949],[5.8816,5.438,6.8131],[5.8829,5.4523,5.3907],[5.8856,5.458,8.4971],[5.8841,5.4684,9.3792],[5.8622,5.4941,12.0749],[5.8328,5.5327,8.4994],[5.8289,5.5432,5.3793]]]]}}