{"type":"Feature","properties":{"ISO3166-1-Alpha-3":"NGA","country":"Nigeria","fill":"#F00","id":"2844","name":"Rivers"},
"geometry":{"type": "MultiPolygon","coordinates": [[[[7.45191,4.47553,12.6235],[7.41635,4.49384,2.2632],[7.40455,4.49803,1.7197],[7.35621,4.4833,1.4808],[7.3462,4.47818,1.689],[7.33692,4.46015,4.1104],[7.34278,4.44709,1.7248],[7.35816,4.43928,0.0],[7.43181,4.4348,0.0],[7.44923,4.43659,0.0],[7.49903,4.45449,4.0344],[7.51441,4.4571,9.472],[7.55258,4.45555,5.4687],[7.57,4.45942,7.3624],[7.57887,4.47138,3.8881],[7.58448,4.48461,2.6972],[7.57423,4.48786,4.4555],[7.54103,4.48444,4.9076],[7.52377,4.48237,2.5949],[7.4878,4.47337,10.5306],[7.46957,4.47138,7.0928],[7.45191,4.47553,12.6235]]],
[[[7.25856,4.49754,1.0249],[7.24317,4.5244,0.6673],[7.2295,4.53278,0.0],[7.2256,4.51618,0.46],[7.22145,4.50666,0.3767],[7.20216,4.48444,1.0799],[7.1797,4.44977,3.94],[7.14772,4.41592,2.6686],[7.13803,4.39704,4.344],[7.14772,4.38508,0.0],[7.18165,4.38203,5.6172],[7.27068,4.40038,0.1785],[7.28484,4.4062,2.8944],[7.29835,4.41474,7.1495],[7.30779,4.42451,8.254],[7.31202,4.44001,4.2365],[7.31227,4.45563,0.542],[7.3143,4.46914,3.3758],[7.32049,4.48102,0.0],[7.33253,4.49189,0.0],[7.31967,4.49653,1.377],[7.27418,4.49189,1.3447],[7.25856,4.49754,1.0249]]],
[[[6.6327,5.47987,23.2088],[6.62619,5.50204,15.8504],[6.65709,5.6596,21.7696],[6.66877,5.69428,30.2248],[6.6358,5.6966,29.7803],[6.60573,5.72317,15.4633],[6.57989,5.60772,27.5335],[6.55984,5.5617,20.6353],[6.55632,5.54129,23.4175],[6.55188,5.51382,23.2664],[6.54692,5.50096,24.6651],[6.53948,5.48948,8.5],[6.51984,5.46876,23.2012],[6.51436,5.46504,18.7402],[6.49617,5.45804,26.7466],[6.49038,5.45354,25.7206],[6.48067,5.44269,21.4986],[6.47467,5.43851,27.3583],[6.47602,5.43649,27.4054],[6.49307,5.39303,16.7471],[6.58557,5.38448,24.2916],[6.61441,5.35006,23.0737],[6.61761,5.34593,21.3922],[6.62009,5.34104,3.5],[6.61999,5.33407,11.6878],[6.61689,5.32864,23.9218],[6.60759,5.32019,24.5062],[6.60573,5.31699,27.1685],[6.60139,5.31389,27.582],[6.58268,5.30955,21.4528],[6.57834,5.30366,23.8789],[6.57575,5.2928,22.6912],[6.56966,5.28224,19.7789],[6.53617,5.24066,9.0998],[6.51178,5.22258,19.1745],[6.48997,5.20232,17.8997],[6.47602,5.1702,12.7079],[6.47064,5.12491,23.5484],[6.46248,5.10349,20.632],[6.4446,5.09447,22.2699],[6.4386,5.08556,17.279],[6.43209,5.06437,15.7949],[6.42765,5.03923,20.4094],[6.42755,5.01876,14.9554],[6.43023,5.00773,3.5],[6.43426,4.99688,20.7277],[6.44005,4.9868,13.9146],[6.44801,4.97778,20.8622],[6.43034,4.95851,14.2524],[6.42052,4.93717,14.4226],[6.41783,4.92223,13.9851],[6.39726,4.89223,14.3474],[6.38631,4.85818,18.3016],[6.38579,4.81743,11.8766],[6.40874,4.7871,14.3694],[6.42248,4.78015,15.9843],[6.43757,4.77878,16.5741],[6.44584,4.76694,14.636],[6.44067,4.74813,15.0511],[6.45142,4.71765,16.9936],[6.48253,4.72051,14.1932],[6.56521,4.75134,11.6204],[6.62712,4.71243,10.1654],[6.63487,4.67636,0.666],[6.65048,4.64344,2.0192],[6.679,4.62202,2.6474],[6.71177,4.60729,4.3979],[6.72262,4.5914,0.0],[6.72264,4.59138,0.0],[6.73609,4.6079,3.9346],[6.73707,4.57856,14.5942],[6.73487,4.56782,5.5619],[6.71241,4.508,12.2346],[6.70875,4.49189,10.6963],[6.70875,4.4571,0.9906],[6.71095,4.45307,0.0],[6.72023,4.44526,0.0],[6.72242,4.44001,4.3276],[6.7212,4.43537,6.5993],[6.71632,4.42813,18.7507],[6.71258,4.36909,0.0],[6.71559,4.35468,0.0],[6.73756,4.34223,0.0],[6.77459,4.33893,0.0],[6.81463,4.34162,0.0],[6.84596,4.34724,0.0],[6.87078,4.36079,10.6757],[6.85792,4.37531,5.7042],[6.83758,4.39289,2.954],[6.83969,4.41608,0.0],[6.82602,4.43195,7.4581],[6.81609,4.46137,5.9289],[6.79615,4.55972,0.0],[6.79811,4.5738,0.0],[6.80299,4.58198,4.8924],[6.82545,4.60114,18.6595],[6.80681,4.63325,2.7686],[6.79371,4.64899,3.9325],[6.78102,4.65571,1.744],[6.77223,4.66303,7.5914],[6.76783,4.68037,5.6132],[6.76393,4.71776,3.018],[6.75563,4.75385,4.7399],[6.74838,4.77167,2.6546],[6.73951,4.7792,3.3387],[6.72682,4.7851,4.5558],[6.72193,4.79947,1.6087],[6.71998,4.81753,1.2798],[6.71559,4.83446,0.0],[6.72429,4.83015,2.602],[6.73276,4.82868,1.7369],[6.74106,4.83015,1.1943],[6.74969,4.83446,7.7018],[6.75123,4.8251,4.4018],[6.75441,4.81794,3.0605],[6.76393,4.80655,0.0],[6.77622,4.81782,1.3814],[6.78533,4.81704,0.2128],[6.78785,4.80842,3.0216],[6.78102,4.79629,3.5632],[6.77068,4.78242,7.0908],[6.76726,4.76968,10.5499],[6.77019,4.74506,1.4599],[6.78549,4.68329,14.1553],[6.80323,4.64981,0.0],[6.82887,4.6352,1.8442],[6.84547,4.62861,5.8084],[6.8484,4.61359,4.3509],[6.84425,4.59748,1.618],[6.83969,4.58739,1.8508],[6.83229,4.57779,2.8312],[6.82545,4.57075,1.6352],[6.82049,4.56086,2.9159],[6.81861,4.54271,3.0459],[6.82293,4.51752,1.802],[6.83383,4.48591,3.172],[6.84929,4.4597,1.7821],[6.86638,4.45087,5.098],[6.85922,4.43354,9.1807],[6.86085,4.41572,11.8281],[6.86866,4.39985,3.9455],[6.88006,4.38817,0.0],[6.90309,4.39655,13.9116],[6.92547,4.39155,12.0361],[6.94744,4.3815,13.7406],[6.96949,4.37458,0.0],[6.96608,4.38044,6.9873],[6.96469,4.385,6.2201],[6.96412,4.38955,8.2967],[6.98276,4.38105,7.2433],[6.9935,4.37629,1.0518],[7.0066,4.37458,0.0],[7.01629,4.37889,0.0],[7.02215,4.3885,0.0],[7.02369,4.39814,0.0],[7.011,4.41413,0.0],[6.9756,4.48444,3.0797],[6.97348,4.508,0.0],[6.98308,4.57685,0.0],[6.97495,4.58967,2.6078],[6.95704,4.59406,3.6414],[6.93849,4.58926,5.2866],[6.92848,4.5738,1.2416],[6.92123,4.58519,0.0],[6.92457,4.59105,0.0],[6.93149,4.59593,0.0],[6.93531,4.60456,1.595],[6.9336,4.61249,0.0],[6.92986,4.61864,14.5536],[6.92156,4.62906,4.419],[6.90748,4.65363,1.9369],[6.9026,4.66694,1.7838],[6.90056,4.68366,0.0],[6.92954,4.65107,3.0558],[6.9402,4.6341,1.546],[6.94899,4.61473,2.3175],[6.95867,4.6188,2.9269],[6.96266,4.62157,1.7686],[6.96664,4.61298,3.6179],[6.97185,4.60908,0.0],[6.97885,4.6079,0.0],[6.98927,4.6079,0.0],[6.96697,4.66747,6.8628],[6.95582,4.68366,9.5502],[6.96022,4.69172,2.1624],[6.95777,4.71552,4.3051],[6.96266,4.73086,0.0],[6.97446,4.70864,3.1979],[6.97853,4.69237,1.7754],[6.98487,4.69208,1.5717],[7.00359,4.71776,4.4151],[7.00807,4.70881,5.0373],[7.01303,4.6872,3.8468],[7.01726,4.67621,0.0],[7.03736,4.65375,1.1656],[7.04396,4.64265,0.8988],[7.03777,4.64472,6.287],[7.02849,4.64643,2.5324],[7.02329,4.64887,3.2459],[7.02573,4.63491,0.822],[7.02296,4.61424,3.8339],[7.01783,4.59561,4.3175],[7.01344,4.58739,2.1432],[7.00221,4.5799,0.9444],[7.00701,4.56314,13.4775],[7.02329,4.53587,2.8302],[7.02589,4.48493,4.1983],[7.03191,4.45991,4.7252],[7.04396,4.43659,0.0],[7.05144,4.43659,0.0],[7.07862,4.44343,0.0],[7.06813,4.45848,0.0],[7.06267,4.47626,7.5856],[7.06528,4.49299,0.0],[7.07862,4.50487,4.5138],[7.07455,4.48526,4.5738],[7.08058,4.47045,15.216],[7.09425,4.45938,4.5444],[7.1128,4.45087,0.0],[7.11232,4.45588,0.0],[7.1128,4.47138,4.7348],[7.13356,4.46304,0.0],[7.15065,4.47061,9.9124],[7.17823,4.50145,0.0],[7.18458,4.51903,0.0],[7.17555,4.53644,0.0],[7.16033,4.55093,0.0],[7.14747,4.56004,0.0],[7.17335,4.5729,1.3246],[7.16969,4.60594,0.0],[7.14723,4.64004,1.3574],[7.11622,4.65571,1.2683],[7.09791,4.66181,3.2201],[7.08863,4.67646,2.6885],[7.07862,4.711,7.6278],[7.07228,4.71809,5.8544],[7.06568,4.71894,5.8124],[7.06039,4.72069,4.3495],[7.05763,4.73086,1.8905],[7.06023,4.73192,0.0],[7.06544,4.73867,3.4352],[7.07049,4.74836,0.0],[7.07179,4.75812,1.6015],[7.08269,4.74274,4.5165],[7.09913,4.69725,3.011],[7.10678,4.68708,2.9493],[7.12485,4.67235,0.0],[7.13315,4.66315,0.0],[7.1364,4.66181,0.0],[7.15821,4.66201,1.724],[7.17237,4.66889,0.0],[7.17888,4.66885,4.2529],[7.18165,4.65941,3.1336],[7.18165,4.63215,2.8607],[7.19044,4.61164,0.9173],[7.25367,4.54271,1.4676],[7.27613,4.51016,1.5902],[7.28102,4.50487,0.8723],[7.32569,4.5117,1.0338],[7.3318,4.52049,0.0],[7.33326,4.52936,0.2177],[7.32838,4.5362,1.7138],[7.30104,4.54182,0.3605],[7.28403,4.55541,0.0],[7.27117,4.56004,0.1208],[7.27735,4.56635,0.813],[7.27027,4.56973,0.4383],[7.26368,4.5738,0.3208],[7.26368,4.57998,0.0585],[7.2732,4.58393,0.0],[7.27662,4.59105,0.1059],[7.27784,4.59805,0.0],[7.28102,4.60114,0.0],[7.29908,4.60204,3.9835],[7.30592,4.60415,6.6845],[7.31202,4.6079,1.0894],[7.32455,4.59077,0.0],[7.34669,4.58031,2.1663],[7.37273,4.57514,3.1125],[7.39772,4.5738,1.6274],[7.43238,4.55541,1.7775],[7.45411,4.55317,0.8618],[7.46274,4.5738,2.4302],[7.46957,4.5738,4.8416],[7.47918,4.56517,2.8571],[7.49049,4.56631,3.2469],[7.50196,4.5727,6.7843],[7.51124,4.57998,4.7222],[7.52784,4.59862,3.4563],[7.5311,4.60114,0.0],[7.52784,4.60956,0.0],[7.51417,4.62592,14.0647],[7.51441,4.63215,10.4409],[7.52272,4.64411,0.5],[7.5228,4.65412,7.3178],[7.5197,4.66511,0.5],[7.51743,4.67992,5.5637],[7.52052,4.68976,14.1176],[7.52784,4.69855,9.873],[7.53353,4.70269,2.8538],[7.53477,4.72664,10.2972],[7.52608,4.76423,6.031],[7.50851,4.79209,12.8036],[7.49632,4.81738,9.7659],[7.42945,4.86208,12.7027],[7.37643,4.86358,9.8821],[7.33829,4.87864,10.1808],[7.29943,4.87795,11.2764],[7.21716,4.86115,14.0908],[7.17654,4.87366,13.897],[7.16332,4.9514,16.2946],[7.26615,5.10938,57.101],[7.27142,5.15788,61.4315],[7.25148,5.1947,32.5859],[7.22181,5.1863,50.6437],[7.18988,5.18247,58.1063],[7.13706,5.19767,51.9413],[7.01118,5.18516,48.949],[6.87021,5.19493,40.1168],[6.76479,5.26332,36.2614],[6.75776,5.27663,35.0885],[6.73378,5.29422,24.7094],[6.72438,5.30505,24.414],[6.72314,5.33967,20.1978],[6.73771,5.37197,26.5518],[6.74587,5.44313,21.002],[6.70464,5.48625,14.0295],[6.66846,5.47734,21.8633],[6.6327,5.47987,23.2088]]]]}}