{"type":"Feature","properties":{"GID_1":"NGA.33_1","GID_0":"NGA","country":"Nigeria","province":"Rivers","VARNAME_1":"NA","NL_NAME_1":"NA","TYPE_1":"State","ENGTYPE_1":"State","CC_1":"NA","HASC_1":"NG.RI","ISO_1":"NG-RI","name":"Rivers.province"},
"geometry":{"type": "MultiPolygon","coordinates": [[[[6.7379,4.8057,0.8641],[6.7365,4.809,0.1741],[6.736,4.8068,0.0],[6.7368,4.8051,0.0],[6.7379,4.8057,0.8641]]],
[[[6.7457,4.811,0.2883],[6.7432,4.8132,0.1694],[6.7443,4.7926,0.5292],[6.7476,4.7935,0.2788],[6.7501,4.7974,1.0552],[6.756,4.7996,0.4391],[6.7551,4.8035,0.2866],[6.7482,4.8071,3.1322],[6.7457,4.811,0.2883]]],
[[[7.0632,4.7285,0.0],[7.0651,4.7279,1.3444],[7.0671,4.7299,0.0],[7.0643,4.7296,2.8787],[7.0632,4.7285,0.0]]],
[[[6.8735,4.7449,2.9993],[6.8749,4.7449,2.1897],[6.8746,4.7468,1.277],[6.8738,4.7457,2.8664],[6.871,4.7465,2.3782],[6.8707,4.7432,2.2792],[6.8732,4.7443,2.9993],[6.8735,4.7449,2.9993]]],
[[[7.0635,4.761,0.0],[7.0638,4.7696,1.1032],[7.0626,4.7696,1.0343],[7.0574,4.7671,1.0135],[7.0574,4.7621,5.8138],[7.0546,4.7576,0.0],[7.0568,4.7499,0.0],[7.0626,4.7418,0.0],[7.0612,4.7326,5.9218],[7.0624,4.729,1.4634],[7.0646,4.7301,2.8787],[7.0751,4.7324,4.7497],[7.0735,4.7432,0.0],[7.0676,4.7507,0.0],[7.0635,4.761,0.0]]],
[[[6.9151,4.7585,0.0],[6.914,4.7601,1.2057],[6.9126,4.7601,0.0],[6.9135,4.7576,1.5961],[6.9151,4.7585,0.0]]],
[[[7.0715,4.7668,0.6411],[7.0704,4.7682,0.872],[7.0699,4.766,3.1725],[7.0715,4.7654,0.0],[7.0715,4.7668,0.6411]]],
[[[7.0757,4.7599,0.0],[7.0765,4.7621,0.0],[7.0746,4.7604,1.9369],[7.0682,4.761,3.4494],[7.0704,4.7535,0.0],[7.0765,4.7463,0.0],[7.079,4.7571,0.9038],[7.076,4.7582,1.9251],[7.0757,4.7599,0.0]]],
[[[6.9201,4.7593,1.2657],[6.921,4.7604,1.2657],[6.9196,4.7621,0.0],[6.9193,4.7607,1.6301],[6.9201,4.7593,1.2657]]],
[[[6.9368,4.7776,1.671],[6.939,4.7807,2.6753999999999998],[6.9368,4.7849,0.9118],[6.9374,4.7888,1.4902],[6.936,4.7888,1.4902],[6.9326,4.7868,0.0],[6.926,4.7724,3.2454],[6.9299,4.7688,4.4731],[6.9299,4.7635,0.0],[6.9354,4.7596,2.2617],[6.9376,4.7551,0.0],[6.9393,4.7551,0.0],[6.9404,4.7571,3.2272],[6.9401,4.7593,0.0],[6.9376,4.7613,5.5875],[6.9382,4.7646,0.0],[6.9315,4.7715,4.2684],[6.9318,4.774,3.6308],[6.9368,4.7776,1.671]]],
[[[6.8626,4.776,0.4217],[6.8649,4.7832,0.4629],[6.8721,4.7896,0.0],[6.8812,4.7949,6.1718],[6.884,4.7979,10.8343],[6.8837,4.8012,2.9481],[6.8518,4.8074,1.0844],[6.8396,4.819,0.0],[6.8282,4.8243,3.1819],[6.8243,4.8226,0.0],[6.8224,4.8115,0.0],[6.8249,4.8032,6.6705],[6.8176,4.7926,1.4293],[6.8146,4.791,2.3847],[6.8085,4.7896,2.1854],[6.804,4.791,0.0],[6.8018,4.8018,6.6815],[6.7924,4.7963,2.896],[6.7899,4.7963,5.0305],[6.7824,4.8021,0.0],[6.7793,4.8026,0.0],[6.7774,4.8004,0.907],[6.7707,4.799,0.0],[6.7638,4.7943,0.1258],[6.7521,4.791,0.0],[6.7529,4.7882,3.4145],[6.7582,4.7843,0.0],[6.764,4.7754,0.2081],[6.7651,4.7651,2.2336],[6.7629,4.7538,2.4353],[6.764,4.7449,0.0],[6.7665,4.741,0.0],[6.7718,4.7404,0.0],[6.7737,4.7487,0.9158],[6.7771,4.7496,0.4406],[6.7846,4.759,2.6703],[6.7888,4.7568,0.0],[6.7965,4.7621,7.7217],[6.8143,4.7551,1.88],[6.816,4.756,8.8073],[6.8163,4.7629,0.5548],[6.8246,4.7674,2.721],[6.8279,4.7665,1.2802],[6.8293,4.764,2.5498],[6.8293,4.7546,8.9872],[6.8351,4.7512,3.724],[6.8418,4.7426,1.6953],[6.8463,4.7396,0.2323],[6.8518,4.7418,3.5359],[6.8524,4.7401,2.657],[6.8507,4.7382,0.8916],[6.8582,4.736,2.9519],[6.8676,4.7285,0.1981],[6.8713,4.7285,0.0],[6.8768,4.7335,0.0],[6.8779,4.7401,3.4106],[6.8768,4.7429,1.3021],[6.8707,4.7418,4.3814],[6.8663,4.7443,2.0356],[6.8696,4.746,2.8674],[6.8701,4.7493,1.5097],[6.8668,4.7515,0.6153],[6.871,4.7526,3.4483],[6.8615,4.7707,2.8555],[6.8626,4.776,0.4217]]],
[[[6.9254,4.7751,1.8812],[6.9288,4.7815,1.0915],[6.9274,4.7835,1.5394],[6.9221,4.7787,1.069],[6.9188,4.7704,0.0],[6.9238,4.7607,1.5813],[6.9274,4.7593,0.0],[6.9299,4.7618,0.0],[6.9279,4.764,0.0],[6.9288,4.7685,3.5164],[6.9251,4.7724,6.3095],[6.9254,4.7751,1.8812]]],
[[[6.9235,4.7885,0.0],[6.924,4.7913,0.7482],[6.9196,4.7879,4.3043],[6.9215,4.7843,1.4679],[6.9229,4.7843,1.4679],[6.9235,4.7885,0.0]]],
[[[6.9382,4.7932,0.344],[6.9296,4.794,0.0],[6.9257,4.7921,0.0],[6.9249,4.7885,0.0],[6.9263,4.7854,0.0],[6.936,4.7899,1.4902],[6.9387,4.7896,0.7642],[6.9399,4.7924,0.0],[6.9382,4.7932,0.344]]],
[[[7.1746,4.6363,0.0],[7.174,4.639,2.9738],[7.1729,4.6388,2.9738],[7.1732,4.6346,4.4553],[7.1715,4.6318,0.2669],[7.1729,4.6296,0.0],[7.1743,4.6326,3.7297],[7.1746,4.6363,0.0]]],
[[[7.2251,4.6321,0.7103],[7.2249,4.6463,0.726],[7.2271,4.6549,0.0],[7.2249,4.6576,0.263],[7.2215,4.6546,1.9298],[7.2196,4.6493,2.7927],[7.216,4.6471,0.7891],[7.2165,4.6451,1.3714],[7.2207,4.6435,1.1621],[7.2204,4.641,1.9293],[7.2171,4.6393,1.4507],[7.2132,4.6393,1.7999],[7.2104,4.6424,1.1671],[7.2082,4.6426,0.8033],[7.206,4.6374,0.7479],[7.2085,4.6357,2.7578],[7.2126,4.6274,1.8454],[7.2146,4.6293,2.5545],[7.2182,4.6296,0.9839],[7.2207,4.6324,1.6239],[7.2251,4.6321,0.7103]]],
[[[6.8304,4.6549,1.2235],[6.8307,4.656,1.288],[6.8263,4.656,5.3105],[6.8176,4.6476,1.8821],[6.8138,4.6485,1.8417],[6.8104,4.6518,0.8944],[6.8085,4.6501,1.2284],[6.8174,4.6418,0.0],[6.8196,4.6443,1.5492],[6.8312,4.6451,0.0],[6.8296,4.6504,0.7564],[6.8304,4.6549,1.2235]]],
[[[6.839,4.6579,5.9937],[6.8379,4.6601,2.7297],[6.8363,4.6599,1.3289],[6.8304,4.6538,1.2235],[6.8318,4.646,0.0],[6.8332,4.6451,7.2736],[6.8351,4.6476,3.8744],[6.8446,4.6479,4.2458],[6.839,4.6579,5.9937]]],
[[[6.9801,4.6743,0.0],[6.9807,4.676,0.4745],[6.9768,4.6757,0.491],[6.9788,4.6726,0.0],[6.9801,4.6743,0.0]]],
[[[6.9949,4.6835,1.6337],[6.9924,4.684,0.2875],[6.9918,4.6799,0.8401],[6.9929,4.6776,0.5141],[6.996,4.6765,0.0],[6.9982,4.6799,0.7848],[6.9949,4.6835,1.6337]]],
[[[6.9815,4.6868,1.7837],[6.9799,4.6888,0.5848],[6.9771,4.6843,0.3397],[6.9771,4.6829,0.3761],[6.9799,4.6818,7.09],[6.9793,4.6782,1.5017],[6.9896,4.6779,0.0],[6.9888,4.691,0.6069],[6.9865,4.6918,1.3692],[6.9835,4.686,2.2983],[6.9815,4.6868,1.7837]]],
[[[7.1257,4.6318,6.6513],[7.124,4.6338,1.1065],[7.121,4.6332,5.8795],[7.1201,4.626,4.292],[7.1246,4.6146,0.0],[7.1285,4.611,0.5094],[7.1307,4.6129,0.0],[7.1318,4.6185,0.3526],[7.1257,4.6318,6.6513]]],
[[[7.1587,4.6685,0.0],[7.1568,4.671,0.0],[7.1557,4.6635,0.0],[7.1593,4.6649,0.0],[7.1587,4.6685,0.0]]],
[[[7.111,4.664,0.0],[7.106,4.6651,0.8653],[7.1049,4.6585,2.9028],[7.1004,4.6551,3.0089],[7.1165,4.6371,0.0],[7.121,4.6368,0.6485],[7.1215,4.6412,1.7273],[7.1257,4.6485,1.162],[7.1318,4.6521,0.0],[7.1301,4.6551,0.0],[7.111,4.664,0.0]]],
[[[7.0088,4.6665,0.7895],[7.006,4.6715,0.3391],[6.9965,4.6687,1.6129],[6.9932,4.6704,2.1601],[6.9901,4.6749,0.8274],[6.9829,4.6751,0.2724],[6.9815,4.6729,1.2388],[6.984,4.6624,0.2197],[6.9868,4.6632,1.8912],[6.9846,4.6646,0.727],[6.9857,4.6663,1.485],[6.9901,4.6643,1.0215],[6.9976,4.6646,0.573],[6.999,4.6671,0.8987],[7.0004,4.6657,2.4214],[6.9988,4.664,0.573],[7.0001,4.6626,2.4404],[7.0001,4.6585,0.8481],[7.0029,4.6565,0.0],[7.0007,4.6524,0.0],[7.0015,4.6485,2.134],[6.9993,4.6468,1.6389],[6.9974,4.6482,0.0],[6.9949,4.6471,0.9299],[6.9926,4.6421,0.0],[6.9932,4.6332,0.0],[6.996,4.6301,0.0],[6.9999,4.6301,0.0],[7.0074,4.6346,1.687],[7.0099,4.6338,5.5004],[7.0118,4.6304,0.0],[7.0151,4.6301,0.0],[7.0182,4.6318,0.0],[7.0196,4.6349,3.0443],[7.0185,4.6379,0.4706],[7.0118,4.6424,0.0],[7.0082,4.6474,0.0],[7.009,4.6535,1.084],[7.0135,4.6574,2.5709],[7.0085,4.6629,0.4227],[7.0088,4.6665,0.7895]]],
[[[7.1049,4.666,0.0],[7.1035,4.6671,0.0],[7.0971,4.6665,2.7928],[7.0901,4.6615,2.3677],[7.0899,4.6565,2.3797],[7.0932,4.6549,0.0],[7.1021,4.6565,1.4173],[7.104,4.6585,1.0007],[7.1049,4.666,0.0]]],
[[[6.9965,4.6629,0.5976],[6.9926,4.6635,1.7096],[6.9879,4.6618,1.9784],[6.9879,4.6546,0.9757],[6.9924,4.6482,0.464],[6.999,4.6488,1.4011],[6.9993,4.6532,1.6378],[7.0015,4.6551,0.0],[7.0013,4.6576,0.8481],[6.9982,4.6585,1.5738],[6.999,4.661,0.789],[6.9965,4.6629,0.5976]]],
[[[7.0199,4.6601,0.0],[7.0215,4.661,3.3586],[7.0212,4.6621,0.0],[7.0188,4.661,0.8653],[7.0199,4.6601,0.0]]],
[[[7.0971,4.6732,1.0068],[7.0946,4.6743,0.0],[7.0965,4.6701,0.0],[7.0993,4.671,0.9465],[7.0985,4.6721,0.0],[7.0971,4.6732,1.0068]]],
[[[7.0082,4.6838,0.0],[7.0049,4.6846,0.6343],[7.0026,4.679,0.0],[7.0038,4.6751,0.0],[7.0096,4.6687,0.5581],[7.0104,4.6624,1.0538],[7.0188,4.6626,0.847],[7.0215,4.6654,1.0598],[7.021,4.6701,1.793],[7.0082,4.6838,0.0]]],
[[[7.0013,4.6743,2.1422],[7.0018,4.6782,0.6376],[6.9974,4.6718,0.8914],[7.001,4.6721,1.8305],[7.0013,4.6743,2.1422]]],
[[[6.7974,4.6987,1.3617],[6.7982,4.6999,0.0],[6.7963,4.7046,0.4986],[6.7996,4.7082,0.9938],[6.7996,4.7101,0.5304],[6.7976,4.7126,0.9418],[6.7965,4.7182,0.0],[6.7974,4.7249,0.0],[6.794,4.7262,3.0988],[6.7982,4.7251,0.0],[6.8035,4.7262,3.8844],[6.8026,4.7224,0.0],[6.7996,4.721,0.0],[6.7982,4.7182,3.7393],[6.7982,4.7129,2.5556],[6.8001,4.7104,1.1256],[6.8001,4.7079,2.4486],[6.7968,4.7043,0.4986],[6.7985,4.7001,0.0],[6.8138,4.6949,3.0203],[6.8179,4.6896,0.0],[6.8201,4.6896,0.5183],[6.8263,4.6946,1.3935],[6.8257,4.7071,4.1032],[6.8276,4.7118,0.7259],[6.8315,4.711,2.0443],[6.8335,4.7032,1.6774],[6.8354,4.7026,8.0182],[6.839,4.7043,1.1569],[6.8404,4.7088,6.4244],[6.8438,4.7085,0.0],[6.846,4.7118,1.4642],[6.8549,4.7076,6.8497],[6.859,4.7176,4.5513],[6.8632,4.7207,1.6037],[6.8646,4.7268,0.0],[6.8618,4.7301,0.687],[6.8538,4.736,0.0],[6.8476,4.7368,1.9657],[6.8407,4.7407,5.6586],[6.8357,4.7487,5.2429],[6.8285,4.7532,14.6276],[6.8268,4.7588,5.5164],[6.8285,4.7638,8.9148],[6.8263,4.766,2.5542],[6.8182,4.7632,0.5548],[6.8171,4.7563,1.7398],[6.8138,4.7543,2.486],[6.7963,4.7607,2.0746],[6.7926,4.7593,1.5515],[6.7893,4.7554,4.2431],[6.7843,4.7571,0.6729],[6.7821,4.7538,0.7473],[6.7824,4.7487,0.0],[6.789,4.7401,1.8256],[6.7854,4.741,0.0],[6.784,4.7388,0.3848],[6.7818,4.7421,0.0],[6.7768,4.7438,0.0],[6.769,4.7346,6.1733],[6.7704,4.7279,0.5845],[6.7749,4.7188,0.0],[6.7818,4.6863,2.6034],[6.7812,4.6687,0.0],[6.7913,4.6643,3.8922],[6.8065,4.6532,0.6235],[6.8124,4.6538,5.4958],[6.8151,4.6485,1.6728],[6.8182,4.6488,17.504],[6.8254,4.6565,5.3105],[6.8315,4.6571,3.3145],[6.8321,4.6624,2.8139],[6.824,4.6699,3.7626],[6.8229,4.6729,0.0],[6.8193,4.674,1.7701],[6.8188,4.6774,1.4543],[6.8221,4.6743,0.5264],[6.824,4.6782,0.8222],[6.819,4.6879,0.2853],[6.8143,4.6899,1.2877],[6.8129,4.6929,0.0],[6.8093,4.6937,1.8352],[6.8046,4.6979,2.4807],[6.7974,4.6987,1.3617]]],
[[[7.0782,4.7221,0.0],[7.0688,4.7232,1.6277],[7.0471,4.7215,2.8951],[7.039,4.7165,0.6633],[7.0368,4.7124,1.3563],[7.0424,4.7051,0.0],[7.0579,4.706,4.3496],[7.0715,4.7024,2.1679],[7.0754,4.7026,2.2472],[7.079,4.7038,0.0],[7.0788,4.7082,2.8897],[7.0818,4.7151,0.0],[7.081,4.7204,3.3988],[7.0782,4.7221,0.0]]],
[[[6.9974,4.6943,1.6656],[6.996,4.6957,0.0],[6.9926,4.6949,0.9495],[6.9901,4.6879,1.3363],[6.991,4.686,0.0],[6.9968,4.6857,2.6183],[7.0013,4.6826,0.9452],[7.0038,4.686,0.7682],[6.9974,4.6943,1.6656]]],
[[[6.9954,4.6974,0.0],[6.9976,4.6993,1.394],[6.9979,4.7021,2.9669],[6.999,4.6996,1.394],[6.9976,4.6962,3.4253],[7.0001,4.694,0.6414],[7.0007,4.6974,3.616],[7.004,4.701,2.3496],[7.0007,4.7074,0.0],[6.9988,4.7071,0.0],[6.9954,4.7024,3.3904],[6.9918,4.7035,2.2246],[6.9904,4.7024,0.886],[6.9879,4.7024,3.055],[6.9851,4.7043,2.0605],[6.9804,4.7026,2.8992],[6.9782,4.7043,0.0],[6.9721,4.704,0.0],[6.9701,4.6924,0.0],[6.9726,4.6804,0.0],[6.9771,4.679,1.0409],[6.9749,4.6871,1.9344],[6.9774,4.6857,0.9955],[6.9785,4.691,1.8404],[6.9835,4.6868,2.2983],[6.9857,4.694,2.3818],[6.9901,4.6935,0.0],[6.9907,4.6951,2.1787],[6.9954,4.6974,0.0]]],
[[[6.9101,4.7715,0.0],[6.9143,4.7749,0.753],[6.916,4.7787,4.3063],[6.9118,4.7851,2.6723],[6.9118,4.7915,0.4611],[6.9076,4.7935,3.4086],[6.8999,4.7938,0.0],[6.899,4.7913,4.0995],[6.901,4.7868,4.1099],[6.8996,4.786,3.7543],[6.8985,4.7896,3.8445],[6.8949,4.7893,0.0],[6.8946,4.7918,0.0],[6.8896,4.7929,6.419],[6.8885,4.7957,1.3984],[6.8862,4.7963,0.0],[6.8768,4.7874,0.9819],[6.8663,4.7813,4.0185],[6.8646,4.7707,11.122],[6.8713,4.759,0.0],[6.8796,4.7493,0.0],[6.8821,4.7363,0.0],[6.8701,4.7207,1.1782],[6.8671,4.7146,0.0],[6.8668,4.7101,3.6767],[6.8676,4.7076,0.0],[6.8707,4.706,3.8102],[6.8879,4.7018,0.0],[6.8918,4.6993,2.044],[6.9024,4.6871,2.3114],[6.9085,4.6824,0.0],[6.9193,4.6663,2.429],[6.9249,4.6665,2.1206],[6.9301,4.6651,4.3824],[6.9321,4.6707,1.8329],[6.9354,4.6699,3.2831],[6.9379,4.6671,3.0532],[6.9379,4.671,2.321],[6.9429,4.6768,6.728],[6.9446,4.6746,7.3477],[6.9529,4.6757,0.9317],[6.9538,4.6835,2.8097],[6.9618,4.6868,0.0],[6.964,4.7079,2.2025],[6.9585,4.7207,0.8934],[6.9612,4.7338,0.0],[6.9574,4.7385,2.5062],[6.951,4.7418,2.8424],[6.9471,4.7487,1.2551],[6.9438,4.7474,4.4616],[6.9468,4.7493,0.0],[6.9463,4.7546,0.0],[6.9376,4.7529,1.2056],[6.9329,4.7579,2.0969],[6.926,4.7576,0.0],[6.9215,4.7538,2.8875],[6.9188,4.7554,6.3475],[6.9168,4.7518,14.537],[6.9107,4.7607,1.0066],[6.9051,4.7654,4.4148],[6.9051,4.7665,0.0],[6.9076,4.7665,0.0],[6.9101,4.7715,0.0]]],
[[[7.0049,4.7032,0.0],[7.0074,4.7032,1.4237],[7.0168,4.7088,4.6485],[7.0204,4.709,2.2001],[7.0221,4.7121,0.0],[7.0174,4.7235,2.6582],[7.0046,4.7349,6.4548],[7.0004,4.7426,0.2248],[6.9996,4.749,0.0],[7.001,4.7574,4.4158],[7.0068,4.7721,0.0],[7.0046,4.7732,0.0],[7.0007,4.7699,3.3507],[6.9904,4.7671,0.0],[6.9751,4.7551,4.9548],[6.9649,4.7535,5.9849],[6.961,4.7563,0.0],[6.9643,4.7701,6.2279],[6.9588,4.7743,0.0],[6.9538,4.7726,2.9493],[6.9474,4.7732,3.9972],[6.9429,4.7826,4.4839],[6.9424,4.7879,0.9323],[6.9412,4.7888,0.0],[6.9393,4.7874,0.0],[6.9401,4.7799,4.0608],[6.9329,4.7721,0.0],[6.9379,4.7674,9.166],[6.9418,4.7596,1.1216],[6.9496,4.7551,0.0],[6.9524,4.7446,3.0086],[6.9626,4.7396,4.2802],[6.9668,4.7318,2.0286],[6.9662,4.7179,0.0],[6.9699,4.7079,0.0],[6.974,4.7063,1.713],[6.9746,4.7046,0.0],[6.9782,4.7051,0.0],[6.9818,4.7035,2.3954],[6.9826,4.7046,4.1529],[6.9854,4.7049,2.0605],[6.9901,4.7029,0.886],[6.9912,4.704,2.397],[6.9957,4.7046,2.6615],[6.9979,4.7085,0.0],[6.996,4.7121,0.0],[6.996,4.7171,4.9313],[7.0004,4.7146,1.8472],[7.0007,4.7171,5.3104],[7.0018,4.7149,3.4769],[6.9999,4.7132,2.9741],[6.9996,4.7096,3.0177],[7.0049,4.7032,0.0]]],
[[[6.6974,4.4502,0.0],[6.6974,4.4504,0.0],[6.6972,4.4504,0.0],[6.6973,4.4503,0.0],[6.6974,4.4502,0.0]]],
[[[6.9715,4.3765,0.0],[6.9704,4.3796,2.1648],[6.9685,4.3787,1.7103],[6.9696,4.3746,0.0],[6.9715,4.3749,0.0],[6.9715,4.3765,0.0]]],
[[[6.9443,4.4407,1.3968],[6.9429,4.4424,0.0],[6.9407,4.4418,1.8709],[6.9357,4.4346,3.4034],[6.9329,4.4354,1.9636],[6.9307,4.4404,4.8941],[6.9296,4.4365,2.4865],[6.9257,4.4326,4.9444],[6.926,4.4268,4.428],[6.929,4.4215,0.0],[6.9343,4.4246,1.3428],[6.9385,4.4229,2.1907],[6.9387,4.4201,2.5898],[6.9346,4.4132,3.9953],[6.9351,4.4118,0.0],[6.9438,4.4088,2.2593],[6.9524,4.411,7.7025],[6.9546,4.409,5.3603],[6.9565,4.4021,8.1066],[6.9646,4.4032,0.0],[6.9646,4.4079,0.0],[6.9565,4.419,0.0],[6.9596,4.4287,5.8219],[6.9524,4.4293,0.0],[6.949,4.4313,1.7138],[6.9443,4.4407,1.3968]]],
[[[7.229,4.4557,0.8814],[7.2276,4.456,0.0],[7.2265,4.4568,0.0],[7.2276,4.4546,0.0],[7.229,4.4557,0.8814]]],
[[[7.2274,4.4488,1.0021],[7.2251,4.4501,2.7685],[7.2246,4.4482,2.7315],[7.2263,4.4482,1.3219],[7.2274,4.4488,1.0021]]],
[[[6.7562,4.4618,6.904],[6.754,4.4629,0.8886],[6.7507,4.4601,0.0],[6.7565,4.4601,0.0],[6.7562,4.4618,6.904]]],
[[[7.3304,4.449,0.4039],[7.3399,4.4438,1.9988],[7.3679,4.4426,3.4303],[7.4199,4.4349,0.0],[7.4321,4.4365,0.0],[7.4368,4.4393,2.2106],[7.441,4.439,0.8868],[7.4801,4.4485,1.1889],[7.5037,4.4515,1.6064],[7.5401,4.4526,3.4941],[7.5788,4.4501,0.0],[7.5832,4.4521,2.1423],[7.5835,4.4579,0.4903],[7.5815,4.4604,2.4062],[7.5793,4.4601,3.6443],[7.5801,4.4718,1.2458],[7.5882,4.491,0.0],[7.5826,4.4924,2.1528],[7.5771,4.4974,0.0],[7.5724,4.4963,0.79],[7.5701,4.4913,1.6374],[7.5671,4.489,0.7191],[7.5618,4.4893,4.1332],[7.5599,4.4921,0.5243],[7.5574,4.4924,0.0],[7.5565,4.4807,0.0],[7.5538,4.4765,3.7334],[7.5496,4.4768,5.2499],[7.5438,4.481,3.237],[7.5468,4.4938,0.0],[7.5363,4.4871,0.0],[7.5282,4.4782,6.219],[7.5193,4.4793,4.9861],[7.5165,4.4826,0.0],[7.5104,4.4851,1.0594],[7.5037,4.4807,6.5632],[7.4985,4.4804,7.3455],[7.4874,4.4837,2.8367],[7.4838,4.4868,1.8185],[7.4815,4.4851,3.5422],[7.4796,4.479,4.1065],[7.4726,4.4774,1.1938],[7.4765,4.4829,0.9434],[7.4688,4.4849,0.0],[7.4588,4.4849,1.3556],[7.441,4.4913,0.4148],[7.4396,4.4904,0.0],[7.4393,4.4849,5.4132],[7.434,4.4849,2.5187],[7.431,4.481,0.9158],[7.4288,4.4818,1.036],[7.4307,4.4865,4.1041],[7.4368,4.4882,0.5993],[7.4368,4.4896,0.6812],[7.4338,4.491,0.0],[7.4274,4.4899,2.4147],[7.4249,4.4915,1.4331],[7.4201,4.4854,3.2939],[7.4149,4.4857,1.9758],[7.4065,4.4993,0.4584],[7.4038,4.4968,2.175],[7.4018,4.5004,1.1386],[7.3987,4.4993,1.843],[7.3965,4.5007,1.7933],[7.3976,4.496,0.0],[7.3951,4.4957,0.9043],[7.3901,4.5018,1.695],[7.3885,4.5065,1.527],[7.3863,4.5068,3.4267],[7.3774,4.4976,0.7585],[7.351,4.4913,0.0],[7.3501,4.4851,0.8588],[7.3454,4.4812,0.664],[7.3468,4.4788,0.5575],[7.3499,4.4782,0.5968],[7.3532,4.4829,1.5073],[7.3554,4.4835,0.4141],[7.3571,4.479,0.9477],[7.3596,4.4788,0.3168],[7.3604,4.481,0.0],[7.359,4.4849,0.5631],[7.3596,4.4871,1.4291],[7.3621,4.4865,0.6263],[7.3626,4.4837,0.2702],[7.366,4.4843,0.0],[7.3676,4.4868,0.3758],[7.3674,4.4851,0.0],[7.3701,4.4854,0.9499],[7.3693,4.4837,0.0],[7.3707,4.4824,1.1969],[7.3726,4.4835,0.5496],[7.3721,4.4846,0.0],[7.3793,4.4857,1.8129],[7.376,4.4843,1.1456],[7.3776,4.4826,0.0],[7.3715,4.4815,0.5962],[7.3682,4.4776,0.825],[7.3632,4.4765,1.2258],[7.3679,4.4804,0.0],[7.3618,4.4824,0.2702],[7.3607,4.4857,0.0],[7.3596,4.4854,1.1078],[7.361,4.4812,0.0],[7.3599,4.4782,2.0426],[7.3565,4.4785,1.8048],[7.3543,4.4826,0.4141],[7.3515,4.4779,1.1958],[7.3471,4.4779,1.689],[7.3454,4.4793,0.5575],[7.3449,4.4818,1.6924],[7.3493,4.4851,0.8588],[7.3496,4.4888,0.9043],[7.3454,4.4888,0.0],[7.3426,4.4863,0.0],[7.3382,4.474,0.0],[7.3396,4.4657,0.8023],[7.3349,4.4615,1.5227],[7.3349,4.4585,1.6617],[7.3365,4.4571,1.6617],[7.3351,4.4532,0.3688],[7.3304,4.449,0.4039]]],
[[[7.4793,4.4815,1.1017],[7.479,4.4844,0.0],[7.476,4.4793,0.4932],[7.4793,4.4807,1.1017],[7.4793,4.4815,1.1017]]],
[[[7.4801,4.4876,0.0],[7.4782,4.4874,0.0],[7.4779,4.4854,0.0],[7.4787,4.4857,0.0],[7.4801,4.4876,0.0]]],
[[[7.2099,4.4807,2.1169],[7.2126,4.4788,1.9559],[7.2149,4.4804,0.6077],[7.2199,4.481,1.3573],[7.2229,4.484,1.5334],[7.2196,4.4799,2.4934],[7.2151,4.4796,0.6077],[7.2135,4.4779,0.9577],[7.2188,4.4724,2.2593],[7.2268,4.4721,3.6924],[7.2274,4.4693,2.0083],[7.2246,4.4646,3.12],[7.2254,4.4585,0.0],[7.2296,4.456,0.8814],[7.2326,4.4474,2.0623],[7.2385,4.4485,1.0861],[7.2393,4.4515,1.4758],[7.2393,4.4465,0.0],[7.2487,4.446,3.4925],[7.2476,4.4446,2.592],[7.2343,4.4446,1.4456],[7.2426,4.4374,3.3924],[7.2279,4.4479,0.0],[7.219,4.4471,3.8678],[7.2174,4.4463,0.9329],[7.2163,4.4421,3.7541],[7.2126,4.4418,4.3165],[7.2107,4.4426,4.6211],[7.2096,4.4474,4.7913],[7.2071,4.4485,2.1761],[7.2054,4.4471,2.1761],[7.2029,4.4385,0.3893],[7.1951,4.4357,0.3861],[7.1865,4.4424,1.345],[7.1824,4.4404,1.9822],[7.1793,4.4415,2.0472],[7.1746,4.4479,0.943],[7.1749,4.4588,0.0],[7.1726,4.4588,0.0],[7.1701,4.4571,0.0],[7.1651,4.4435,3.571],[7.1615,4.441,0.0],[7.1601,4.4371,2.3802],[7.1576,4.4368,0.0],[7.1582,4.4351,3.2485],[7.1543,4.4315,1.4884],[7.154,4.4287,0.3229],[7.1479,4.4254,0.0],[7.1493,4.4232,0.6627],[7.1457,4.4193,4.3643],[7.1504,4.4163,2.6996],[7.1468,4.416,3.1523],[7.1443,4.4176,0.7174],[7.1426,4.4163,0.0],[7.1429,4.4132,4.6292],[7.1371,4.416,0.0],[7.1385,4.414,0.3329],[7.1382,4.4096,2.7378],[7.1457,4.4074,2.5228],[7.151,4.4032,1.601],[7.1546,4.4029,0.0],[7.154,4.4049,0.0],[7.1565,4.4051,0.4559],[7.1568,4.4029,0.0],[7.1693,4.4024,2.536],[7.1693,4.401,0.0],[7.1512,4.4024,1.601],[7.1454,4.4068,2.9074],[7.1388,4.4074,2.079],[7.1368,4.409,0.0],[7.1382,4.4068,1.5462],[7.1335,4.4024,0.0],[7.1326,4.3979,0.0],[7.1349,4.3849,0.0],[7.1568,4.3838,4.631],[7.1726,4.3804,0.0],[7.1904,4.379,2.335],[7.209,4.3807,2.7241],[7.2282,4.3863,1.1715],[7.2579,4.3982,1.4671],[7.2596,4.3968,0.0],[7.2612,4.3976,0.1595],[7.261,4.3993,1.4549],[7.2751,4.4021,1.8687],[7.326,4.4182,1.9402],[7.3263,4.4218,5.8132],[7.3196,4.4313,2.6102],[7.3168,4.4388,1.0222],[7.3168,4.4574,0.0],[7.3154,4.4618,0.4245],[7.3165,4.4676,1.6924],[7.3204,4.4749,2.8967],[7.316,4.4782,0.7011],[7.3124,4.4796,0.0],[7.3082,4.4785,2.4634],[7.304,4.4701,1.9445],[7.2976,4.4668,4.2262],[7.2929,4.4685,1.9673],[7.289,4.4729,1.1106],[7.2846,4.4749,4.3891],[7.2826,4.4779,3.0964],[7.2818,4.4843,0.0],[7.2738,4.4812,0.4845],[7.2685,4.4771,0.2654],[7.2618,4.4768,0.9953],[7.2593,4.4801,0.3063],[7.2587,4.4857,1.6435],[7.2571,4.4876,0.2155],[7.2457,4.4874,1.2221],[7.2468,4.4935,0.0],[7.2401,4.496,1.1097],[7.2401,4.5015,0.6867],[7.2346,4.5032,0.4031],[7.2318,4.4979,0.1383],[7.2274,4.4976,0.4802],[7.2193,4.506,0.102],[7.2151,4.5082,0.0],[7.2118,4.5026,0.1127],[7.2071,4.4999,0.0],[7.2046,4.4963,0.0652],[7.199,4.4938,0.0],[7.1957,4.4874,0.0],[7.1971,4.481,1.62],[7.2001,4.4785,0.0],[7.2026,4.4804,0.5721],[7.2063,4.479,0.6593],[7.2099,4.4807,2.1169]]],
[[[6.909,4.4613,0.0],[6.9063,4.4621,0.0],[6.8885,4.4532,4.5577],[6.8835,4.4454,2.3995],[6.8757,4.4399,1.7812],[6.8676,4.4404,4.007],[6.8596,4.449,0.0],[6.8571,4.449,0.0],[6.8546,4.4449,1.6103],[6.8488,4.4404,1.6804],[6.8576,4.4074,6.9353],[6.8615,4.3979,0.0],[6.8724,4.3929,0.7461],[6.8899,4.3929,7.4918],[6.9007,4.3913,9.6507],[6.9226,4.3849,0.5019],[6.9463,4.3757,3.5089],[6.9526,4.3746,0.0],[6.9646,4.3754,0.0],[6.9687,4.3799,2.1648],[6.9685,4.3868,7.7721],[6.966,4.3943,3.1158],[6.9668,4.3999,1.0074],[6.9557,4.401,3.1328],[6.9518,4.4093,1.5099],[6.9435,4.4071,1.2327],[6.9326,4.4121,0.8695],[6.9335,4.4163,2.0913],[6.9368,4.4185,0.0],[6.9368,4.4221,0.0],[6.9349,4.4232,4.5134],[6.9313,4.4199,2.0806],[6.9271,4.421,0.6648],[6.9229,4.4365,4.0288],[6.9126,4.4424,3.8315],[6.9107,4.446,1.9729],[6.9088,4.4532,7.0857],[6.911,4.459,0.0],[6.909,4.4613,0.0]]],
[[[7.2146,4.4763,2.6885],[7.2118,4.4776,0.8051],[7.2082,4.4751,1.2013],[7.2107,4.4715,0.9589],[7.211,4.4676,1.0534],[7.2054,4.4676,0.9395],[7.1993,4.4713,0.3346],[7.1982,4.4676,1.2092],[7.1996,4.4626,1.7397],[7.1979,4.4596,3.7133],[7.1954,4.4596,3.3585],[7.1929,4.4615,1.2926],[7.1896,4.4718,0.2213],[7.1843,4.4715,0.0],[7.1821,4.4688,0.0],[7.1812,4.4638,0.0],[7.1757,4.4601,0.0],[7.1757,4.4496,0.4919],[7.1799,4.4421,0.3633],[7.1885,4.4432,0.0],[7.1938,4.4376,3.5931],[7.1979,4.4368,0.8298],[7.2024,4.4388,3.9184],[7.2057,4.4488,9.4008],[7.2079,4.449,7.2422],[7.2101,4.4476,4.7913],[7.2118,4.4426,2.9205],[7.2149,4.4429,3.7285],[7.2168,4.4468,0.9329],[7.2185,4.4476,3.8678],[7.2238,4.4479,2.7315],[7.226,4.4551,0.0],[7.2235,4.4626,4.3292],[7.2263,4.4713,1.5841],[7.2188,4.4715,2.203],[7.2146,4.4763,2.6885]]],
[[[7.3171,4.4638,0.0],[7.3176,4.4626,0.0],[7.3179,4.4671,1.6924],[7.3168,4.4665,0.8188],[7.3171,4.4638,0.0]]],
[[[7.2099,4.4771,1.9594],[7.2112,4.4779,1.9594],[7.2101,4.4801,0.4282],[7.2068,4.4785,1.1324],[7.2035,4.4796,0.0],[7.2001,4.4774,0.0],[7.1965,4.4796,1.3472],[7.1951,4.4835,0.1677],[7.1935,4.4826,0.2952],[7.189,4.4746,0.5401],[7.1921,4.4707,0.8589],[7.1935,4.4618,1.2926],[7.1976,4.4601,3.7133],[7.1985,4.464,0.0],[7.1968,4.4696,2.3591],[7.1988,4.4721,2.8881],[7.2076,4.4685,1.0173],[7.2071,4.4743,2.4442],[7.2099,4.4771,1.9594]]],
[[[6.8265,4.5076,2.7304],[6.8254,4.5118,1.2473],[6.8224,4.5112,0.0],[6.8351,4.4801,2.3705],[6.8351,4.474,0.0],[6.8388,4.4615,0.0],[6.8474,4.4488,3.2119],[6.8515,4.4479,0.7266],[6.8576,4.4515,0.0],[6.8624,4.4515,1.895],[6.8685,4.4432,0.0],[6.874,4.4418,0.0],[6.8896,4.4582,5.9644],[6.9026,4.4635,0.0],[6.9076,4.4715,2.7735],[6.9085,4.4765,15.7743],[6.9035,4.4779,11.3505],[6.8938,4.486,2.0979],[6.8865,4.4771,1.2536],[6.8782,4.4738,2.2245],[6.874,4.4771,1.0922],[6.8721,4.4885,9.6076],[6.8679,4.4879,1.5875],[6.8601,4.4963,3.6099],[6.8504,4.5007,1.0921],[6.8488,4.5037,2.0278],[6.8438,4.5012,1.0615],[6.8365,4.5001,2.5717],[6.8282,4.5043,1.6379],[6.8265,4.5076,2.7304]]],
[[[6.8543,4.6065,18.1896],[6.8496,4.6076,3.5764],[6.8471,4.606,0.0],[6.8435,4.599,1.1967],[6.8382,4.599,0.0],[6.8351,4.5974,0.0],[6.8307,4.5907,1.8572],[6.8301,4.5857,3.0682],[6.826,4.5857,0.0],[6.8249,4.584,0.772],[6.819,4.5824,0.0],[6.814,4.576,0.0],[6.8138,4.5632,2.2484],[6.811,4.5551,0.0],[6.8124,4.5426,2.6931],[6.8157,4.5346,0.4548],[6.816,4.5293,0.0],[6.8218,4.5165,0.0],[6.8285,4.514,0.0],[6.8332,4.5054,1.872],[6.8354,4.5071,0.0],[6.8368,4.514,2.5553],[6.8415,4.5163,0.0],[6.8429,4.5199,18.5262],[6.8449,4.5154,3.0366],[6.8496,4.5174,2.4914],[6.8488,4.5149,0.0],[6.8504,4.5126,3.9954],[6.8582,4.5121,1.6803],[6.8504,4.5099,3.9472],[6.8496,4.5054,6.2587],[6.8513,4.5018,3.3739],[6.8599,4.4976,2.1963],[6.8676,4.4888,3.2111],[6.8715,4.4899,3.3998],[6.8732,4.4935,1.6614],[6.8743,4.4907,3.5652],[6.8732,4.4821,1.025],[6.8763,4.476,1.4848],[6.8785,4.4746,2.2245],[6.8865,4.4785,1.2536],[6.8935,4.4874,0.0],[6.9079,4.4804,0.0],[6.9096,4.4812,0.0],[6.9079,4.4865,1.0136],[6.9129,4.4821,1.5436],[6.9196,4.4846,0.0],[6.9171,4.4949,2.5798],[6.9182,4.4996,1.1011],[6.9221,4.5035,0.0],[6.9229,4.5065,5.3364],[6.9171,4.5118,5.9445],[6.9132,4.5179,0.4793],[6.9129,4.5315,2.8849],[6.909,4.5335,0.8528],[6.9051,4.5332,5.7917],[6.9043,4.5371,0.1247],[6.9018,4.5385,0.2883],[6.9018,4.5438,0.1203],[6.8993,4.5465,0.1095],[6.9001,4.5513,0.0],[6.896,4.5532,0.1389],[6.8918,4.5632,2.7614],[6.8915,4.5693,0.2732],[6.8835,4.5757,0.0],[6.8835,4.5807,6.0661],[6.886,4.5813,0.0],[6.8843,4.5765,1.9273],[6.8924,4.5693,0.2732],[6.8926,4.5632,1.119],[6.8968,4.5535,0.3138],[6.901,4.5515,0.0937],[6.9004,4.5454,0.0],[6.9024,4.5443,0.1203],[6.9026,4.539,0.1864],[6.9076,4.5343,1.2819],[6.914,4.5329,0.0],[6.9143,4.5196,0.0],[6.9199,4.5115,1.0036],[6.924,4.5107,1.5757],[6.9263,4.514,1.1486],[6.9299,4.5149,0.4834],[6.9296,4.5185,0.0],[6.9349,4.519,0.3395],[6.9376,4.5224,1.7844],[6.9374,4.5296,0.6261],[6.9415,4.5349,1.6748],[6.9415,4.5376,0.5],[6.939,4.5385,1.2569],[6.9387,4.5457,0.5],[6.9346,4.5488,1.596],[6.9363,4.5493,2.0643],[6.9415,4.546,0.5],[6.9421,4.5426,0.5246],[6.9449,4.5426,0.5698],[6.9446,4.5465,0.586],[6.9468,4.5457,1.0469],[6.9476,4.541,0.5],[6.9457,4.5401,0.5213],[6.9451,4.5374,0.5],[6.9465,4.5299,1.3646],[6.9449,4.5293,0.6761],[6.9424,4.524,0.5175],[6.9418,4.5246,0.5175],[6.9424,4.5271,2.2787],[6.944,4.5312,0.5],[6.9404,4.5296,1.3148],[6.9396,4.5312,0.5],[6.9382,4.5296,1.1611],[6.9387,4.5232,0.0],[6.9365,4.5171,1.1316],[6.9401,4.5165,2.3029],[6.9404,4.5151,1.8765],[6.9374,4.5129,0.7563],[6.9346,4.5171,0.0],[6.9307,4.5185,0.0],[6.9307,4.5146,0.4834],[6.9276,4.5135,1.1261],[6.9246,4.5093,0.0],[6.9254,4.5015,3.2201],[6.9201,4.4974,1.2089],[6.9224,4.4846,1.0104],[6.9143,4.4771,0.0],[6.9104,4.4693,0.0],[6.9107,4.4657,0.0],[6.9135,4.4624,7.0177],[6.9115,4.4493,9.6971],[6.9182,4.4413,6.8456],[6.924,4.4399,1.251],[6.9274,4.4371,0.0],[6.929,4.4421,2.8915],[6.9315,4.4421,7.9239],[6.936,4.4363,1.2337],[6.9396,4.4426,6.0582],[6.9435,4.4435,0.0],[6.9474,4.4382,1.7509],[6.9488,4.4321,3.2855],[6.9518,4.4301,1.9951],[6.959,4.431,1.5441],[6.9618,4.4293,1.0826],[6.9579,4.4179,1.2456],[6.9654,4.4118,3.7968],[6.9676,4.4074,2.6091],[6.9707,4.3962,7.2478],[6.9707,4.3899,3.5875],[6.9743,4.3821,0.0],[6.9882,4.374,7.6575],[7.0038,4.3799,0.0],[7.0085,4.3874,6.3341],[7.0201,4.3979,0.0],[7.0218,4.4024,0.0],[7.0168,4.409,0.0],[7.0093,4.4121,0.0],[7.011,4.4085,2.8112],[7.0065,4.4154,0.0],[6.9996,4.4185,1.8545],[6.9979,4.4207,0.0],[6.9954,4.4351,0.0],[6.9915,4.441,0.0],[6.9901,4.4468,0.0],[6.9904,4.454,1.5409],[6.9929,4.461,1.8885],[6.9921,4.4693,0.0],[6.991,4.4704,0.9815],[6.9854,4.4699,1.266],[6.9874,4.4729,0.0],[6.9796,4.4899,0.0],[6.9779,4.4907,2.7279],[6.9749,4.5037,0.0],[6.9729,4.5046,0.0],[6.9732,4.5263,0.0],[6.9682,4.5376,3.9243],[6.9618,4.5451,2.4189],[6.9379,4.5607,0.0],[6.9174,4.5676,0.0],[6.9151,4.5713,0.8732],[6.9149,4.5824,13.2165],[6.9179,4.5821,4.5266],[6.924,4.5896,2.9263],[6.9104,4.5963,2.2399],[6.9054,4.6057,0.0],[6.9015,4.6051,5.7611],[6.8954,4.596,3.4144],[6.891,4.5954,2.7693],[6.8868,4.5971,0.0],[6.8824,4.6051,0.0],[6.8796,4.6057,0.0],[6.8765,4.5954,6.5963],[6.8699,4.5943,0.0],[6.8654,4.5985,6.0749],[6.8585,4.5974,0.0],[6.8562,4.5985,1.1615],[6.8543,4.6065,18.1896]]],
[[[7.5587,4.5029,0.0],[7.5482,4.5099,2.1894],[7.5426,4.506,0.0],[7.5365,4.4946,7.8563],[7.534,4.4932,7.2137],[7.5287,4.494,1.3161],[7.5115,4.5024,0.0],[7.5049,4.5024,2.6467],[7.491,4.4915,0.0],[7.4957,4.4871,2.4404],[7.5015,4.4876,4.344],[7.5057,4.4863,0.0],[7.5115,4.4879,1.2056],[7.5146,4.4863,0.0],[7.5174,4.4882,0.4811],[7.5168,4.4837,0.0],[7.5271,4.4799,0.0],[7.5351,4.4893,6.9076],[7.5463,4.496,6.613],[7.5485,4.4954,0.0],[7.549,4.4915,12.2098],[7.5463,4.4863,0.0],[7.546,4.4818,0.0],[7.5496,4.4785,0.0],[7.5535,4.4785,0.0],[7.5551,4.4821,0.0],[7.554,4.4879,2.8976],[7.5551,4.4915,0.0],[7.5585,4.4935,0.0],[7.5676,4.4915,0.0],[7.5701,4.4979,2.2804],[7.5693,4.4996,0.3667],[7.5587,4.5029,0.0]]],
[[[6.8485,4.514,0.0],[6.8415,4.5151,3.6534],[6.8393,4.514,8.3463],[6.8368,4.5112,2.5863],[6.8351,4.5046,1.4832],[6.8318,4.5049,0.772],[6.8285,4.5099,0.8795],[6.8268,4.5093,0.8795],[6.8274,4.506,1.5032],[6.8368,4.5007,0.5271],[6.8432,4.5018,1.0615],[6.8485,4.5043,0.0],[6.8479,4.5079,0.0],[6.8496,4.5121,3.9954],[6.8485,4.514,0.0]]],
[[[7.0326,4.5865,0.0],[7.0121,4.5896,1.4425],[7.0001,4.5993,0.0],[6.9962,4.5988,0.0],[6.9929,4.5901,0.0],[6.9962,4.5807,1.8013],[6.9974,4.564,0.691],[7.0026,4.5538,0.7214],[7.0038,4.5451,0.0],[7.0063,4.5435,3.5473],[7.0057,4.5415,4.5782],[7.0101,4.5326,1.3721],[7.0085,4.5296,0.0],[7.0101,4.5235,3.1757],[7.0079,4.5121,8.5821],[7.0146,4.481,4.5597],[7.016,4.4674,2.3184],[7.0185,4.4624,1.2311],[7.0218,4.4599,0.0],[7.0212,4.4529,0.0],[7.0237,4.4485,1.1384],[7.0268,4.4465,2.4855],[7.0268,4.4454,6.2858],[7.0226,4.4457,0.0],[7.0224,4.4443,4.9901],[7.0304,4.4374,1.4213],[7.0368,4.4354,0.0],[7.0424,4.4376,0.0],[7.0521,4.4376,0.0],[7.066,4.4413,0.0],[7.0724,4.444,1.2132],[7.0754,4.4479,8.3554],[7.0712,4.4535,2.2915],[7.0688,4.4535,3.1677],[7.061,4.4646,5.8405],[7.0562,4.4785,6.2807],[7.0565,4.4851,4.7385],[7.059,4.4921,0.0],[7.0535,4.4963,2.3682],[7.0562,4.5012,4.7402],[7.0532,4.5085,1.4372],[7.0513,4.5096,1.9751],[7.0446,4.5087,2.7514],[7.0449,4.5104,1.8258],[7.0476,4.5096,1.5214],[7.0485,4.5138,6.392],[7.046,4.5163,4.3879],[7.0493,4.5154,2.3085],[7.0485,4.5099,1.5214],[7.0515,4.5104,1.9751],[7.054,4.5087,1.4372],[7.0571,4.5012,7.7143],[7.0543,4.4965,2.3682],[7.0565,4.4949,3.3141],[7.0599,4.4949,0.0],[7.0646,4.501,2.2786],[7.0704,4.5049,0.0],[7.0612,4.5143,0.0],[7.0521,4.5312,1.3726],[7.0507,4.5435,1.4641],[7.0465,4.5579,1.0174],[7.0462,4.5776,2.2104],[7.0407,4.5832,0.0],[7.0326,4.5865,0.0]]],
[[[7.1451,4.5196,0.0],[7.1418,4.5215,1.5185],[7.1393,4.5188,0.5163],[7.1415,4.5176,0.7107],[7.1407,4.5165,1.7917],[7.131,4.5179,0.0],[7.1285,4.5107,2.5231],[7.1193,4.5082,5.2289],[7.1163,4.496,0.0],[7.1088,4.4868,1.2536],[7.111,4.4796,0.2207],[7.1124,4.4799,0.2207],[7.1135,4.4843,1.8496],[7.1157,4.4851,0.6096],[7.1182,4.4843,1.327],[7.1201,4.4818,1.0303],[7.1257,4.4812,1.9545],[7.1254,4.4938,2.7359],[7.1338,4.4988,0.0],[7.1349,4.5046,2.8071],[7.1379,4.5093,1.4865],[7.1468,4.5126,0.3549],[7.1496,4.5185,1.1512],[7.1476,4.5201,0.8558],[7.1451,4.5196,0.0]]],
[[[7.2385,4.5365,0.0],[7.2346,4.5376,0.0],[7.2312,4.536,0.0],[7.2193,4.5235,0.0],[7.2188,4.5196,0.41],[7.2154,4.5176,0.0],[7.2146,4.5112,0.0],[7.2274,4.4985,0.4802],[7.2321,4.499,0.4841],[7.2326,4.5029,0.1723],[7.2343,4.504,0.7884],[7.2404,4.5024,0.3285],[7.2418,4.5007,0.2786],[7.241,4.4963,0.0],[7.2476,4.4938,0.1976],[7.2465,4.4876,0.1773],[7.2574,4.4885,0.2155],[7.2587,4.4876,1.2322],[7.2601,4.4804,0.3063],[7.2624,4.4776,0.6662],[7.2679,4.4785,0.2654],[7.2813,4.4857,2.4704],[7.2838,4.4835,1.0855],[7.2846,4.4765,0.8802],[7.2885,4.4754,0.0],[7.296,4.4685,0.0],[7.2988,4.4682,0.5332],[7.3015,4.4701,1.0011],[7.3049,4.4779,0.0],[7.3082,4.4801,0.0],[7.3129,4.4812,1.7279],[7.3182,4.4788,0.3223],[7.3204,4.4799,1.2235],[7.3218,4.486,2.4165],[7.3288,4.4924,0.0],[7.3299,4.496,0.0],[7.3282,4.4982,1.396],[7.3187,4.5012,1.146],[7.3085,4.4999,1.5957],[7.2971,4.4954,4.8425],[7.2818,4.4932,1.8505],[7.2693,4.4951,0.5164],[7.2607,4.501,0.9794],[7.2485,4.5246,0.1085],[7.2385,4.5365,0.0]]],
[[[7.474,4.4949,4.4088],[7.4724,4.4976,2.0479],[7.481,4.5115,0.0],[7.4807,4.5143,0.0],[7.4771,4.5118,2.6141],[7.4713,4.5115,2.7938],[7.4671,4.5079,1.8851],[7.4638,4.5082,0.5821],[7.4624,4.5057,0.0],[7.4576,4.5037,1.1968],[7.4454,4.5043,0.0],[7.4476,4.5007,0.3484],[7.4424,4.5018,0.3285],[7.4382,4.4999,0.6352],[7.4363,4.4971,1.1555],[7.4371,4.4957,2.5355],[7.4479,4.4938,3.5575],[7.4543,4.4904,0.0],[7.4782,4.4888,4.1919],[7.4785,4.4901,4.1919],[7.474,4.4949,4.4088]]],
[[[7.4429,4.5024,0.0],[7.444,4.5024,0.8714],[7.4446,4.504,0.0],[7.4424,4.504,0.0],[7.4429,4.5024,0.0]]],
[[[7.4549,4.5124,0.0],[7.4524,4.514,1.4813],[7.4515,4.5099,0.0],[7.4543,4.5099,0.0],[7.4549,4.5124,0.0]]],
[[[7.4001,4.5143,0.9746],[7.3979,4.5157,0.0],[7.3951,4.5151,2.9769],[7.389,4.5085,0.4272],[7.3907,4.5076,6.0981],[7.3907,4.5037,2.8639],[7.3954,4.4965,0.9043],[7.3968,4.4965,0.0],[7.3954,4.4993,1.0952],[7.3965,4.5015,1.7933],[7.4021,4.5012,0.8718],[7.4038,4.4976,1.7197],[7.4057,4.4996,0.4584],[7.4057,4.5057,6.1313],[7.4079,4.5107,0.5848],[7.4001,4.5143,0.9746]]],
[[[7.1051682613768961,4.53610746791132,0.0],[7.1051,4.5362,0.0],[7.1051,4.5364363636363612,0.0],[7.1049,4.5374,1.9746],[7.0982,4.546,0.7549],[7.0935,4.5499,1.1683],[7.0868,4.5515,3.3008],[7.0824,4.5557,0.6329],[7.0813,4.559,0.2895],[7.0737,4.5607,0.3011],[7.0699,4.5618,2.2748],[7.0671,4.559,0.0],[7.0618,4.5576,0.3773],[7.0576,4.561,0.3851],[7.0526,4.5568,0.0],[7.0596,4.5268,0.4471],[7.0729,4.5124,0.8284],[7.0757,4.5062,1.9792],[7.0724,4.4954,3.3325],[7.0612,4.4832,13.7242],[7.0604,4.4779,2.9297],[7.0712,4.4638,0.0],[7.0768,4.459,1.9905],[7.0965,4.4524,0.0],[7.1054,4.451,0.0],[7.1085,4.4579,0.0],[7.1051,4.4682,0.0],[7.1051,4.4721,0.72],[7.1079,4.4776,1.6486],[7.106,4.4871,10.5726],[7.1074,4.4907,3.696],[7.1143,4.4982,0.9246],[7.1176,4.5082,1.4265],[7.1168,4.5124,0.0],[7.1101,4.5215,2.8589],[7.1093,4.5274,1.609],[7.106,4.5321,4.6045],[7.1051682613768961,4.53610746791132,0.0]]],
[[[7.1051,4.5364363636363612,0.0],[7.1051682613768961,4.53610746791132,0.0],[7.1096,4.5301,0.0],[7.1113,4.5221,2.0571],[7.1163,4.5174,0.8471],[7.1193,4.5087,5.2289],[7.1293,4.5138,0.0],[7.1296,4.5163,0.0],[7.1262,4.5213,2.9338],[7.1307,4.5185,0.0],[7.134,4.5193,1.1014],[7.1371,4.5179,0.0],[7.1415,4.5215,1.5185],[7.1451,4.5282,8.6458],[7.1471,4.529,0.1828],[7.144,4.5365,1.0319],[7.1446,4.5385,0.8425],[7.1474,4.5357,0.1584],[7.1532,4.5349,0.0],[7.1576,4.5315,0.0],[7.1496,4.5279,0.0],[7.1488,4.5249,0.0],[7.1504,4.5176,0.9119],[7.1476,4.5126,1.9325],[7.1429,4.5096,0.3901],[7.1379,4.5085,3.9314],[7.1346,4.4985,1.8216],[7.1324,4.496,1.1391],[7.126,4.4932,0.9314],[7.1271,4.4854,3.8246],[7.1262,4.4807,1.9545],[7.1218,4.4804,2.8729],[7.1174,4.484,1.327],[7.1143,4.484,1.8496],[7.1126,4.4776,1.4694],[7.1082,4.4718,0.0],[7.1088,4.4646,0.0],[7.1107,4.4626,0.0],[7.1162,4.4641,4.1091],[7.1224,4.4624,4.0226],[7.1243,4.4654,3.7294],[7.1271,4.4638,0.0],[7.1326,4.466,5.5743],[7.1363,4.4618,0.0],[7.1415,4.4604,0.0],[7.1468,4.4643,2.1935],[7.1537,4.4643,0.2291],[7.1579,4.4682,0.0],[7.151,4.4801,2.4273],[7.151,4.4835,1.5226],[7.154,4.4843,0.7078],[7.1521,4.4826,0.3333],[7.1529,4.479,0.0],[7.1579,4.4715,0.4901],[7.161,4.4715,0.0],[7.1724,4.4979,0.0],[7.1743,4.5074,0.5999],[7.1729,4.5174,0.0],[7.1751,4.5279,0.0],[7.1682,4.5365,0.0],[7.1537,4.5449,3.2547],[7.1404,4.5554,5.9062],[7.134,4.564,0.0],[7.1268,4.5651,5.0331],[7.1151,4.5643,0.4554],[7.109,4.5671,0.4312],[7.1054,4.5768,0.9341],[7.106,4.5824,1.9503],[7.1043,4.5837,4.4228],[7.0976,4.5835,4.1688],[7.0943,4.586,2.0918],[7.0929,4.589,0.5599],[7.0874,4.5907,0.0],[7.0807,4.5832,0.0],[7.0785,4.5768,0.1237],[7.0796,4.5738,0.0],[7.084,4.571,0.0],[7.0874,4.5713,0.0],[7.0838,4.5696,2.1002],[7.0843,4.5624,2.2002],[7.0832,4.556,0.6329],[7.0882,4.5518,0.0],[7.096,4.5493,0.7287],[7.1037,4.5413,1.4622],[7.1051,4.5388,3.5242],[7.1051,4.5364363636363612,0.0]]],
[[[7.4329,4.5185,1.8071],[7.4282,4.5226,0.8695],[7.4237,4.5215,1.0803],[7.421,4.5224,1.079],[7.4207,4.5232,1.079],[7.4224,4.5257,1.6502],[7.426,4.5279,0.0],[7.4224,4.5296,1.188],[7.4182,4.5351,0.0],[7.4154,4.5362,0.7692],[7.4126,4.5324,0.0],[7.4135,4.5243,1.7727],[7.4118,4.5213,1.4039],[7.4032,4.5171,2.319],[7.4107,4.5096,0.6998],[7.4082,4.5057,0.0],[7.4085,4.5026,0.0],[7.4151,4.4888,2.6362],[7.4168,4.4885,0.0],[7.4182,4.4915,0.3587],[7.4237,4.4957,6.2737],[7.4332,4.4968,0.0],[7.441,4.5043,0.7602],[7.4413,4.5087,0.989],[7.4374,4.5101,2.3085],[7.4332,4.5151,1.7671],[7.4329,4.5185,1.8071]]],
[[[7.146,4.521,0.1309],[7.1476,4.521,0.0],[7.1468,4.5232,0.0],[7.1457,4.5226,0.0],[7.146,4.521,0.1309]]],
[[[7.3279,4.5371,0.7432],[7.3218,4.5382,0.7707],[7.3135,4.5343,0.2714],[7.3135,4.5274,0.4154],[7.3107,4.5254,0.0],[7.3118,4.5218,0.746],[7.3157,4.5224,0.6046],[7.3165,4.5199,0.0],[7.3193,4.5201,0.0],[7.3179,4.5171,1.0832],[7.3187,4.5126,0.8793],[7.3243,4.5129,0.5554],[7.3257,4.5082,0.0],[7.3285,4.5087,0.0],[7.3293,4.5107,0.0],[7.3271,4.5296,0.6529],[7.3279,4.5371,0.7432]]],
[[[6.704,4.5296,2.5224],[6.7032,4.531,1.1266],[6.6999,4.5276,7.7518],[6.699,4.5238,20.2681],[6.701,4.5207,17.7477],[6.7035,4.5232,0.0],[6.704,4.5296,2.5224]]],
[[[7.4965,4.5532,0.0],[7.4979,4.5574,0.0],[7.4951,4.5596,3.9927],[7.484,4.5607,0.0],[7.4729,4.5582,1.8875],[7.4693,4.556,2.0263],[7.464,4.5574,1.4591],[7.4674,4.5596,0.6479],[7.4638,4.5596,1.1683],[7.4626,4.5551,4.3279],[7.4646,4.5535,4.0116],[7.4646,4.5499,2.2586],[7.4626,4.5471,3.3677],[7.459,4.5468,1.6236],[7.4579,4.5432,0.9604],[7.4613,4.5404,0.4683],[7.4654,4.5413,1.4828],[7.4654,4.5401,2.7373],[7.4621,4.539,0.4683],[7.4579,4.5415,1.619],[7.4574,4.546,5.2514],[7.4615,4.549,0.0],[7.4618,4.5521,2.3937],[7.4543,4.5535,3.3782],[7.4499,4.5457,0.0],[7.449,4.5382,0.7239],[7.4463,4.5371,0.0],[7.4454,4.5335,2.9992],[7.4443,4.5343,1.239],[7.4451,4.5376,0.0],[7.4404,4.5407,0.0],[7.4393,4.5401,0.0],[7.4399,4.5343,0.2226],[7.4329,4.5415,0.7596],[7.4288,4.5399,0.3061],[7.4293,4.5349,1.1115],[7.4254,4.5396,0.0],[7.4182,4.5379,0.4316],[7.4212,4.5312,1.5552],[7.4276,4.5276,1.6903],[7.4262,4.5254,1.995],[7.4221,4.5246,1.6722],[7.4212,4.5226,1.079],[7.4279,4.5232,0.8695],[7.4407,4.516,0.8436],[7.4443,4.5168,1.2182],[7.4546,4.5146,0.0],[7.4604,4.5179,1.2124],[7.474,4.5165,0.5448],[7.4762,4.5185,0.5539],[7.4785,4.526,2.1105],[7.4807,4.5268,0.0],[7.4807,4.521,0.0],[7.484,4.5174,0.8312],[7.4851,4.5115,1.3112],[7.4751,4.5004,3.0816],[7.4746,4.4976,0.0],[7.4804,4.4904,0.0],[7.486,4.4918,0.0],[7.4993,4.5026,9.8017],[7.504,4.5046,3.0225],[7.516,4.5035,2.0059],[7.5301,4.4963,0.0],[7.5332,4.4965,2.7434],[7.5429,4.5135,0.0],[7.5315,4.5263,4.0027],[7.5287,4.5374,0.0],[7.5254,4.539,0.0],[7.5199,4.5321,0.0],[7.5171,4.531,0.8837],[7.5079,4.5332,3.0473],[7.4974,4.5435,1.8096],[7.4957,4.5482,0.0],[7.4965,4.5532,0.0]]],
[[[7.2863,4.5454,0.3748],[7.2829,4.5463,0.2279],[7.281,4.544,0.2084],[7.2818,4.5421,1.3429],[7.2785,4.5418,0.647],[7.2768,4.539,0.8296],[7.2793,4.5357,0.814],[7.2785,4.5332,0.6824],[7.2799,4.5299,0.6142],[7.2876,4.5265,1.0366],[7.2854,4.521,1.7742],[7.2871,4.5176,0.3885],[7.2826,4.516,0.3787],[7.2885,4.5124,1.6653],[7.2893,4.509,0.2559],[7.2946,4.5107,1.8205],[7.2965,4.506,0.9053],[7.2988,4.5057,1.3251],[7.311,4.5099,0.6508],[7.3235,4.5099,0.0],[7.3235,4.5124,0.5554],[7.321,4.5115,1.3983],[7.3182,4.5121,0.6996],[7.3171,4.516,0.528],[7.3187,4.519,0.0],[7.3165,4.519,0.0],[7.3151,4.5218,0.4397],[7.3113,4.5213,0.746],[7.3104,4.5218,0.746],[7.3096,4.5254,0.4905],[7.3129,4.5282,0.4154],[7.3115,4.531,0.74],[7.3124,4.5332,0.6013],[7.3076,4.5349,1.9613],[7.3043,4.5421,0.0],[7.3024,4.5415,1.6589],[7.3032,4.5346,1.0959],[7.2988,4.534,0.1994],[7.2965,4.5354,1.125],[7.2907,4.5307,0.2537],[7.2893,4.5376,0.6302],[7.2876,4.5393,0.0],[7.2879,4.5435,0.6624],[7.2863,4.5454,0.3748]]],
[[[7.416,4.541,1.1398],[7.4154,4.544,0.2859],[7.4068,4.5432,0.0],[7.4082,4.5382,0.0],[7.4076,4.5318,1.2522],[7.4051,4.5299,1.5482],[7.3954,4.5276,0.3796],[7.3938,4.5229,1.2001],[7.3885,4.5229,0.875],[7.3849,4.5251,1.6229],[7.3818,4.5243,0.0],[7.3788,4.521,1.8138],[7.3843,4.5126,1.3926],[7.3871,4.5132,0.0],[7.3893,4.5174,1.4192],[7.3943,4.521,1.6301],[7.4079,4.5218,1.9423],[7.4107,4.5368,1.5591],[7.416,4.541,1.1398]]],
[[[7.3824,4.5346,0.0],[7.3801,4.5362,0.0],[7.3768,4.5354,2.6362],[7.379,4.526,0.0],[7.386,4.5285,0.0],[7.3888,4.5321,0.3082],[7.3888,4.5332,0.3082],[7.3824,4.5346,0.0]]],
[[[7.3888,4.5693,0.3156],[7.3863,4.5707,0.0],[7.3846,4.5688,0.6711],[7.3765,4.5693,0.0],[7.3687,4.5671,0.0],[7.3665,4.5651,1.1631],[7.3668,4.5635,0.0],[7.3726,4.5637,0.0],[7.3663,4.5585,0.8499],[7.3643,4.5515,0.2797],[7.3701,4.5521,0.2346],[7.3757,4.5582,0.4282],[7.3799,4.5568,0.0],[7.3804,4.554,0.1674],[7.3746,4.5524,0.1837],[7.3754,4.5496,0.0],[7.3774,4.5496,0.3068],[7.376,4.5479,1.0256],[7.3724,4.5518,0.4097],[7.3626,4.5485,2.5746],[7.3507,4.5382,0.5936],[7.3507,4.5362,0.0],[7.3554,4.5304,0.0],[7.3601,4.5251,0.2504],[7.3621,4.5249,0.5304],[7.366,4.5279,0.944],[7.3643,4.5299,0.3913],[7.3651,4.5371,0.0],[7.3638,4.5418,0.2001],[7.3649,4.5421,1.012],[7.3646,4.5396,0.2186],[7.3665,4.5432,0.5477],[7.3671,4.5415,0.5155],[7.3665,4.5393,0.2867],[7.3687,4.5413,0.8183],[7.3715,4.5404,0.4226],[7.3707,4.5451,0.4843],[7.3721,4.541,0.0],[7.3735,4.541,0.0],[7.3663,4.5371,0.3384],[7.366,4.526,1.2481],[7.3601,4.5232,0.6033],[7.3618,4.5165,0.7197],[7.3599,4.5071,1.1135],[7.361,4.5049,0.5438],[7.3726,4.5024,1.68],[7.3788,4.5051,0.9055],[7.3749,4.5282,0.0],[7.3757,4.5351,0.4799],[7.3785,4.5374,0.5338],[7.3815,4.5374,0.8184],[7.3854,4.5343,0.9228],[7.3915,4.5351,0.0],[7.3929,4.5454,0.0],[7.3965,4.5524,0.9152],[7.3899,4.5549,1.069],[7.3879,4.5576,2.0182],[7.3888,4.5693,0.3156]]],
[[[6.9432,4.5382,0.5557],[6.944,4.5418,0.5],[6.9421,4.5418,0.5165],[6.9421,4.5376,0.5557],[6.9432,4.5382,0.5557]]],
[[[7.399,4.5463,0.0],[7.3974,4.5474,0.0],[7.3957,4.5457,0.0],[7.3954,4.5385,0.0],[7.3999,4.5337,0.0],[7.3996,4.5354,0.0],[7.4015,4.5368,0.0],[7.399,4.5463,0.0]]],
[[[7.3437,4.5746,0.2362],[7.3404,4.5751,1.4403],[7.3407,4.5685,5.0422],[7.3321,4.561,0.0],[7.3371,4.5457,0.0],[7.3407,4.5463,0.6763],[7.3424,4.5493,1.0071],[7.3412,4.5454,1.3055],[7.3371,4.5449,0.4105],[7.3335,4.5301,0.2177],[7.3393,4.5079,1.8048],[7.3424,4.5054,0.0],[7.351,4.5026,0.9853],[7.354,4.5037,0.0],[7.3562,4.5068,0.0],[7.3588,4.5179,0.3648],[7.3496,4.5307,0.0],[7.3485,4.5399,0.0],[7.3504,4.5468,1.3405],[7.3454,4.5565,0.2026],[7.3496,4.5604,0.0],[7.3507,4.5696,1.3144],[7.3488,4.5729,0.2396],[7.3437,4.5746,0.2362]]],
[[[7.3249,4.5413,0.1627],[7.3276,4.5426,0.4924],[7.3257,4.5454,1.1061],[7.3243,4.5438,0.0],[7.3249,4.5413,0.1627]]],
[[[7.4454,4.5424,2.466],[7.4471,4.5432,0.6904],[7.4468,4.5454,1.1213],[7.4454,4.544,0.6003],[7.4454,4.5424,2.466]]],
[[[7.5332,4.546,1.2979],[7.5332,4.5457,1.2979],[7.5334,4.5457,1.2979],[7.5333,4.5459,1.2979],[7.5332,4.546,1.2979]]],
[[[6.9532,4.601,0.0],[6.9443,4.6021,0.0],[6.941,4.5979,1.0486],[6.9315,4.5957,0.0],[6.929,4.5926,0.0],[6.9282,4.584,4.786],[6.921,4.576,0.0],[6.9185,4.5707,2.6393],[6.9201,4.569,1.0699],[6.9351,4.5693,1.5386],[6.9435,4.566,1.059],[6.9665,4.5496,2.4829],[6.9732,4.5421,2.9455],[6.9776,4.5315,0.371],[6.9796,4.5129,0.6241],[6.9818,4.511,0.4259],[6.9849,4.5129,1.9298],[6.9851,4.5168,0.0],[6.9801,4.5426,1.5298],[6.9788,4.566,4.4157],[6.9782,4.5676,0.0],[6.9729,4.5685,2.4111],[6.9776,4.571,4.0752],[6.9771,4.5926,0.0],[6.9735,4.5954,1.2583],[6.9532,4.601,0.0]]],
[[[7.2788,4.5504,0.4406],[7.2776,4.5529,0.0],[7.2751,4.5529,0.1529],[7.2749,4.5479,0.0],[7.2718,4.5451,0.5256],[7.2715,4.5429,0.2679],[7.279,4.5438,0.8967],[7.2815,4.546,0.2279],[7.2788,4.5504,0.4406]]],
[[[7.2935,4.5438,0.9201],[7.2946,4.5443,0.9488],[7.2912,4.5463,0.541],[7.2912,4.5454,0.9158],[7.2935,4.5438,0.9201]]],
[[[7.2929,4.546,0.3146],[7.296,4.5435,0.8172],[7.2985,4.544,1.5005],[7.2999,4.5421,0.4436],[7.3032,4.5446,0.0],[7.3026,4.5501,0.0],[7.2974,4.5596,0.3265],[7.2912,4.5588,0.0],[7.2904,4.5571,0.3857],[7.2918,4.5554,0.6303],[7.2896,4.5576,0.3857],[7.2863,4.5574,0.0],[7.2865,4.5532,0.1999],[7.2887,4.556,0.8675],[7.291,4.5549,0.3176],[7.2865,4.5526,0.1999],[7.2871,4.5499,0.2645],[7.2851,4.5471,0.0],[7.2885,4.5443,1.0215],[7.291,4.5321,0.6106],[7.2949,4.5357,0.9686],[7.3021,4.5349,1.0959],[7.3026,4.5376,0.919],[7.2982,4.5432,0.0],[7.2932,4.5421,0.6006],[7.2904,4.5432,0.8467],[7.289,4.5471,1.3728],[7.2912,4.5468,0.541],[7.2924,4.5513,0.6809],[7.2929,4.546,0.3146]]],
[[[7.3099,4.5551,0.5911],[7.3074,4.5565,0.2305],[7.3057,4.554,0.0],[7.311,4.5382,0.0],[7.3135,4.5365,0.0],[7.319,4.5415,0.6251],[7.3235,4.5424,0.0],[7.3235,4.5468,0.183],[7.3199,4.5451,0.9581],[7.3154,4.5454,1.1599],[7.3154,4.5479,0.3711],[7.3171,4.5476,1.0394],[7.3174,4.5457,0.6034],[7.321,4.5479,0.0],[7.3146,4.5499,0.7673],[7.3099,4.5551,0.5911]]],
[[[7.4512,4.5529,0.0],[7.4512,4.5513,0.0],[7.4504,4.5479,0.0],[7.4524,4.5532,0.8618],[7.4512,4.5529,0.0]]],
[[[7.4254,4.5501,0.0],[7.424,4.5515,0.5094],[7.4218,4.5485,0.0],[7.424,4.5485,0.0],[7.4254,4.5501,0.0]]],
[[[7.3576,4.554,0.0],[7.3538,4.5538,0.0],[7.3535,4.5465,0.0],[7.3579,4.5485,0.0],[7.3588,4.5538,0.0],[7.3576,4.554,0.0]]],
[[[7.4029,4.5513,2.3648],[7.4029,4.5535,2.2832],[7.3999,4.5518,2.0324],[7.4013,4.5501,0.3624],[7.4029,4.5513,2.3648]]],
[[[7.4574,4.5551,0.0],[7.4601,4.5551,0.0],[7.4604,4.5571,0.0],[7.4557,4.5576,0.0],[7.4524,4.5546,1.1916],[7.4557,4.5554,2.3159],[7.4574,4.5551,0.0]]],
[[[7.2776,4.5549,0.1311],[7.281,4.5565,0.1517],[7.2729,4.5554,0.3161],[7.2746,4.5535,0.1529],[7.2776,4.5549,0.1311]]],
[[[7.2843,4.556,0.5713],[7.2851,4.5568,0.5713],[7.2824,4.5571,0.0],[7.2815,4.554,0.2049],[7.2838,4.5543,0.0],[7.2843,4.556,0.5713]]],
[[[7.2763,4.5568,0.1305],[7.2771,4.5588,0.3229],[7.2749,4.559,0.1264],[7.2749,4.5579,0.0],[7.2763,4.5568,0.1305]]],
[[[7.301,4.5574,0.115],[7.3015,4.5585,0.115],[7.3004,4.5599,0.0],[7.2999,4.5585,0.115],[7.301,4.5574,0.115]]],
[[[7.3315,4.5571,0.0],[7.3307,4.5604,1.4712],[7.3321,4.5649,0.0],[7.3274,4.5701,2.3448],[7.3299,4.5735,0.6303],[7.3293,4.5782,0.0],[7.3218,4.5785,3.7824],[7.316,4.581,0.183],[7.3135,4.5763,0.3371],[7.3132,4.5779,0.1099],[7.3151,4.5815,0.183],[7.3174,4.5829,0.0858],[7.3137,4.5843,0.0],[7.3135,4.5815,0.1527],[7.3101,4.5793,0.0],[7.3088,4.576,0.0],[7.311,4.5585,0.0],[7.3149,4.5526,1.0195],[7.3251,4.5501,0.3386],[7.329,4.5474,1.6658],[7.3313,4.544,1.2249],[7.3313,4.5393,0.3823],[7.3329,4.5382,0.0],[7.3338,4.5432,0.0],[7.3315,4.5571,0.0]]],
[[[6.9013,4.6788,0.0],[6.8829,4.6985,2.6927],[6.8718,4.701,4.6364],[6.8657,4.7043,0.0],[6.8629,4.7115,1.2958],[6.8629,4.7176,1.7236],[6.8587,4.7146,3.2036],[6.8579,4.7087,5.9256],[6.8554,4.7068,9.0717],[6.8496,4.7076,0.9043],[6.8463,4.7107,1.4642],[6.8457,4.7079,2.9468],[6.8407,4.7076,2.0685],[6.8404,4.7038,1.1569],[6.8351,4.7015,5.0043],[6.8326,4.7026,2.2072],[6.8307,4.7101,0.5647],[6.8285,4.7104,0.0],[6.8271,4.7068,1.5872],[6.8285,4.701,0.0],[6.8276,4.6949,0.4036],[6.8263,4.6926,0.4414],[6.8229,4.6915,2.9425],[6.8213,4.6876,5.9281],[6.8215,4.684,1.7875],[6.8251,4.6804,0.9816],[6.8246,4.6732,0.7216],[6.8268,4.6693,1.451],[6.8326,4.6649,0.6858],[6.8346,4.6599,0.0],[6.8365,4.6601,1.3289],[6.839,4.6654,4.0432],[6.8385,4.6701,3.0075],[6.8326,4.6754,2.7466],[6.8349,4.6799,0.5317],[6.8399,4.6835,0.0],[6.8413,4.6882,0.6625],[6.8407,4.6815,0.8077],[6.8337,4.6757,3.4356],[6.8404,4.6693,3.5553],[6.8385,4.6601,2.7297],[6.8446,4.651,4.3594],[6.8457,4.646,0.0],[6.8526,4.6421,2.2872],[6.8507,4.6412,1.5372],[6.8435,4.6465,0.5516],[6.8365,4.6468,1.669],[6.8324,4.6437,6.8262],[6.8199,4.6435,0.5535],[6.8188,4.6399,3.2059],[6.8207,4.6371,5.0588],[6.8301,4.6318,0.9758],[6.8376,4.6232,0.0],[6.8407,4.616,1.3613],[6.8393,4.6051,2.0331],[6.8413,4.6004,0.0],[6.8457,4.6074,2.5583],[6.854,4.6093,6.3702],[6.8562,4.6076,21.0089],[6.859,4.5993,4.0143],[6.8665,4.6015,3.0697],[6.8743,4.5974,3.7097],[6.8768,4.6071,1.3237],[6.8815,4.6079,2.1463],[6.8857,4.6051,0.0],[6.8907,4.5974,15.0234],[6.8926,4.5971,4.5449],[6.8954,4.6001,0.0],[6.8965,4.6049,8.7001],[6.9007,4.6085,0.0],[6.9057,4.6088,2.1485],[6.909,4.6054,0.0],[6.9171,4.6082,8.0992],[6.9174,4.6099,1.1813],[6.9124,4.6112,1.5098],[6.9057,4.6182,8.3765],[6.9026,4.6132,1.3364],[6.899,4.6137,0.8931],[6.8924,4.6201,6.7038],[6.8887,4.6271,0.421],[6.8826,4.6276,3.2153],[6.884,4.6288,5.4871],[6.8871,4.6288,6.8371],[6.8896,4.6271,0.421],[6.8921,4.6218,1.5905],[6.9007,4.614,9.1375],[6.9021,4.6137,1.3364],[6.904,4.6179,7.0757],[6.9065,4.6187,8.3765],[6.9129,4.6121,0.0],[6.9182,4.611,2.3898],[6.9188,4.6085,1.6567],[6.9104,4.6024,2.6115],[6.9118,4.5993,5.9537],[6.9218,4.5996,2.0432],[6.926,4.6007,2.3479],[6.9265,4.6024,7.202],[6.9324,4.5985,0.0],[6.9393,4.6001,0.0],[6.9404,4.6038,0.0],[6.9363,4.6079,2.3943],[6.9232,4.6343,11.5625],[6.9182,4.6412,0.0],[6.911,4.6626,0.0],[6.9013,4.6788,0.0]]],
[[[6.9626,4.6826,0.0],[6.9568,4.6838,0.6703],[6.9543,4.6826,9.5502],[6.9529,4.6743,1.7069],[6.9438,4.6738,1.5509],[6.9426,4.6751,1.5509],[6.939,4.6712,2.321],[6.9382,4.6663,5.9778],[6.9329,4.6696,1.7341],[6.9307,4.6643,4.3824],[6.9226,4.666,1.7378],[6.9207,4.6638,3.469],[6.9246,4.6482,0.0],[6.9321,4.6329,0.0],[6.9449,4.614,1.8006],[6.9543,4.6068,0.0],[6.9629,4.6101,0.0],[6.9601,4.6182,4.0501],[6.9643,4.6276,3.7935],[6.9588,4.6335,0.8021],[6.9612,4.6332,7.3013],[6.9657,4.6288,1.8974],[6.961,4.6185,3.7563],[6.9626,4.6126,3.1149],[6.9765,4.6118,0.0],[6.9818,4.6135,0.0],[6.984,4.6174,1.3641],[6.9835,4.6254,0.0],[6.9776,4.6415,2.0252],[6.9751,4.6571,0.0],[6.9704,4.6674,1.6585],[6.9665,4.6721,0.0],[6.9626,4.6826,0.0]]],
[[[7.0057,4.6101,3.1597],[6.9985,4.6118,0.8892],[6.999,4.606,0.0],[7.0035,4.6018,0.0],[7.0076,4.6076,2.3312],[7.0076,4.6101,3.1597],[7.0057,4.6101,3.1597]]],
[[[7.0321,4.6124,3.584],[7.0407,4.6132,0.0],[7.0415,4.6226,0.7222],[7.0349,4.6288,2.2952],[7.034,4.6321,6.1845],[7.036,4.6343,3.0084],[7.0338,4.6407,0.0],[7.0285,4.6488,0.0],[7.0263,4.6563,0.0],[7.0229,4.6599,0.6412],[7.0179,4.6568,0.1899],[7.0101,4.6482,1.5457],[7.0115,4.6446,0.0],[7.0165,4.6437,0.0],[7.0207,4.6399,0.3741],[7.0212,4.6329,0.0],[7.0193,4.6301,0.7096],[7.0221,4.629,0.8091],[7.0224,4.6274,0.9142],[7.0179,4.626,1.0136],[7.0176,4.624,1.1545],[7.0204,4.6221,2.119],[7.0207,4.6176,0.9058],[7.0182,4.6162,1.5847],[7.0204,4.619,0.4288],[7.019,4.6229,0.0],[7.0168,4.6235,1.5503],[7.0174,4.6268,1.0136],[7.0215,4.6276,1.9],[7.0204,4.629,0.7773],[7.0115,4.6288,0.0],[7.0043,4.6304,4.4566],[7.0013,4.6288,0.0],[7.0096,4.6104,0.0],[7.0074,4.6007,0.0],[7.0082,4.5974,1.5285],[7.0138,4.5949,0.0],[7.0246,4.5946,0.0],[7.0249,4.5971,2.6058],[7.021,4.5979,1.7508],[7.0201,4.5996,1.2232],[7.024,4.6018,2.5723],[7.0251,4.6112,1.4548],[7.0321,4.6124,3.584]]],
[[[6.7218,4.5604,0.0],[6.7232,4.5615,1.2764],[6.7229,4.5629,0.0],[6.7221,4.5626,0.0],[6.7218,4.5604,0.0]]],
[[[7.0835,4.5679,1.5627],[7.0821,4.5696,0.0],[7.0737,4.5685,1.021],[7.0699,4.5657,0.3966],[7.0696,4.5637,0.0],[7.0737,4.5612,0.3011],[7.0818,4.5599,0.0],[7.0835,4.5612,1.9844],[7.0835,4.5679,1.5627]]],
[[[7.0693,4.5732,0.4078],[7.0651,4.5746,0.0],[7.0596,4.5685,1.1813],[7.0585,4.5618,0.3851],[7.0604,4.5599,0.0],[7.0657,4.5599,0.0],[7.0682,4.5626,0.0],[7.0715,4.569,0.0],[7.0693,4.5732,0.4078]]],
[[[7.384,4.571,0.2917],[7.3851,4.5718,0.0],[7.3849,4.5732,0.0],[7.3832,4.5726,0.3642],[7.384,4.571,0.2917]]],
[[[7.274,4.5774,0.2393],[7.2751,4.5774,0.2393],[7.2749,4.5796,0.0],[7.2726,4.5782,0.0],[7.2735,4.5763,0.0614],[7.274,4.5774,0.2393]]],
[[[7.2721,4.579,0.0],[7.2707,4.5807,0.0],[7.2676,4.5779,0.1873],[7.2707,4.5765,0.0],[7.2721,4.579,0.0]]],
[[[7.2743,4.5801,0.0],[7.2735,4.5815,0.0559],[7.2715,4.5821,0.0],[7.2724,4.5793,0.0],[7.2743,4.5801,0.0]]],
[[[7.319,4.5893,0.191],[7.3196,4.5901,0.191],[7.3193,4.5912,0.0778],[7.3179,4.5907,0.0],[7.319,4.5893,0.191]]],
[[[7.3579,4.5643,0.0],[7.3554,4.566,0.0],[7.354,4.5607,0.0],[7.3551,4.5585,0.0],[7.3579,4.5596,0.0],[7.3579,4.5643,0.0]]],
[[[7.2749,4.5601,0.1264],[7.276,4.5601,0.3229],[7.276,4.5643,0.171],[7.2735,4.5643,0.0],[7.2721,4.5596,0.1208],[7.2749,4.5601,0.1264]]],
[[[7.336,4.5768,1.1623],[7.3338,4.5785,1.0219],[7.331,4.5765,2.5203],[7.3299,4.5704,1.1078],[7.3326,4.5657,0.5865],[7.3396,4.569,0.0],[7.339,4.5749,1.4403],[7.336,4.5768,1.1623]]],
[[[7.2882,4.5785,0.151],[7.2799,4.5793,0.0841],[7.2754,4.5721,0.0],[7.2771,4.5621,0.4815],[7.279,4.559,0.2131],[7.2871,4.5588,0.5871],[7.2926,4.5626,0.855],[7.2996,4.5612,0.1364],[7.2965,4.5693,0.0],[7.2904,4.5743,0.3582],[7.2882,4.5785,0.151]]],
[[[7.296,4.5849,0.0],[7.2929,4.5865,0.6495],[7.2943,4.591,0.0],[7.2929,4.5926,0.0],[7.2899,4.5918,2.5209],[7.2851,4.5865,0.0],[7.286,4.5815,0.0],[7.2893,4.5813,0.085],[7.2938,4.5743,0.3167],[7.2993,4.5718,0.0],[7.3024,4.5738,0.1247],[7.3021,4.5707,0.5191],[7.3043,4.569,0.3285],[7.3057,4.5649,0.0716],[7.3049,4.5643,0.0716],[7.3038,4.5651,0.0],[7.3057,4.5601,0.0],[7.3071,4.5657,0.0],[7.3035,4.5765,0.0694],[7.3054,4.5793,0.0],[7.3021,4.5799,0.2279],[7.3029,4.5821,0.2359],[7.3057,4.5826,0.109],[7.3035,4.5843,0.0],[7.296,4.5849,0.0]]],
[[[7.298,4.5965,0.7251],[7.2954,4.5974,0.0],[7.2979,4.5865,0.0],[7.3035,4.5885,0.2288],[7.304,4.586,0.0],[7.3093,4.589,0.1724],[7.3082,4.5915,0.1781],[7.298,4.5965,0.7251]]],
[[[7.2807,4.5943,0.0],[7.2796,4.5957,0.0],[7.2788,4.5957,0.0],[7.2815,4.5926,0.0],[7.2807,4.5943,0.0]]],
[[[7.2312,4.6293,2.0943],[7.2321,4.6329,4.7874],[7.2296,4.6379,2.04],[7.2274,4.6385,1.1981],[7.2257,4.6315,0.8696],[7.2207,4.6315,1.6401],[7.2185,4.6288,0.9839],[7.2149,4.6285,2.0394],[7.214,4.6265,1.3598],[7.2104,4.6279,0.6044],[7.2063,4.626,0.9638],[7.2054,4.6232,0.3614],[7.2076,4.6179,1.6076],[7.2021,4.6135,2.088],[7.1996,4.6137,2.2937],[7.1957,4.6232,3.6402],[7.1871,4.6229,3.1605],[7.1785,4.626,1.4181],[7.1774,4.6251,0.0],[7.1785,4.6221,4.1909],[7.1915,4.6099,2.4041],[7.1971,4.5943,1.481],[7.2024,4.5871,0.1095],[7.2238,4.5685,0.0],[7.2332,4.5654,0.0],[7.2421,4.5599,0.0],[7.2465,4.5724,0.0],[7.236,4.5779,1.9674],[7.2335,4.5846,0.0],[7.2312,4.5865,2.0051],[7.2326,4.5943,1.8394],[7.229,4.596,1.1372],[7.229,4.5996,0.9049],[7.2229,4.5993,2.2063],[7.2213,4.6054,0.9014],[7.2235,4.6076,2.7177],[7.2229,4.6099,1.6359],[7.2143,4.6135,2.9866],[7.2151,4.6162,1.7592],[7.2204,4.6162,0.5153],[7.2185,4.6196,1.2852],[7.2224,4.621,1.961],[7.2204,4.6265,0.4941],[7.2215,4.6279,1.2808],[7.2232,4.6282,0.6139],[7.2257,4.6229,1.0233],[7.2274,4.6226,1.4143],[7.2254,4.6279,0.9432],[7.2312,4.6293,2.0943]]],
[[[7.0468,4.5946,0.5765],[7.049,4.606,3.3865],[7.0543,4.611,1.3601],[7.0549,4.6162,1.7999],[7.0532,4.6162,1.7999],[7.0493,4.6121,1.3997],[7.0426,4.6137,0.0],[7.0382,4.6115,0.0],[7.0385,4.6082,2.0491],[7.036,4.6124,1.0267],[7.026,4.611,1.4548],[7.0263,4.606,2.8465],[7.0249,4.6018,2.6323],[7.0212,4.599,1.2232],[7.026,4.5968,0.0],[7.026,4.5935,0.0],[7.0279,4.5918,0.0],[7.0393,4.5893,1.2077],[7.0468,4.584,1.7428],[7.0493,4.5793,3.2865],[7.051,4.5676,2.4367],[7.0532,4.5665,0.0],[7.0596,4.5726,0.0],[7.0632,4.5824,1.0504],[7.0582,4.5915,0.0],[7.0501,4.5912,1.385],[7.0474,4.5932,0.7056],[7.044,4.5929,1.7577],[7.0468,4.5946,0.5765]]],
[[[7.1463,4.6443,0.0],[7.1332,4.6521,0.0],[7.1271,4.649,3.5752],[7.1224,4.6412,1.7273],[7.1215,4.6365,0.6485],[7.1268,4.6326,0.0],[7.1321,4.6215,3.237],[7.1315,4.6124,2.414],[7.129,4.6063,0.3556],[7.131,4.596,0.0],[7.1304,4.5799,0.5607],[7.136,4.5704,0.0],[7.1401,4.5699,1.8739],[7.1418,4.5671,4.3697],[7.1454,4.5665,0.0],[7.1512,4.5604,0.0],[7.1571,4.5579,0.8109],[7.166,4.5576,0.4756],[7.1713,4.5624,1.0076],[7.1768,4.5804,0.0],[7.1738,4.5943,0.0],[7.1687,4.6007,0.0],[7.1671,4.6085,0.0],[7.1585,4.6221,0.0],[7.156,4.6321,0.0],[7.1504,4.6407,0.0],[7.1463,4.6443,0.0]]],
[[[7.071,4.6338,0.4941],[7.0663,4.6354,1.8573],[7.0601,4.6268,0.5793],[7.0635,4.621,2.3463],[7.0618,4.6099,0.0],[7.0649,4.6024,0.0],[7.059,4.5943,0.0],[7.0668,4.5871,0.8706],[7.0701,4.5746,0.0],[7.074,4.5699,0.0],[7.0771,4.5693,0.3473],[7.079,4.5718,0.8283],[7.0779,4.579,0.0],[7.0804,4.5837,0.0],[7.0779,4.5887,0.0],[7.0715,4.5904,2.0281],[7.0704,4.5926,1.6922],[7.0768,4.5993,0.0],[7.0779,4.6101,0.727],[7.0749,4.614,1.9308],[7.0721,4.6232,0.7104],[7.071,4.6338,0.4941]]],
[[[7.0446,4.6338,0.0],[7.0371,4.6349,0.5057],[7.0351,4.6301,2.2952],[7.0365,4.6276,2.4647],[7.0424,4.6249,1.7469],[7.0435,4.614,4.9054],[7.049,4.6132,1.3997],[7.0524,4.6168,0.0],[7.0557,4.6162,0.4465],[7.0551,4.611,1.5531],[7.0501,4.6065,3.3865],[7.0479,4.5957,1.4093],[7.0482,4.5929,0.7056],[7.0518,4.5921,4.1296],[7.0535,4.5943,3.2209],[7.0568,4.5951,0.0],[7.0582,4.5988,1.3275],[7.0632,4.6021,4.5621],[7.0604,4.6107,1.388],[7.0621,4.619,0.0],[7.0588,4.626,0.0],[7.0529,4.6321,0.0],[7.0446,4.6338,0.0]]],
[[[7.0663,4.6363,1.5101],[7.0718,4.634,2.2081],[7.0729,4.6232,0.7104],[7.0762,4.6132,1.5559],[7.0788,4.6104,0.727],[7.0779,4.5999,2.2196],[7.0715,4.5912,0.2658],[7.0771,4.5904,0.9038],[7.0829,4.5874,1.0107],[7.0854,4.591,1.6436],[7.0888,4.5918,0.0],[7.0935,4.5901,0.5599],[7.0963,4.5849,1.5745],[7.1065,4.5846,1.9873],[7.1079,4.5815,0.0],[7.1071,4.5749,1.0827],[7.1115,4.5663,0.0],[7.131,4.5668,0.0],[7.126,4.5813,5.5524],[7.1271,4.5921,0.0],[7.1254,4.6065,0.0],[7.1182,4.6221,1.5699],[7.1185,4.634,0.4836],[7.1093,4.6415,2.374],[7.1037,4.6507,0.0],[7.1004,4.6532,0.0],[7.0882,4.6529,1.2927],[7.0762,4.664,0.0],[7.0732,4.669,0.9833],[7.0701,4.6704,3.8312],[7.0665,4.6685,1.4263],[7.0668,4.6712,1.3848],[7.0735,4.6701,1.7226],[7.0768,4.6654,0.0],[7.0801,4.6643,4.0723],[7.0826,4.6599,0.8511],[7.0849,4.6607,2.545],[7.0846,4.6579,2.7812],[7.0885,4.6543,1.0415],[7.0893,4.6629,2.4125],[7.0951,4.6674,0.0],[7.0924,4.6757,0.0],[7.0824,4.6843,0.906],[7.0782,4.6979,0.0],[7.0557,4.704,0.0],[7.0485,4.7021,0.0],[7.0418,4.7029,2.4311],[7.0365,4.7104,1.4528],[7.0274,4.7113,1.4872],[7.0207,4.7065,1.5314],[7.0129,4.7054,1.0828],[7.0051,4.6996,0.0],[7.0024,4.6962,0.0],[7.0024,4.6912,0.0],[7.0201,4.6763,1.1618],[7.0254,4.6651,1.5291],[7.031,4.646,2.1367],[7.0365,4.6368,0.9836],[7.0471,4.6338,1.8835],[7.0532,4.6338,2.9126],[7.059,4.6285,0.0],[7.0621,4.6301,0.0],[7.0635,4.6351,0.0],[7.0543,4.6465,2.4827],[7.0551,4.6543,0.4781],[7.0526,4.6565,3.4429],[7.0471,4.6563,0.0],[7.0482,4.6579,6.016],[7.0515,4.6582,0.5088],[7.0557,4.6546,0.4781],[7.056,4.6449,0.1339],[7.0607,4.6396,0.0],[7.0663,4.6363,1.5101]]],
[[[7.5321,4.5463,0.0],[7.5332,4.546,1.2979],[7.5233,4.565,3.2462],[7.5239,4.5754,5.0504],[7.5321,4.5806,4.6802],[7.5261,4.5947,2.4355],[7.5253,4.6333,8.1034],[7.5227,4.6543,7.3178],[7.5304,4.6929,0.5],[7.5369,4.706,1.0],[7.5381,4.7235,11.4608],[7.531,4.7428,1.0],[7.5278,4.7608,1.0],[7.5127,4.7929,12.825],[7.4941,4.8144,8.3192],[7.4964,4.8174,9.7659],[7.493,4.8154,12.0062],[7.4583,4.8464,13.2215],[7.4295,4.8621,13.1624],[7.4109,4.8692,12.6468],[7.3817,4.8623,11.1757],[7.3574,4.8694,9.2233],[7.3287,4.8821,11.5306],[7.3183,4.8781,9.1414],[7.3021,4.8765,11.5836],[7.2837,4.8801,11.4834],[7.2657,4.8698,9.3849],[7.2574,4.8674,9.2729],[7.2282,4.866,16.4702],[7.2152,4.8603,11.2982],[7.1989,4.8617,13.9478],[7.1862,4.8647,15.1889],[7.1628,4.8875,17.4992],[7.1532,4.9054,16.7585],[7.1557,4.9231,14.67],[7.167,4.9596,16.8954],[7.178,4.9832,18.9202],[7.2003,5.0068,35.9763],[7.2063,5.0205,37.536],[7.2331,5.0533,48.1545],[7.2463,5.0833,52.7586],[7.2562,5.0976,53.2152],[7.2642,5.1054,59.5336],[7.2718,5.1211,62.0804],[7.2697,5.1463,63.4126],[7.2709,5.1661,58.333],[7.2603,5.194,51.8296],[7.2465,5.1952,38.9337],[7.2248,5.1835,42.4031],[7.21,5.1794,56.5297],[7.1899,5.1825,58.1063],[7.1785,5.1876,57.9346],[7.1692,5.1882,54.8034],[7.1546,5.194,55.509],[7.1371,5.1977,51.9413],[7.1027,5.1972,46.6079],[7.0943,5.1934,45.1851],[7.0795,5.1925,47.1696],[7.0605,5.185,40.4833],[7.0357,5.1798,34.4051],[6.9809,5.1916,49.2221],[6.9598,5.198,50.6065],[6.9473,5.1959,48.4315],[6.9251,5.1981,40.2205],[6.8512,5.1957,39.3072],[6.8342,5.2003,41.14],[6.8167,5.2023,37.9324],[6.7946,5.2183,37.733],[6.7818,5.2289,38.838],[6.771,5.2434,35.9373],[6.7637,5.2671,37.9671],[6.7541,5.2841,35.8625],[6.7328,5.2946,24.7094],[6.7244,5.3051,24.414],[6.7201,5.3273,22.0069],[6.7227,5.3427,24.1083],[6.7377,5.372,26.5518],[6.7416,5.4112,20.8617],[6.744,5.4224,24.9782],[6.7461,5.4469,17.1713],[6.7414,5.4601,18.0506],[6.7389,5.4737,19.5573],[6.7334,5.4798,17.5368],[6.7047,5.4863,14.0295],[6.6641,5.4771,27.3738],[6.6486,5.4755,24.1769],[6.6243,5.4826,25.7701],[6.6242,5.493,27.4723],[6.6266,5.4987,18.4617],[6.6609,5.6647,27.2995],[6.6619,5.6831,28.811],[6.6688,5.6943,30.2248],[6.6438,5.6931,22.4009],[6.63,5.6978,21.7499],[6.6191,5.7069,16.057],[6.6126,5.7184,14.2367],[6.611,5.7188,14.354],[6.6084,5.7129,9.0],[6.6229,5.6697,8.5],[6.6259,5.6556,9.6552],[6.6238,5.6418,8.5],[6.6176,5.6292,10.7145],[6.6126,5.6042,20.0169],[6.6073,5.5904,21.261],[6.5983,5.5758,16.1243],[6.5918,5.5722,13.9027],[6.5777,5.5598,9.7649],[6.5651,5.5528,8.5],[6.5594,5.543,19.6313],[6.5539,5.5288,24.887],[6.5507,5.5049,23.9598],[6.5557,5.4676,17.1473],[6.555,5.4538,16.8638],[6.5509,5.443,19.9752],[6.5432,5.4397,8.5],[6.5332,5.4325,8.5],[6.5225,5.4311,10.8261],[6.5032,5.4222,8.5],[6.4941,5.4138,15.5813],[6.4905,5.4081,15.5243],[6.4918,5.4031,22.146],[6.5,5.3898,21.2696],[6.5043,5.3878,25.4991],[6.5167,5.3852,24.0316],[6.5307,5.3912,24.4316],[6.5642,5.3932,22.1941],[6.5951,5.3798,23.4875],[6.6075,5.3703,12.5237],[6.6109,5.3543,21.74],[6.6177,5.3455,21.3922],[6.62,5.3293,25.4695],[6.6181,5.3141,20.5397],[6.6126,5.3019,15.4212],[6.6027,5.2901,18.2302],[6.5773,5.2728,20.5354],[6.5746,5.2624,18.9222],[6.576,5.2553,24.5686],[6.5813,5.2487,22.2875],[6.5809,5.2434,14.9816],[6.5767,5.24,4.0097],[6.5649,5.2359,12.8263],[6.556,5.2307,21.2655],[6.5546,5.2164,11.9977],[6.5495,5.2006,18.6358],[6.5438,5.1903,17.7391],[6.5349,5.1821,20.015],[6.502,5.1859,18.7174],[6.4902,5.185,20.9367],[6.4882,5.1776,15.9542],[6.4715,5.1551,19.9607],[6.4177,5.058,20.5972],[6.4067,5.0309,10.2698],[6.396,4.9983,13.5063],[6.3963,4.9861,18.5936],[6.4007,4.978,20.2997],[6.4099,4.9734,17.9097],[6.4222,4.9778,17.7753],[6.4307,4.9761,9.7431],[6.4302,4.9555,17.3025],[6.4204,4.937,9.5233],[6.4178,4.9223,13.9851],[6.41,4.9104,16.7336],[6.3903,4.8884,19.9502],[6.3871,4.879,21.2448],[6.3837,4.8211,14.669],[6.386,4.8086,15.4906],[6.3941,4.7951,16.131],[6.4257,4.7787,13.5203],[6.4414,4.7793,16.7314],[6.4475,4.7718,14.9209],[6.4407,4.7482,15.0511],[6.4444,4.7371,11.4817],[6.4464,4.7167,15.7],[6.4632,4.7125,9.6751],[6.5689,4.7536,10.1618],[6.5871,4.7545,14.0902],[6.601,4.7533,14.0165],[6.6149,4.7408,13.7268],[6.6234,4.7229,12.4403],[6.6271,4.7125,10.1654],[6.6291,4.6958,4.8495],[6.6335,4.6796,1.587],[6.6428,4.652,1.4627],[6.6532,4.6405,3.2725],[6.6824,4.6206,3.457],[6.6973,4.6128,4.7527],[6.7126,4.6079,4.3979],[6.7146,4.6135,1.6639],[6.7124,4.6201,0.8317],[6.7126,4.6285,1.8474],[6.7146,4.6318,4.7829],[6.7135,4.6357,2.3991],[6.7168,4.6374,1.7401],[6.7179,4.6421,0.0],[6.7118,4.6504,0.8272],[6.6982,4.6551,1.0465],[6.6968,4.6582,4.6151],[6.6976,4.6588,0.7039],[6.6985,4.6557,2.2316],[6.7049,4.6549,0.0],[6.7046,4.6596,2.8793],[6.7076,4.6649,0.0],[6.711,4.6671,8.1457],[6.7115,4.6665,1.073],[6.709,4.6651,0.0],[6.7054,4.6593,1.0229],[6.7057,4.6557,0.0],[6.7082,4.6524,6.0591],[6.7138,4.6524,2.4839],[6.7201,4.6449,1.0447],[6.7199,4.6368,4.3025],[6.7154,4.6243,0.0],[6.7168,4.616,3.3458],[6.7213,4.6124,0.5333],[6.7282,4.6174,0.0],[6.7293,4.6207,1.6725],[6.7246,4.634,0.0],[6.7274,4.6429,7.1319],[6.7249,4.6465,0.0],[6.719,4.6493,0.7533],[6.7185,4.6521,1.178],[6.7237,4.6574,1.0513],[6.7274,4.6646,1.5368],[6.7279,4.6629,1.5496],[6.7246,4.6574,1.0513],[6.7196,4.6529,3.8252],[6.7193,4.6504,0.7533],[6.7285,4.6446,2.3066],[6.7265,4.639,0.71],[6.7326,4.6224,2.8196],[6.7326,4.6182,1.6193],[6.739,4.6146,4.2539],[6.7438,4.6143,5.613],[6.7496,4.6229,10.4284],[6.7565,4.6232,0.0],[6.7565,4.6263,1.3519],[6.7504,4.6276,5.8741],[6.7488,4.6332,0.5736],[6.7532,4.6396,0.4287],[6.7582,4.6401,0.0],[6.7613,4.6379,3.7283],[6.7635,4.6382,0.0],[6.7615,4.6457,0.0],[6.7629,4.651,1.7834],[6.7549,4.654,9.9016],[6.7629,4.6521,4.927],[6.7635,4.6493,0.4694],[6.7624,4.6454,1.0974],[6.7646,4.6424,0.1046],[6.7643,4.6374,0.0],[6.761,4.6363,1.3581],[6.7568,4.639,0.0],[6.754,4.639,0.4287],[6.7501,4.6326,0.5736],[6.751,4.6288,9.6889],[6.7582,4.6274,1.0239],[6.7579,4.6229,0.3635],[6.7507,4.6212,4.708],[6.7493,4.6176,0.0],[6.7435,4.6132,2.0955],[6.7385,4.6132,1.7656],[6.7329,4.616,0.0],[6.7285,4.614,5.1301],[6.7265,4.604,3.198],[6.7285,4.5957,13.9699],[6.7301,4.5943,0.0],[6.7321,4.5821,1.7288],[6.7315,4.5707,0.0],[6.7246,4.551,1.2597],[6.7213,4.5499,0.0],[6.7146,4.5432,0.0],[6.7104,4.5354,0.7495],[6.7063,4.5215,0.0],[6.7001,4.5112,6.3762],[6.6996,4.5024,16.3137],[6.7032,4.499,0.477],[6.6979,4.4979,2.1112],[6.6965,4.496,0.0],[6.6985,4.4907,1.7259],[6.701,4.4707,0.0],[6.7107,4.4551,0.0],[6.724,4.4585,7.6407],[6.7251,4.4629,4.4478],[6.7288,4.4649,1.2897],[6.7301,4.4704,0.0],[6.7354,4.4707,2.6065],[6.7363,4.4746,0.0],[6.7388,4.4754,3.6227],[6.7376,4.4799,3.0453],[6.7415,4.4818,4.6927],[6.7415,4.4854,0.8376],[6.7421,4.4815,4.6927],[6.7382,4.4796,5.6632],[6.7393,4.4751,3.6227],[6.7368,4.4743,0.0],[6.7368,4.471,2.9403],[6.736,4.4701,1.5302],[6.7313,4.4704,0.0],[6.7301,4.4651,5.0379],[6.7265,4.4629,0.6441],[6.7243,4.4579,7.6407],[6.7143,4.4549,0.0],[6.7113,4.4524,0.0],[6.7251,4.4435,0.0],[6.7299,4.4435,0.8399],[6.7346,4.4557,1.1054],[6.7385,4.4593,2.362],[6.749,4.4607,13.5202],[6.7562,4.4657,1.6846],[6.7554,4.4704,7.6114],[6.7515,4.4746,0.0],[6.756,4.4707,0.472],[6.7568,4.4654,1.9539],[6.756,4.464,0.0],[6.759,4.4615,5.1406],[6.7632,4.4529,1.8497],[6.769,4.4515,1.6441],[6.7713,4.4537,1.6708],[6.7713,4.4579,0.3489],[6.7729,4.4576,0.3489],[6.7715,4.4565,1.2235],[6.7715,4.4529,1.6708],[6.7693,4.451,1.6441],[6.7626,4.4521,0.0],[6.759,4.451,4.1166],[6.7615,4.4524,0.0],[6.7568,4.4579,2.9794],[6.7371,4.4565,4.7139],[6.7338,4.446,2.5298],[6.7285,4.4415,2.2732],[6.7235,4.4418,5.107],[6.714,4.4463,1.7111],[6.7099,4.4465,1.7582],[6.7096,4.4379,1.3094],[6.7143,4.4246,0.2897],[6.7165,4.4076,0.761],[6.7235,4.4101,0.0],[6.7243,4.4157,2.6595],[6.7274,4.416,2.3653],[6.7335,4.4129,1.425],[6.7329,4.4196,0.0],[6.7349,4.4221,5.3221],[6.7371,4.4215,2.7335],[6.7376,4.4154,3.6017],[6.7404,4.4157,1.7256],[6.7471,4.4249,1.4559],[6.7507,4.4243,4.9012],[6.7521,4.4229,1.8079],[6.7515,4.4201,1.9179],[6.7549,4.4182,0.0],[6.7718,4.4151,1.0085],[6.7746,4.4126,0.0],[6.7787,4.4129,0.4579],[6.7799,4.4157,1.1778],[6.7818,4.4138,0.0],[6.7787,4.4121,0.4579],[6.7746,4.4118,4.6148],[6.7699,4.4143,0.5356],[6.769,4.4107,13.4155],[6.7668,4.4093,1.2524],[6.7657,4.4138,0.0],[6.7512,4.4179,2.6984],[6.7479,4.4235,9.1228],[6.744,4.4174,1.1091],[6.7401,4.4146,2.0018],[6.7368,4.4151,3.6017],[6.7354,4.421,0.0],[6.7343,4.4121,3.6862],[6.731,4.4118,3.9881],[6.7254,4.4149,2.395],[6.7251,4.4107,4.0544],[6.7232,4.4082,4.4969],[6.7196,4.4085,6.1816],[6.7129,4.4038,0.0],[6.7143,4.3732,0.4927],[6.7129,4.3638,0.0],[6.7143,4.3599,0.0],[6.7224,4.3535,0.8354],[6.7351,4.3496,0.0],[6.771,4.3471,5.276],[6.7996,4.351,0.0],[6.8146,4.3554,3.463],[6.8646,4.3585,1.3265],[6.8721,4.3601,1.6948],[6.8713,4.3654,10.9969],[6.8518,4.3818,1.3463],[6.8515,4.384,0.0],[6.8404,4.3949,1.8823],[6.8326,4.4054,1.8287],[6.8315,4.4232,0.0],[6.8332,4.426,0.0],[6.8332,4.4318,0.0],[6.8288,4.4379,0.0],[6.8243,4.4582,6.9187],[6.8218,4.4574,4.2633],[6.8204,4.4499,3.7599],[6.8174,4.4496,6.4036],[6.8154,4.4529,0.0],[6.8085,4.4518,6.4415],[6.8087,4.4532,2.5565],[6.8151,4.4549,5.4886],[6.8199,4.4515,0.0],[6.8221,4.4626,0.5734],[6.8113,4.4935,5.4814],[6.809,4.5062,1.5942],[6.8007,4.5285,17.7144],[6.7951,4.5599,0.0],[6.7957,4.5707,0.0],[6.791,4.5743,4.6029],[6.7896,4.5779,5.1756],[6.7915,4.5799,1.8406],[6.7963,4.5804,3.1016],[6.7979,4.5832,4.2221],[6.7996,4.5887,9.2573],[6.7951,4.5912,12.2952],[6.7993,4.5904,4.7914],[6.8004,4.5879,3.3606],[6.7965,4.5799,3.1016],[6.7904,4.5779,5.1756],[6.7926,4.5738,4.2303],[6.7965,4.574,0.0],[6.8046,4.5818,0.0],[6.8163,4.5871,2.0232],[6.8188,4.5921,7.933],[6.8257,4.5976,5.9714],[6.8274,4.6018,0.0],[6.8282,4.6063,2.86],[6.8254,4.6168,3.4374],[6.8232,4.621,0.0],[6.8099,4.6329,6.4594],[6.8001,4.6476,0.0],[6.7857,4.656,0.0],[6.7785,4.6629,2.8917],[6.7735,4.6704,10.195],[6.7721,4.6776,8.6844],[6.7729,4.6915,3.1437],[6.7696,4.6987,1.4997],[6.7657,4.7204,1.695],[6.7588,4.7363,0.0],[6.7565,4.736,1.3909],[6.7535,4.7318,1.5223],[6.7554,4.736,1.3909],[6.7596,4.7388,0.0],[6.7576,4.7457,5.9029],[6.7582,4.7565,8.0294],[6.7571,4.759,0.0],[6.7504,4.7593,6.2272],[6.7585,4.7613,5.5553],[6.7596,4.7704,0.0],[6.7457,4.7815,1.4043],[6.739,4.791,0.0],[6.7307,4.7888,0.4611],[6.7332,4.794,0.0],[6.7315,4.796,1.3918],[6.7174,4.7974,0.8854],[6.7165,4.7987,0.8854],[6.7201,4.8074,0.3299],[6.7193,4.8118,1.0042],[6.7207,4.8118,2.0688],[6.7218,4.8076,10.5324],[6.7174,4.8007,0.3433],[6.7182,4.7976,1.9196],[6.7265,4.8007,0.5918],[6.7338,4.8012,1.7659],[6.7329,4.8121,0.0],[6.7307,4.8174,0.0],[6.7204,4.8213,0.0],[6.7199,4.8174,1.2798],[6.7171,4.8149,2.2364],[6.7182,4.814,10.9666],[6.7093,4.8101,1.0804],[6.7065,4.8113,3.068],[6.7043,4.8146,4.0516],[6.7001,4.8121,1.0324],[6.7018,4.8149,1.5019],[6.7046,4.8151,4.0516],[6.7099,4.8113,0.3079],[6.7182,4.8171,0.0],[6.7174,4.8229,2.5346],[6.7215,4.8263,0.0],[6.7271,4.8249,0.0],[6.7326,4.8263,0.1272],[6.7396,4.824,3.9102],[6.7421,4.8293,1.1943],[6.7404,4.8363,1.7065],[6.7421,4.8399,5.6052],[6.7426,4.8393,12.3746],[6.741,4.8357,1.7065],[6.744,4.8315,0.1816],[6.7426,4.8218,0.0477],[6.7463,4.8188,0.3921],[6.7526,4.8076,0.232],[6.7651,4.8082,0.0],[6.7654,4.8104,0.1723],[6.7629,4.8135,0.0],[6.764,4.8193,2.8137],[6.7629,4.8218,2.1766],[6.764,4.8215,2.1766],[6.7649,4.819,11.1237],[6.7649,4.8118,0.0],[6.7682,4.8132,0.0],[6.7754,4.8113,0.0],[6.7771,4.819,1.8261],[6.7796,4.8249,3.3963],[6.7782,4.8204,0.9978],[6.7793,4.8149,0.0],[6.7871,4.816,0.5752],[6.7901,4.8182,3.2557],[6.7899,4.8157,4.186],[6.7857,4.814,0.0],[6.7815,4.8093,1.9828],[6.781,4.8057,0.0],[6.7907,4.7976,3.0691],[6.8015,4.8035,0.0],[6.804,4.7996,1.5157],[6.8049,4.7924,10.5713],[6.8068,4.791,6.3516],[6.8165,4.7943,2.2774],[6.8213,4.8001,0.5175],[6.8232,4.8062,0.8934],[6.8201,4.8124,2.4319],[6.8215,4.8129,0.0],[6.8221,4.821,2.0773],[6.8257,4.826,0.433],[6.8379,4.8221,4.6181],[6.8549,4.8079,0.0],[6.884,4.804,3.7433],[6.8874,4.7971,2.1214],[6.8926,4.7932,0.0],[6.896,4.7946,1.5506],[6.8957,4.7987,2.7341],[6.8974,4.8021,5.516],[6.8985,4.8021,5.516],[6.8976,4.7979,0.0],[6.8993,4.7974,3.7277],[6.8993,4.7957,3.451],[6.9104,4.7943,4.5102],[6.916,4.7879,0.0],[6.9204,4.789,3.1349],[6.9251,4.7963,0.0],[6.9296,4.7949,0.0],[6.9335,4.7965,0.4908],[6.939,4.7963,0.0],[6.9446,4.789,7.0485],[6.9463,4.7799,6.8482],[6.9496,4.7737,0.9647],[6.959,4.776,0.5256],[6.9635,4.7737,0.6424],[6.9657,4.7707,0.6758],[6.966,4.7635,1.394],[6.9635,4.759,1.1152],[6.9643,4.7557,1.1346],[6.9762,4.7579,2.01],[6.9832,4.7632,0.0],[6.9876,4.7699,0.7798],[6.9871,4.7732,1.0387],[6.9807,4.7721,0.0],[6.9724,4.7796,0.862],[6.9729,4.7907,0.0],[6.9715,4.7951,0.0],[6.9699,4.7954,7.9312],[6.9701,4.8012,0.5622],[6.9712,4.796,1.2325],[6.9738,4.7951,1.1741],[6.9721,4.7946,0.0],[6.974,4.7915,0.0],[6.9729,4.7799,0.1029],[6.9804,4.7729,0.0],[6.9874,4.7737,1.0387],[6.9882,4.7732,1.0387],[6.9879,4.7682,0.0],[7.0004,4.774,1.5729],[7.0085,4.7732,0.9027],[7.009,4.7696,0.0],[7.0038,4.7588,0.0],[7.0035,4.751,0.0],[7.0018,4.751,0.0],[7.0035,4.7424,0.0],[7.0071,4.7371,2.476],[7.0101,4.7388,2.9042],[7.0113,4.7368,0.6521],[7.0104,4.7482,0.9585],[7.0149,4.7529,1.3793],[7.0163,4.7524,0.5164],[7.0185,4.7554,0.8093],[7.0263,4.7579,4.5404],[7.0326,4.7554,1.2363],[7.0326,4.7526,2.4716],[7.031,4.7518,2.1974],[7.0301,4.7551,1.1894],[7.0254,4.7563,0.0],[7.0188,4.7535,0.9471],[7.0115,4.7479,0.9585],[7.0126,4.739,0.0],[7.0118,4.734,1.9328],[7.0199,4.7271,2.1166],[7.0218,4.7218,0.0],[7.0271,4.7149,0.0],[7.0304,4.7151,0.0],[7.0449,4.7251,0.0],[7.0549,4.7249,1.0283],[7.0604,4.7274,0.876],[7.0593,4.7357,0.0],[7.0604,4.7415,0.9262],[7.0549,4.7485,5.1554],[7.054,4.7524,0.6797],[7.0476,4.7518,0.4735],[7.0454,4.7501,1.8451],[7.0426,4.751,2.662],[7.0418,4.7565,0.0],[7.0443,4.7596,1.071],[7.0415,4.7607,0.4829],[7.0396,4.7593,2.9501],[7.0413,4.764,3.4623],[7.0415,4.7621,1.6722],[7.0449,4.7604,3.1868],[7.0465,4.7532,0.0],[7.0526,4.7526,1.6234],[7.0554,4.7651,0.4698],[7.0535,4.7668,1.8991],[7.0318,4.7682,1.5377],[7.0282,4.7704,3.9135],[7.0263,4.7765,0.0],[7.0274,4.7849,0.3757],[7.0243,4.7849,0.9691],[7.024,4.7865,0.7442],[7.0207,4.7851,1.9384],[7.0188,4.7876,0.3551],[7.0163,4.7854,5.7394],[7.011,4.7865,8.433],[7.009,4.7901,2.4261],[7.0107,4.7882,0.9323],[7.0157,4.7868,0.8572],[7.019,4.7885,0.3551],[7.0226,4.786,0.7442],[7.0174,4.7929,3.1591],[7.021,4.7946,3.0976],[7.0204,4.7915,2.7066],[7.0293,4.7899,0.2983],[7.0274,4.7787,0.0],[7.029,4.7704,1.7152],[7.0318,4.769,0.7621],[7.0451,4.7699,0.576],[7.0554,4.7668,0.0],[7.0579,4.7696,0.0],[7.0599,4.7688,0.0],[7.0624,4.7704,1.0343],[7.0629,4.7737,2.8198],[7.0685,4.7754,0.0],[7.0665,4.7796,0.0],[7.0604,4.7832,2.4189],[7.0599,4.7876,0.0],[7.0624,4.7932,0.8307],[7.069,4.7954,0.0],[7.0699,4.8029,2.6706],[7.0638,4.804,0.0],[7.0546,4.8129,0.4758],[7.0479,4.8118,11.8869],[7.046,4.8143,8.7724],[7.0471,4.821,0.0],[7.0485,4.8193,0.0],[7.0485,4.8165,0.5721],[7.0468,4.8151,0.8396],[7.0479,4.8132,2.4363],[7.0546,4.8137,0.4758],[7.0576,4.8126,8.2014],[7.0626,4.8057,0.0],[7.0704,4.8035,2.6706],[7.0704,4.7963,2.4813],[7.0735,4.7951,0.432],[7.0757,4.7976,12.112],[7.074,4.804,1.1382],[7.0771,4.8137,0.0],[7.0735,4.8174,0.0],[7.0757,4.8176,1.5823],[7.0768,4.8151,0.0],[7.0779,4.8179,0.0],[7.0829,4.8179,0.9759],[7.0832,4.8146,0.0],[7.0807,4.8174,0.0],[7.0776,4.8157,0.6187],[7.0779,4.8124,7.4432],[7.0749,4.804,1.1382],[7.0765,4.8001,6.9469],[7.0757,4.7951,2.8646],[7.066,4.7926,1.3333],[7.0638,4.7907,0.7442],[7.0635,4.7879,1.7422],[7.0712,4.7774,0.0],[7.0707,4.769,0.6442],[7.0721,4.7665,0.6411],[7.0746,4.7679,2.6709],[7.0751,4.7704,3.8874],[7.0779,4.7712,1.3355],[7.0757,4.7682,1.3665],[7.0785,4.7663,6.3647],[7.0813,4.7557,0.0],[7.0843,4.7557,3.0208],[7.0821,4.7471,0.2938],[7.0788,4.7463,0.3358],[7.0762,4.7429,2.2332],[7.0788,4.7324,1.2711],[7.0829,4.7296,0.3278],[7.0918,4.7432,1.6405],[7.0863,4.7479,0.0],[7.0868,4.7529,0.0],[7.0946,4.7479,2.1397],[7.0935,4.7435,1.2],[7.0965,4.7413,5.0615],[7.0915,4.7371,0.512],[7.0929,4.7368,0.0],[7.0949,4.7371,2.8521],[7.0932,4.7365,0.0],[7.0943,4.7349,0.0],[7.0924,4.7318,0.0],[7.0913,4.7329,4.963],[7.0932,4.7346,0.0],[7.0924,4.7363,0.0],[7.0868,4.7326,0.6815],[7.0843,4.729,2.4856],[7.0857,4.7274,1.3979],[7.084,4.7221,0.0],[7.0854,4.7218,0.0],[7.0863,4.7185,0.0],[7.0874,4.7215,0.0],[7.0899,4.7174,0.0],[7.0885,4.704,1.9476],[7.091,4.6926,0.0],[7.0929,4.6893,3.9311],[7.0982,4.6863,4.3387],[7.1051,4.6751,0.0],[7.1138,4.6735,0.0],[7.1101,4.6782,9.0478],[7.111,4.6826,2.7077],[7.1149,4.6868,2.5104],[7.1101,4.6949,4.3263],[7.1104,4.6979,5.9021],[7.1135,4.7001,0.0],[7.1029,4.7007,1.4648],[7.1026,4.7065,3.6861],[7.1001,4.7101,4.0734],[7.1018,4.7104,3.1783],[7.1035,4.7068,3.6861],[7.1037,4.7013,1.4648],[7.1135,4.7015,4.6466],[7.1146,4.7001,0.0],[7.1135,4.6982,3.3329],[7.1113,4.6976,1.5227],[7.111,4.6949,5.8814],[7.1157,4.689,4.0348],[7.1157,4.6868,2.5104],[7.1118,4.6826,2.7077],[7.111,4.6785,3.52],[7.1165,4.6751,0.0],[7.1235,4.6735,0.0],[7.1243,4.6774,0.9715],[7.1199,4.6799,0.5661],[7.1176,4.6857,2.2727],[7.1182,4.6899,3.9712],[7.1215,4.6924,0.0],[7.1224,4.6974,0.0],[7.1201,4.7038,1.6577],[7.1154,4.7071,2.4628],[7.114,4.7165,2.829],[7.1021,4.7193,2.1654],[7.0993,4.7212,4.08],[7.0982,4.7271,3.5539],[7.0957,4.726,4.3696],[7.0935,4.7293,0.0],[7.0932,4.7313,0.0],[7.0971,4.7379,5.3397],[7.0996,4.7349,0.7882],[7.0976,4.7354,0.0],[7.0949,4.7329,0.8993],[7.096,4.7299,1.2383],[7.0949,4.7287,0.0],[7.0979,4.7279,0.0],[7.0996,4.7326,3.7713],[7.0988,4.7268,0.0],[7.1024,4.7199,4.8812],[7.116,4.7174,2.2011],[7.1168,4.7193,0.0],[7.1143,4.7215,1.9082],[7.1151,4.7249,0.5934],[7.1171,4.7254,0.0],[7.1193,4.7221,9.3011],[7.119,4.7193,0.8541],[7.116,4.7163,0.0],[7.1157,4.7126,0.0],[7.1165,4.709,0.0],[7.1226,4.7015,0.0],[7.1232,4.6949,2.4501],[7.1193,4.6865,5.3274],[7.121,4.6815,2.8087],[7.1257,4.6785,0.7936],[7.1265,4.6726,0.0],[7.1363,4.6679,1.8569],[7.146,4.6663,2.4357],[7.1501,4.6621,0.5024],[7.1521,4.6643,0.0],[7.1537,4.6757,5.216],[7.1593,4.6921,0.0],[7.1557,4.699,1.201],[7.1576,4.6993,0.0],[7.1601,4.6954,0.0],[7.1743,4.6937,0.0],[7.1801,4.6985,4.1158],[7.191,4.6999,0.0],[7.1915,4.7065,0.5127],[7.1993,4.7107,1.718],[7.1985,4.7132,1.0888],[7.1935,4.7135,3.3162],[7.1901,4.7171,3.01],[7.1912,4.7207,0.3788],[7.1954,4.7226,0.238],[7.196,4.7251,0.7018],[7.1912,4.7262,0.7301],[7.1846,4.7243,2.9973],[7.1826,4.7299,3.4359],[7.1779,4.731,0.0],[7.1779,4.7324,3.0581],[7.1815,4.7329,2.6242],[7.1843,4.7268,1.5104],[7.1868,4.7251,0.0],[7.1912,4.731,3.3272],[7.1907,4.7279,0.0],[7.196,4.7274,1.5459],[7.1982,4.7221,3.0747],[7.2007,4.7218,3.6013],[7.201,4.7204,1.9087],[7.1971,4.7174,1.6978],[7.1943,4.7185,2.2983],[7.1949,4.7212,0.3545],[7.1915,4.7182,1.1752],[7.1932,4.7151,0.0],[7.1982,4.7146,1.9823],[7.2004,4.7121,3.2307],[7.1993,4.7079,4.7618],[7.1921,4.7054,4.423],[7.1924,4.6985,0.8352],[7.1835,4.6979,0.6115],[7.1749,4.6921,0.4484],[7.1646,4.6932,0.2019],[7.1613,4.691,0.0],[7.1601,4.6824,2.2434],[7.1615,4.6793,0.0],[7.1599,4.6735,0.0],[7.1618,4.6668,0.0],[7.1599,4.6624,0.0],[7.1554,4.6607,0.5934],[7.1549,4.656,1.1004],[7.1613,4.6501,0.0],[7.1629,4.651,0.0],[7.1654,4.661,1.381],[7.1704,4.6696,1.0199],[7.1763,4.6693,0.8923],[7.1821,4.6624,1.2597],[7.1854,4.6618,0.0],[7.1932,4.6757,3.4027],[7.2038,4.6779,1.6476],[7.2076,4.6765,2.4132],[7.2138,4.671,2.1781],[7.2171,4.6754,0.0],[7.2238,4.6768,1.9784],[7.2268,4.6793,0.0],[7.2254,4.6826,1.8134],[7.2263,4.6907,1.4321],[7.2268,4.6851,0.6244],[7.2299,4.6813,0.0],[7.2346,4.6868,0.0],[7.2365,4.686,0.6051],[7.2376,4.6818,0.9335],[7.2424,4.6835,2.6019],[7.2443,4.6821,3.9344],[7.2432,4.6799,0.4934],[7.2424,4.6824,2.6019],[7.2376,4.681,0.9335],[7.236,4.6835,0.7787],[7.2337,4.6838,0.0],[7.2307,4.6796,0.0],[7.2326,4.6765,2.0488],[7.229,4.6785,1.292],[7.219,4.6751,1.5893],[7.2154,4.6704,5.4535],[7.2118,4.6704,3.3735],[7.2079,4.6749,0.0],[7.2049,4.676,1.8651],[7.1976,4.676,1.3294],[7.191,4.6704,1.7866],[7.1893,4.6629,3.8153],[7.186,4.6607,0.0],[7.181,4.6613,0.6062],[7.1743,4.6682,3.3998],[7.1707,4.6685,2.5878],[7.169,4.6571,0.0],[7.1738,4.6504,0.6062],[7.1768,4.6296,3.4358],[7.1843,4.6246,1.0611],[7.1968,4.6238,2.6618],[7.1999,4.6149,1.8546],[7.2015,4.614,1.5505],[7.2065,4.6171,4.7875],[7.2049,4.6229,1.727],[7.2051,4.626,1.734],[7.2107,4.6296,1.5171],[7.2085,4.6343,0.0],[7.2051,4.6371,2.8907],[7.2054,4.6407,2.7454],[7.2079,4.6435,0.8033],[7.2112,4.6429,1.1671],[7.2132,4.6401,1.7999],[7.2196,4.641,1.9293],[7.2199,4.6432,1.1621],[7.216,4.6446,1.3714],[7.2151,4.6471,1.365],[7.2188,4.6493,1.5965],[7.2207,4.6546,1.9298],[7.2246,4.6582,0.263],[7.2226,4.6649,0.2572],[7.2249,4.6701,0.0],[7.2229,4.6718,6.9545],[7.2254,4.6707,0.0],[7.2268,4.6743,0.5576],[7.2249,4.6613,0.5767],[7.2282,4.6585,0.0],[7.2318,4.6585,1.0282],[7.234,4.6546,0.8199],[7.2315,4.6576,1.0282],[7.2276,4.656,0.0],[7.2279,4.6507,1.9749],[7.2257,4.6463,0.726],[7.2263,4.6404,0.4481],[7.2301,4.6385,0.6637],[7.2326,4.6346,1.7201],[7.2329,4.6307,7.63],[7.2301,4.6274,0.2971],[7.2265,4.6279,2.1657],[7.2279,4.6218,1.5177],[7.2251,4.6224,1.0233],[7.2243,4.6254,2.5696],[7.2218,4.6271,0.6139],[7.2232,4.6207,1.961],[7.2193,4.6196,1.2852],[7.2213,4.6171,0.7355],[7.221,4.6151,1.1497],[7.2154,4.6154,1.3229],[7.2151,4.614,1.3229],[7.2238,4.6101,1.3651],[7.2246,4.6082,1.1586],[7.2226,4.6038,0.0],[7.2246,4.5999,0.0],[7.2285,4.6018,0.2122],[7.231,4.6013,0.0],[7.2299,4.5965,0.5795],[7.2335,4.5938,1.8394],[7.2324,4.5868,1.4667],[7.2362,4.5829,2.001],[7.2387,4.5774,0.1708],[7.2482,4.5735,0.0],[7.244,4.5599,1.0563],[7.2385,4.5574,0.1726],[7.241,4.5421,0.0],[7.2579,4.5232,0.0],[7.2668,4.5229,0.0],[7.269,4.5249,1.0723],[7.2682,4.5307,0.1198],[7.2574,4.5393,0.7245],[7.2515,4.5482,0.2208],[7.2518,4.5518,0.0851],[7.2585,4.5532,0.4219],[7.2604,4.5574,0.5468],[7.2596,4.5626,0.4363],[7.2515,4.5663,0.6119],[7.2496,4.5699,1.5043],[7.2529,4.5771,0.2024],[7.249,4.5843,0.7003],[7.2551,4.596,0.0],[7.2521,4.5976,0.0],[7.2443,4.5968,1.6388],[7.2401,4.6024,3.4291],[7.2429,4.606,0.3636],[7.2499,4.6071,0.6164],[7.2496,4.6099,0.4698],[7.2449,4.6135,0.2719],[7.2443,4.6179,0.082],[7.2507,4.6232,0.1312],[7.2526,4.629,0.1061],[7.2554,4.6301,0.0],[7.2554,4.6368,0.1126],[7.2576,4.6376,1.1755],[7.2576,4.6415,1.0959],[7.2615,4.6379,0.5461],[7.2621,4.636,0.0],[7.2601,4.6343,0.0],[7.2635,4.6285,4.9001],[7.2624,4.6263,0.6009],[7.2582,4.6251,0.0],[7.2635,4.6204,3.1863],[7.2596,4.621,0.2586],[7.2568,4.6254,0.0],[7.2538,4.6249,0.1033],[7.2449,4.6168,0.296],[7.2451,4.6143,0.2477],[7.251,4.6099,0.5473],[7.2513,4.6076,0.9057],[7.2496,4.6063,0.0],[7.2415,4.604,0.9386],[7.2413,4.6018,1.154],[7.2446,4.5976,0.2557],[7.2529,4.5985,0.0],[7.2563,4.5957,0.0],[7.2507,4.5829,0.4492],[7.2538,4.5774,0.2024],[7.2538,4.5749,0.2308],[7.2507,4.5707,0.5196],[7.2507,4.5682,0.3733],[7.2601,4.5632,0.4363],[7.2612,4.5565,0.895],[7.259,4.5529,0.641],[7.2529,4.5515,0.5287],[7.2521,4.5496,0.2218],[7.2557,4.5426,0.1031],[7.2665,4.534,0.0781],[7.2693,4.5301,0.9901],[7.2699,4.5254,1.0723],[7.2685,4.5226,0.7343],[7.2604,4.5218,0.1079],[7.2596,4.5179,0.4888],[7.2665,4.5021,0.0],[7.2715,4.4985,0.0],[7.2799,4.499,1.4415],[7.2904,4.5035,0.0],[7.2949,4.5071,0.4311],[7.294,4.5101,1.008],[7.2912,4.5082,1.0718],[7.2887,4.5085,1.46],[7.2879,4.5121,1.6653],[7.2821,4.5154,1.5954],[7.2821,4.5171,1.8308],[7.2865,4.5182,0.3885],[7.2849,4.5213,1.7742],[7.2871,4.526,0.3487],[7.2818,4.5274,0.2773],[7.2793,4.5293,0.6142],[7.2779,4.5329,0.6824],[7.2785,4.5354,0.3941],[7.2774,4.536,0.7494],[7.2763,4.5388,0.8296],[7.2763,4.5407,0.7003],[7.2779,4.5424,0.2245],[7.2715,4.5421,0.2679],[7.2721,4.5379,0.401],[7.2704,4.5354,0.7361],[7.2679,4.5357,0.3296],[7.2713,4.5379,0.401],[7.2704,4.5449,0.3634],[7.2732,4.5468,0.3523],[7.2743,4.5501,0.2768],[7.2726,4.556,0.0],[7.2721,4.556,0.0],[7.2707,4.5526,0.1246],[7.2701,4.5526,0.1246],[7.2713,4.5565,0.0],[7.2679,4.5546,0.0],[7.2704,4.5571,0.0],[7.2668,4.559,0.628],[7.2704,4.5585,0.0],[7.2715,4.561,0.0],[7.2699,4.5668,0.0],[7.2724,4.5649,0.0],[7.276,4.5663,0.1885],[7.2707,4.5743,0.0871],[7.2685,4.5746,0.0859],[7.2676,4.5715,0.5165],[7.2662,4.5713,0.2714],[7.2679,4.5749,0.0859],[7.2674,4.579,0.0705],[7.2657,4.5801,0.1831],[7.2646,4.5782,0.4925],[7.2635,4.5796,0.0585],[7.2649,4.5807,0.0],[7.2624,4.5799,0.2038],[7.2618,4.5813,0.3683],[7.2662,4.5851,0.098],[7.264,4.5904,0.5975],[7.266,4.589,0.0756],[7.2676,4.584,0.1568],[7.2749,4.5865,0.3517],[7.2746,4.591,0.1648],[7.2718,4.591,0.1721],[7.2718,4.5921,0.5721],[7.2749,4.5918,0.1648],[7.2776,4.5882,0.0],[7.2788,4.5896,0.0],[7.2757,4.5993,0.1469],[7.2662,4.6032,1.5927],[7.266,4.606,0.0],[7.2671,4.6046,0.0],[7.2696,4.6049,0.8241],[7.271,4.6018,1.1078],[7.2749,4.6021,2.8868],[7.2774,4.5993,0.0],[7.2824,4.6035,0.0],[7.2818,4.5996,0.1742],[7.2835,4.599,1.1166],[7.2857,4.5938,2.8109],[7.2885,4.5929,0.0808],[7.2907,4.601,0.1609],[7.2893,4.606,0.3797],[7.2918,4.6107,0.0],[7.2921,4.6096,0.9242],[7.291,4.6065,0.0],[7.2963,4.5999,0.1409],[7.3038,4.5968,0.0],[7.3079,4.5993,1.3525],[7.3121,4.5982,0.0],[7.3146,4.5999,0.0],[7.3115,4.6057,0.2767],[7.3129,4.6071,3.5059],[7.3182,4.6004,0.0],[7.3154,4.5946,0.1289],[7.3271,4.5912,0.1454],[7.3251,4.5899,0.3374],[7.3251,4.5832,0.0],[7.3307,4.5849,0.0],[7.3304,4.5882,0.6601],[7.336,4.579,0.0],[7.3382,4.5779,0.0],[7.3407,4.5818,0.0],[7.3435,4.5768,0.0],[7.349,4.574,1.8832],[7.351,4.5751,0.715],[7.3513,4.5774,0.0],[7.3479,4.5871,0.0],[7.3454,4.5893,1.6469],[7.3451,4.5985,6.301],[7.3462,4.5907,1.0909],[7.3496,4.5896,3.1897],[7.3518,4.5846,1.6583],[7.3574,4.5804,0.0],[7.3624,4.5704,0.0],[7.366,4.5693,1.605],[7.3699,4.5701,0.0],[7.371,4.5726,1.4738],[7.3732,4.571,0.0],[7.3804,4.571,0.503],[7.3818,4.5724,0.8516],[7.3807,4.581,1.4027],[7.3835,4.5846,0.3854],[7.3865,4.5849,0.3242],[7.3838,4.5813,0.3356],[7.3843,4.5785,4.4442],[7.3879,4.5729,0.0],[7.3907,4.5726,1.638],[7.3924,4.5704,0.0],[7.3957,4.5632,0.3246],[7.3949,4.5601,0.4326],[7.3968,4.5576,0.4481],[7.4018,4.5588,1.3734],[7.4046,4.566,0.7958],[7.4029,4.5682,0.4429],[7.4038,4.5765,0.0],[7.4079,4.5721,0.7031],[7.4071,4.5688,0.3677],[7.4088,4.5674,0.0],[7.4093,4.5624,1.5374],[7.4068,4.5596,0.0],[7.409,4.554,1.7761],[7.4063,4.5532,0.7422],[7.4054,4.5513,1.8649],[7.4107,4.5465,0.0],[7.4135,4.5496,1.0382],[7.4157,4.5493,0.3793],[7.4168,4.5524,1.729],[7.4221,4.5529,0.478],[7.421,4.5671,3.5587],[7.4249,4.5729,3.601],[7.4271,4.5724,3.0085],[7.4296,4.5699,0.5017],[7.426,4.5701,1.1483],[7.4235,4.5649,0.3268],[7.4262,4.5629,2.1418],[7.4276,4.5535,0.8683],[7.4338,4.5521,1.2929],[7.4354,4.5501,0.8091],[7.4399,4.5513,1.2706],[7.4396,4.5485,3.0085],[7.4321,4.5496,0.425],[7.4324,4.5468,0.0],[7.441,4.5429,0.0],[7.444,4.5471,0.7587],[7.4463,4.5474,1.8118],[7.4471,4.546,0.0],[7.4493,4.5535,1.5919],[7.4524,4.5576,0.3303],[7.4576,4.5599,0.7606],[7.4599,4.5588,0.0],[7.4643,4.5621,5.6305],[7.4643,4.5637,5.6305],[7.4604,4.5657,0.0],[7.4576,4.5701,2.3581],[7.4485,4.5732,0.6923],[7.4551,4.574,1.9426],[7.4607,4.5718,1.4767],[7.4646,4.5682,0.0],[7.4685,4.5696,1.3343],[7.4738,4.5763,0.78],[7.4746,4.5829,3.5556],[7.4732,4.5849,0.7375],[7.4665,4.5865,1.7426],[7.471,4.5868,0.0],[7.4724,4.5907,0.6268],[7.4724,4.5879,0.0],[7.4779,4.5857,1.0773],[7.4765,4.5832,0.0],[7.4771,4.5757,3.3914],[7.4751,4.5732,3.3974],[7.4774,4.5654,0.0],[7.481,4.5635,0.0],[7.4799,4.5688,2.3405],[7.4815,4.569,2.346],[7.4854,4.5637,0.0],[7.4971,4.561,2.2359],[7.5001,4.5568,4.6171],[7.4999,4.5451,1.6429],[7.5135,4.5335,0.0],[7.5171,4.5329,1.655],[7.5254,4.544,0.0],[7.5301,4.5476,1.7339],[7.5321,4.5463,0.0]]]]}}