{"type": "Feature","bbox": [7.0853,11.2436,7.3307,11.5244],"geometry": {"type": "MultiPolygon","coordinates": [[[[7.3259,11.2598,619.6254],[7.3259,11.2661,629.4117],[7.3307,11.2737,618.1523],[7.3303,11.2894,636.7081],[7.3287,11.2947,639.0982],[7.3122,11.3031,641.4538],[7.3,11.3152,647.0615],[7.2973,11.329,663.4374],[7.2906,11.3437,663.3586],[7.286,11.3596,672.4934],[7.2844,11.382,656.0409],[7.2799,11.405,679.7792],[7.2726,11.4165,688.4897],[7.2678,11.4287,692.254],[7.2468,11.4559,695.4208],[7.2427,11.4665,679.3031],[7.229,11.4853,671.5978],[7.2131,11.483,689.4061],[7.1989,11.4866,672.1749],[7.1905,11.4828,672.6349],[7.1821,11.4859,671.6838],[7.1699,11.4932,675.3495],[7.1601,11.5046,681.0129],[7.1571,11.5115,677.9338],[7.1383,11.5244,653.4875],[7.1212,11.5236,654.4813],[7.108,11.5165,665.3094],[7.0986,11.4977,677.7731],[7.1013,11.4899,686.3634],[7.0936,11.4755,714.2816],[7.0909,11.4658,704.9114],[7.0853,11.4629,710.5895],[7.0893,11.4579,699.4938],[7.0904,11.4524,696.1452],[7.0861,11.4357,704.488],[7.0871,11.4318,699.673],[7.1018,11.3996,667.3101],[7.1116,11.3847,680.8518],[7.1189,11.3777,687.4161],[7.1285,11.3748,680.6566],[7.1381,11.3684,705.7507],[7.1452,11.3599,697.6525],[7.154,11.3441,706.4551],[7.1553,11.3314,720.1393],[7.1643,11.3186,735.2959],[7.1725,11.3122,721.4022],[7.1856,11.3066,702.2009],[7.2004,11.2961,684.7546],[7.2057,11.2837,672.6319],[7.2063,11.264099999999999,695.8571],[7.2105,11.2487,699.6597],[7.2152,11.2436,687.7345],[7.2172,11.2515,680.7297],[7.2265,11.2581,664.9342],[7.2457,11.265,652.7843],[7.273,11.2689,647.1722],[7.3045,11.2672,625.761],[7.3259,11.2598,619.6254]]]]}
,"properties": {"GID_2": "NGA.21.7_1","GID_0": "NGA","country": "Nigeria","GID_1": "NGA.21_1","province": "Katsina","NL_NAME_1": "NA","county": "Dandume","VARNAME_2": "NA","NL_NAME_2": "NA","TYPE_2": "LocalAuthority","ENGTYPE_2": "LocalAuthority","CC_2": "NA","HASC_2": "NA","name": "Dandume.county","area_km2": 429.2688,"hist_schema_id": "Elevation0-9000","hist_area_km2": {"625": 19.9809,"650": 68.1247,"675": 153.6188,"700": 162.6662,"725": 24.8365,"750": 0.0416}}}