{"type": "Feature","bbox": [8.4824,8.2441,9.0107,8.474],"geometry": {"type": "MultiPolygon","coordinates": [[[[8.9793,8.4015,130.9009],[8.9577,8.3991,133.904],[8.9033,8.404,144.1212],[8.8564,8.3983,163.6387],[8.8296,8.3992,186.9777],[8.8065,8.4063,203.0227],[8.7962,8.4155,223.4939],[8.7723,8.4324,207.9313],[8.755,8.45,206.6931],[8.726,8.466,199.1433],[8.7012,8.4721,210.5733],[8.6701,8.474,225.7457],[8.6396,8.4736,228.6958],[8.6137,8.4704,218.4922],[8.6026,8.4664,235.0017],[8.5932,8.456,196.7118],[8.5955,8.4444,210.7036],[8.6009,8.4307,215.5533],[8.5978,8.4133,196.9355],[8.5741,8.3999,206.6539],[8.5504,8.3927,218.5432],[8.4824,8.3928,181.9499],[8.4932,8.3508,189.1034],[8.4932,8.2913,222.6484],[8.4971,8.262,199.7706],[8.4905,8.2507,207.0991],[8.5188,8.2476,210.5355],[8.5332,8.2441,205.9796],[8.554,8.2567,183.0922],[8.575,8.2457,201.104],[8.5872,8.245,199.4541],[8.6299,8.2574,174.4192],[8.6495,8.2562,157.794],[8.6899,8.2474,150.8315],[8.7,8.256,135.5129],[8.7542,8.256,134.4241],[8.7703,8.268,137.2143],[8.7802,8.2809,139.6353],[8.7956,8.2795,150.938],[8.819,8.2833,174.7991],[8.837,8.2827,207.9947],[8.8821,8.2755,200.3874],[8.9283,8.2835,210.3865],[8.9493,8.2797,192.7995],[8.9671,8.2844,196.1804],[8.9836,8.2934,196.6574],[8.9893,8.2921,192.1816],[9.0042,8.2962,182.2782],[9.0107,8.3288,194.7898],[9.0107,8.3648,200.7788],[9.0074,8.3843,136.7074],[8.9829,8.4027,128.4839],[8.9793,8.4015,130.9009]]]]}
,"properties": {"GID_2": "NGA.26.11_1","GID_0": "NGA","country": "Nigeria","GID_1": "NGA.26_1","province": "Nasarawa","NL_NAME_1": "NA","county": "Obi","VARNAME_2": "NA","NL_NAME_2": "NA","TYPE_2": "LocalAuthority","ENGTYPE_2": "LocalAuthority","CC_2": "NA","HASC_2": "NA","name": "Obi.county","area_km2": 991.1907,"hist_schema_id": "Elevation0-9000","hist_area_km2": {"125": 27.5263,"150": 188.7212,"175": 231.655,"200": 323.1963,"225": 209.8341,"250": 10.2578}}}