{"type":"Feature","properties":{"GID_2":"NGA.24.11_1","GID_0":"NGA","country":"Nigeria","GID_1":"NGA.24_1","province":"Kwara","NL_NAME_1":"NA","county":"Kaiama","VARNAME_2":"NA","NL_NAME_2":"NA","TYPE_2":"LocalAuthority","ENGTYPE_2":"LocalAuthority","CC_2":"NA","HASC_2":"NA","name":"Kaiama.county"},
"geometry":{"type": "MultiPolygon","coordinates": [[[[3.8142,9.1707,337.6723],[3.8348,9.1799,324.5288],[3.8521,9.1818,333.5738],[3.8604,9.1802,316.9117],[3.8677,9.1812,297.7303],[3.8894,9.172,349.564],[3.9094,9.1579,329.8353],[3.9192,9.1534,346.0925],[3.9336,9.1417,366.2134],[3.9413,9.1119,369.0701],[3.9424,9.102,350.8055],[3.9697,9.0692,323.5523],[4.0153,9.0345,330.852],[4.0221,9.0304,328.7294],[4.0309,9.0287,329.7577],[4.0395,9.023,330.6952],[4.0914,9.0063,357.7468],[4.1141,9.0024,414.4424],[4.1197,8.9941,391.4653],[4.1529,8.9776,366.4435],[4.1707,8.9799,403.8645],[4.2325,8.9624,370.3088],[4.2626,8.9624,387.1088],[4.2684,8.9637,377.7511],[4.3014,8.9832,336.7291],[4.3141,8.9926,323.2125],[4.3226,8.9927,329.7408],[4.3351,8.9801,302.2162],[4.3377,8.9689,287.8379],[4.3367,8.9576,287.166],[4.3746,8.9793,293.6454],[4.3816,8.9856,295.2258],[4.3907,8.9901,289.795],[4.4074,9.0039,329.1115],[4.4012,9.0039,314.259],[4.4641,9.0314,335.1285],[4.5289,9.0549,277.6036],[4.5357,9.0608,273.6735],[4.5644,9.0653,278.5401],[4.601,9.0667,237.4971],[4.6269,9.0623,232.768],[4.65,9.0617,186.7522],[4.6915,9.067,161.2181],[4.7188,9.0758,154.3865],[4.7359,9.0878,133.2619],[4.7527,9.1223,100.0],[4.758,9.1302,100.0],[4.7548,9.1424,100.0],[4.7485,9.2056,100.0],[4.7459,9.2179,100.0],[4.7406,9.2379,100.0],[4.7312,9.2517,100.0],[4.7139,9.2605,100.0],[4.687,9.2614,106.582],[4.6649,9.2667,115.0703],[4.6459,9.2779,118.3393],[4.613,9.3055,100.0],[4.6024,9.3218,127.1365],[4.5967,9.3444,122.8597],[4.5963,9.3656,100.0],[4.5998,9.3994,102.8919],[4.5927,9.4254,107.2788],[4.5792,9.4373,153.5494],[4.5513,9.4361,176.8569],[4.5128,9.429,186.2606],[4.4569,9.4245,258.5097],[4.4359,9.4307,260.2679],[4.4263,9.4514,252.069],[4.4217,9.4897,249.2312],[4.4226,9.5438,183.2829],[4.4208,9.5761,187.4479],[4.4281,9.6367,224.8482],[4.4326,9.6506,201.3856],[4.4323,9.6788,202.6307],[4.4281,9.6977,208.3218],[4.4115,9.7054,226.6632],[4.384,9.7026,262.5967],[4.3687,9.7101,272.4445],[4.3469,9.7279,252.7983],[4.3027,9.7762,239.0813],[4.2761,9.8127,203.4143],[4.2563,9.8317,212.0576],[4.2439,9.8574,220.7112],[4.2242,9.8813,251.5047],[4.1884,9.9164,263.8004],[4.1711,9.938,272.059],[4.1412,9.9706,280.9016],[4.0966,10.0252,291.5101],[4.0856,10.0412,277.1406],[4.0737,10.0543,290.9235],[4.0401,10.0894,290.0021],[4.0069,10.1197,283.2762],[3.9983,10.1353,283.422],[3.9861,10.1414,289.4359],[3.94,10.1501,283.61],[3.8688,10.1435,275.3636],[3.8475,10.1458,266.4384],[3.8461,10.0973,256.1708],[3.85,10.0348,267.819],[3.8445,9.9927,293.191],[3.8476,9.9706,287.6528],[3.8469,9.8882,256.5967],[3.8499,9.869,283.256],[3.8454,9.7808,264.5679],[3.8414,9.7505,289.4995],[3.8142,9.1707,337.6723]]]]}}