{"type": "Feature","bbox": [7.061,8.625,7.5657,9.1549],"geometry": {"type": "MultiPolygon","coordinates": [[[[7.0729,8.901,183.4848],[7.1039,8.8994,208.0564],[7.1151,8.8926,232.4603],[7.1411,8.8875,234.7718],[7.1519,8.8832,240.1632],[7.2729,8.8201,406.5632],[7.317,8.808,479.4793],[7.3411,8.8039,414.8423],[7.3582,8.8055,393.6612],[7.374,8.8091,382.5644],[7.3905,8.8049,360.4878],[7.4136,8.8041,468.3783],[7.4411,8.8075,517.2853],[7.4528,8.8039,576.0392],[7.4565,8.7932,589.8528],[7.454,8.7787,646.6083],[7.4623,8.7632,639.9169],[7.4868,8.7542,702.9362],[7.4935,8.755,753.5615],[7.5004,8.7533,903.9196],[7.4955,8.7366,767.1151],[7.4809,8.7002,592.4508],[7.4743,8.6918,585.7327],[7.4551,8.6764,549.5059],[7.4452,8.6651,576.3931],[7.4235,8.6475,555.6914],[7.4158,8.6434,569.8806],[7.4118,8.6373,572.5776],[7.4154,8.6296,585.835],[7.4296,8.625,585.5997],[7.4578,8.6305,565.4174],[7.4648,8.6334,563.4645],[7.4711,8.6392,596.1987],[7.4802,8.6717,586.4095],[7.4875,8.6901,601.1501],[7.5002,8.6959,623.5465],[7.5027,8.7193,672.0722],[7.507,8.7262,704.4594],[7.5134,8.7528,712.2536],[7.5179,8.7901,651.6361],[7.5238,8.8097,605.2021],[7.5247,8.8237,512.4995],[7.5344,8.8402,481.7856],[7.5379,8.8558,435.9088],[7.5429,8.8633,426.4874],[7.5464,8.8819,456.3207],[7.5568,8.9083,385.5052],[7.5597,8.9325,410.0626],[7.5572,8.9521,385.2185],[7.5628,8.9689,393.9269],[7.5619,8.9982,416.9536],[7.5629,9.004,427.5314],[7.5652,9.0075,423.1462],[7.5657,9.0207,432.2261],[7.5574,9.0585,594.7629],[7.5521,9.0531,568.4987],[7.5391,9.0458,582.4051],[7.5297,9.0444,567.4556],[7.511,9.0486,514.1307],[7.5056,9.0522,502.3774],[7.504,9.0557,495.4788],[7.5049,9.0635,492.0367],[7.4982,9.0771,497.6454],[7.5004,9.079,496.4757],[7.4998,9.0845,485.3282],[7.4971,9.0891,511.6184],[7.4896,9.0983,519.0275],[7.4843,9.0991,557.6829],[7.4652,9.1154,516.8203],[7.4591,9.1149,502.2461],[7.4447,9.1212,498.1667],[7.4374,9.1197,474.3334],[7.4201,9.1253,514.6968],[7.4081,9.1257,565.0983],[7.4008,9.1291,527.2949],[7.3705,9.1367,456.5932],[7.3588,9.1368,458.9366],[7.3477,9.1413,435.6457],[7.3422,9.1466,426.3416],[7.3268,9.1529,426.1412],[7.2946,9.1549,703.8468],[7.2841,9.1493,502.5189],[7.2726,9.1357,412.5366],[7.2381,9.1181,393.9556],[7.218,9.102,419.3991],[7.2052,9.0947,373.3708],[7.1892,9.0901,352.0295],[7.1751,9.0928,329.0354],[7.1703,9.0993,311.7746],[7.164,9.0976,265.284],[7.166,9.0756,263.3318],[7.1599,9.0537,303.0896],[7.1611,9.0527,306.203],[7.1574,9.0434,285.8736],[7.1505,9.0343,278.4532],[7.1473,9.0269,271.1304],[7.137,9.0166,289.5517],[7.1238,8.9996,255.6429],[7.1228,8.9978,251.9674],[7.1248,8.9978,255.7637],[7.1175,8.9828,232.2568],[7.0973,8.9601,208.335],[7.0904,8.9473,202.6333],[7.0662,8.9226,181.7409],[7.061,8.9105,167.9208],[7.0705,8.9011,179.9],[7.0729,8.901,183.4848]]]]}
,"properties": {"GID_2": "NGA.15.2_1","GID_0": "NGA","country": "Nigeria","GID_1": "NGA.15_1","province": "FederalCapitalTerritory","NL_NAME_1": "NA","county": "Abuja","VARNAME_2": "AbujaMunicipal","NL_NAME_2": "NA","TYPE_2": "LocalAuthority","ENGTYPE_2": "LocalAuthority","CC_2": "NA","HASC_2": "NA","name": "Abuja.county","area_km2": 1585.314,"hist_schema_id": "Elevation0-9000","hist_area_km2": {"150": 0.021,"175": 9.74,"200": 39.754,"225": 38.058,"250": 37.7,"275": 65.492,"300": 119.002,"325": 159.529,"350": 159.341,"375": 139.159,"400": 133.567,"425": 130.466,"450": 124.117,"475": 122.109,"500": 71.643,"525": 43.062,"550": 38.227,"575": 56.253,"600": 38.026,"625": 17.911,"650": 9.784,"675": 5.573,"700": 4.254,"725": 3.751,"750": 4.107,"775": 4.589,"800": 3.227,"825": 2.787,"850": 2.368,"875": 1.048,"900": 0.335,"925": 0.314}}}