{"type": "Feature","bbox": [7.0967,4.6984,7.2243,4.8319],"geometry": {"type": "MultiPolygon","coordinates": [[[[7.1049,4.7726,16.5241],[7.126,4.7612,15.7608],[7.1323,4.7528,16.8034],[7.1333,4.7406,15.3517],[7.1392,4.7352,13.6161],[7.1389,4.7329,14.6015],[7.1428,4.7277,14.8402],[7.1514,4.7214,13.0195],[7.1592,4.7189,13.1766],[7.1662,4.7082,6.1492],[7.1744,4.7028,12.9726],[7.1912,4.7004,0.0],[7.1915,4.7065,0.5127],[7.1993,4.7107,1.718],[7.1985,4.7132,1.0888],[7.1935,4.7135,3.3162],[7.1901,4.7171,3.01],[7.1912,4.7207,0.3788],[7.1954,4.7226,0.238],[7.196,4.7251,0.7018],[7.1912,4.7262,0.7301],[7.1846,4.7243,2.9973],[7.1826,4.7299,3.4359],[7.1776,4.7312,0.0],[7.1799,4.7332,0.9679],[7.1818,4.7326,2.6242],[7.1851,4.726,1.5469],[7.1871,4.7251,0.0],[7.1912,4.731,3.3272],[7.1907,4.7279,0.0],[7.196,4.7274,1.5459],[7.1982,4.7221,3.0747],[7.201,4.7212,3.6013],[7.1971,4.7174,1.6978],[7.1943,4.7185,2.2983],[7.1949,4.7212,0.3545],[7.1915,4.7182,1.1752],[7.1932,4.7151,0.0],[7.1982,4.7146,1.9823],[7.2004,4.7121,3.2307],[7.1993,4.7079,4.7618],[7.1921,4.7054,4.423],[7.1926,4.6996,0.0],[7.198,4.6984,2.2969],[7.2041,4.7129,4.3029],[7.2145,4.7158,4.3752],[7.216,4.7339,13.2273],[7.2243,4.7628,22.8709],[7.223,4.7692,15.3284],[7.2159,4.7728,19.3765],[7.2078,4.7845,23.8638],[7.2089,4.7955,22.1782],[7.2124,4.8025,18.4718],[7.1897,4.8074,20.3372],[7.1754,4.8177,19.795],[7.162,4.8221,23.7744],[7.1429,4.8319,18.8922],[7.1377,4.8274,16.0719],[7.1284,4.8243,18.596],[7.1123,4.8101,9.2609],[7.0982,4.8054,9.8751],[7.0967,4.7882,17.5493],[7.1041,4.7791,16.6456],[7.1061,4.7742,15.8919],[7.1049,4.7726,16.5241]]]]}
,"properties": {"GID_2": "NGA.33.9_1","GID_0": "NGA","country": "Nigeria","GID_1": "NGA.33_1","province": "Rivers","NL_NAME_1": "NA","county": "Eleme","VARNAME_2": "NA","NL_NAME_2": "NA","TYPE_2": "LocalAuthority","ENGTYPE_2": "LocalAuthority","CC_2": "NA","HASC_2": "NA","name": "Eleme.county","area_km2": 124.40642,"hist_schema_id": "Elevation0-9000","hist_area_km2": {"0": 28.56738,"25": 95.83904}}}