{"type":"Feature","properties":{"GID_2":"NGA.34.17_1","GID_0":"NGA","country":"Nigeria","GID_1":"NGA.34_1","province":"Sokoto","NL_NAME_1":"NA","county":"SokotoSouth","VARNAME_2":"NA","NL_NAME_2":"NA","TYPE_2":"LocalAuthority","ENGTYPE_2":"LocalAuthority","CC_2":"NA","HASC_2":"NA","name":"Sokoto_South.county"},
"geometry":{"type": "MultiPolygon","coordinates": [[[[5.3045,12.9977,272.0258],[5.3,13.0031,273.1793],[5.2898,13.0258,276.6926],[5.2958,13.0317,263.7708],[5.31,13.0387,260.2846],[5.312,13.0471,265.6547],[5.3117,13.0519,280.291],[5.2998,13.0698,252.5883],[5.2913,13.0517,263.8198],[5.2947,13.0455,262.7889],[5.2871,13.0378,273.3625],[5.2796,13.034,284.8114],[5.2526,13.0286,303.7616],[5.242,13.0287,302.1949],[5.2411,13.0269,301.8711],[5.263,12.992,297.055],[5.2705,12.976,282.6571],[5.2739,12.9834,280.3502],[5.3045,12.9977,272.0258]]]]}}