{"type":"Feature","properties":{"GID_2":"NGA.31.13_1","GID_0":"NGA","country":"Nigeria","GID_1":"NGA.31_1","province":"Oyo","NL_NAME_1":"NA","county":"IbarapaNorth","VARNAME_2":"NA","NL_NAME_2":"NA","TYPE_2":"LocalAuthority","ENGTYPE_2":"LocalAuthority","CC_2":"NA","HASC_2":"NA","name":"Ibarapa_North.county"},
"geometry":{"type": "MultiPolygon","coordinates": [[[[3.0734,7.4724,84.0685],[3.1007,7.4776,103.8216],[3.1085,7.4763,101.6369],[3.1284,7.4778,124.0486],[3.1372,7.4848,140.7704],[3.1456,7.4881,141.1744],[3.167,7.4854,138.8725],[3.1816,7.4882,135.1528],[3.1975,7.4858,107.3156],[3.2076,7.499,143.6782],[3.2234,7.5032,236.1638],[3.279,7.5077,187.5618],[3.2922,7.5064,179.6925],[3.2998,7.509,149.4236],[3.3097,7.5079,140.748],[3.3266,7.512,133.4155],[3.3485,7.5137,127.0712],[3.3578,7.5566,114.4621],[3.353,7.5747,124.077],[3.3509,7.5992,155.2327],[3.3523,7.6033,161.2588],[3.3521,7.6183,183.223],[3.3561,7.6352,183.5844],[3.3472,7.6566,173.6079],[3.3192,7.6796,149.1438],[3.2879,7.7021,143.0725],[3.2823,7.7095,144.5577],[3.2752,7.7309,177.1289],[3.2789,7.7566,152.2959],[3.2781,7.7667,147.0436],[3.273,7.7772,157.4595],[3.2429,7.8148,169.0334],[3.2036,7.8212,215.1475],[3.1662,7.8186,221.8273],[3.1288,7.8184,191.7495],[3.1096,7.8152,212.0338],[3.0556,7.8129,163.8841],[3.0331,7.8066,157.4145],[3.0251,7.7982,141.8078],[3.0187,7.7882,149.9548],[3.0108,7.7844,142.3335],[3.009,7.7527,157.9438],[3.0035,7.727,136.6035],[2.9955,7.7117,141.0639],[2.9883,7.6809,129.6175],[2.9817,7.6727,151.5244],[2.9809,7.6563,150.7005],[2.9743,7.6601,166.3652],[2.9661,7.651,162.0135],[2.9684,7.6388,142.0161],[2.9691,7.6111,139.2009],[2.9746,7.592,136.0411],[2.987,7.5734,144.3796],[3.0043,7.5599,111.0722],[3.0088,7.5516,119.1411],[3.039,7.5319,122.8207],[3.058,7.5117,118.1693],[3.0624,7.498,123.0363],[3.0727,7.4785,87.1313],[3.0734,7.4724,84.0685]]]]}}