{"type": "Feature","bbox": [7.0456,5.6388,7.0971,5.7162],"geometry": {"type": "MultiPolygon","coordinates": [[[[7.0971,5.6555,166.7275],[7.0858,5.6822,141.3964],[7.0868,5.7029,174.3717],[7.0857,5.7155,196.583],[7.0616,5.7162,172.473],[7.0552,5.7147,170.2727],[7.0456,5.7082,119.0542],[7.049,5.6929,166.9145],[7.0495,5.6791,156.6565],[7.0537,5.6703,148.6059],[7.0525,5.6661,152.1982],[7.0569,5.6532,151.819],[7.0568,5.6442,147.1213],[7.0584,5.6389,138.4137],[7.0875,5.6388,161.6715],[7.0877,5.645,162.9995],[7.0971,5.6555,166.7275]]]]}
,"properties": {"GID_2": "NGA.17.10_1","GID_0": "NGA","country": "Nigeria","GID_1": "NGA.17_1","province": "Imo","NL_NAME_1": "NA","county": "Isu","VARNAME_2": "NA","NL_NAME_2": "NA","TYPE_2": "LocalAuthority","ENGTYPE_2": "LocalAuthority","CC_2": "NA","HASC_2": "NA","name": "Isu.county","area_km2": 34.9808,"hist_schema_id": "Elevation0-9000","hist_area_km2": {"125": 5.10594,"150": 12.87014,"175": 15.86549,"200": 1.13924}}}