{"type":"Feature","properties":{"GID_2":"NGA.8.4_1","GID_0":"NGA","country":"Nigeria","GID_1":"NGA.8_1","province":"Borno","NL_NAME_1":"NA","county":"Bayo","VARNAME_2":"NA","NL_NAME_2":"NA","TYPE_2":"LocalAuthority","ENGTYPE_2":"LocalAuthority","CC_2":"NA","HASC_2":"NA","name":"Bayo.county"},
"geometry":{"type": "MultiPolygon","coordinates": [[[[11.8721,10.2447,278.6],[11.8826,10.2441,310.9712],[11.907,10.2564,389.8598],[11.9144,10.2623,359.7479],[11.9248,10.275,361.7783],[11.9191,10.2942,321.9104],[11.9122,10.3395,273.4834],[11.9048,10.3721,272.3765],[11.8886,10.4171,361.8801],[11.8809,10.4493,327.7383],[11.8684,10.4847,371.2113],[11.8631,10.5199,385.4274],[11.8614,10.5554,399.8466],[11.8704,10.5831,416.5818],[11.8985,10.6169,459.6961],[11.8933,10.6319,466.1006],[11.8925,10.6413,466.7722],[11.8936,10.6521,487.2304],[11.8973,10.6629,470.8915],[11.9081,10.6839,490.5427],[11.91,10.6917,463.646],[11.9099,10.6993,462.4687],[11.9044,10.7072,452.9429],[11.891,10.7065,447.9335],[11.8732,10.6971,441.912],[11.8669,10.6848,434.0034],[11.8563,10.6718,432.6812],[11.8242,10.6571,327.0829],[11.8073,10.6568,312.4282],[11.793,10.66,280.1093],[11.7774,10.6375,285.6917],[11.7503,10.6052,291.9956],[11.7011,10.5942,286.7485],[11.7112,10.5758,312.9384],[11.7229,10.5414,443.5499],[11.7128,10.4932,363.0893],[11.6798,10.4501,313.4049],[11.6293,10.3723,251.1609],[11.6423,10.327,275.9074],[11.6815,10.2708,320.9924],[11.7111,10.2417,252.8627],[11.7343,10.2305,213.2703],[11.7704,10.2208,216.5423],[11.8026,10.2043,243.8105],[11.8138,10.1893,199.2125],[11.822,10.1939,202.5516],[11.8247,10.2088,204.3817],[11.8628,10.2414,274.2323],[11.8721,10.2447,278.6]]]]}}