{"type": "Feature","bbox": [10.5338,10.4171,11.1983,11.2552],"geometry": {"type": "MultiPolygon","coordinates": [[[[10.5653,10.7738,322.1762],[10.5371,10.7331,322.355],[10.5338,10.711,356.1456],[10.6065,10.684,455.3233],[10.6531,10.6632,505.6162],[10.6714,10.636,481.5879],[10.6788,10.5976,439.382],[10.6789,10.5562,392.0496],[10.6855,10.5216,408.6954],[10.6998,10.5032,434.2995],[10.7287,10.4927,431.3003],[10.7795,10.4786,369.1582],[10.8161,10.4613,377.081],[10.8347,10.4214,401.3753],[10.8496,10.4229,413.639],[10.9362,10.4171,482.4066],[10.9663,10.4224,507.1866],[10.9996,10.4252,524.941],[11.0162,10.4315,554.3103],[11.0112,10.4603,562.3401],[11.0113,10.519,576.1772],[11.006,10.5543,522.9738],[11.021,10.6486,460.803],[11.0386,10.6969,519.9705],[11.0477,10.706,532.7678],[11.121,10.6965,484.5118],[11.1429,10.6966,507.6708],[11.1724,10.6934,556.1692],[11.1802,10.7216,552.7188],[11.1868,10.7247,549.9176],[11.191,10.7459,544.9399],[11.1924,10.7688,521.5716],[11.1983,10.8065,523.9433],[11.1973,10.8426,543.6414],[11.1611,10.8645,538.6383],[11.1117,10.88,523.772],[11.0931,10.9041,509.4738],[11.0815,10.9243,492.1822],[11.0687,10.9517,453.6138],[11.0645,10.9708,423.813],[11.064,11.0046,378.797],[11.0523,11.0274,344.9212],[11.0426,11.0535,307.5919],[11.0376,11.0775,301.7979],[11.0206,11.1226,419.3865],[11.0154,11.1415,437.8394],[11.005,11.1635,448.4629],[10.9817,11.2421,402.9232],[10.9756,11.2552,385.8807],[10.9576,11.231,367.813],[10.86,11.1787,336.9515],[10.8358,11.1486,384.4482],[10.8184,11.1197,394.9207],[10.786,11.0918,397.2434],[10.762,11.0796,384.0085],[10.7292,11.0758,369.5369],[10.6987,11.0655,389.9365],[10.6754,11.0438,364.2661],[10.6533,11.0115,351.9802],[10.6419,10.9669,371.9066],[10.6375,10.9326,370.2099],[10.6062,10.8528,322.487],[10.5954,10.814,316.383],[10.5653,10.7738,322.1762]]]]}
,"properties": {"GID_2": "NGA.16.4_1","GID_0": "NGA","country": "Nigeria","GID_1": "NGA.16_1","province": "Gombe","NL_NAME_1": "NA","county": "Dukku","VARNAME_2": "NA","NL_NAME_2": "NA","TYPE_2": "LocalAuthority","ENGTYPE_2": "LocalAuthority","CC_2": "NA","HASC_2": "NA","name": "Dukku.county","area_km2": 3693.181,"hist_schema_id": "Elevation0-9000","hist_area_km2": {"275": 24.824,"300": 183.228,"325": 247.835,"350": 312.515,"375": 324.649,"400": 306.304,"425": 356.404,"450": 345.603,"475": 305.767,"500": 356.266,"525": 355.683,"550": 306.622,"575": 186.159,"600": 77.471,"625": 3.853}}}