{"type": "Feature","bbox": [7.8497,11.192,8.1218,11.4575],"geometry": {"type": "MultiPolygon","coordinates": [[[[7.9769,11.4575,618.722],[7.933,11.4306,642.0761],[7.8655,11.3696,661.2255],[7.8497,11.363,667.1696],[7.8535,11.3265,647.5557],[7.8691,11.3071,668.3239],[7.8756,11.2886,674.1921],[7.8774,11.2731,671.026],[7.8761,11.2565,664.0973],[7.8805,11.2349,645.3784],[7.8805,11.2179,644.918],[7.8882,11.2099,635.361],[7.8884,11.194,617.6014],[7.8922,11.192,620.5399],[7.9049,11.1983,633.9432],[7.9159,11.2001,636.6141],[7.9405,11.1954,634.3016],[8.0214,11.2007,628.9893],[8.0606,11.1998,647.2352],[8.0835,11.202,655.7319],[8.0997,11.2063,649.0303],[8.1137,11.2124,663.0977],[8.1218,11.2238,653.274],[8.1207,11.2289,642.5518],[8.1118,11.2404,637.8624],[8.1082,11.2417,631.8914],[8.0967,11.2651,621.0198],[8.0907,11.269,630.2219],[8.0727,11.3018,649.4359],[8.0645,11.3131,658.2449],[8.0429,11.3329,660.7385],[8.0185,11.3776,676.1043],[8.0077,11.3917,660.894],[7.9827,11.452,619.0938],[7.9769,11.4575,618.722]]]]}
,"properties": {"GID_2": "NGA.19.18_1","GID_0": "NGA","country": "Nigeria","GID_1": "NGA.19_1","province": "Kaduna","NL_NAME_1": "NA","county": "Makarfi","VARNAME_2": "NA","NL_NAME_2": "NA","TYPE_2": "LocalAuthority","ENGTYPE_2": "LocalAuthority","CC_2": "NA","HASC_2": "NA","name": "Makarfi.county","area_km2": 518.7806,"hist_schema_id": "Elevation0-9000","hist_area_km2": {"625": 79.1655,"650": 228.0066,"675": 192.0474,"700": 19.561}}}