{"type":"Feature","properties":{"featurecla":"River","scalerank":8,"rivernum":859,"dissolve":"859River","name":"Gongola","name_alt":null,"note":null,"min_zoom":7.0,"strokeweig":0.15,"name_en":"Gongola","min_label":8.0},
"geometry":{"type": "LineString","coordinates": [[9.1171875,9.7226748718691169,963.4771],[9.13037109375,9.7392764343691169,944.5786],[9.1533203125,9.75739166874412,944.4634],[9.178955078125,9.7719912781191169,910.3818],[9.2001953125,9.7778506531191169,912.3044],[9.29833984375,9.77338287968162,821.6981],[9.328125,9.77667877811912,813.0612],[9.3502441406250227,9.7860049499941084,753.0258],[9.35791015625,9.7995791687441169,733.088],[9.35986328125,9.8176455749941169,760.1769],[9.364990234375,9.8406924499941084,726.3908],[9.3810058593750227,9.86481354374412,656.3653],[9.4015136718750227,9.8716006531191169,649.0953],[9.4574218750000227,9.8680361999941084,627.9541],[9.5199218750000227,9.8747744812441169,599.0143]]}}