{"type":"Feature","properties":{"featurecla":"River","scalerank":8,"rivernum":726,"dissolve":"726River","name":"Bunga","name_alt":null,"note":null,"min_zoom":7.0,"strokeweig":0.15,"name_en":"Bunga","min_label":8.0},
"geometry":{"type": "LineString","coordinates": [[8.908447265625,10.02155182499412,990.0287],[8.91796875,10.03168366093162,921.5007],[8.9287109375,10.03412506718162,910.1465],[8.9395996093750227,10.030292059369117,891.1543],[8.949462890625,10.02155182499412,898.8521],[8.9686523437500227,10.03351471561912,885.5417],[8.98388671875,10.045428778119117,874.9657],[8.9935546875000227,10.06171295780662,890.0888],[9.000732421875,10.10944244999412,833.7189],[9.0355468750000227,10.18610260624412,802.2776],[9.048583984375,10.203485418744108,788.2598],[9.06640625,10.21564362186912,781.1669],[9.09033203125,10.22016022343162,774.1832],[9.107177734375,10.226092840619117,770.2385],[9.12255859375,10.23993561405662,753.9493],[9.1346679687500227,10.25604889530662,754.6897],[9.141845703125,10.26862213749412,748.4591],[9.14453125,10.277948309369108,745.6733],[9.1466308593750227,10.29999420780662,737.7104],[9.1485839843750227,10.309588934369117,725.4043],[9.1539550781250227,10.31952545780662,735.5167],[9.1666503906250227,10.33710358280662,731.6909],[9.1734863281250227,10.36237213749412,710.8959],[9.19873046875,10.40021393436912,694.799]]}}