{"type":"Feature","properties":{"featurecla":"River","scalerank":8,"rivernum":726,"dissolve":"726River","name":"Bunga1","name_alt":null,"note":null,"min_zoom":7.0,"strokeweig":0.2,"name_en":"Bunga","min_label":8.0},
"geometry":{"type": "LineString","coordinates": [[9.19873046875,10.40021393436912,694.799],[9.224609375,10.43891022343162,697.6199],[9.242919921875,10.45416901249412,695.2423],[9.26123046875,10.449823309369108,676.7025],[9.2763671875,10.44269440311912,679.524],[9.33056640625,10.42792389530662,675.96],[9.3466796875,10.42560455936912,642.4036],[9.3622070312500227,10.433221746869108,604.1732],[9.38037109375,10.460565496869108,589.0008],[9.3916015625,10.46662018436912,586.3374],[9.4122558593750227,10.46747467655662,582.3569],[9.4288574218750227,10.471307684369108,561.1898],[9.4430175781250227,10.479754949994117,581.9435],[9.45654296875,10.494501043744108,557.0654],[9.4618164062500227,10.51141998905662,558.3396],[9.466552734375,10.554217840619117,550.2177],[9.4735351562500227,10.56281159061912,546.9934],[9.484375,10.597528387494108,527.382],[9.4873046875,10.59845612186912,526.4128],[9.4996582031250227,10.60065338749412,536.7342],[9.5042968750000227,10.603778387494117,539.0182],[9.505126953125,10.60834381718162,537.7177],[9.50341796875,10.620135809369117,529.0718],[9.5042968750000227,10.624872137494108,528.1771],[9.5732421875,10.740985418744117,510.1043],[9.5926757812500227,10.759637762494108,500.998],[9.598388671875,10.77118561405662,493.7903],[9.6004882812500227,10.79279205936912,489.9554],[9.59912109375,10.82977936405662,493.8402],[9.60107421875,10.845086981244108,489.201],[9.60791015625,10.86444733280662,483.4626],[9.598388671875,10.87616608280662,478.3763],[9.6009765625000227,10.89704010624412,484.4694],[9.6112304687500227,10.917010809369117,484.7624],[9.6373535156250227,10.93573639530662,478.6451],[9.6375976562500227,10.95844147343162,460.1133],[9.62841796875,11.000995184369117,455.0027],[9.63720703125,11.04767487186912,459.6638],[9.6656738281250227,11.085467840619117,445.963],[9.7240234375000227,11.145624090619108,436.1679],[9.748291015625,11.19306061405662,459.4055],[9.751953125,11.20368073124412,455.0377],[9.7568359375,11.22833893436912,427.2167],[9.77001953125,11.24469635624412,426.0981],[9.789306640625,11.254999090619108,424.334],[9.82373046875,11.26483795780662,424.7251],[9.8399902343750227,11.27167389530662,418.5956],[9.8475585937500227,11.27594635624412,418.7475],[9.869140625,11.293817449994108,416.424],[9.8779296875,11.29645416874412,416.6871],[9.9220214843750227,11.337420965619117,409.7725],[9.9405761718750227,11.373163153119108,409.3287],[9.9425292968750227,11.41400787968162,407.672],[9.936279296875,11.48822662968162,406.1679],[9.9535156250000227,11.56647369999412,398.463],[9.9583984375000227,11.61615631718162,397.9382],[9.946533203125,11.63849518436912,392.5681],[9.9432617187500227,11.64935944218162,392.3853],[9.955078125,11.67365143436912,389.9246],[9.980712890625,11.711053778119108,387.2662],[9.984130859375,11.71954987186912,387.1113],[9.98828125,11.743426824994117,385.9567],[10.020898437500023,11.76605866093162,384.0684],[10.025634765625,11.77252838749412,384.5295],[10.0341796875,11.795917059369117,382.5586],[10.052978515625,11.811151434369108,381.6479],[10.07177734375,11.82074616093162,380.248],[10.080322265625,11.827167059369117,379.7862],[10.0869140625,11.84027741093162,378.9233],[10.115380859375023,11.866717840619117,377.1746],[10.121240234375023,11.88544342655662,375.9912],[10.128662109375,11.88019440311912,377.4984],[10.135986328125,11.87946198124412,375.9139],[10.142822265625,11.883563543744117,376.8535],[10.149169921875,11.892938543744108,375.6802],[10.143701171875023,11.89850494999412,374.7649],[10.141992187500023,11.90302155155662,375.0533],[10.143798828125,11.90766022343162,374.9525],[10.149169921875,11.91339752811912,372.8858],[10.139404296875,11.938104559369108,374.14],[10.173828125,11.982928778119117,371.5876],[10.162255859375023,12.002801824994108,372.7745],[10.169677734375,12.00861237186912,371.3221],[10.1826171875,12.025897528119117,369.5046],[10.186767578125,12.02948639530662,369.9662],[10.195214843750023,12.031268621869117,367.1348],[10.217529296875,12.04315827030662,366.186],[10.215087890625,12.051385809369108,365.6999],[10.217529296875,12.05536530155662,366.1944],[10.224267578125023,12.05670807499412,365.3246],[10.234277343750023,12.056756903119108,366.5479],[10.23779296875,12.060419012494108,366.803],[10.236328125,12.078241278119108,363.9981],[10.2373046875,12.084735418744117,361.7184],[10.274169921875,12.117694403119117,363.5656],[10.279541015625,12.128778387494108,360.9741],[10.281396484375023,12.129901434369117,360.9741],[10.28759765625,12.14874909061912,361.6959],[10.28564453125,12.14618561405662,359.3498],[10.292724609375,12.168573309369108,356.4814],[10.293847656250023,12.16974518436912,359.991],[10.319970703125023,12.21442291874412,358.9794],[10.352441406250023,12.25189850468162,354.3527],[10.367919921875,12.27631256718162,356.3536],[10.37451171875,12.30695221561912,354.5255],[10.381591796875,12.317157293744117,354.5241],[10.426025390625,12.36188385624412,352.5824],[10.436669921875023,12.37616608280662,355.1097],[10.445556640625,12.392840887494117,350.6319],[10.45703125,12.427362371869108,350.2167],[10.44482421875,12.437860418744108,349.7427],[10.449609375000023,12.453729559369108,348.8195],[10.464111328125,12.46820709843162,348.1989],[10.48095703125,12.474481512494108,347.5664],[10.515039062500023,12.50556061405662,348.7424],[10.517822265625,12.51068756718162,347.6239],[10.518945312500023,12.521356512494108,346.8827],[10.52197265625,12.52631256718162,346.4491],[10.52734375,12.529803778119117,346.5818],[10.539941406250023,12.53339264530662,346.2673],[10.546533203125023,12.537225653119108,346.2955],[10.5625,12.553485418744117,350.2601],[10.56689453125,12.55707428593162,349.3983],[10.590087890625,12.563495184369117,346.4235],[10.602294921875,12.56842682499412,346.2483],[10.59765625,12.57074616093162,346.7992],[10.605859375000023,12.579950262494108,347.939],[10.63525390625,12.63898346561912,343.9626],[10.64208984375,12.642694403119108,345.5294],[10.662011718750023,12.64850494999412,345.1266],[10.669335937500023,12.65265534061912,344.3694],[10.673974609375023,12.660663153119117,344.4088],[10.681542968750023,12.68268463749412,342.1348],[10.7080078125,12.723651434369117,341.4763],[10.7109375,12.73212311405662,341.869],[10.716210937500023,12.740106512494108,340.9405],[10.728515625,12.74677155155662,342.118]]}}