{"type":"Feature","properties":{"GID_2":"NGA.16.11_1","GID_0":"NGA","country":"Nigeria","GID_1":"NGA.16_1","province":"Gombe","NL_NAME_1":"NA","county":"Yamaltu/Deba","VARNAME_2":"NA","NL_NAME_2":"NA","TYPE_2":"LocalAuthority","ENGTYPE_2":"LocalAuthority","CC_2":"NA","HASC_2":"NA","name":"Yamaltu_Deba.county"},
"geometry":{"type": "MultiPolygon","coordinates": [[[[11.7011,10.5942,286.7485],[11.6868,10.5907,276.9235],[11.5916,10.5941,239.0],[11.5902,10.5965,239.0],[11.574,10.5891,239.0],[11.5497,10.5974,239.0],[11.5198,10.5735,239.0],[11.5086,10.5504,239.0],[11.4918,10.5357,239.0],[11.4768,10.5285,240.7232],[11.4651,10.5082,240.5099],[11.4424,10.4828,246.5409],[11.4187,10.4714,258.3629],[11.3954,10.4579,272.3609],[11.3735,10.4301,311.6943],[11.3468,10.4089,303.3775],[11.296,10.3645,316.9134],[11.2785,10.3502,331.8922],[11.2472,10.3362,346.9682],[11.259,10.3116,357.4512],[11.2607,10.3006,353.4572],[11.2599,10.2924,382.7348],[11.2763,10.2905,350.9431],[11.2914,10.2797,346.3433],[11.3294,10.2087,355.019],[11.3409,10.1832,348.3076],[11.3497,10.1528,334.6759],[11.3774,10.1379,322.8281],[11.404,10.1195,330.1155],[11.4432,10.106,303.7999],[11.4645,10.0923,306.0847],[11.5021,10.0746,331.8273],[11.5379,10.0462,270.7703],[11.5716,10.0262,259.3957],[11.5811,10.0384,241.4937],[11.6195,10.0682,234.9343],[11.6544,10.0849,226.5649],[11.6922,10.0924,218.7874],[11.7167,10.1038,216.9332],[11.7347,10.1095,227.9121],[11.7465,10.1121,224.668],[11.79,10.113,202.9165],[11.8001,10.1122,202.7948],[11.8244,10.1065,266.5896],[11.833,10.1075,229.4019],[11.8438,10.106,244.3385],[11.8512,10.1095,264.6738],[11.8183,10.1833,198.1278],[11.8026,10.2043,243.8105],[11.7704,10.2208,216.5423],[11.7343,10.2305,213.2703],[11.7111,10.2417,252.8627],[11.6815,10.2708,320.9924],[11.6423,10.327,275.9074],[11.6293,10.3723,251.1609],[11.6798,10.4501,313.4049],[11.7128,10.4932,363.0893],[11.7229,10.5414,443.5499],[11.7112,10.5758,312.9384],[11.7011,10.5942,286.7485]]]]}}