{"type": "Feature","bbox": [8.0404,12.7937,8.2301,13.0282],"geometry": {"type": "MultiPolygon","coordinates": [[[[8.2301,12.8256,469.6773],[8.2217,12.854,479.4963],[8.2211,12.8604,476.4835],[8.2133,12.8744,475.2381],[8.2086,12.8944,469.351],[8.1934,12.9213,451.8476],[8.1815,12.949,464.7368],[8.1767,12.9564,468.2574],[8.1694,12.9632,474.0211],[8.1653,12.9791,469.1631],[8.1639,13.007,450.6883],[8.1573,13.0277,444.131],[8.1558,13.0282,446.569],[8.1548,13.0219,446.8738],[8.1469,13.0188,455.6076],[8.125,13.0149,475.6562],[8.1112,13.0147,466.6173],[8.097,13.0019,456.0479],[8.0821,12.9851,466.5086],[8.0773,12.9756,475.4181],[8.0714,12.9787,475.2173],[8.0559,12.9968,498.3369],[8.0488,13.0029,503.3828],[8.0404,13.0038,495.0285],[8.0407,12.9971,500.8155],[8.0426,12.9932,504.2303],[8.0567,12.9749,481.8473],[8.066,12.9595,485.7256],[8.075,12.9342,495.8148],[8.084,12.9251,504.8036],[8.0875,12.9079,516.5906],[8.0943,12.8957,505.093],[8.0925,12.8862,506.097],[8.0889,12.8802,498.0504],[8.0853,12.8668,493.5416],[8.0779,12.8572,496.2525],[8.0695,12.8366,505.582],[8.0695,12.8197,519.9187],[8.0778,12.8074,516.0104],[8.0874,12.8054,510.1783],[8.0893,12.803,509.2103],[8.103,12.7995,494.4988],[8.1107,12.7957,499.312],[8.1233,12.7937,513.4274],[8.1246,12.8081,505.2035],[8.132,12.8128,509.0575],[8.1576,12.8179,487.448],[8.2301,12.8256,469.6773]]]]}
,"properties": {"GID_2": "NGA.21.11_1","GID_0": "NGA","country": "Nigeria","GID_1": "NGA.21_1","province": "Katsina","NL_NAME_1": "NA","county": "Dutsi","VARNAME_2": "NA","NL_NAME_2": "NA","TYPE_2": "LocalAuthority","ENGTYPE_2": "LocalAuthority","CC_2": "NA","HASC_2": "NA","name": "Dutsi.county","area_km2": 288.0753,"hist_schema_id": "Elevation0-9000","hist_area_km2": {"450": 19.2784,"475": 131.7439,"500": 126.5929,"525": 10.4601}}}