{"type": "Feature","bbox": [7.3672,7.9104,8.2037,8.8075],"geometry": {"type": "MultiPolygon","coordinates": [[[[8.0667,7.9104,60.0183],[8.0675,7.9471,59.1849],[8.062,7.988,74.3054],[8.0524,7.9953,81.6104],[8.046,8.0116,80.6836],[8.046,8.0309,98.785],[8.0523,8.0631,90.2032],[8.084,8.0927,80.3302],[8.1166,8.1145,94.6471],[8.152,8.1466,120.3801],[8.159,8.1691,104.6956],[8.156,8.2279,157.8073],[8.1641,8.2575,122.1919],[8.1523,8.2807,130.5062],[8.131,8.2931,127.4967],[8.0988,8.2962,90.0216],[8.0729,8.2952,72.9815],[8.0502,8.3032,97.8259],[8.0519,8.3195,85.3483],[8.0798,8.3481,74.61],[8.1447,8.3525,109.6215],[8.1699,8.3599,126.0311],[8.1955,8.3724,142.2807],[8.2037,8.3914,135.1073],[8.2024,8.4119,111.7672],[8.1583,8.5267,188.7656],[8.1571,8.5392,174.0933],[8.1486,8.5386,156.7348],[8.1229,8.5471,165.0646],[8.0537,8.5902,295.3907],[8.0285,8.6031,275.7415],[7.9757999999999996,8.6217,248.9698],[7.9542,8.6272,264.8131],[7.9281,8.638,254.3566],[7.8762,8.6552,248.9368],[7.8343,8.6601,242.9878],[7.808,8.6767,262.2353],[7.791,8.6896,263.7554],[7.7565,8.6978,274.3482],[7.725,8.7032,219.3095],[7.7055,8.6973,256.4628],[7.6629,8.7029,239.6878],[7.6261,8.7242,259.6322],[7.5938,8.7499,273.8946],[7.5682,8.7669,315.6737],[7.55,8.781,394.3715],[7.523,8.8075,588.3887],[7.5179,8.7901,651.6361],[7.5099,8.7358,703.076],[7.507,8.7262,704.4594],[7.5027,8.7193,672.0722],[7.5002,8.6959,623.5465],[7.4875,8.6901,601.1501],[7.4802,8.6717,586.4095],[7.4711,8.6392,596.1987],[7.4744,8.6404,555.7754],[7.4907,8.6366,476.6494],[7.5002,8.6293,451.9483],[7.5075,8.6193,406.8247],[7.5102,8.5889,360.4777],[7.5072,8.561,284.9985],[7.5022,8.5507,278.3649],[7.5006,8.5374,314.6603],[7.4954,8.5283,248.3292],[7.4887,8.5014,206.5828],[7.4829,8.4852,175.7467],[7.4747,8.4736,178.9402],[7.4382,8.4313,219.6867],[7.4274,8.4218,205.7359],[7.4218,8.403,184.1725],[7.4225,8.3883,207.2002],[7.426,8.3758,138.5521],[7.4286,8.3518,125.694],[7.4264,8.331,87.9148],[7.4204,8.3116,105.1476],[7.4193,8.3003,130.1518],[7.4207,8.2897,136.4963],[7.4166,8.2796,167.7847],[7.4212,8.2666,156.8347],[7.4103,8.2606,120.939],[7.3709,8.1642,182.3091],[7.3672,8.1334,76.0372],[7.3709,8.0921,48.0412],[7.3731,8.0852,47.3644],[7.3839,8.0698,48.5101],[7.3884,8.0478,42.5],[7.3888,8.0314,54.8143],[7.4537,8.0396,55.4056],[7.4828,8.0403,49.2858],[7.5083,8.0373,49.1793],[7.5405,8.0294,56.1007],[7.6178,8.0223,51.3003],[7.6775,8.0197,50.0922],[7.7145,8.01,46.8894],[7.768,7.99,54.8638],[7.8124,7.9802,50.1115],[7.8709,7.9718,54.3039],[7.9028,7.9711,50.0548],[7.9499,7.9601,50.0118],[7.9689,7.9492,58.1184],[7.9783,7.9456,58.0671],[7.9797,7.9474,59.1343],[8.0019,7.9343,59.3438],[8.0667,7.9104,60.0183]]]]}
,"properties": {"GID_2": "NGA.26.9_1","GID_0": "NGA","country": "Nigeria","GID_1": "NGA.26_1","province": "Nasarawa","NL_NAME_1": "NA","county": "Nasarawa","VARNAME_2": "Nassarawa","NL_NAME_2": "NA","TYPE_2": "LocalAuthority","ENGTYPE_2": "LocalAuthority","CC_2": "NA","HASC_2": "NA","name": "Nasarawa.county","area_km2": 5807.591,"hist_schema_id": "Elevation0-9000","hist_area_km2": {"50": 688.004,"75": 526.32,"100": 617.755,"125": 663.558,"150": 637.656,"175": 531.676,"200": 478.616,"225": 473.948,"250": 350.319,"275": 207.6,"300": 151.395,"325": 113.978,"350": 75.379,"375": 52.965,"400": 42.984,"425": 35.226,"450": 26.545,"475": 23.4,"500": 24.594,"525": 20.442,"550": 15.074,"575": 11.09,"600": 10.879,"625": 10.647,"650": 8.53,"675": 5.449,"700": 2.766,"725": 0.713,"750": 0.084}}}