{"type":"Feature","properties":{"GID_2":"NGA.33.18_1","GID_0":"NGA","country":"Nigeria","GID_1":"NGA.33_1","province":"Rivers","NL_NAME_1":"NA","county":"Okrika","VARNAME_2":"NA","NL_NAME_2":"NA","TYPE_2":"LocalAuthority","ENGTYPE_2":"LocalAuthority","CC_2":"NA","HASC_2":"NA","name":"Okrika.county"},
"geometry":{"type": "MultiPolygon","coordinates": [[[[7.069,4.636,0.5515],[7.0718,4.634,2.2081],[7.0729,4.6232,0.7104],[7.0762,4.6132,1.5559],[7.0788,4.6104,0.727],[7.0779,4.5999,2.2196],[7.0715,4.5912,0.2658],[7.0771,4.5904,0.9038],[7.0829,4.5874,1.0107],[7.0854,4.591,1.6436],[7.0888,4.5918,0.0],[7.0935,4.5901,0.5599],[7.0963,4.5849,1.5745],[7.1065,4.5846,1.9873],[7.1079,4.5815,0.0],[7.1071,4.5749,1.0827],[7.1115,4.5663,0.0],[7.131,4.5668,0.0],[7.126,4.5813,5.5524],[7.1271,4.5921,0.0],[7.1254,4.6065,0.0],[7.1182,4.6221,1.5699],[7.1188,4.6335,0.0],[7.1093,4.6415,2.374],[7.1037,4.6507,0.0],[7.0988,4.6535,4.9231],[7.0882,4.6529,1.2927],[7.0704,4.6704,3.8312],[7.0671,4.6685,1.4263],[7.0665,4.6705,1.3848],[7.0546,4.6693,4.3463],[7.0079,4.7013,3.4582],[7.0035,4.6979,0.0],[7.0021,4.6951,1.0515],[7.0029,4.6904,0.0],[7.0201,4.6763,1.1618],[7.0254,4.6651,1.5291],[7.031,4.646,2.1367],[7.0374,4.636,0.9836],[7.0532,4.6338,2.9126],[7.059,4.6285,0.0],[7.0621,4.6301,0.0],[7.0635,4.6351,0.0],[7.0543,4.6465,2.4827],[7.0551,4.6543,0.4781],[7.0526,4.6565,3.4429],[7.0471,4.6563,0.0],[7.0482,4.6579,6.016],[7.0515,4.6582,0.5088],[7.0557,4.6546,0.4781],[7.056,4.6449,0.1339],[7.0607,4.6396,0.0],[7.069,4.636,0.5515]]],
[[[7.0231,4.6475,3.3406],[7.0301,4.6352,4.7083],[7.0345,4.6231,4.0575],[7.0363,4.6127,1.0267],[7.0399,4.6124,5.4355],[7.0418,4.6151,0.0],[7.0413,4.6238,1.7469],[7.0354,4.6276,1.0612],[7.034,4.6321,6.1845],[7.036,4.6343,3.0084],[7.0338,4.6407,0.0],[7.0285,4.6488,0.0],[7.0263,4.6563,0.0],[7.0229,4.6599,0.6412],[7.0192,4.6576,0.0],[7.0231,4.6475,3.3406]]],
[[[7.1043,4.6663,1.4572],[7.0971,4.6665,2.7928],[7.0929,4.6638,0.0],[7.0896,4.6607,1.0228],[7.0899,4.6565,2.3797],[7.0932,4.6549,0.0],[7.1021,4.6565,1.4173],[7.104,4.6585,1.0007],[7.1043,4.6663,1.4572]]],
[[[7.0849,4.6795,2.2142],[7.0783,4.6784,3.9786],[7.0682,4.6715,1.8892],[7.0735,4.6701,1.7226],[7.0768,4.6654,0.0],[7.0801,4.6643,4.0723],[7.0826,4.6599,0.8511],[7.0849,4.6607,2.545],[7.0846,4.6579,2.7812],[7.0888,4.6543,1.0415],[7.0893,4.6629,2.4125],[7.0951,4.6682,0.0],[7.0899,4.6785,1.5949],[7.0879,4.6804,0.2955],[7.0849,4.6795,2.2142]]],
[[[7.021,4.6604,0.0],[7.0212,4.6621,0.0],[7.0188,4.661,0.8653],[7.019,4.6601,0.0],[7.021,4.6604,0.0]]],
[[[7.0079,4.6696,0.4875],[7.0078,4.6696,0.4875],[7.0079,4.6694,0.4875],[7.0079,4.6696,0.4875]]],
[[[7.0071,4.684,0.6079],[7.0049,4.6846,0.6343],[7.0026,4.6782,0.6376],[7.0099,4.6682,1.4857],[7.0101,4.6626,1.0538],[7.0188,4.6626,0.847],[7.0215,4.6654,1.0598],[7.021,4.6701,1.793],[7.011,4.6821,0.0],[7.0071,4.684,0.6079]]],
[[[6.9846,4.6876,1.5649],[6.9857,4.6862,3.7186],[6.9899,4.6852,0.9891],[6.9876,4.6918,0.6069],[6.9846,4.6876,1.5649]]],
[[[6.9968,4.6946,0.5484],[6.996,4.6957,0.0],[6.9926,4.6949,0.9495],[6.9901,4.6879,1.3363],[6.991,4.686,0.0],[6.9968,4.6857,2.6183],[7.0013,4.6826,0.9452],[7.0032,4.6838,2.984],[7.0035,4.6868,3.3715],[6.9968,4.6946,0.5484]]],
[[[6.9921,4.698,2.2897],[6.9822,4.698,1.7745],[6.9791,4.6943,4.5828],[6.9818,4.6871,3.3717],[6.984,4.6874,1.5649],[6.9857,4.694,2.3818],[6.9901,4.6935,0.0],[6.9962,4.6988,0.6968],[6.9921,4.698,2.2897]]],
[[[7.0035,4.7021,3.431],[6.9988,4.6996,1.394],[6.9976,4.6962,3.4253],[6.9988,4.6943,1.6656],[7.0004,4.6943,0.6414],[7.0035,4.7021,3.431]]],
[[[7.0054,4.7031,0.0],[7.0054,4.7029,0.0],[7.0057,4.7029,1.4237],[7.0054,4.7031,0.0]]],
[[[7.0052,4.7032,0.0],[7.0048,4.7035,0.0],[7.0049,4.7032,0.0],[7.0052,4.7032,0.0]]],
[[[7.0046,4.7035,0.0],[7.0048,4.7035,0.0],[7.0046,4.7037,0.0],[7.0046,4.7035,0.0]]],
[[[7.0871,4.5713,0.0],[7.0862,4.5707,0.0],[7.0973,4.5691,3.6069],[7.1076,4.5693,0.9427],[7.1054,4.5768,0.9341],[7.106,4.5824,1.9503],[7.1043,4.5837,4.4228],[7.0976,4.5835,4.1688],[7.0943,4.586,2.0918],[7.0921,4.5896,0.5599],[7.0868,4.5904,11.1539],[7.0807,4.5832,0.0],[7.0785,4.5763,0.1237],[7.0821,4.5721,0.5521],[7.0871,4.5713,0.0]]],
[[[7.0704,4.634,0.4941],[7.0663,4.6354,1.8573],[7.0601,4.6268,0.5793],[7.0635,4.621,2.3463],[7.0618,4.6099,0.0],[7.0649,4.6024,0.0],[7.059,4.5943,0.0],[7.0668,4.5871,0.8706],[7.0701,4.5746,0.0],[7.074,4.5699,0.0],[7.0771,4.5693,0.3473],[7.079,4.5718,0.8283],[7.0779,4.579,0.0],[7.0804,4.5837,0.0],[7.0779,4.5887,0.0],[7.0715,4.5904,2.0281],[7.0704,4.5926,1.6922],[7.0768,4.5993,0.0],[7.0779,4.6101,0.727],[7.0749,4.614,1.9308],[7.0704,4.634,0.4941]]],
[[[7.036,4.6121,1.0267],[7.0346,4.6088,1.5468],[7.0402,4.6064,2.3474],[7.0479,4.5969,1.4093],[7.049,4.606,3.3865],[7.0543,4.611,1.3601],[7.0554,4.6151,1.0664],[7.0532,4.6162,1.7999],[7.0493,4.6121,1.3997],[7.0426,4.6137,0.0],[7.0382,4.6115,0.0],[7.0385,4.6082,2.0491],[7.036,4.6121,1.0267]]],
[[[7.0415,4.634,0.0],[7.0371,4.6349,0.5057],[7.0351,4.6301,2.2952],[7.0365,4.6276,2.4647],[7.0424,4.6249,1.7469],[7.0432,4.6143,4.9054],[7.049,4.6132,1.3997],[7.0535,4.6171,5.7585],[7.0554,4.6168,0.4465],[7.056,4.6154,1.0664],[7.0551,4.611,1.5531],[7.0504,4.6071,0.9152],[7.0493,4.6035,6.8346],[7.0479,4.5935,0.7056],[7.0518,4.5921,4.1296],[7.0535,4.5943,3.2209],[7.0568,4.5951,0.0],[7.0582,4.5988,1.3275],[7.0632,4.6021,4.5621],[7.0604,4.6107,1.388],[7.0621,4.619,0.0],[7.0588,4.626,0.0],[7.0529,4.6321,0.0],[7.0415,4.634,0.0]]],
[[[7.1343,4.5726,0.416],[7.1501,4.5776,1.5933],[7.1486,4.588,2.4079],[7.1496,4.5947,2.2486],[7.1366,4.6027,2.6459],[7.1371,4.6059,1.9992],[7.1351,4.6094,2.7919],[7.1341,4.6184,1.227],[7.1339,4.624,4.0061],[7.1366,4.6336,1.0188],[7.146,4.6443,0.0],[7.1332,4.6521,0.0],[7.1262,4.6479,1.162],[7.1224,4.6412,1.7273],[7.1215,4.6365,0.6485],[7.1268,4.6326,0.0],[7.1321,4.6215,3.237],[7.1324,4.6168,0.8663],[7.129,4.6029,0.3726],[7.131,4.596,0.0],[7.1304,4.5799,0.5607],[7.1343,4.5726,0.416]]],
[[[7.1249,4.6324,3.8526],[7.124,4.6338,1.1065],[7.121,4.6332,5.8795],[7.1201,4.626,4.292],[7.1246,4.6146,0.0],[7.1285,4.611,0.5094],[7.1307,4.6129,0.0],[7.1315,4.6201,0.0],[7.1268,4.6313,6.6513],[7.1249,4.6324,3.8526]]],
[[[7.1088,4.6643,1.3751],[7.1057,4.6649,0.8653],[7.1049,4.6585,2.9028],[7.1004,4.6551,3.0089],[7.1165,4.6371,0.0],[7.121,4.6368,0.6485],[7.1215,4.6412,1.7273],[7.1257,4.6485,1.162],[7.1318,4.6521,0.0],[7.1301,4.6551,0.0],[7.1088,4.6643,1.3751]]],
[[[7.1582,4.6693,0.0],[7.1568,4.671,0.0],[7.1557,4.6635,0.0],[7.1593,4.6649,0.0],[7.1582,4.6693,0.0]]],
[[[7.0682,4.6712,1.8892],[7.0682,4.6715,1.8892],[7.0677,4.6712,1.8892],[7.0682,4.6712,1.8892]]],
[[[7.0963,4.6738,0.0],[7.0946,4.6743,0.0],[7.0965,4.6701,0.0],[7.0993,4.671,0.9465],[7.0985,4.6721,0.0],[7.0963,4.6738,0.0]]],
[[[7.198,4.6984,2.2969],[7.1926,4.6996,0.0],[7.1904,4.6979,1.5359],[7.1835,4.6979,0.6115],[7.176,4.6924,0.4484],[7.1646,4.6932,0.2019],[7.1613,4.691,0.0],[7.1601,4.6824,2.2434],[7.1615,4.6793,0.0],[7.1599,4.6735,0.0],[7.1618,4.6668,0.0],[7.1599,4.6624,0.0],[7.1554,4.6607,0.5934],[7.1549,4.6568,1.1004],[7.1607,4.6504,0.0],[7.1629,4.651,0.0],[7.1649,4.6596,0.6725],[7.1699,4.6693,3.5787],[7.1757,4.6696,0.8923],[7.1821,4.6624,1.2597],[7.1854,4.6618,0.0],[7.1932,4.6757,3.4027],[7.2001,4.6779,1.1971],[7.2086,4.6775,4.9485],[7.1989,4.6915,5.606],[7.198,4.6984,2.2969]]],
[[[7.101,4.6978,5.8585],[7.1038,4.6883,3.7648],[7.1035,4.6821,6.9221],[7.1004,4.6813,6.0902],[7.1051,4.6751,0.0],[7.1138,4.6735,0.0],[7.1101,4.6782,9.0478],[7.111,4.6826,2.7077],[7.1149,4.6868,2.5104],[7.1101,4.6949,4.3263],[7.1104,4.6979,5.9021],[7.1135,4.7001,0.0],[7.1029,4.7007,1.4648],[7.1026,4.7065,3.6861],[7.1001,4.7096,4.0734],[7.101,4.6978,5.8585]]],
[[[7.1004,4.7207,7.2345],[7.1001,4.7101,4.0734],[7.1018,4.7104,3.1783],[7.1035,4.7068,3.6861],[7.1035,4.7015,1.4648],[7.1135,4.7015,4.6466],[7.1146,4.7001,0.0],[7.1113,4.6976,1.5227],[7.111,4.6949,5.8814],[7.1157,4.689,4.0348],[7.1157,4.6868,2.5104],[7.1118,4.6826,2.7077],[7.111,4.6785,3.52],[7.1165,4.6751,0.0],[7.1235,4.6735,0.0],[7.1243,4.6774,0.9715],[7.1199,4.6799,0.5661],[7.1176,4.6857,2.2727],[7.1182,4.6899,3.9712],[7.1215,4.6924,0.0],[7.1224,4.6951,0.0],[7.1213,4.7018,0.0],[7.1154,4.7071,2.4628],[7.1129,4.7176,1.2767],[7.1074,4.7174,0.0],[7.1004,4.7207,7.2345]]],
[[[7.1161,4.7671,11.0012],[7.1111,4.7681,16.1697],[7.1049,4.7726,16.5241],[7.0928,4.7631,14.1149],[7.0943,4.7541,5.5682],[7.1032,4.7512,12.7687],[7.1045,4.7459,5.1506],[7.1004,4.7215,7.2345],[7.1046,4.7188,9.043],[7.1132,4.7188,2.0334],[7.116,4.7174,2.2011],[7.1168,4.7193,0.0],[7.1143,4.7224,2.2381],[7.116,4.7254,0.5934],[7.1179,4.7246,0.0],[7.1193,4.7199,0.8541],[7.1157,4.7154,0.8873],[7.1163,4.7096,0.0],[7.1229,4.7007,4.7005],[7.1229,4.6932,5.2114],[7.1193,4.6868,5.3274],[7.1204,4.6824,1.4078],[7.1257,4.6785,0.7936],[7.1265,4.6726,0.0],[7.1287,4.6707,4.5196],[7.146,4.6663,2.4357],[7.151,4.6621,0.5024],[7.1593,4.6921,0.0],[7.1557,4.699,1.201],[7.1576,4.6993,0.0],[7.1601,4.6954,0.0],[7.1732,4.6935,0.0],[7.1801,4.6985,4.1158],[7.191,4.7004,0.0],[7.1744,4.7028,12.9726],[7.1662,4.7082,6.1492],[7.1592,4.7189,13.1766],[7.1514,4.7214,13.0195],[7.1428,4.7277,14.8402],[7.1389,4.7329,14.6015],[7.1392,4.7352,13.6161],[7.1333,4.7406,15.3517],[7.1323,4.7528,16.8034],[7.1301,4.757,16.326],[7.126,4.7612,15.7608],[7.1161,4.7671,11.0012]]]]}}