{"type":"Feature","properties":{"GID_2":"NGA.19.16_1","GID_0":"NGA","country":"Nigeria","GID_1":"NGA.19_1","province":"Kaduna","NL_NAME_1":"NA","county":"Kudan","VARNAME_2":"NA","NL_NAME_2":"NA","TYPE_2":"LocalAuthority","ENGTYPE_2":"LocalAuthority","CC_2":"NA","HASC_2":"NA","name":"Kudan.county"},
"geometry":{"type": "MultiPolygon","coordinates": [[[[7.6368,11.2551,664.9949],[7.6429,11.2522,657.6891],[7.6555,11.2212,670.3406],[7.6639,11.2107,666.1559],[7.669,11.2013,665.1095],[7.6788,11.1942,665.9648],[7.6909,11.1962,655.2209],[7.7079,11.2015,640.4993],[7.7185,11.2067,628.0682],[7.7326,11.2081,633.1555],[7.7458,11.2039,640.257],[7.764,11.2023,654.088],[7.778,11.1746,644.1375],[7.7821,11.1626,636.8873],[7.7836,11.1456,615.0],[7.7831,11.1197,635.4988],[7.8023,11.1308,628.5126],[7.8382,11.1622,624.6643],[7.8474,11.1662,618.6595],[7.8619,11.1763,623.1031],[7.8723,11.1809,619.3368],[7.891,11.1926,620.4678],[7.8884,11.194,617.6014],[7.8882,11.2099,635.361],[7.8805,11.2179,644.918],[7.8805,11.2349,645.3784],[7.8761,11.2565,664.0973],[7.8774,11.2731,671.026],[7.8756,11.2886,674.1921],[7.8691,11.3071,668.3239],[7.8535,11.3265,647.5557],[7.8497,11.363,667.1696],[7.8261,11.3589,672.306],[7.8003,11.3581,678.0887],[7.7729,11.3594,680.8085],[7.7603,11.3417,679.8058],[7.7567,11.323,673.0818],[7.7466,11.309,666.4792],[7.69,11.2878,651.6526],[7.6742,11.2784,640.1523],[7.656,11.2733,637.9644],[7.6388,11.2817,640.7198],[7.6387,11.2662,655.8146],[7.6368,11.2551,664.9949]]]]}}