{"type": "Feature","bbox": [5.2287,5.0233,5.9284,5.467],"geometry": {"type": "MultiPolygon","coordinates": [[[[5.8799,5.0969,2.8817],[5.8882,5.1031,5.8727],[5.8744,5.1932,0.0],[5.8446,5.1774,6.2141],[5.8393,5.1789,13.6301],[5.8341,5.1838,10.7861],[5.8196,5.1873,8.3679],[5.8122,5.1858,9.3932],[5.7881,5.176,17.1876],[5.7786,5.1764,10.9438],[5.7689,5.1872,12.875],[5.761,5.1991,16.122],[5.7584,5.2097,6.8523],[5.7633,5.2131,9.9021],[5.7647,5.217,13.1885],[5.7711,5.2231,13.875],[5.782,5.231,16.2193],[5.829,5.2564,17.9295],[5.8412,5.2609,12.8831],[5.841,5.2678,0.5],[5.8462,5.2923,4.999],[5.8433,5.2945,7.2437],[5.8281,5.2866,9.2267],[5.8207,5.281,14.063],[5.8074,5.2764,15.9811],[5.8016,5.2719,17.2256],[5.7594,5.2569,13.2393],[5.7434,5.2533,10.0998],[5.7358,5.2564,13.3328],[5.7299,5.2632,13.7748],[5.731,5.2722,9.3077],[5.7338,5.2756,9.621],[5.7358,5.2818,9.2317],[5.7535,5.2934,16.926],[5.7641,5.3066,8.9861],[5.7711,5.3127,11.0152],[5.8063,5.3372,19.2843],[5.8168,5.3387,0.0],[5.8374,5.334,5.1413],[5.8518,5.3356,8.9519],[5.8859,5.3345,12.1488],[5.9187,5.339,7.4041],[5.9229,5.3426,8.4747],[5.9244,5.3461,12.1179],[5.9262,5.3585,14.5679],[5.9232,5.3613,12.292],[5.9261,5.3647,9.3531],[5.9258,5.3753,8.792],[5.9284,5.3831,10.665],[5.9121,5.3832,7.8354],[5.9067,5.3805,13.513],[5.8957,5.3705,6.7067],[5.8954,5.3657,5.7309],[5.8898,5.3596,11.5154],[5.8807,5.3558,13.0263],[5.8426,5.3652,4.5688],[5.8135,5.3526,2.5566],[5.79,5.3523,12.6263],[5.7873,5.3452,10.6557],[5.7806,5.3407,6.1506],[5.7739,5.3438,5.4945],[5.77,5.3425,1.6178],[5.7573,5.3434,4.6572],[5.752,5.3313,12.5039],[5.7441,5.3252,1.4192],[5.7378,5.3227,6.3922],[5.7323,5.3224,9.8393],[5.7239,5.3294,1.6781],[5.7199,5.3383,0.0],[5.7157,5.3735,0.5805],[5.7124,5.3687,11.1458],[5.7065,5.3662,0.0],[5.6996,5.3563,11.022],[5.6946,5.3535,7.4205],[5.6832,5.3518,10.8428],[5.6785,5.3493,2.1885],[5.6704,5.3385,8.0028],[5.6671,5.3387,8.2731],[5.6596,5.3449,3.0604],[5.6557,5.3449,3.7012],[5.649,5.3479,8.4025],[5.6457,5.3524,0.3932],[5.6446,5.3607,3.3564],[5.6432,5.3624,1.4431],[5.639,5.3626,1.2226],[5.6237,5.3479,1.3373],[5.6157,5.3335,5.8711],[5.6046,5.3332,2.8802],[5.6026,5.3204,4.1386],[5.6012,5.3182,0.0],[5.6071,5.3129,0.0],[5.6088,5.3151,0.7057],[5.6079,5.3201,1.5036],[5.6104,5.321,2.5381],[5.616,5.3088,1.2843],[5.6185,5.309,5.9555],[5.6218,5.3121,4.9675],[5.6265,5.311,1.1891],[5.6307,5.3079,0.6506],[5.6326,5.3024,0.9117],[5.6451,5.3046,1.0229],[5.6388,5.3021,0.7723],[5.631,5.3024,1.1765],[5.6301,5.3076,0.6506],[5.6237,5.3113,0.0],[5.6207,5.311,0.6785],[5.6182,5.3082,1.7548],[5.6157,5.3082,1.2487],[5.6104,5.3201,1.2645],[5.6088,5.3196,1.2645],[5.6096,5.3149,0.7057],[5.6074,5.3124,0.0],[5.6057,5.3124,0.8859],[5.6026,5.316,1.5056],[5.5996,5.3132,1.8992],[5.5954,5.314,1.7835],[5.594,5.3118,0.9148],[5.5871,5.3074,0.6928],[5.5835,5.3074,2.7805],[5.5937,5.3124,0.6031],[5.5951,5.3146,1.7835],[5.6015,5.3193,2.6377],[5.6021,5.3282,3.3272],[5.6043,5.334,0.0],[5.5954,5.3471,0.0],[5.5818,5.3563,1.529],[5.5751,5.3579,2.6269],[5.5763,5.359,0.0],[5.5743,5.361,4.2482],[5.5763,5.3615,3.7241],[5.5849,5.3546,1.7826],[5.5901,5.3532,0.0],[5.5857,5.3626,1.3338],[5.5793,5.3704,3.5596],[5.5543,5.3885,5.9796],[5.5488,5.3871,3.3058],[5.5437,5.3826,1.5029],[5.5432,5.3712,1.5121],[5.5451,5.3707,1.5805],[5.5474,5.3724,6.5796],[5.5468,5.3704,0.0],[5.5518,5.3665,5.7024],[5.5579,5.3582,5.8226],[5.5571,5.3576,5.8226],[5.5549,5.3593,0.0],[5.549,5.3546,15.0648],[5.5485,5.3521,2.1392],[5.5479,5.3549,3.2643],[5.5538,5.3585,3.4654],[5.5538,5.3615,2.9733],[5.5488,5.3662,0.0],[5.5421,5.3676,0.0],[5.5363,5.3662,0.0],[5.5318,5.3624,0.0],[5.516,5.3588,0.0],[5.5071,5.3549,3.1055],[5.5026,5.3549,0.0],[5.5001,5.3532,1.5586],[5.4882,5.3532,1.4234],[5.466,5.3485,4.8639],[5.4579,5.339,0.0],[5.4585,5.3362,2.555],[5.466,5.3318,0.0],[5.4765,5.3307,3.1704],[5.4846,5.3265,0.0],[5.4879,5.3279,0.0],[5.4915,5.3368,0.0],[5.4963,5.3385,0.0],[5.4985,5.3338,2.9093],[5.4954,5.326,2.0777],[5.4976,5.3254,0.0],[5.504,5.3332,2.3735],[5.5057,5.3415,0.0],[5.514,5.3412,3.9749],[5.5137,5.3401,10.0243],[5.506,5.3401,9.1872],[5.5057,5.3343,5.9535],[5.5007,5.3257,0.0],[5.504,5.3235,1.0464],[5.5054,5.3199,0.0],[5.5151,5.3221,4.0123],[5.5224,5.321,2.6559],[5.5243,5.3188,2.4132],[5.5246,5.3129,2.3133],[5.5224,5.3132,2.6281],[5.5229,5.3185,0.0],[5.5207,5.3204,10.8188],[5.5132,5.3207,2.0806],[5.504,5.3179,5.7421],[5.5024,5.3185,11.3816],[5.501,5.3229,2.5018],[5.4957,5.3229,3.5406],[5.4932,5.3254,3.7948],[5.4935,5.3293,1.4736],[5.4963,5.334,10.9188],[5.496,5.3368,8.75],[5.4946,5.3368,3.0207],[5.4893,5.326,3.9163],[5.4835,5.3249,2.9327],[5.4771,5.3279,1.3099],[5.4726,5.3274,0.682],[5.4718,5.3168,3.6339],[5.4629,5.3126,6.0955],[5.4576,5.3079,0.9664],[5.4585,5.3043,2.7831],[5.4685,5.2999,2.1477],[5.4704,5.3012,13.2604],[5.4743,5.3135,2.3213],[5.4776,5.3151,2.7518],[5.4799,5.3146,2.7793],[5.4824,5.3104,0.6539],[5.4824,5.3018,0.9284],[5.486,5.3004,0.7898],[5.491,5.301,1.7302],[5.4949,5.2976,0.0],[5.4949,5.2946,1.9441],[5.5001,5.2912,1.9966],[5.5001,5.2885,6.4471],[5.4929,5.2832,1.4548],[5.4937,5.2793,1.2725],[5.5038,5.2799,1.6832],[5.5121,5.2724,4.5643],[5.5185,5.2721,5.5195],[5.524,5.2768,0.4868],[5.5274,5.2776,1.5383],[5.5279,5.2815,1.768],[5.5321,5.2871,1.6857],[5.5326,5.296,1.5893],[5.5374,5.2963,1.7612],[5.5426,5.289,2.1768],[5.5454,5.2904,0.7853],[5.5468,5.2971,1.3175],[5.5565,5.3029,1.2127],[5.559,5.3007,7.0405],[5.5588,5.2965,0.9968],[5.5635,5.2874,3.3074],[5.5615,5.2818,3.1431],[5.5624,5.279,1.3335],[5.5763,5.2746,1.3225],[5.5751,5.2735,2.125],[5.5668,5.2754,3.1289],[5.5607,5.2793,1.709],[5.5621,5.2868,2.0567],[5.5574,5.2954,0.0],[5.5568,5.301,1.4326],[5.5482,5.296,0.0],[5.5471,5.2907,1.4347],[5.5446,5.2876,1.6558],[5.541,5.2882,0.7543],[5.5393,5.2932,2.0127],[5.5371,5.2951,2.3841],[5.5343,5.2951,2.1076],[5.534,5.2854,1.7245],[5.5299,5.2835,0.9736],[5.5285,5.2765,2.8511],[5.5246,5.276,0.0],[5.521,5.2715,3.5983],[5.5115,5.2707,1.696],[5.5068,5.2765,1.4755],[5.5021,5.2785,2.2176],[5.4874,5.2768,4.278],[5.4874,5.274,5.3189],[5.4921,5.2671,2.3752],[5.4935,5.2615,6.0576],[5.4926,5.2562,1.0007],[5.4896,5.2538,2.3441],[5.481,5.2526,2.5981],[5.4707,5.2396,9.5986],[5.464,5.2407,0.0],[5.4576,5.2362,0.0],[5.4571,5.2326,1.9529],[5.4599,5.2282,0.0],[5.4682,5.2265,0.0],[5.4707,5.224,2.5613],[5.474,5.2235,0.0],[5.4932,5.2249,0.0],[5.4974,5.2293,0.0],[5.5004,5.2396,4.2303],[5.5046,5.2435,0.0],[5.5093,5.2418,0.0],[5.5121,5.2337,0.0],[5.5174,5.2351,0.9336],[5.5143,5.2401,4.1932],[5.5199,5.2365,1.4814],[5.5213,5.2329,1.8534],[5.5215,5.2296,0.4895],[5.5199,5.2263,0.5496],[5.5215,5.2257,0.5496],[5.519,5.2254,2.347],[5.5188,5.2274,2.2683],[5.5207,5.2296,0.4895],[5.5201,5.2335,1.8534],[5.5188,5.2343,0.0],[5.5157,5.2318,6.8969],[5.5112,5.2324,1.9837],[5.5074,5.2404,4.2263],[5.5046,5.2418,2.563],[5.5026,5.2396,0.0],[5.4985,5.2254,3.8569],[5.4913,5.2212,0.0],[5.4818,5.2199,8.5964],[5.4768,5.2215,1.8573],[5.4707,5.2204,6.5926],[5.4624,5.2229,0.0],[5.461,5.2221,0.0],[5.4521,5.1874,8.3572],[5.4529,5.179,11.2308],[5.4637,5.174,7.7269],[5.4671,5.1701,0.0],[5.4699,5.1707,6.5084],[5.4707,5.1751,4.8355],[5.4724,5.1765,1.2618],[5.4799,5.1746,0.0],[5.479,5.181,5.1173],[5.4812,5.1854,4.3519],[5.4837,5.1846,1.4244],[5.4862,5.1807,1.861],[5.4887,5.1837,0.0],[5.491,5.1837,1.5895],[5.4979,5.1776,5.6353],[5.4974,5.1771,5.6353],[5.491,5.1829,1.5895],[5.4849,5.1793,5.2339],[5.4837,5.1837,1.2097],[5.4815,5.1846,4.3519],[5.4799,5.181,5.1173],[5.4807,5.1743,0.0],[5.4799,5.1724,2.4989],[5.4776,5.1715,4.9588],[5.4732,5.1757,3.0162],[5.4718,5.1754,4.8355],[5.4721,5.1685,6.736],[5.4693,5.1649,0.0],[5.4693,5.1568,1.7668],[5.4651,5.1485,0.5341],[5.4654,5.1454,4.8693],[5.4635,5.1435,6.84],[5.4607,5.1438,0.0],[5.4593,5.1421,0.0],[5.4526,5.1404,8.4767],[5.4606,5.1338,8.6192],[5.476,5.1153,6.2737],[5.4865,5.1064,3.0168],[5.5258,5.0863,5.8177],[5.5334,5.0795,18.876],[5.5508,5.0764,11.4876],[5.5621,5.0702,4.3736],[5.5709,5.0712,12.359],[5.5826,5.068,12.6313],[5.5919,5.0593,2.0718],[5.6122,5.0458,7.1479],[5.626,5.0421,6.162],[5.6321,5.0328,7.0965],[5.6421,5.0243,12.6477],[5.6525,5.0235,4.5432],[5.662,5.0233,1.9529],[5.6796,5.0309,2.8268],[5.6858,5.0296,2.8227],[5.6948,5.0248,2.7468],[5.7157,5.0355,11.8555],[5.7333,5.0484,7.8255],[5.746,5.0507,5.0324],[5.7545,5.061,8.0939],[5.7645,5.0677,6.9943],[5.7722,5.0717,7.2678],[5.7835,5.0729,5.3247],[5.7958,5.0764,8.1008],[5.8157,5.0913,8.3149],[5.8242,5.0932,6.2492],[5.8394,5.0906,6.2471],[5.8438,5.0862,11.8797],[5.8523,5.0842,8.9337],[5.858,5.0846,16.2677],[5.8655,5.087,16.1374],[5.8799,5.0969,2.8817]]],
[[[5.6951,5.4138,0.0],[5.692,5.4148,7.8851],[5.6823,5.4131,1.3111],[5.6732,5.4056,5.9621],[5.6598,5.3897,5.5051],[5.6398,5.3829,2.4603],[5.5982,5.3771,0.0],[5.5804,5.3807,0.0],[5.5799,5.3751,2.2412],[5.5885,5.3624,3.3744],[5.5912,5.3613,1.7018],[5.5951,5.3507,4.4444],[5.6038,5.3376,1.6612],[5.6076,5.3351,0.0],[5.616,5.3382,1.5618],[5.6226,5.3504,3.5843],[5.6385,5.3646,5.8301],[5.6421,5.3651,0.0],[5.6457,5.3629,9.5975],[5.6471,5.3543,2.2195],[5.6496,5.3504,2.3072],[5.6532,5.3476,0.0],[5.6632,5.3443,2.4372],[5.6671,5.3407,7.2379],[5.671,5.341,7.1096],[5.6765,5.3507,2.1001],[5.684,5.354,2.6111],[5.6932,5.3549,0.0],[5.699,5.3582,1.5841],[5.7074,5.3696,1.2903],[5.7129,5.3715,2.9701],[5.7168,5.3799,0.0],[5.7179,5.3865,1.3052],[5.7143,5.3871,0.0],[5.7104,5.391,0.264],[5.7035,5.3932,2.949],[5.6974,5.4007,1.1785],[5.6971,5.4032,2.5182],[5.7012,5.4074,0.0],[5.6996,5.4107,1.132],[5.6951,5.4138,0.0]]],
[[[5.541,5.3888,0.0],[5.534,5.389,0.0],[5.5293,5.3854,9.2158],[5.5215,5.3851,2.3689],[5.511,5.3807,0.0],[5.499,5.3826,0.9516],[5.4954,5.3821,0.0],[5.4951,5.3799,0.0],[5.5079,5.3779,5.9953],[5.5157,5.3674,4.3523],[5.5193,5.366,9.3912],[5.526,5.3668,0.0],[5.5338,5.3724,3.7585],[5.5329,5.3696,6.7724],[5.5271,5.3657,2.6029],[5.5288,5.364,0.0],[5.534,5.3668,0.0],[5.5343,5.3701,6.7724],[5.5371,5.3726,2.4328],[5.541,5.3888,0.0]]],
[[[5.6087,5.3799,0.0],[5.6099,5.3799,0.0],[5.6099,5.38,0.0],[5.6087,5.38,0.0],[5.6087,5.3799,0.0]]],
[[[5.3251,5.3649,0.4502],[5.3229,5.3651,2.3185],[5.3221,5.3565,0.7095],[5.326,5.3401,0.0],[5.3254,5.3263,0.0],[5.3313,5.3074,7.9612],[5.3304,5.2999,0.0],[5.3329,5.2999,6.4893],[5.3326,5.294,0.0],[5.3382,5.2829,1.1224],[5.3465,5.2571,1.7621],[5.3504,5.2385,3.0213],[5.3515,5.2199,2.2195],[5.3537,5.2107,2.8928],[5.3562,5.2085,12.6019],[5.3557,5.2065,12.5635],[5.3543,5.2074,1.7224],[5.3579,5.1935,11.0122],[5.3565,5.1793,1.1836],[5.3549,5.1793,0.0],[5.3537,5.1818,0.0],[5.3518,5.1782,0.0],[5.3524,5.1757,0.0],[5.3596,5.1699,8.8812],[5.3751,5.1446,2.5138],[5.386,5.139,6.7418],[5.3976,5.1426,1.829],[5.4226,5.1543,3.445],[5.4521,5.1518,0.0],[5.4618,5.156,3.2424],[5.4635,5.1604,0.0],[5.4615,5.1643,0.0],[5.4465,5.1779,2.1512],[5.4451,5.1846,2.08],[5.4468,5.1935,0.0],[5.446,5.196,0.0],[5.441,5.1965,6.5927],[5.4335,5.2007,0.0],[5.4304,5.1963,4.0209],[5.426,5.1954,11.1189],[5.4201,5.1985,3.2649],[5.4163,5.1985,11.1463],[5.4101,5.2026,1.3619],[5.409,5.2096,4.736],[5.4121,5.2176,3.0812],[5.4029,5.2199,2.1869],[5.4015,5.2235,0.0],[5.4068,5.2301,0.937],[5.4037,5.2374,4.7287],[5.4062,5.2413,2.1535],[5.4074,5.2493,7.3771],[5.404,5.2562,1.8747],[5.4082,5.2507,4.2639],[5.4082,5.2415,0.0],[5.4054,5.2379,1.2388],[5.4076,5.234,2.1015],[5.4076,5.2301,0.937],[5.4026,5.2226,0.0],[5.404,5.2204,2.1869],[5.4096,5.2204,0.0],[5.4132,5.2185,4.8786],[5.4104,5.204,5.1053],[5.4151,5.2007,6.7548],[5.4265,5.1974,5.9134],[5.4335,5.2021,7.6655],[5.4415,5.1985,0.0],[5.4485,5.1999,0.0],[5.4546,5.219,1.1116],[5.4576,5.2238,1.1944],[5.4546,5.2299,0.0],[5.4565,5.2385,0.0],[5.4624,5.2424,2.5785],[5.4699,5.2413,0.0],[5.4785,5.2532,2.0712],[5.4918,5.2571,6.3959],[5.4901,5.2682,1.1852],[5.4868,5.2707,6.7621],[5.486,5.2751,3.4915],[5.4868,5.2779,4.1593],[5.4913,5.2788,0.0],[5.4921,5.2832,1.4548],[5.4996,5.2887,6.4471],[5.4996,5.2907,1.9966],[5.4943,5.2943,1.9441],[5.4904,5.3004,8.3065],[5.486,5.299,0.7898],[5.4815,5.3018,0.9284],[5.4801,5.3121,0.0],[5.4785,5.3143,2.7518],[5.476,5.3137,5.6504],[5.4724,5.3015,2.0355],[5.4688,5.2988,2.1477],[5.4596,5.3015,3.9491],[5.4563,5.3051,1.177],[5.451,5.3012,2.113],[5.4585,5.3124,4.3209],[5.4704,5.3182,12.7943],[5.4713,5.3235,0.0],[5.4693,5.3276,2.3218],[5.4601,5.329,5.6063],[5.4563,5.3329,0.0],[5.4504,5.3535,1.6641],[5.4415,5.3632,1.5922],[5.4357,5.3649,0.391],[5.4318,5.3624,0.3727],[5.4301,5.3504,7.0511],[5.4238,5.3435,3.3181],[5.4276,5.3401,5.0561],[5.429,5.336,0.0],[5.4268,5.3401,2.8822],[5.4238,5.341,1.6035],[5.4229,5.3351,1.7567],[5.4207,5.3343,1.8876],[5.4143,5.3407,2.9748],[5.4146,5.331,2.2201],[5.4085,5.3276,0.0],[5.4043,5.3201,6.1045],[5.3971,5.3176,1.6709],[5.3929,5.3018,8.1716],[5.3874,5.2957,0.9286],[5.3846,5.2957,0.9597],[5.3871,5.2996,3.048],[5.3846,5.2999,4.0599],[5.3801,5.2949,1.469],[5.3793,5.2963,1.9251],[5.3824,5.3012,0.0],[5.3865,5.3026,1.0602],[5.3926,5.3085,1.1847],[5.3951,5.3182,3.1502],[5.4021,5.3204,0.0],[5.4065,5.3293,2.4788],[5.4126,5.3326,4.9231],[5.4124,5.3421,11.3563],[5.4174,5.3415,6.2367],[5.4196,5.3371,9.2328],[5.4213,5.3368,0.0],[5.4218,5.346,4.4846],[5.4265,5.3499,0.0],[5.4285,5.3538,0.0],[5.4274,5.3626,0.0],[5.4124,5.364,0.0],[5.404,5.3613,5.0793],[5.3865,5.3601,2.8145],[5.3743,5.3546,2.877],[5.369,5.3549,0.3378],[5.3676,5.3499,3.5248],[5.366,5.3507,0.0],[5.3665,5.3563,0.0],[5.3554,5.3574,0.5671],[5.3546,5.3529,0.0],[5.3574,5.3496,10.3483],[5.3543,5.3488,0.0],[5.3524,5.3513,1.7368],[5.3537,5.3601,0.936],[5.3504,5.3593,2.4813],[5.3488,5.3624,0.6429],[5.3465,5.3626,0.0],[5.3379,5.3588,0.0],[5.331,5.3604,4.2074],[5.3251,5.3649,0.4502]]],
[[[5.3924,5.304,2.3761],[5.3904,5.3049,1.2694],[5.3876,5.3012,0.0],[5.3915,5.3021,1.1963],[5.3924,5.304,2.3761]]],
[[[5.5063,5.3599,0.0],[5.5035,5.3604,8.7107],[5.496,5.3576,0.0],[5.4987,5.3568,0.0],[5.5063,5.3599,0.0]]],
[[[5.5054,5.3774,5.8723],[5.4824,5.3779,4.0152],[5.4765,5.371,8.0172],[5.4649,5.369,0.0],[5.4618,5.3649,4.1459],[5.469,5.364,12.6869],[5.4751,5.366,11.8834],[5.479,5.3613,5.9247],[5.4987,5.364,7.8859],[5.5121,5.3629,0.9032],[5.5115,5.3715,10.1585],[5.5054,5.3774,5.8723]]],
[[[5.5099,5.3871,0.0],[5.504,5.3846,0.6911],[5.509,5.3821,8.3099],[5.5146,5.3838,0.0],[5.5146,5.3857,3.3496],[5.5099,5.3871,0.0]]],
[[[5.5132,5.3949,8.7999],[5.5126,5.3968,3.2978],[5.5093,5.396,1.0016],[5.5074,5.3929,9.3902],[5.5035,5.3937,14.0693],[5.5007,5.3921,0.0],[5.5004,5.3896,1.3063],[5.506,5.3882,0.0],[5.5101,5.391,6.1769],[5.5093,5.389,1.8027],[5.5146,5.3885,3.7624],[5.5196,5.3904,3.3024],[5.5182,5.3874,5.9545],[5.514,5.3871,3.7624],[5.5162,5.3857,4.4611],[5.5226,5.3871,9.1891],[5.5265,5.386,5.7502],[5.5343,5.3913,4.5467],[5.529,5.3954,5.8689],[5.5207,5.3951,4.8868],[5.5174,5.3935,6.095],[5.5132,5.3949,8.7999]]],
[[[5.5099,5.3974,0.0],[5.5079,5.3979,1.4885],[5.5074,5.3968,0.0],[5.5085,5.3965,1.0016],[5.5099,5.3974,0.0]]],
[[[5.4315,5.4001,0.9724],[5.414,5.4084,6.5333],[5.3777,5.4201,16.3262],[5.3681,5.4276,18.3389],[5.3375,5.4452,15.2446],[5.33,5.4543,11.4735],[5.3194,5.4545,11.8679],[5.3002,5.467,10.2217],[5.2679,5.4611,10.6681],[5.2566,5.4625,11.6216],[5.2434,5.4597,5.2502],[5.2287,5.4527,3.3539],[5.2293,5.4504,0.0],[5.2313,5.4507,3.7931],[5.2565,5.4332,2.0095],[5.286,5.4229,5.7192],[5.3157,5.4071,5.8169],[5.3388,5.4001,0.0],[5.3501,5.3929,2.5371],[5.3824,5.3907,2.1665],[5.3896,5.3924,4.2348],[5.4015,5.391,0.0],[5.4037,5.3924,2.1017],[5.4143,5.3899,0.0],[5.4246,5.391,2.2885],[5.4324,5.3882,0.0],[5.434,5.3954,0.0],[5.4315,5.4001,0.9724]]]]}
,"properties": {"GID_2": "NGA.10.4_1","GID_0": "NGA","country": "Nigeria","GID_1": "NGA.10_1","province": "Delta","NL_NAME_1": "NA","county": "Burutu","VARNAME_2": "NA","NL_NAME_2": "NA","TYPE_2": "LocalAuthority","ENGTYPE_2": "LocalAuthority","CC_2": "NA","HASC_2": "NA","name": "Burutu.county","area_km2": 1740.417,"hist_schema_id": "Elevation0-9000","hist_area_km2": {"0": 1270.82,"25": 469.597}}}