{"type": "Feature","bbox": [6.7463,8.4034,6.9852,9.2327],"geometry": {"type": "MultiPolygon","coordinates": [[[[6.9632,9.2324,237.8286],[6.9408,9.2313,258.1118],[6.9309,9.2327,261.3593],[6.9206,9.2297,245.6274],[6.8876,9.2286,236.75],[6.8667,9.2311,274.9876],[6.8569,9.2292,256.3908],[6.801,9.2281,250.9843],[6.7576,9.2228,250.0926],[6.7521,9.2167,234.2422],[6.7496,9.1857,247.633],[6.7515,9.1188,270.4249],[6.7496,9.0815,225.4547],[6.7502,9.0604,217.0443],[6.7468,9.009,202.4327],[6.7476,8.9975,209.5219],[6.7463,8.9975,212.1552],[6.7482,8.9911,220.7138],[6.7482,8.9809,204.5585],[6.7513,8.9714,208.6519],[6.7585,8.5119,126.4607],[6.7523,8.5037,225.556],[6.751,8.4899,137.0496],[6.7825,8.411,113.4053],[6.8054,8.4034,72.0355],[6.8378,8.4072,80.1654],[6.8743,8.4043,119.0063],[6.8826,8.4072,128.0405],[6.8963,8.4088,149.3456],[6.9239,8.4044,170.9614],[6.9555,8.4043,223.2778],[6.9649,8.4104,230.0744],[6.9692,8.4109,228.5204],[6.9789,8.4444,171.1261],[6.9839,8.4524,147.1745],[6.9852,8.4752,187.8719],[6.9834,8.4805,197.3354],[6.9733,8.4814,167.6481],[6.9598,8.5026,242.9763],[6.9416,8.5084,232.3706],[6.9271,8.525,178.8491],[6.9091,8.5357,149.3517],[6.8926,8.5436,115.7288],[6.8772,8.5452,142.3064],[6.8548,8.5435,85.5442],[6.8088,8.554,211.3253],[6.7916,8.5602,264.7574],[6.7923,8.5853,187.6258],[6.7873,8.5935,144.9871],[6.7813,8.6189,170.5907],[6.7905,8.6471,136.2131],[6.7824,8.6632,135.0981],[6.7903,8.6769,125.332],[6.7941,8.6978,86.1001],[6.7935,8.7206,80.9931],[6.7883,8.7423,91.6185],[6.7892,8.767,81.9665],[6.7964,8.7823,78.7493],[6.8214,8.8033,85.0509],[6.8408,8.8359,98.4479],[6.8474,8.8558,122.187],[6.8514,8.8744,139.0305],[6.8505,8.909,205.6895],[6.8555,8.9168,168.7592],[6.8559,8.9244,158.9356],[6.8513,8.929,172.6454],[6.8513,8.9426,171.2102],[6.8473,8.9648,163.7597],[6.8503,8.9986,170.4663],[6.8549,8.9987,157.0494],[6.8382,9.0344,170.0316],[6.8442,9.0538,172.9912],[6.8559,9.0707,177.2691],[6.8546,9.0801,188.6776],[6.8508,9.0872,194.9441],[6.83,9.1005,245.2513],[6.8231,9.1095,371.7677],[6.8282,9.1158,317.8071],[6.8276,9.1245,287.4452],[6.8294,9.1306,309.7472],[6.8343,9.1352,375.308],[6.8418,9.1388,327.1605],[6.8598,9.1447,290.7092],[6.8678,9.1561,209.3421],[6.8681,9.1641,215.6701],[6.8709,9.1683,203.5236],[6.877,9.1703,190.3156],[6.8943,9.1718,222.217],[6.9083,9.1774,233.6194],[6.9149,9.1835,223.0732],[6.919,9.1952,221.4445],[6.9189,9.2058,218.1422],[6.9212,9.2093,230.0925],[6.933,9.2123,238.2115],[6.9425,9.22,249.6149],[6.9632,9.2324,237.8286]]]]}
,"properties": {"GID_2": "NGA.15.1_1","GID_0": "NGA","country": "Nigeria","GID_1": "NGA.15_1","province": "FederalCapitalTerritory","NL_NAME_1": "NA","county": "Abaji","VARNAME_2": "NA","NL_NAME_2": "NA","TYPE_2": "LocalAuthority","ENGTYPE_2": "LocalAuthority","CC_2": "NA","HASC_2": "NA","name": "Abaji.county","area_km2": 998.6347,"hist_schema_id": "Elevation0-9000","hist_area_km2": {"50": 8.3467,"75": 51.9161,"100": 89.0778,"125": 134.907,"150": 141.1116,"175": 173.2954,"200": 142.4191,"225": 80.9669,"250": 54.9916,"275": 34.5411,"300": 11.3682,"325": 7.0963,"350": 7.7453,"375": 10.6761,"400": 19.866,"425": 14.7578,"450": 4.3328,"475": 2.6583,"500": 2.9304,"525": 2.9303,"550": 1.4442,"575": 0.8372,"600": 0.4186}}}