{"type": "Feature","bbox": [12.4179,9.0815,12.7221,9.24],"geometry": {"type": "MultiPolygon","coordinates": [[[[12.4179,9.2386,185.1063],[12.4289,9.2167,170.405],[12.5034,9.1139,209.1254],[12.5171,9.0984,236.4728],[12.5351,9.0896,333.2445],[12.5761,9.0831,238.4368],[12.6147,9.0815,226.4],[12.6479,9.084,196.5961],[12.6863,9.0905,179.6267],[12.6934,9.1093,178.4785],[12.7056,9.1234,179.3969],[12.7199,9.1722,177.6011],[12.7221,9.1879,184.071],[12.7131,9.2271,213.682],[12.7115,9.2239,206.7657],[12.6839,9.2163,184.1549],[12.6782,9.2134,173.6853],[12.645,9.2144,164.4764],[12.6072,9.2202,160.2344],[12.602,9.2234,158.4599],[12.5966,9.231,158.6745],[12.5904,9.2253,159.8801],[12.5851,9.2229,193.393],[12.5855,9.2173,188.8862],[12.5562,9.2118,161.7101],[12.546,9.2053,158.9056],[12.5138,9.2007,169.9826],[12.4987,9.2049,181.4924],[12.494,9.2043,177.6058],[12.4729,9.2118,167.0164],[12.4493,9.2284,161.7205],[12.4441,9.2359,173.18],[12.4358,9.24,183.1937],[12.4327,9.2377,180.597],[12.4179,9.2386,185.1063]]]]}
,"properties": {"GID_2": "NGA.2.21_1","GID_0": "NGA","country": "Nigeria","GID_1": "NGA.2_1","province": "Adamawa","NL_NAME_1": "NA","county": "YolaSouth","VARNAME_2": "NA","NL_NAME_2": "NA","TYPE_2": "LocalAuthority","ENGTYPE_2": "LocalAuthority","CC_2": "NA","HASC_2": "NA","name": "Yola_South.county","area_km2": 370.1193,"hist_schema_id": "Elevation0-9000","hist_area_km2": {"150": 23.5033,"175": 176.6148,"200": 95.0764,"225": 60.9609,"250": 11.2631,"275": 1.3608,"300": 0.8374,"325": 0.2931,"350": 0.1884,"375": 0.0209}}}