{"type":"Feature","properties":{"GID_2":"NGA.7.20_1","GID_0":"NGA","country":"Nigeria","GID_1":"NGA.7_1","province":"Benue","NL_NAME_1":"NA","county":"Tarka","VARNAME_2":"NA","NL_NAME_2":"NA","TYPE_2":"LocalAuthority","ENGTYPE_2":"LocalAuthority","CC_2":"NA","HASC_2":"NA","name":"Tarka.county"},
"geometry":{"type": "MultiPolygon","coordinates": [[[[8.9523,7.6782,87.6589],[8.9396,7.6817,113.7438],[8.9131,7.6807,127.3089],[8.8952,7.6778,146.9848],[8.8768,7.6786,145.9723],[8.8647,7.6857,152.1802],[8.8491,7.692,142.9608],[8.8413,7.6942,140.8844],[8.8245,7.6956,116.479],[8.8037,7.6911,125.5321],[8.7927,7.6849,132.8465],[8.7744,7.6665,129.9536],[8.7682,7.6544,123.0196],[8.7592,7.6257,117.2628],[8.7604,7.6107,101.2504],[8.7661,7.5789,145.857],[8.7673,7.5742,143.6331],[8.7743,7.5741,146.2951],[8.79,7.5596,119.798],[8.7945,7.539,112.7993],[8.7894,7.5206,120.2103],[8.8056,7.4982,131.8542],[8.8171,7.4688,136.5266],[8.8245,7.456,158.8723],[8.8538,7.4518,161.2672],[8.8681,7.4527,171.3464],[8.8762,7.4579,175.4122],[8.8901,7.4606,184.8537],[8.9084,7.4565,192.6154],[8.912,7.4895,202.0539],[8.9087,7.4963,203.5193],[8.9067,7.5136,203.8288],[8.909,7.5301,162.0788],[8.9129,7.5397,149.4786],[8.9198,7.5675,146.5347],[8.9169,7.5747,121.9553],[8.9188,7.6085,147.3723],[8.9239,7.6257,127.7067],[8.9523,7.6782,87.6589]]]]}}