{"type":"Feature","properties":{"GID_2":"NGA.23.8_1","GID_0":"NGA","country":"Nigeria","GID_1":"NGA.23_1","province":"Kogi","NL_NAME_1":"NA","county":"Igalamela-Odolu","VARNAME_2":"NA","NL_NAME_2":"NA","TYPE_2":"LocalAuthority","ENGTYPE_2":"LocalAuthority","CC_2":"NA","HASC_2":"NA","name":"Igalamela-Odolu.county"},
"geometry":{"type": "MultiPolygon","coordinates": [[[[6.6962,7.1009,45.2075],[6.7225,7.0985,30.7884],[6.7335,7.0937,31.9857],[6.7474,7.0835,31.5285],[6.7486,7.0692,31.3528],[6.7429,7.062,32.1327],[6.734,7.0547,32.0627],[6.7363,7.0496,31.1351],[6.7329,7.0303,31.1843],[6.7331,7.0227,31.0881],[6.7414,7.0162,32.2076],[6.7824,7.0067,31.8942],[6.8081,6.998,31.8344],[6.8355,6.9924,33.7303],[6.8451,6.9872,37.7357],[6.851,6.982,28.5833],[6.86,6.9839,30.6125],[6.8714,6.9904,31.8483],[6.8775,6.9963,30.7663],[6.8878,6.9934,28.0018],[6.9021,6.9924,32.2244],[6.9062,6.9903,34.5799],[6.9038,6.983,30.2443],[6.8971,6.9803,28.5858],[6.8938,6.9744,29.0439],[6.8996,6.9623,27.9343],[6.913,6.9515,28.873],[6.9362,6.9444,32.1524],[6.9549,6.9192,28.3274],[6.9589,6.9081,27.6035],[6.9624,6.8942,28.0325],[6.9682,6.8551,31.4794],[6.9691,6.8395,26.9001],[6.9676,6.8162,37.5869],[6.9796,6.8154,42.8102],[6.9804,6.8107,41.1944],[6.99,6.8024,35.5471],[7.001,6.7829,42.9665],[7.0122,6.7774,45.2779],[7.021,6.7784,54.1513],[7.0322,6.7828,47.1797],[7.049,6.7991,54.4543],[7.0719,6.8248,87.0666],[7.0816,6.8396,102.1064],[7.1087,6.8634,107.4531],[7.1125,6.8698,115.3524],[7.1602,6.9036,125.6685],[7.1839,6.9143,162.8442],[7.2091,6.932,175.8504],[7.216,6.9437,164.588],[7.2265,6.9518,199.6051],[7.2599,6.9909,173.7316],[7.2705,7.0009,233.3996],[7.2752,7.0071,251.2098],[7.2788,7.0153,232.7939],[7.2981,7.0408,210.3771],[7.3089,7.0519,208.1686],[7.3484,7.0665,307.9964],[7.3566,7.0748,293.5482],[7.3446,7.0826,201.5909],[7.3074,7.0895,146.0573],[7.2922,7.0939,134.5508],[7.284,7.1012,157.4874],[7.2805,7.1112,209.03],[7.2791,7.1238,125.55],[7.2983,7.1562,225.1746],[7.3025,7.1709,228.8466],[7.287,7.1668,116.4019],[7.2628,7.1723,184.6417],[7.248,7.1804,219.1802],[7.2295,7.1938,197.3806],[7.2169,7.2115,183.3815],[7.2027,7.2175,222.7982],[7.1877,7.2203,151.115],[7.1425,7.2236,223.3356],[7.13,7.2206,203.4007],[7.0899,7.2227,217.4422],[7.048,7.2427,252.7396],[7.045,7.2416,252.4146],[7.0415,7.2357,236.2221],[7.0421,7.2048,203.2376],[7.0406,7.1954,202.0055],[7.0347,7.1867,176.8725],[7.0159,7.1827,144.5731],[7.002,7.1779,138.3651],[6.9789,7.1734,125.3022],[6.9546,7.1701,145.1322],[6.9279,7.1717,154.194],[6.8867,7.1962,168.6948],[6.8514,7.2101,247.2105],[6.8346,7.2123,245.1841],[6.8131,7.2232,215.5828],[6.7888,7.2326,103.2291],[6.7674,7.2493,62.139],[6.7593,7.2621,102.4558],[6.7492,7.2651,112.4162],[6.7465,7.2679,117.9407],[6.7411,7.2645,97.5804],[6.7362,7.231,33.5741],[6.7191,7.1891,30.4754],[6.7168,7.185,31.9531],[6.6997,7.1682,50.3098],[6.6974,7.1621,57.7515],[6.697,7.1477,55.2055],[6.701,7.12,39.8661],[6.6962,7.1009,45.2075]]]]}}