{"type":"Feature","properties":{"GID_2":"NGA.23.2_1","GID_0":"NGA","country":"Nigeria","GID_1":"NGA.23_1","province":"Kogi","NL_NAME_1":"NA","county":"Ajaokuta","VARNAME_2":"NA","NL_NAME_2":"NA","TYPE_2":"LocalAuthority","ENGTYPE_2":"LocalAuthority","CC_2":"NA","HASC_2":"NA","name":"Ajaokuta.county"},
"geometry":{"type": "MultiPolygon","coordinates": [[[[6.6703,7.2188,34.3615],[6.6714,7.2341,35.1303],[6.6778,7.2589,37.7718],[6.696,7.2964,28.0],[6.7075,7.3243,35.625],[6.7117,7.3556,31.3864],[6.7078,7.3845,28.5],[6.7081,7.4319,28.5],[6.7048,7.4739,29.0],[6.6976,7.5256,41.0052],[6.6971,7.5501,34.0427],[6.6986,7.5763,30.0],[6.7223,7.5983,55.6268],[6.7416,7.6353,211.0461],[6.7524,7.6508,102.317],[6.7596,7.6797,35.0945],[6.7591,7.686,34.5],[6.7471,7.6937,34.5],[6.7301,7.7099,95.4222],[6.7079,7.7345,94.3977],[6.7003,7.7491,164.4093],[6.6938,7.7578,262.7071],[6.6823,7.7522,157.7762],[6.6697,7.7429,182.1399],[6.6242,7.7239,191.3818],[6.6113,7.7126,161.8621],[6.5613,7.6826,103.1281],[6.5528,7.6714,119.4318],[6.5031,7.6391,145.0812],[6.479,7.6185,143.7233],[6.4451,7.6009,156.2379],[6.4284,7.5841,179.1278],[6.4225,7.5732,168.8322],[6.4194,7.5569,213.2899],[6.4081,7.5402,249.5809],[6.3968,7.5123,252.0005],[6.3928,7.4948,223.5652],[6.4193,7.4804,241.1993],[6.4375,7.46,186.2556],[6.4428,7.4495,168.3848],[6.4569,7.4346,176.8342],[6.4649,7.4284,188.1842],[6.4696,7.4212,172.6754],[6.4806,7.3874,160.3811],[6.4854,7.3596,136.4386],[6.4812,7.3408,144.4374],[6.4811,7.3335,159.9038],[6.4767,7.3235,165.8931],[6.4804,7.315,187.2076],[6.4851,7.2953,173.1782],[6.497,7.2863,323.748],[6.4979,7.2815,156.2321],[6.4932,7.2781,156.0237],[6.5038,7.2518,255.3604],[6.5112,7.2508,289.8362],[6.5307,7.2551,77.5939],[6.5643,7.2653,266.5402],[6.5714,7.2592,234.1144],[6.5801,7.2676,226.4362],[6.5889,7.2695,126.3681],[6.595,7.2752,231.8576],[6.6181,7.2785,157.8891],[6.6251,7.2818,153.389],[6.6533,7.259,97.6779],[6.6559,7.2481,63.1318],[6.6564,7.2358,61.8637],[6.6623,7.2249,35.6729],[6.6703,7.2188,34.3615]]]]}}