{"type":"Feature","properties":{"GID_2":"NGA.17.12_1","GID_0":"NGA","country":"Nigeria","GID_1":"NGA.17_1","province":"Imo","NL_NAME_1":"NA","county":"Ngor-Okpala","VARNAME_2":"NA","NL_NAME_2":"NA","TYPE_2":"LocalAuthority","ENGTYPE_2":"LocalAuthority","CC_2":"NA","HASC_2":"NA","name":"Ngor-Okpala.county"},
"geometry":{"type": "MultiPolygon","coordinates": [[[[7.2873,5.3114,43.0556],[7.2762,5.3209,55.4362],[7.2674,5.3319,84.376],[7.2517,5.3464,103.3293],[7.2457,5.3615,102.5539],[7.2217,5.3732,101.4849],[7.219,5.39,111.5446],[7.2261,5.4035,115.6699],[7.2372,5.4174,115.543],[7.2384,5.4211,114.8573],[7.2364,5.4275,120.7167],[7.2317,5.4343,115.3827],[7.2253,5.4374,115.6028],[7.2174,5.4371,116.5125],[7.2112,5.4349,113.6991],[7.1927,5.4361,113.479],[7.1802,5.4421,110.1925],[7.1763,5.4502,118.0807],[7.1754,5.4362,102.5879],[7.1684,5.4142,94.2408],[7.1615,5.4035,95.7461],[7.1526,5.3946,96.2978],[7.1342,5.3943,86.974],[7.1119,5.3988,76.3256],[7.1063,5.3986,78.5884],[7.0998,5.3958,77.1654],[7.09,5.3849,76.1354],[7.0887,5.378,68.5676],[7.0806,5.3634,67.75],[7.0743,5.3575,62.5267],[7.0653,5.3436,63.9642],[7.0501,5.3344,58.4411],[7.0353,5.3285,50.5276],[7.0366,5.3249,53.9597],[7.0416,5.3223,57.4297],[7.0402,5.3011,54.7338],[7.0347,5.2922,55.6621],[7.0266,5.2887,50.5807],[7.0034,5.2666,41.7331],[7.0089,5.2702,39.2628],[7.0063,5.2646,40.0093],[7.0069,5.2572,38.9686],[7.003,5.2462,41.96],[7.0127,5.2184,43.6283],[7.0047,5.187,47.2057],[7.0357,5.1798,34.4051],[7.0605,5.185,40.4833],[7.0795,5.1925,47.1696],[7.0943,5.1934,45.1851],[7.1027,5.1972,46.6079],[7.1371,5.1977,51.9413],[7.1546,5.194,55.509],[7.1692,5.1882,54.8034],[7.1785,5.1876,57.9346],[7.1899,5.1825,58.1063],[7.21,5.1794,56.5297],[7.2248,5.1835,42.4031],[7.2465,5.1952,38.9337],[7.2515,5.1947,32.5859],[7.2623,5.2173,38.3451],[7.2721,5.2496,42.3268],[7.2764,5.2733,40.9921],[7.2873,5.3114,43.0556]]]]}}