{"type":"Feature","properties":{"GID_2":"NGA.8.26_1","GID_0":"NGA","country":"Nigeria","GID_1":"NGA.8_1","province":"Borno","NL_NAME_1":"NA","county":"Ngala","VARNAME_2":"NA","NL_NAME_2":"NA","TYPE_2":"LocalAuthority","ENGTYPE_2":"LocalAuthority","CC_2":"NA","HASC_2":"NA","name":"Ngala.county"},
"geometry":{"type": "MultiPolygon","coordinates": [[[[14.1716,12.4095,287.1245],[14.1582,12.3761,287.0261],[14.1406,12.319,286.9769],[14.1296,12.298,287.2125],[14.1176,12.2797,287.5133],[14.0909,12.2274,287.5483],[14.0724,12.1892,288.2964],[14.0655,12.1714,288.606],[14.0944,12.1513,288.7903],[14.1263,12.1081,289.3112],[14.1523,12.0842,289.4552],[14.1691,12.0254,290.1952],[14.1812,12.0077,290.2617],[14.197,11.9934,292.6646],[14.2212,11.9858,290.7691],[14.2529,11.9916,290.6944],[14.2966,12.0319,291.0322],[14.3133,12.0314,290.3844],[14.3511,12.0456,291.573],[14.3812,12.043,290.6248],[14.3979,12.0439,290.7514],[14.4086,12.0498,290.8983],[14.4083,12.0523,291.1988],[14.4175,12.0641,291.5898],[14.4396,12.1274,292.0789],[14.4443,12.1891,289.5073],[14.4495,12.2127,289.4565],[14.4528,12.244,288.7038],[14.4526,12.2708,289.3104],[14.4437,12.2997,288.8697],[14.4316,12.3607,288.3284],[14.4352,12.3611,289.1401],[14.444,12.3578,286.9001],[14.4436,12.3622,286.7665],[14.4401,12.3658,287.8929],[14.432,12.3693,286.5297],[14.4286,12.3682,287.525],[14.4229,12.3614,287.2308],[14.4169,12.3613,287.6725],[14.4065,12.366,286.4996],[14.3999,12.3662,288.2087],[14.3897,12.364,286.62],[14.3837,12.358,287.7196],[14.3788,12.357,287.4826],[14.376,12.3578,287.7554],[14.3714,12.3627,286.4622],[14.3639,12.3647,286.7398],[14.351,12.363,287.0142],[14.3289,12.3747,287.1449],[14.3228,12.3724,285.8045],[14.319,12.3662,286.6548],[14.3114,12.3591,286.8067],[14.309,12.3586,287.2505],[14.2998,12.3604,287.4238],[14.2984,12.3626,287.8722],[14.3001,12.3654,287.4062],[14.2993,12.3687,287.8961],[14.2914,12.3725,286.8936],[14.2886,12.3709,287.4175],[14.2891,12.3683,287.7501],[14.2951,12.3649,286.5976],[14.2961,12.3613,286.963],[14.293,12.3556,286.1914],[14.2876,12.3568,288.5795],[14.2858,12.3591,287.3351],[14.2822,12.3704,285.9394],[14.2732,12.3735,286.5594],[14.2658,12.372,286.9986],[14.2613,12.3681,287.7025],[14.2466,12.3679,286.7575],[14.2365,12.3635,286.6864],[14.2205,12.3624,285.1163],[14.2164,12.3657,286.8374],[14.2157,12.3688,290.3647],[14.2162,12.3715,290.5974],[14.2199,12.3731,290.8829],[14.2182,12.376,285.0822],[14.1977,12.386,285.2428],[14.1856,12.406,285.4969],[14.1733,12.4078,288.863],[14.1716,12.4095,287.1245]]],
[[[14.1766,12.4177,286.6344],[14.1762,12.419,286.5031],[14.1745,12.4156,286.7633],[14.1756,12.4161,286.369],[14.1766,12.4177,286.6344]]]]}}