{"type":"Feature","properties":{"GID_2":"NGA.36.8_1","GID_0":"NGA","country":"Nigeria","GID_1":"NGA.36_1","province":"Yobe","NL_NAME_1":"NA","county":"Gulani","VARNAME_2":"NA","NL_NAME_2":"NA","TYPE_2":"LocalAuthority","ENGTYPE_2":"LocalAuthority","CC_2":"NA","HASC_2":"NA","name":"Gulani.county"},
"geometry":{"type": "MultiPolygon","coordinates": [[[[11.793,10.66,280.1093],[11.8052,10.6776,279.5064],[11.8008,10.8115,375.1639],[11.8107,10.8558,372.3987],[11.8384,10.901,394.6082],[11.8813,10.9316,551.5801],[11.9653,10.9519,604.6263],[12.0016,10.9654,584.3775],[12.0625,10.9799,559.7413],[12.1045,11.0008,539.2531],[12.088,11.0182,537.4254],[12.0826,11.0344,530.8731],[12.0573,11.0663,517.1976],[12.0338,11.0878,503.3126],[12.0088,11.1169,486.1586],[11.9709,11.1381,500.0702],[11.9597,11.1388,497.5967],[11.9514,11.1315,490.9369],[11.947,11.1235,441.886],[11.9426,11.107,462.0679],[11.9343,11.1037,467.0359],[11.9074,11.119,417.0105],[11.9016,11.1283,399.2826],[11.8766,11.1579,384.8524],[11.8358,11.1907,370.7272],[11.8096,11.1931,359.2936],[11.7828,11.2004,354.2554],[11.7535,11.2042,349.1517],[11.6798,11.2074,318.7299],[11.6175,11.2179,297.3384],[11.5952,11.2201,291.2812],[11.595,11.2053,296.3134],[11.5669,11.1462,303.2241],[11.5379,11.0764,357.8809],[11.528,11.0662,353.8927],[11.5212,11.0543,299.2477],[11.5165,11.0383,290.5287],[11.4979,11.01,261.1151],[11.5234,11.0261,287.6566],[11.5555,10.9947,262.8398],[11.5828,10.9722,276.7317],[11.5888,10.9438,294.4725],[11.5937,10.8945,257.5024],[11.5913,10.8421,281.9542],[11.5761,10.7418,261.2148],[11.5743,10.7052,273.5991],[11.5815,10.663,274.5652],[11.5868,10.6022,251.3158],[11.5916,10.5941,239.0],[11.6868,10.5907,276.9235],[11.7503,10.6052,291.9956],[11.7774,10.6375,285.6917],[11.793,10.66,280.1093]]]]}}