{"type":"Feature","properties":{"GID_2":"NGA.12.11_1","GID_0":"NGA","country":"Nigeria","GID_1":"NGA.12_1","province":"Edo","NL_NAME_1":"NA","county":"Ikpoba-Okha","VARNAME_2":"NA","NL_NAME_2":"NA","TYPE_2":"LocalAuthority","ENGTYPE_2":"LocalAuthority","CC_2":"NA","HASC_2":"NA","name":"Ikpoba-Okha.county"},
"geometry":{"type": "MultiPolygon","coordinates": [[[[5.7229,6.0082,26.674],[5.7255,6.0158,29.9882],[5.7233,6.0235,37.7323],[5.7211,6.0267,30.3954],[5.7112,6.0573,15.7754],[5.6998,6.0824,18.0828],[5.7015,6.0978,36.5478],[5.7105,6.0997,23.7194],[5.7211,6.1115,28.8364],[5.7194,6.1238,25.4365],[5.7274,6.1768,25.7958],[5.7387,6.2006,27.578],[5.7457,6.207,18.1679],[5.768,6.2165,17.8244],[5.78,6.2179,61.6923],[5.7874,6.2168,64.2842],[5.7964,6.2197,67.9666],[5.7978,6.2222,67.4268],[5.7972,6.2425,24.0346],[5.7946,6.2495,18.8405],[5.7911,6.2509,25.1367],[5.7923,6.2543,26.0979],[5.7854,6.2643,47.6301],[5.7772,6.2716,28.705],[5.7645,6.2882,51.4256],[5.7459,6.307,68.0119],[5.7244,6.3158,72.9174],[5.7006,6.3174,27.9655],[5.6938,6.324,31.4415],[5.6812,6.3562,99.8519],[5.6793,6.3691,105.6819],[5.6722,6.3826,107.6732],[5.6711,6.3902,110.5168],[5.6655,6.3968,116.6491],[5.6321,6.4015,85.5763],[5.6255,6.4062,96.5538],[5.6181,6.3539,91.5142],[5.6209,6.3538,89.9499],[5.625,6.3507,91.4686],[5.625,6.3461,89.9736],[5.6138,6.3272,81.6097],[5.5996,6.3159,74.3493],[5.5986,6.3134,75.6775],[5.6018,6.296,59.4749],[5.6009,6.2831,54.4878],[5.6045,6.2665,54.0998],[5.6058,6.2466,32.6135],[5.6024,6.2225,31.3995],[5.5949,6.2113,37.6926],[5.587,6.2069,33.9749],[5.5602,6.2041,34.5362],[5.5525,6.2019,35.8986],[5.5457,6.1967,28.7497],[5.5258,6.1623,18.4228],[5.522,6.1531,13.1808],[5.5185,6.1373,21.2441],[5.503,6.1094,22.4088],[5.4885,6.0922,13.992],[5.4803,6.0859,16.8399],[5.4583,6.083,14.8667],[5.4288,6.0899,17.8601],[5.4222,6.0721,15.3143],[5.4145,6.0441,12.99],[5.4084,6.0334,12.8497],[5.4024,6.0166,10.9813],[5.4456,6.0248,14.0583],[5.4679,6.02,2.5618],[5.5046,5.988,3.1592],[5.5331,5.9815,17.211],[5.5435,5.9959,14.9893],[5.5459,6.0035,14.0795],[5.563,6.02,8.1005],[5.586,6.0265,16.1855],[5.5976,6.0326,14.7951],[5.6167,6.038,21.122],[5.6292,6.0445,18.0872],[5.6457,6.05,19.0143],[5.6537,6.0471,17.9053],[5.6633,6.04,16.0193],[5.6721,6.0283,28.1657],[5.6988,6.0191,30.1916],[5.7229,6.0082,26.674]]]]}}