{"type": "Feature","bbox": [4.5242,10.9456,5.0426,11.5179],"geometry": {"type": "MultiPolygon","coordinates": [[[[4.6108,11.5176,230.2354],[4.6037,11.5069,221.4517],[4.5995,11.4914,213.4348],[4.6028,11.4741,216.606],[4.6049,11.4432,218.2567],[4.61,11.4319,227.5919],[4.6127,11.4109,209.2546],[4.5988,11.3872,195.8544],[4.578,11.3683,185.5193],[4.575,11.3675,179.8179],[4.5457,11.339,196.3363],[4.533,11.3105,175.7357],[4.5306,11.3008,177.106],[4.5242,11.2926,175.4646],[4.5269,11.2818,176.3137],[4.5252,11.2709,175.4337],[4.527,11.2605,168.5171],[4.5349,11.2484,168.2373],[4.5341,11.2394,169.6192],[4.5417,11.2171,156.3796],[4.5527,11.2001,147.4767],[4.5509,11.1902,145.9873],[4.5543,11.1835,148.6801],[4.5567,11.1623,145.8533],[4.5515,11.1472,144.0802],[4.5681,11.1285,143.1793],[4.61,11.1193,144.3256],[4.6242,11.1118,143.4386],[4.6385,11.0896,142.6597],[4.6559,11.0771,145.0384],[4.6669,11.0634,143.0135],[4.6737,11.0408,141.7487],[4.7036,11.0264,141.9028],[4.7195,11.0074,142.813],[4.735,10.9977,144.4768],[4.7468,10.992,147.9806],[4.7672,10.9863,158.1793],[4.7847,10.9919,161.4518],[4.8055,10.9781,180.9873],[4.8148,10.9637,218.6],[4.8405,10.9654,222.4277],[4.9026,10.9516,198.3581],[4.9107,10.9456,201.4107],[4.9524,10.976,230.5271],[4.9628,10.9806,220.1916],[5.0113,11.0195,225.3418],[5.03,11.0294,244.6149],[5.0426,11.0414,232.1068],[5.0333,11.0434,254.5303],[5.02,11.0399,242.6575],[5.003,11.072,250.5491],[4.9851,11.0752,250.5297],[4.9564,11.0742,220.8516],[4.9164,11.0804,235.0322],[4.8291,11.1153,238.8525],[4.7934,11.1325,232.3868],[4.7706,11.1475,189.9923],[4.7565,11.1676,206.5339],[4.7538,11.192,227.6627],[4.7611,11.2097,212.9103],[4.776,11.2251,219.7758],[4.7997,11.2365,252.3277],[4.802,11.2416,241.2675],[4.8151,11.2549,265.2326],[4.8183,11.2745,242.2942],[4.815,11.2932,251.2882],[4.8143,11.317,227.6163],[4.8225,11.3258,219.0452],[4.8257,11.3349,198.685],[4.8263,11.3416,210.6919],[4.8233,11.3561,220.8705],[4.8162,11.3639,233.3658],[4.8109,11.3726,289.3169],[4.8034,11.3776,238.5533],[4.8038,11.3836,245.1876],[4.8011,11.3923,232.0508],[4.7878,11.4069,241.4457],[4.7798,11.4101,233.8337],[4.7445,11.4311,249.6602],[4.6781,11.4936,234.2752],[4.6678,11.4977,239.78809999999999],[4.6592,11.507,241.5455],[4.6569,11.5042,245.0331],[4.6486,11.5129,256.619],[4.6366,11.5179,242.9852],[4.6108,11.5176,230.2354]]]]}
,"properties": {"GID_2": "NGA.22.18_1","GID_0": "NGA","country": "Nigeria","GID_1": "NGA.22_1","province": "Kebbi","NL_NAME_1": "NA","county": "Shanga","VARNAME_2": "NA","NL_NAME_2": "NA","TYPE_2": "LocalAuthority","ENGTYPE_2": "LocalAuthority","CC_2": "NA","HASC_2": "NA","name": "Shanga.county","area_km2": 1502.221,"hist_schema_id": "Elevation0-9000","hist_area_km2": {"150": 207.581,"175": 287.754,"200": 364.782,"225": 438.755,"250": 182.595,"275": 17.969,"300": 2.661,"325": 0.125}}}