{"type": "Feature","bbox": [7.7723,10.6508,8.2657,11.2005],"geometry": {"type": "MultiPolygon","coordinates": [[[[7.9648,10.6511,664.0417],[7.9769,10.6508,676.7543],[7.9928,10.653,656.8566],[8.0064,10.6571,667.9651],[8.0125,10.661,677.2798],[8.0124,10.6638,672.3134],[8.0179,10.6692,682.6109],[8.0197,10.6828,677.4561],[8.0371,10.7262,648.5652],[8.0444,10.733,665.1677],[8.0788,10.7744,644.6624],[8.1908,10.8452,685.8829],[8.2127,10.8678,694.3747],[8.2574,10.9087,652.046],[8.2657,10.9296,664.9231],[8.2588,10.9538,660.342],[8.2467,10.9629,663.6245],[8.203,10.9805,642.3959],[8.1951,10.9869,643.762],[8.1767,11.0154,639.7972],[8.1628,11.0412,655.3992],[8.1599,11.0689,651.145],[8.1595,11.0904,643.2951],[8.1756,11.1053,647.053],[8.1449,11.1275,633.2786],[8.1298,11.1332,639.3553],[8.0974,11.15,653.8367],[8.0846,11.1629,643.3021],[8.0351,11.1883,637.5592],[8.0184,11.2005,634.0701],[7.9405,11.1954,634.3016],[7.9159,11.2001,636.6141],[7.9049,11.1983,633.9432],[7.8922,11.192,620.5399],[7.891,11.1926,620.4678],[7.8723,11.1809,619.3368],[7.8619,11.1763,623.1031],[7.8474,11.1662,618.6595],[7.8382,11.1622,624.6643],[7.8023,11.1308,628.5126],[7.7831,11.1197,635.4988],[7.783,11.1165,634.5301],[7.7723,11.1083,642.9298],[7.7808,11.1073,645.5263],[7.7868,11.0981,651.6011],[7.7913,11.098,650.6147],[7.8021,11.0721,655.9011],[7.8018,11.0504,652.709],[7.8047,11.0168,654.8749],[7.7943,10.9906,624.8612],[7.7941,10.9777,637.8788],[7.8008,10.9542,631.3341],[7.8054,10.9572,638.0568],[7.8235,10.9224,630.6189],[7.8174,10.8918,634.7443],[7.8094,10.8667,624.0829],[7.7984,10.8486,615.2531],[7.785,10.8411,606.8372],[7.7786,10.8341,624.3677],[7.7738,10.8234,620.8279],[7.7738,10.8074,614.5474],[7.7963,10.777,599.1573],[7.8281,10.7445,622.365],[7.8466,10.6995,642.9445],[7.8534,10.6771,642.9966],[7.8769,10.6634,645.575],[7.9648,10.6511,664.0417]]]]}
,"properties": {"GID_2": "NGA.19.21_1","GID_0": "NGA","country": "Nigeria","GID_1": "NGA.19_1","province": "Kaduna","NL_NAME_1": "NA","county": "Soba","VARNAME_2": "NA","NL_NAME_2": "NA","TYPE_2": "LocalAuthority","ENGTYPE_2": "LocalAuthority","CC_2": "NA","HASC_2": "NA","name": "Soba.county","area_km2": 2159.247,"hist_schema_id": "Elevation0-9000","hist_area_km2": {"600": 41.191,"625": 306.405,"650": 826.792,"675": 737.663,"700": 245.406,"725": 1.79}}}