{"type": "Feature","bbox": [8.6134,12.3888,9.0181,12.84],"geometry": {"type": "MultiPolygon","coordinates": [[[[8.977,12.8345,380.6964],[8.9767,12.8208,382.4193],[8.9445,12.8069,381.8958],[8.9352,12.795,384.464],[8.9318,12.7818,382.3079],[8.922,12.7658,383.2994],[8.9207,12.7561,385.7987],[8.9184,12.7533,384.2888],[8.8957,12.7366,386.7558],[8.8923,12.732,386.5065],[8.8728,12.7186,388.0663],[8.8669,12.7125,388.6005],[8.835,12.698,390.7469],[8.7994,12.6849,394.816],[8.7719,12.6788,394.8704],[8.74,12.676,397.2397],[8.7305,12.6779,398.9939],[8.7269,12.6721,400.5561],[8.7224,12.6702,398.2188],[8.7042,12.6525,402.6841],[8.6828,12.6356,402.5486],[8.6818,12.628,402.0611],[8.6861,12.626,402.4136],[8.6872,12.6221,402.6149],[8.6927,12.6182,401.2566],[8.6951,12.61,400.7582],[8.6932,12.6053,399.5819],[8.6833,12.6001,397.5602],[8.6675,12.5967,400.6684],[8.6422,12.5876,400.835],[8.6309,12.5798,404.8517],[8.6238,12.5708,406.5884],[8.6134,12.5619,406.8001],[8.6398,12.5526,405.2612],[8.6541,12.5493,403.9062],[8.6666,12.5485,405.1678],[8.6776,12.5452,403.3144],[8.6818,12.5393,402.9488],[8.6826,12.5308,402.5846],[8.6818,12.4955,405.3291],[8.684,12.4743,405.1943],[8.6825,12.4607,406.4666],[8.6848,12.4513,405.0201],[8.6903,12.4393,406.1307],[8.7031,12.4294,407.0257],[8.7179,12.4231,407.9444],[8.7447,12.4059,406.0137],[8.7566,12.403,405.0663],[8.7648,12.3956,404.6304],[8.7689,12.3888,405.8553],[8.7789,12.3931,402.4514],[8.8213,12.3931,396.7728],[8.8507,12.3964,396.9261],[8.8605,12.4159,397.9923],[8.8573,12.4486,397.0225],[8.8605,12.4551,396.0193],[8.8736,12.4649,395.4493],[8.8932,12.4714,391.7128],[8.9193,12.4943,388.5568],[8.9389,12.5433,385.0693],[8.9487,12.5563,385.9886],[8.9682,12.5661,383.5646],[8.976,12.5661,383.675],[8.9781,12.568,383.9351],[8.9801,12.5841,383.4624],[8.984,12.5897,382.6918],[8.9903,12.615,383.1921],[8.9977,12.6246,384.5697],[9.0085,12.645,382.0621],[9.01,12.6547,380.6735],[9.0176,12.6782,380.2867],[9.0181,12.6865,380.2663],[9.0175,12.6996,379.2956],[9.0139,12.7156,380.3575],[9.006,12.7331,381.1622],[9.0,12.7582,380.7943],[8.9915,12.7712,381.8285],[8.9869,12.792,381.7291],[8.9884,12.8128,377.48],[8.9873,12.8302,379.5761],[8.9918,12.84,379.3463],[8.9837,12.8391,380.4452],[8.977,12.8345,380.6964]]]]}
,"properties": {"GID_2": "NGA.18.2_1","GID_0": "NGA","country": "Nigeria","GID_1": "NGA.18_1","province": "Jigawa","NL_NAME_1": "NA","county": "Babura","VARNAME_2": "NA","NL_NAME_2": "NA","TYPE_2": "LocalAuthority","ENGTYPE_2": "LocalAuthority","CC_2": "NA","HASC_2": "NA","name": "Babura.county","area_km2": 1042.7011,"hist_schema_id": "Elevation0-9000","hist_area_km2": {"375": 313.2807,"400": 729.4203}}}