{"type": "Feature","bbox": [4.5931,8.7575,5.8888,9.6022],"geometry": {"type": "MultiPolygon","coordinates": [[[[5.5436,8.9182,60.4852],[5.5882,8.8902,59.5],[5.625,8.8649,61.7799],[5.6697,8.8424,60.3373],[5.7327,8.7973,60.717],[5.7423,8.792,59.2986],[5.7535,8.7835,56.0],[5.7645,8.7695,56.0],[5.7685,8.7595,56.0],[5.7724,8.7575,56.0],[5.7748,8.7782,59.2429],[5.7788,8.7841,59.8254],[5.7781,8.7924,60.0342],[5.7812,8.8002,60.1763],[5.7811,8.8087,60.8366],[5.7893,8.8169,64.3844],[5.7874,8.8256,61.5656],[5.7939,8.832,64.7888],[5.7924,8.8357,62.8031],[5.7947,8.8403,63.0737],[5.8062,8.8497,62.6979],[5.8148,8.865,59.575],[5.8274,8.8763,65.0209],[5.8263,8.8821,63.8282],[5.8415,8.8948,63.7773],[5.8494,8.8981,62.8515],[5.857,8.907,64.314],[5.8611,8.9076,61.2003],[5.8638,8.914,65.2962],[5.8572,8.9337,101.607],[5.8508,8.9386,105.9663],[5.8402,8.9533,83.6883],[5.8288,8.9613,75.2645],[5.7982,9.004,206.6804],[5.7977,9.04,70.747],[5.8023,9.0922,112.751],[5.8075,9.1112,109.8956],[5.8114,9.1341,108.8373],[5.8095,9.1387,97.8726],[5.8107,9.1567,127.0121],[5.8155,9.1674,110.707],[5.8142,9.1796,114.5501],[5.8183,9.1905,99.4653],[5.818,9.1963,94.3601],[5.8151,9.2039,79.0964],[5.8163,9.2203,72.5196],[5.8211,9.2367,73.8261],[5.8195,9.2565,91.5961],[5.8261,9.2702,88.4768],[5.8351,9.3031,118.9515],[5.8424,9.3157,98.7331],[5.8434,9.3256,110.7355],[5.8512,9.3416,89.2926],[5.8666,9.36,76.6844],[5.8698,9.3667,76.4764],[5.8657,9.384,74.4148],[5.8709,9.3998,74.7062],[5.8717,9.4102,93.7205],[5.8744,9.418,79.6164],[5.8736,9.4266,92.501],[5.8763,9.434,108.7247],[5.8794,9.4548,136.1993],[5.8872,9.4687,96.3928],[5.8864,9.4791,113.8376],[5.8888,9.4891,114.2375],[5.8761,9.4827,126.7199],[5.8674,9.475,111.0042],[5.8625,9.441,112.2252],[5.8511,9.4199,129.2376],[5.8362,9.3717,77.9068],[5.8314,9.3647,98.8115],[5.8268,9.3515,113.8316],[5.8283,9.3421,127.8199],[5.8248,9.3242,165.5403],[5.8205,9.3097,134.1173],[5.8014,9.2624,127.7759],[5.792,9.2048,129.7046],[5.798,9.1709,146.7345],[5.7982,9.1522,120.2609],[5.7881,9.114,139.7798],[5.7788,9.0871,142.3662],[5.7704,9.0401,110.9671],[5.7711,9.0264,141.232],[5.7667,9.0174,147.9975],[5.7669,9.0126,139.1857],[5.7716,9.004,133.3976],[5.7849,8.9884,130.6479],[5.805,8.9583,157.6265],[5.8127,8.9524,120.9032],[5.8169,8.9431,93.0277],[5.8132,8.9383,78.0079],[5.8174,8.9286,66.3237],[5.7982,8.9107,64.7205],[5.7775,8.9012,64.9252],[5.7721,8.8946,65.6916],[5.7507,8.8864,59.2017],[5.739,8.8859,59.4382],[5.7273,8.8803,57.793],[5.7211,8.8807,57.7174],[5.7077,8.8908,58.3091],[5.6984,8.9002,59.1943],[5.6865,8.9055,59.2725],[5.6745,8.9077,59.5426],[5.6657,8.9047,60.8927],[5.6503,8.9084,60.4348],[5.6334,8.9031,60.1609],[5.6286,8.9064,62.8456],[5.6241,8.9125,60.5242],[5.6138,8.9182,59.8498],[5.6111,8.9238,62.3058],[5.6042,8.9262,61.966],[5.5981,8.9321,64.0391],[5.5922,8.9412,63.0208],[5.5857,8.9392,61.7123],[5.5629,8.9419,61.6708],[5.5594,8.9396,62.1105],[5.5441,8.9581,62.4261],[5.5193,8.9654,66.6776],[5.5133,8.9651,65.2153],[5.5085,8.9688,65.312],[5.5038,8.977,62.4578],[5.5012,8.9876,63.494],[5.4958,8.9992,62.3538],[5.4968,9.004,62.1571],[5.4877,9.0053,61.0],[5.4662,9.0217,62.4876],[5.4353,9.0417,64.737],[5.4157,9.047,63.7678],[5.3941,9.0476,63.8271],[5.3828,9.0594,63.7725],[5.3798,9.0745,110.2894],[5.3996,9.0861,149.9954],[5.4431,9.0884,113.4185],[5.4718,9.0928,136.7955],[5.4821,9.0964,153.2909],[5.484,9.1093,235.4252],[5.467,9.1362,155.374],[5.4624,9.1472,137.9762],[5.4628,9.1735,214.927],[5.4719,9.2062,118.2745],[5.4749,9.2439,203.4279],[5.4741,9.2559,195.1533],[5.4709,9.2662,193.0537],[5.4607,9.2772,193.3271],[5.4517,9.2806,158.3639],[5.4373,9.2894,187.5127],[5.4165,9.3047,175.9838],[5.405,9.3165,185.494],[5.3799,9.3497,194.6216],[5.3841,9.3738,175.5742],[5.4031,9.4045,200.6917],[5.4008,9.4287,197.5216],[5.3931,9.4399,199.2287],[5.38,9.4527,201.2428],[5.3466,9.4741,179.7346],[5.3112,9.5127,165.9832],[5.2904,9.5277,180.0366],[5.2743,9.5335,183.4093],[5.2653,9.506,162.636],[5.2478,9.4936,162.9029],[5.2239,9.4799,181.5237],[5.1485,9.4496,199.7193],[5.0984,9.4362,189.3761],[5.0685,9.4225,171.793],[5.0207,9.3887,209.8288],[4.9987,9.3784,205.1685],[4.9402,9.3533,247.5662],[4.9246,9.3485,233.4641],[4.8891,9.3493,211.4738],[4.8577,9.3569,155.0142],[4.8292,9.3677,137.0397],[4.8131,9.3832,100.0],[4.8062,9.3994,129.1687],[4.8044,9.4185,127.2456],[4.8066,9.4393,152.0458],[4.8183,9.4856,207.0095],[4.807,9.5359,221.8034],[4.7885,9.5475,244.5191],[4.7364,9.5405,268.1642],[4.7006,9.5667,258.3375],[4.6712,9.6022,228.5171],[4.657,9.6,221.9114],[4.6363,9.5647,232.2136],[4.6222,9.516,200.7452],[4.6211,9.4885,189.929],[4.6166,9.4691,124.0022],[4.5931,9.424,107.2788],[4.5998,9.3994,102.8919],[4.5963,9.3656,100.0],[4.5967,9.3444,122.8597],[4.6024,9.3218,127.1365],[4.613,9.3055,100.0],[4.6459,9.2779,118.3393],[4.6649,9.2667,115.0703],[4.687,9.2614,106.582],[4.7139,9.2605,100.0],[4.7312,9.2517,100.0],[4.7406,9.2379,100.0],[4.7459,9.2179,100.0],[4.7485,9.2056,100.0],[4.7548,9.1424,100.0],[4.7577,9.1304,100.0],[4.7765,9.1158,206.6314],[4.7882,9.1092,259.8844],[4.8003,9.106,281.4193],[4.8207,9.1093,155.5015],[4.9123,9.1423,75.1444],[4.9686,9.1665,71.2276],[4.9914,9.1695,70.4372],[5.0076,9.1691,70.7493],[5.0491,9.1476,71.3898],[5.1101,9.1208,76.1809],[5.133,9.1031,72.0295],[5.1647,9.0629,67.314],[5.1836,9.0497,69.0169],[5.2198,9.0039,105.8724],[5.2242,8.994,113.6084],[5.2322,8.9906,105.4779],[5.2356,8.9871,106.4708],[5.2552,8.9824,72.0361],[5.2579,8.9795,71.4651],[5.2719,8.9758,71.9942],[5.287,8.9814,69.6628],[5.3,8.983,70.1524],[5.3181,8.9914,66.5583],[5.336,8.9946,63.0],[5.3459,8.9935,66.1895],[5.3686,8.9844,65.4929],[5.3777,8.989,62.9711],[5.3969,8.9825,62.0],[5.4089,8.9816,62.0],[5.4268,8.9702,64.542],[5.4408,8.9663,65.7131],[5.4537,8.9668,62.9353],[5.4692,8.9556,63.5776],[5.4795,8.9601,64.354],[5.4973,8.9466,62.6619],[5.5154,8.9376,62.8267],[5.5436,8.9182,60.4852]]]]}
,"properties": {"GID_2": "NGA.27.17_1","GID_0": "NGA","country": "Nigeria","GID_1": "NGA.27_1","province": "Niger","NL_NAME_1": "NA","county": "Mokwa","VARNAME_2": "NA","NL_NAME_2": "NA","TYPE_2": "LocalAuthority","ENGTYPE_2": "LocalAuthority","CC_2": "NA","HASC_2": "NA","name": "Mokwa.county","area_km2": 3984.941,"hist_schema_id": "Elevation0-9000","hist_area_km2": {"50": 189.628,"75": 803.322,"100": 457.755,"125": 563.742,"150": 617.391,"175": 686.904,"200": 348.984,"225": 160.35,"250": 103.376,"275": 46.025,"300": 7.465}}}