{"type":"Feature","properties":{"GID_2":"NGA.24.13_1","GID_0":"NGA","country":"Nigeria","GID_1":"NGA.24_1","province":"Kwara","NL_NAME_1":"NA","county":"Offa","VARNAME_2":"NA","NL_NAME_2":"NA","TYPE_2":"LocalAuthority","ENGTYPE_2":"LocalAuthority","CC_2":"NA","HASC_2":"NA","name":"Offa.county"},
"geometry":{"type": "MultiPolygon","coordinates": [[[[4.7471,8.1347,433.6087],[4.7412,8.1438,419.0404],[4.7371,8.1462,409.6508],[4.7307,8.1597,392.3314],[4.7294,8.17,395.3694],[4.7265,8.1745,402.7351],[4.7254,8.1938,389.5077],[4.723,8.2006,379.061],[4.7159,8.2032,388.7459],[4.699,8.1987,401.0147],[4.6861,8.1853,434.0887],[4.6747,8.1652,451.9046],[4.6637,8.153,422.7568],[4.6514,8.135,425.1945],[4.6326,8.1274,409.0933],[4.6307,8.1252,425.6917],[4.6311,8.1206,414.9191],[4.642,8.1098,401.024],[4.6446,8.1026,378.0593],[4.6582,8.1007,403.4352],[4.6843,8.1008,430.2385],[4.6934,8.0949,406.2639],[4.7278,8.0954,410.1719],[4.7371,8.0996,418.1926],[4.7484,8.102,404.5984],[4.7566,8.1069,414.5772],[4.7594,8.1119,414.6544],[4.7602,8.1165,423.5396],[4.7553,8.1293,425.7627],[4.7496,8.1351,430.5471],[4.7501,8.1331,428.1398],[4.7471,8.1347,433.6087]]]]}}