{"type":"Feature","properties":{"GID_2":"NGA.16.5_1","GID_0":"NGA","country":"Nigeria","GID_1":"NGA.16_1","province":"Gombe","NL_NAME_1":"NA","county":"Funakaye","VARNAME_2":"NA","NL_NAME_2":"NA","TYPE_2":"LocalAuthority","ENGTYPE_2":"LocalAuthority","CC_2":"NA","HASC_2":"NA","name":"Funakaye.county"},
"geometry":{"type": "MultiPolygon","coordinates": [[[[11.1759,10.7057,549.5317],[11.1902,10.6941,579.3796],[11.2231,10.6856,545.5752],[11.2583,10.6685,509.833],[11.2828,10.6525,437.4073],[11.3253,10.6319,424.4196],[11.3487,10.6327,337.9751],[11.3901,10.6411,312.3748],[11.4298,10.6514,280.3009],[11.4522,10.6524,267.4309],[11.4847,10.6444,260.6128],[11.5064,10.645,249.1494],[11.5606,10.6601,259.19],[11.582,10.6564,280.7887],[11.5743,10.7052,273.5991],[11.5761,10.7418,261.2148],[11.5913,10.8421,281.9542],[11.5937,10.8945,257.5024],[11.5888,10.9438,294.4725],[11.5828,10.9722,276.7317],[11.5555,10.9947,262.8398],[11.5234,11.0261,287.6566],[11.488,11.0032,258.9075],[11.4809,10.9958,252.2955],[11.4449,10.9896,289.692],[11.3922,10.9705,346.3212],[11.3604,10.9498,381.2642],[11.3161,10.9164,350.1458],[11.2794,10.8948,436.2021],[11.2376,10.8731,519.7288],[11.1975,10.8546,555.7032],[11.1903,10.847,560.9253],[11.1973,10.8426,543.6414],[11.1983,10.8065,523.9433],[11.1924,10.7688,521.5716],[11.191,10.7459,544.9399],[11.1868,10.7247,549.9176],[11.1802,10.7216,552.7188],[11.1759,10.7057,549.5317]]]]}}