{"type": "Feature","bbox": [6.6806,7.7838,7.0007,8.4118],"geometry": {"type": "MultiPolygon","coordinates": [[[[6.8349,8.4068,70.2723],[6.8342,8.3985,68.3101],[6.8272,8.3779,108.6444],[6.8218,8.3701,69.7929],[6.8169,8.3545,52.2403],[6.7924,8.3393,100.0765],[6.7898,8.3382,131.607],[6.7864,8.3403,97.3266],[6.7839,8.3394,111.6537],[6.7592,8.3265,136.5226],[6.7556,8.3164,73.0242],[6.7582,8.2787,90.2421],[6.7508,8.2772,147.8004],[6.7463,8.2835,156.0612],[6.7348,8.2913,122.564],[6.716,8.2573,167.7043],[6.7117,8.2465,45.1063],[6.7073,8.2148,45.6154],[6.7017,8.2001,45.5265],[6.6963,8.1944,44.759],[6.6874,8.198,41.5],[6.6806,8.1981,49.3279],[6.687,8.168,48.8993],[6.6967,8.1538,41.5],[6.7023,8.1323,45.6611],[6.7175,8.1145,43.1813],[6.7254,8.1026,42.3192],[6.7388,8.0895,44.5909],[6.7514,8.0731,78.8907],[6.7593,8.0578,260.0116],[6.7755,7.9928,40.9795],[6.7746,7.9637,42.2264],[6.7809,7.8549,38.0],[6.779,7.822,38.6946],[6.7716,7.7838,45.5117],[6.8248,7.8154,43.5327],[6.8548,7.829,41.7743],[6.8708,7.8345,41.8516],[6.9038,7.8394,42.4944],[6.949,7.8525,42.03],[6.9569,7.857,42.9962],[6.9635,7.8668,44.331],[6.9498,7.8618,41.5],[6.9386,7.8708,41.5],[6.9372,7.8945,44.2142],[6.9414,7.9309,65.6856],[6.9552,7.9651,85.0484],[6.9812,7.9921,110.9377],[6.9832,8.0426,141.0018],[6.9817,8.0675,116.172],[7.0007,8.1433,263.2347],[6.9974,8.1627,140.3233],[7.0004,8.1779,143.4032],[7.0004,8.1948,248.606],[6.991,8.2118,196.5589],[6.9931,8.2272,197.6313],[6.9919,8.2427,230.432],[6.9779,8.2604,237.7956],[6.9754,8.2609,234.216],[6.9719,8.273,245.3455],[6.9566,8.2855,200.1239],[6.9494,8.2964,149.4869],[6.9479,8.305,153.397],[6.9434,8.3127,149.3986],[6.9434,8.3265,88.6788],[6.96,8.3514,144.0977],[6.9684,8.3693,164.9744],[6.9782,8.4118,217.5898],[6.9649,8.4104,230.0744],[6.9555,8.4043,223.2778],[6.9239,8.4044,170.9614],[6.8963,8.4088,149.3456],[6.8826,8.4072,128.0405],[6.8743,8.4043,119.0063],[6.8349,8.4068,70.2723]]]]}
,"properties": {"GID_2": "NGA.23.11_1","GID_0": "NGA","country": "Nigeria","GID_1": "NGA.23_1","province": "Kogi","NL_NAME_1": "NA","county": "Kogi","VARNAME_2": "Koton-Karfe","NL_NAME_2": "NA","TYPE_2": "LocalAuthority","ENGTYPE_2": "LocalAuthority","CC_2": "NA","HASC_2": "NA","name": "Kogi.county","area_km2": 1533.569,"hist_schema_id": "Elevation0-9000","hist_area_km2": {"25": 0.231,"50": 493.145,"75": 78.306,"100": 124.749,"125": 189.772,"150": 166.974,"175": 116.947,"200": 98.168,"225": 77.691,"250": 62.566,"275": 41.898,"300": 27.351,"325": 23.95,"350": 17.443,"375": 11.041,"400": 3.338}}}