{"type":"Feature","properties":{"GID_2":"NGA.6.6_1","GID_0":"NGA","country":"Nigeria","GID_1":"NGA.6_1","province":"Bayelsa","NL_NAME_1":"NA","county":"Sagbama","VARNAME_2":"NA","NL_NAME_2":"NA","TYPE_2":"LocalAuthority","ENGTYPE_2":"LocalAuthority","CC_2":"NA","HASC_2":"NA","name":"Sagbama.county"},
"geometry":{"type": "MultiPolygon","coordinates": [[[[5.9894,4.9261,19.8234],[5.9936,4.9184,19.5732],[5.9955,4.9087,18.9859],[5.9941,4.8919,17.1687],[5.9953,4.8808,9.1462],[5.983,4.8336,16.3271],[5.9822,4.8278,17.6053],[5.9846,4.8188,16.0852],[6.0034,4.8145,14.7833],[6.0151,4.81,13.3056],[6.0328,4.8078,16.017],[6.0433,4.81,12.6987],[6.0536,4.8211,17.6022],[6.0587,4.8383,14.4403],[6.0592,4.8548,19.4415],[6.0565,4.8611,18.3784],[6.0587,4.8678,10.3863],[6.0574,4.874,18.3966],[6.0655,4.8983,17.5719],[6.0696,4.9266,15.741],[6.0716,4.9632,19.0525],[6.0705,4.9828,13.0299],[6.0638,4.9988,16.1265],[6.046,5.0088,10.7055],[6.0366,5.0108,15.9831],[6.0283,5.0284,17.9015],[6.0288,5.0399,21.5297],[6.0471,5.0498,17.1129],[6.0663,5.0365,10.1565],[6.0759,5.0163,11.8527],[6.0874,5.0023,17.5654],[6.0907,4.9898,15.1398],[6.1055,4.9799,8.6901],[6.1157,4.9799,14.7993],[6.1326,4.9866,13.3631],[6.1598,5.0264,5.2912],[6.1738,5.0506,12.4806],[6.1896,5.0725,18.5256],[6.1999,5.0939,12.6516],[6.2214,5.1102,15.0274],[6.2261,5.1163,15.6615],[6.2308,5.1347,15.7741],[6.2339,5.1577,17.729],[6.2435,5.1695,10.4533],[6.2488,5.1788,8.5774],[6.2582,5.1897,12.8694],[6.2654,5.1954,23.3658],[6.2815,5.2036,19.4476],[6.3051,5.2076,20.5668],[6.3203,5.2085,20.3288],[6.3528,5.2075,23.2018],[6.3852,5.1993,16.1614],[6.3954,5.2012,17.9715],[6.4295,5.2163,21.2863],[6.4414,5.2196,15.9038],[6.4664,5.2433,17.7153],[6.475,5.2467,16.9009],[6.4797,5.2519,17.7872],[6.4956,5.2636,20.0908],[6.5116,5.2864,19.873],[6.5321,5.3245,21.5013],[6.5427,5.3363,21.3138],[6.5451,5.3436,23.6133],[6.5442,5.3575,22.1156],[6.5377,5.3693,22.7743],[6.5338,5.3729,22.8623],[6.5311,5.3913,24.4316],[6.5167,5.3852,24.0316],[6.5,5.3898,21.2696],[6.5104,5.3657,8.5],[6.5125,5.3498,8.5],[6.4863,5.332,8.0],[6.4444,5.3117,18.2436],[6.4199,5.3052,7.4916],[6.411,5.3005,6.0],[6.4013,5.3005,13.8324],[6.394,5.3034,13.4632],[6.3736,5.3021,13.9],[6.3546,5.3077,18.6129],[6.3462,5.3065,16.8229],[6.3311,5.2996,15.5798],[6.3194,5.3007,3.5],[6.3103,5.2997,10.2598],[6.2888,5.2551,3.5],[6.2849,5.2409,3.5],[6.2779,5.2334,4.4086],[6.2702,5.2298,4.6164],[6.2438,5.2249,13.6159],[6.2373,5.2262,16.3569],[6.231,5.2346,8.8567],[6.2232,5.2368,8.7195],[6.2073,5.2359,3.0],[6.2015,5.2206,11.5423],[6.2024,5.2081,17.2763],[6.2064,5.199,8.3431],[6.2057,5.1831,3.4755],[6.1901,5.173,18.7724],[6.1794,5.1714,13.5538],[6.1748,5.1691,15.2356],[6.1687,5.163,4.1549],[6.1601,5.1579,3.0],[6.1338,5.1488,18.6038],[6.1257,5.1485,20.9705],[6.1147,5.1533,19.3982],[6.1016,5.1549,11.5338],[6.0852,5.1527,7.7789],[6.0824,5.1509,3.0],[6.0714,5.1261,15.9364],[6.0559,5.1149,18.7673],[6.0386,5.1108,15.8615],[6.0279,5.1105,12.8077],[6.0199,5.1157,16.4578],[6.0043,5.1171,17.264],[5.9974,5.1214,16.8452],[5.995,5.13,11.0056],[5.9843,5.138,15.6171],[5.9814,5.1482,12.2243],[5.975,5.1476,10.1536],[5.961,5.1609,8.7908],[5.9596,5.1547,1.5],[5.963,5.15,2.0],[5.9625,5.1378,11.9902],[5.9596,5.1291,19.5465],[5.9618,5.1238,14.1582],[5.9525,5.088,20.6847],[5.9556,5.0794,7.8422],[5.9563,5.0649,20.0029],[5.9595,5.0496,15.9847],[5.9663,5.0272,18.1604],[5.9732,5.0109,12.4072],[5.9741,4.9998,15.3],[5.9829,4.987,16.7317],[5.9848,4.9768,20.5211],[5.9896,4.9733,17.3965],[5.9915,4.959,19.6746],[5.9915,4.9348,18.0224],[5.9894,4.9261,19.8234]]]]}}