{"type":"Feature","properties":{"GID_2":"NGA.20.13_1","GID_0":"NGA","country":"Nigeria","GID_1":"NGA.20_1","province":"Kano","NL_NAME_1":"NA","county":"Gabasawa","VARNAME_2":"NA","NL_NAME_2":"NA","TYPE_2":"LocalAuthority","ENGTYPE_2":"LocalAuthority","CC_2":"NA","HASC_2":"NA","name":"Gabasawa.county"},
"geometry":{"type": "MultiPolygon","coordinates": [[[[8.7943,12.2904,396.8435],[8.7782,12.2783,398.0022],[8.752,12.2656,404.1423],[8.7249,12.2634,420.9674],[8.7167,12.2596,423.3324],[8.7011,12.2621,423.4208],[8.6963,12.2278,436.1789],[8.7015,12.1882,418.7594],[8.6981,12.1778,429.3289],[8.6982,12.1593,428.7418],[8.7004,12.1461,414.696],[8.7023,12.1424,411.1091],[8.7154,12.1388,414.7284],[8.7299,12.1425,423.8887],[8.7514,12.1367,447.4053],[8.7591,12.1293,438.0075],[8.7615,12.1188,431.5092],[8.7607,12.1019,441.8072],[8.7764,12.0813,447.3428],[8.7837,12.0677,437.3824],[8.796,12.066,429.2762],[8.8042,12.0522,420.246],[8.8157,12.0151,425.705],[8.8245,11.9986,422.1437],[8.8118,12.0049,426.1801],[8.8048,12.0028,424.1884],[8.8025,11.9995,419.9908],[8.8017,11.9921,422.4531],[8.8069,11.9749,425.8776],[8.8129,11.9666,418.0107],[8.8355,11.9611,407.0304],[8.8363,11.9641,407.0953],[8.8432,11.9722,405.7724],[8.8537,11.9804,401.8248],[8.8728,11.9856,398.3206],[8.8864,12.0086,398.0613],[8.8896,12.0101,397.1903],[8.9007,12.0245,397.0325],[8.912,12.0276,395.8992],[8.9158,12.0258,396.0799],[8.9194,12.0339,395.1627],[8.9464,12.0423,399.7714],[8.9464,12.0586,393.5776],[8.9256,12.064,395.883],[8.9198,12.0702,398.1706],[8.9284,12.0976,400.4387],[8.9474,12.1196,393.8275],[8.9488,12.2087,399.4052],[8.9465,12.2135,399.0093],[8.9415,12.2387,398.4516],[8.9357,12.2555,398.3538],[8.9278,12.264,398.0208],[8.9209,12.2683,399.8306],[8.891,12.2772,407.0108],[8.8583,12.2798,401.69],[8.8272,12.2869,411.3177],[8.8031,12.2861,399.1657],[8.7943,12.2904,396.8435]]]]}}