{"type": "Feature","bbox": [3.307,6.4758,3.3639,6.5346],"geometry": {"type": "MultiPolygon","coordinates": [[[[3.3389,6.4758,4.4413],[3.3446,6.484,4.6435],[3.3511,6.4824,4.5941],[3.3623,6.5075,10.8062],[3.3639,6.5231,11.4089],[3.3573,6.5346,26.0463],[3.3185,6.5283,10.2202],[3.3114,6.5285,11.7194],[3.3097,6.5245,10.025],[3.308,6.516,4.461],[3.3118,6.4963,2.4638],[3.307,6.4778,4.074],[3.3143,6.482,3.8494],[3.3224,6.4833,5.7867],[3.3263,6.4827,6.0943],[3.3389,6.4758,4.4413]]]]}
,"properties": {"GID_2": "NGA.25.20_1","GID_0": "NGA","country": "Nigeria","GID_1": "NGA.25_1","province": "Lagos","NL_NAME_1": "NA","county": "Surulere","VARNAME_2": "NA","NL_NAME_2": "NA","TYPE_2": "LocalAuthority","ENGTYPE_2": "LocalAuthority","CC_2": "NA","HASC_2": "NA","name": "Surulere.county","area_km2": 30.46088,"hist_schema_id": "Elevation0-9000","hist_area_km2": {"0": 25.06829,"25": 5.39259}}}