{"type":"Feature","properties":{"GID_2":"NGA.2.7_1","GID_0":"NGA","country":"Nigeria","GID_1":"NGA.2_1","province":"Adamawa","NL_NAME_1":"NA","county":"Hong","VARNAME_2":"NA","NL_NAME_2":"NA","TYPE_2":"LocalAuthority","ENGTYPE_2":"LocalAuthority","CC_2":"NA","HASC_2":"NA","name":"Hong.county"},
"geometry":{"type": "MultiPolygon","coordinates": [[[[12.9474,10.0025,452.7749],[12.9479,9.9964,436.0013],[12.95,9.9932,426.1471],[12.983,9.9662,455.4477],[12.9982,9.9607,477.6156],[13.0189,9.9601,502.9146],[13.0421,9.9673,507.2912],[13.0608,9.9792,489.7917],[13.0818,9.9883,503.4197],[13.1322,10.0144,543.2025],[13.1475,10.0153,544.8695],[13.163,10.0226,578.6608],[13.1678,10.0304,540.5801],[13.1722,10.025,562.7418],[13.1917,10.0727,621.3345],[13.2095,10.099,598.58],[13.2203,10.1194,619.245],[13.2293,10.152,651.9807],[13.2387,10.1761,726.5554],[13.2407,10.1899,621.0487],[13.2388,10.2114,579.2197],[13.2467,10.2457,604.6437],[13.2514,10.247,611.9005],[13.2694,10.2689,580.4428],[13.3004,10.3157,571.2292],[13.3074,10.3414,572.2484],[13.3088,10.3587,566.6135],[13.3267,10.436,632.3179],[13.3243,10.4499,547.2613],[13.3174,10.4654,520.7668],[13.3131,10.4711,512.6497],[13.312,10.4634,519.294],[13.2935,10.4439,530.1276],[13.2592,10.4401,496.6712],[13.2226,10.4437,493.2786],[13.145,10.4784,509.3421],[13.0991,10.5281,537.9763],[13.0574,10.553,510.8898],[13.0111,10.5695,487.8689],[12.9479,10.5797,466.2556],[12.8735,10.5821,441.3648],[12.8329,10.5585,431.1931],[12.7988,10.524,593.7355],[12.7631,10.4649,486.2878],[12.7251,10.4466,463.3222],[12.6973,10.4455,436.3317],[12.7167,10.4147,483.5599],[12.7394,10.3901,467.3203],[12.7827,10.3322,496.1777],[12.8288,10.2799,511.3412],[12.8466,10.2573,493.7401],[12.8652,10.2302,514.2419],[12.9036,10.1677,555.9406],[12.9137,10.1263,536.8586],[12.9151,10.1025,498.6102],[12.9343,10.0521,484.9683],[12.94,10.049,477.7428],[12.9433,10.0217,448.403],[12.9474,10.0025,452.7749]]]]}}