{"type":"Feature","properties":{"GID_2":"NGA.2.4_1","GID_0":"NGA","country":"Nigeria","GID_1":"NGA.2_1","province":"Adamawa","NL_NAME_1":"NA","county":"Girie","VARNAME_2":"NA","NL_NAME_2":"NA","TYPE_2":"LocalAuthority","ENGTYPE_2":"LocalAuthority","CC_2":"NA","HASC_2":"NA","name":"Girie.county"},
"geometry":{"type": "MultiPolygon","coordinates": [[[[12.6973,10.4455,436.3317],[12.6715,10.4444,428.7889],[12.6583,10.4018,422.6406],[12.6188,10.36,449.8284],[12.5792,10.3419,367.3408],[12.5235,10.3244,476.1671],[12.468,10.3211,341.7178],[12.422,10.3165,323.5634],[12.4156,10.3144,322.5143],[12.4231,10.2955,342.3307],[12.4266,10.281,357.6456],[12.4274,10.2692,376.8895],[12.4242,10.2556,394.4619],[12.4229,10.2388,429.7333],[12.3909,10.193,475.4769],[12.385,10.1606,551.0527],[12.3676,10.1284,642.6495],[12.3681,10.1122,648.1131],[12.3733,10.0969,671.0109],[12.3674,10.0675,662.6928],[12.3539,10.0444,701.587],[12.3524,10.0374,723.5255],[12.4064,10.0382,678.462],[12.4405,10.0425,625.8502],[12.5304,10.0456,596.3342],[12.6255,10.042,497.3239],[12.7123,10.0447,472.6327],[12.7833,10.0424,499.7545],[12.8148,10.0396,473.7676],[12.8465,10.0328,471.4687],[12.8697,10.0246,459.2227],[12.8834,10.0167,435.3748],[12.9035,10.0092,448.3221],[12.9276,10.007,429.7514],[12.9474,10.0025,452.7749],[12.9433,10.0217,448.403],[12.94,10.049,477.7428],[12.9343,10.0521,484.9683],[12.9151,10.1025,498.6102],[12.9137,10.1263,536.8586],[12.9036,10.1677,555.9406],[12.8652,10.2302,514.2419],[12.8466,10.2573,493.7401],[12.8288,10.2799,511.3412],[12.7827,10.3322,496.1777],[12.7394,10.3901,467.3203],[12.7167,10.4147,483.5599],[12.6973,10.4455,436.3317]]]]}}