{"type":"Feature","properties":{"GID_2":"NGA.19.1_1","GID_0":"NGA","country":"Nigeria","GID_1":"NGA.19_1","province":"Kaduna","NL_NAME_1":"NA","county":"BirninGwari","VARNAME_2":"NA","NL_NAME_2":"NA","TYPE_2":"LocalAuthority","ENGTYPE_2":"LocalAuthority","CC_2":"NA","HASC_2":"NA","name":"Birnin_Gwari.county"},
"geometry":{"type": "MultiPolygon","coordinates": [[[[6.8634,11.3233,574.6024],[6.8483,11.3104,575.3455],[6.8225,11.2953,575.1296],[6.804,11.2822,566.7578],[6.7748,11.2415,572.2216],[6.7625,11.2097,557.5013],[6.7523,11.153,525.3039],[6.7279,11.1015,514.2997],[6.7002,11.0721,490.9154],[6.6787,11.052,493.4942],[6.6411,11.0279,520.6752],[6.5651,11.018,467.3358],[6.5168,11.0173,454.6639],[6.4368,11.0271,453.5573],[6.366,11.0196,420.5092],[6.3456,11.012,442.0766],[6.3306,11.0035,441.3808],[6.3137,10.9895,438.7359],[6.2908,10.9585,432.8065],[6.2605,10.9367,423.2205],[6.2504,10.9244,424.3574],[6.2325,10.89,414.8601],[6.2143,10.8704,407.796],[6.2056,10.8632,409.192],[6.1937,10.8582,413.673],[6.1773,10.856,414.207],[6.1665,10.8563,401.1288],[6.166,10.8489,409.6775],[6.1578,10.8373,410.7883],[6.1442,10.8088,416.3834],[6.1174,10.7704,393.9918],[6.119,10.7392,387.0902],[6.1115,10.7202,389.2277],[6.111,10.6939,383.6788],[6.1343,10.6558,370.3979],[6.1365,10.6323,378.4034],[6.1245,10.6003,359.6764],[6.1284,10.5394,365.432],[6.1153,10.5224,380.1278],[6.0987,10.5107,342.2066],[6.0934,10.4737,305.8117],[6.0968,10.4518,346.7293],[6.1149,10.4349,382.9293],[6.1461,10.4197,332.4678],[6.1579,10.3922,301.0425],[6.1658,10.3634,263.4007],[6.1889,10.3539,281.2188],[6.2117,10.368,300.2768],[6.2356,10.3974,367.8642],[6.257,10.4302,358.6951],[6.2987,10.4802,380.6954],[6.3235,10.4953,380.3749],[6.3472,10.514,398.1895],[6.389,10.5521,363.1163],[6.412,10.5641,379.5429],[6.4287,10.5761,380.8652],[6.4626,10.5859,397.0825],[6.4857,10.5901,415.3726],[6.5096,10.588,418.4126],[6.5262,10.572,438.0872],[6.5309,10.5504,466.3517],[6.5428,10.5295,475.8831],[6.574,10.5374,478.4852],[6.6127,10.5559,504.8782],[6.6366,10.5656,541.2646],[6.6661,10.5751,674.8281],[6.6925,10.5754,578.5988],[6.7304,10.5661,476.3082],[6.7407,10.5819,505.1277],[6.7298,10.6201,564.4697],[6.7404,10.6307,549.9314],[6.7383,10.6343,584.3303],[6.741,10.6394,575.0947],[6.7403,10.6424,554.5332],[6.7559,10.6606,604.3621],[6.761,10.6706,592.7926],[6.7661,10.6921,589.0433],[6.7725,10.7072,543.1208],[6.7865,10.7246,543.9188],[6.8104,10.7378,666.3929],[6.8183,10.7589,599.6487],[6.8286,10.8045,558.6559],[6.8387,10.8169,577.9031],[6.8527,10.8165,549.9095],[6.8679,10.8114,571.1449],[6.898,10.7919,605.637],[6.9311,10.7668,621.9387],[6.9702,10.7455,647.7826],[7.0089,10.7106,664.7653],[7.0541,10.6934,675.7905],[7.0779,10.6976,692.4226],[7.1562,10.698,617.4748],[7.1707,10.7012,583.2207],[7.1838,10.701599999999999,586.4376],[7.1899,10.7003,599.0225],[7.1912,10.7045,598.5259],[7.1757,10.7234,601.9582],[7.1714,10.7335,594.5945],[7.166,10.7496,603.2778],[7.1622,10.7729,615.8546],[7.1624,10.787,625.7076],[7.151,10.8203,616.4127],[7.1361,10.8466,604.1815],[7.1309,10.8609,601.7259],[7.1269,10.8821,621.0215],[7.1312,10.896,638.2046],[7.1418,10.909,646.2893],[7.1501,10.916,630.1536],[7.1604,10.9309,646.9315],[7.1686,10.9497,641.8917],[7.1775,10.9648,641.4913],[7.1906,11.0347,654.59],[7.1922,11.0554,653.9175],[7.1967,11.0749,641.4763],[7.2098,11.1145,636.8196],[7.2169,11.1291,635.3703],[7.1979,11.1167,642.1069],[7.1825,11.1108,661.7582],[7.1543,11.1144,731.4536],[7.1303,11.1367,681.9829],[7.1175,11.1567,673.1949],[7.0857,11.1829,662.0884],[7.0261,11.2035,685.3705],[6.9966,11.2085,672.0643],[6.983,11.2137,660.5687],[6.9893,11.2347,651.2349],[7.0216,11.2693,667.5382],[7.036,11.2775,662.0773],[7.0398,11.2946,675.2176],[7.027,11.3224,666.6555],[7.005,11.3367,666.2849],[6.9737,11.3339,635.0823],[6.9404,11.3397,624.5342],[6.9159,11.3476,617.6977],[6.8862,11.3484,590.6792],[6.8712,11.33,575.7943],[6.8634,11.3233,574.6024]]]]}}