{"type":"Feature","properties":{"GID_2":"NGA.10.24_1","GID_0":"NGA","country":"Nigeria","GID_1":"NGA.10_1","province":"Delta","NL_NAME_1":"NA","county":"WarriSouth","VARNAME_2":"NA","NL_NAME_2":"NA","TYPE_2":"LocalAuthority","ENGTYPE_2":"LocalAuthority","CC_2":"NA","HASC_2":"NA","name":"Warri_South.county"},
"geometry":{"type": "MultiPolygon","coordinates": [[[[5.6018,5.5119,3.8458],[5.6018,5.5121,0.0],[5.6015,5.5121,0.0],[5.6018,5.5119,3.8458]]],
[[[5.5257,5.619,0.0],[5.5229,5.6196,1.0444],[5.511,5.614,0.0],[5.5051,5.6129,0.5729],[5.496,5.6135,1.4109],[5.4899,5.616,0.3345],[5.4865,5.6193,0.0],[5.4857,5.6185,0.0],[5.4901,5.606,0.4067],[5.4963,5.6001,0.0],[5.5035,5.5974,1.8886],[5.5088,5.5924,0.6219],[5.5132,5.5968,1.2187],[5.526,5.5988,1.3319],[5.5332,5.604,0.8998],[5.5404,5.6029,0.7967],[5.5382,5.6054,0.9703],[5.5376,5.6154,1.0993],[5.5257,5.619,0.0]]],
[[[5.5912,5.521,4.2366],[5.5904,5.5221,0.0],[5.581,5.5154,0.0],[5.589,5.5179,1.5063],[5.5912,5.521,4.2366]]],
[[[5.6113,5.5376,0.0],[5.6079,5.5379,0.0],[5.606,5.5357,0.0],[5.6049,5.5243,5.299],[5.6065,5.5201,0.0],[5.6126,5.529,1.3167],[5.6132,5.5338,0.0],[5.6113,5.5376,0.0]]],
[[[5.682,5.4665,7.634],[5.6996,5.4665,1.3387],[5.7001,5.4718,1.1484],[5.7079,5.4779,3.988],[5.7093,5.4901,3.3001],[5.7126,5.4971,2.9493],[5.7226,5.5051,0.0],[5.7243,5.5082,0.0],[5.7143,5.5121,1.6678],[5.7104,5.519,0.0],[5.7071,5.5215,4.5737],[5.7043,5.5293,0.0],[5.6982,5.5335,1.2069],[5.6921,5.5343,0.0],[5.6874,5.531,2.1628],[5.6826,5.531,0.0],[5.6607,5.5399,1.8192],[5.6599,5.5376,5.6577],[5.6582,5.5385,5.183],[5.6571,5.5371,0.0],[5.6563,5.5338,6.6853],[5.659,5.5349,3.9807],[5.6554,5.5304,2.2823],[5.659,5.5287,5.1036],[5.6588,5.5276,5.1036],[5.6443,5.5271,0.0],[5.6376,5.5293,0.0],[5.6301,5.5399,2.7031],[5.6221,5.5424,0.0],[5.6171,5.5401,4.1235],[5.6151,5.5376,2.9949],[5.6151,5.5312,7.4315],[5.6132,5.5262,2.9178],[5.6057,5.5143,0.0],[5.6115,5.5124,6.2633],[5.6196,5.5154,1.3652],[5.6221,5.5113,4.6228],[5.6179,5.5065,1.4743],[5.6168,5.5079,0.5717],[5.6201,5.511,0.0],[5.6193,5.514,1.3652],[5.6099,5.5099,4.2093],[5.606,5.5099,2.0172],[5.6125,5.5023,1.4997],[5.6235,5.4991,5.3875],[5.6402,5.4914,1.4538],[5.6424,5.4886,0.0],[5.6454,5.4876,0.0],[5.6479,5.4812,1.4895],[5.6588,5.4734,10.4363],[5.673,5.4667,1.4416],[5.682,5.4665,7.634]]],
[[[5.679,5.5396,2.7081],[5.6757,5.5399,1.35],[5.6729,5.5382,2.7493],[5.6732,5.5368,0.0],[5.679,5.5351,0.0],[5.6801,5.5382,5.0409],[5.679,5.5396,2.7081]]],
[[[5.6595,5.616,6.2999],[5.6564,5.6195,5.5342],[5.6543,5.6257,2.1081],[5.6493,5.6174,2.7304],[5.6454,5.6151,4.5362],[5.6388,5.6149,7.8345],[5.6354,5.6185,0.859],[5.6346,5.6168,2.1613],[5.6304,5.614,1.8651],[5.6348332502078131,5.6096329177057358,10.0361],[5.6349,5.6096,10.0361],[5.6349568659127627,5.6095111470113084,10.0361],[5.6371,5.6074,6.7645],[5.6363,5.6043,2.271],[5.631,5.6021,8.9854],[5.6329,5.5976,0.7312],[5.6351,5.5974,6.0828],[5.6376,5.5993,5.1994],[5.6399,5.5982,5.0558],[5.6371,5.5868,6.2636],[5.6401,5.5829,0.6048],[5.6363,5.5799,0.7304],[5.6368,5.5746,13.0234],[5.6396,5.5707,3.5737],[5.6465,5.5668,0.0],[5.6543,5.5688,2.5976],[5.6588,5.5674,2.6752],[5.6599,5.5643,1.8461],[5.6565,5.556,3.2076],[5.6613,5.549,0.9426],[5.6621,5.5443,0.8112],[5.671,5.5396,1.0067],[5.6754,5.5424,0.7224],[5.679,5.5421,4.5548],[5.6843,5.5338,0.2378],[5.6904,5.5363,0.1788],[5.7015,5.5354,1.3109],[5.704,5.539,3.7297],[5.7021,5.5335,0.0],[5.7049,5.5312,0.0],[5.7157,5.5132,0.9632],[5.7224,5.5121,2.0994],[5.724,5.5146,0.6223],[5.7238,5.5182,2.3014],[5.7251,5.5182,2.3014],[5.7249,5.5129,0.0],[5.729,5.5135,0.0],[5.7271,5.5071,0.0],[5.7243,5.5068,2.2517],[5.7226,5.5043,0.0],[5.7135,5.4971,0.0],[5.7104,5.4913,1.4334],[5.7085,5.4781,3.988],[5.7285,5.486,2.912],[5.7343,5.4899,2.033],[5.7505,5.4901,4.276],[5.7558,5.4952,0.0],[5.7611,5.4894,0.3734],[5.7709,5.4826,18.102],[5.775,5.4841,5.2414],[5.777,5.4894,0.0],[5.773,5.5125,0.0],[5.7645,5.5301,5.1328],[5.7581,5.5355,5.8171],[5.7507,5.5456,5.088],[5.7379,5.5557,3.2075],[5.7086,5.5698,5.236],[5.6974,5.5769,7.0194],[5.6915,5.583,2.2097],[5.6746,5.5916,5.5765],[5.6595,5.616,6.2999]]],
[[[5.6349568659127627,5.6095111470113084,10.0361],[5.6348332502078131,5.6096329177057358,10.0361],[5.6276,5.6132,2.3062],[5.6229,5.6118,7.0526],[5.6151,5.6232,2.5376],[5.6115,5.6243,0.0],[5.6101,5.6146,0.0],[5.6051,5.6035,6.6376],[5.6046,5.5963,4.495],[5.6021,5.5907,0.0],[5.5979,5.5899,7.6357],[5.5949,5.5918,8.1112],[5.5932,5.6046,0.0],[5.5843,5.6051,12.5208],[5.5796,5.6018,13.0817],[5.5818,5.5835,1.1468],[5.5779,5.5799,3.6411],[5.5743,5.5807,0.8467],[5.5662,5.5876,1.2113],[5.564,5.5921,2.5471],[5.564,5.6015,3.9057],[5.5554,5.604,0.0],[5.5396,5.6013,0.6683],[5.5335,5.6026,0.7354],[5.5268,5.5971,1.1537],[5.5151,5.5951,0.9535],[5.5021,5.5826,1.3128],[5.5024,5.5793,0.0],[5.5068,5.576,1.4821],[5.5099,5.5776,0.0],[5.5107,5.581,3.167],[5.514,5.5801,1.1262],[5.5157,5.5704,1.0735],[5.5132,5.5782,1.9512],[5.5107,5.5774,0.0],[5.5139,5.5717,0.0],[5.5207,5.5642,2.1556],[5.5259,5.5554,4.2201],[5.5305,5.5525,1.4595],[5.5322,5.5465,5.5411],[5.5365,5.5418,4.4439],[5.5332,5.5382,6.2909],[5.5329,5.5327,3.3041],[5.5385,5.5335,0.5837],[5.5519,5.5344,8.4018],[5.5601,5.5316,2.1955],[5.5493,5.5429,2.651],[5.5451,5.5413,3.5405],[5.5429,5.5354,4.9351],[5.5393,5.536,1.2882],[5.5399,5.5446,14.2776],[5.5349,5.5488,1.5895],[5.5349,5.5504,1.5895],[5.5368,5.554,1.8608],[5.5451,5.5582,4.0125],[5.5421,5.5537,6.8198],[5.5354,5.5501,1.5895],[5.5404,5.5449,14.2776],[5.5399,5.5365,1.2882],[5.5426,5.536,1.1512],[5.5446,5.5415,3.5405],[5.5471,5.5435,6.5436],[5.5496,5.5435,2.651],[5.5618,5.5307,6.584],[5.5674,5.5285,4.2436],[5.5718,5.521,0.0],[5.5813,5.5265,11.0672],[5.5799,5.5296,1.2549],[5.5729,5.5329,7.2294],[5.5732,5.5374,6.4948],[5.5765,5.5399,1.9895],[5.5785,5.5446,0.0],[5.5785,5.5418,4.6392],[5.5735,5.5357,0.0],[5.5735,5.5335,1.1935],[5.5799,5.5304,1.2549],[5.5826,5.5265,0.6927],[5.5774,5.5204,0.0],[5.5796,5.5185,0.0],[5.5826,5.519,2.6751],[5.5868,5.5235,0.0],[5.5965,5.526,0.0],[5.604,5.5443,2.1931],[5.616,5.5504,0.0],[5.6257,5.5504,0.0],[5.634,5.5476,3.2373],[5.6435,5.5326,1.6949],[5.6474,5.5315,0.0],[5.6518,5.5376,1.0091],[5.6596,5.544,3.2696],[5.6554,5.5537,2.9915],[5.659,5.5657,0.0],[5.6557,5.5679,1.5884],[5.6512,5.5663,1.8251],[5.6443,5.5663,11.3644],[5.6382,5.571,0.0],[5.6357,5.5754,13.0234],[5.6354,5.5799,0.7304],[5.6374,5.5826,0.0],[5.6385,5.5829,0.0],[5.636,5.589,1.8636],[5.6385,5.5982,0.0],[5.6335,5.5965,1.0071],[5.6301,5.6007,0.0],[5.6307,5.6029,8.9854],[5.636,5.6049,2.271],[5.6365,5.6071,6.7645],[5.6349568659127627,5.6095111470113084,10.0361]]],
[[[5.6338,5.6326,2.5879],[5.6313,5.6324,4.572],[5.6271,5.6224,3.9831],[5.6285,5.6129,2.3062],[5.6346,5.6176,1.6145],[5.6351,5.6201,1.5993],[5.6413,5.626,3.2615],[5.6393,5.6299,0.0],[5.6338,5.6326,2.5879]]],
[[[5.6396,5.6977,12.681],[5.6331,5.7065,10.0828],[5.6014,5.7324,0.0],[5.6005,5.7573,3.43],[5.6013,5.7663,4.5347],[5.6042,5.7732,1.3108],[5.5983,5.7811,2.0705],[5.589,5.7794,2.7617],[5.5766,5.781,2.7186],[5.5708,5.7783,0.0],[5.5691,5.7756,0.8851],[5.5562,5.7728,3.5511],[5.5329,5.7762,1.1572],[5.5234,5.7877,3.448],[5.5208,5.7967,2.2928],[5.5227,5.8119,11.143],[5.5213,5.814,0.0],[5.5165,5.8049,4.9926],[5.5179,5.7915,2.3289],[5.5082,5.7824,4.0967],[5.5326,5.7707,5.8622],[5.5379,5.7624,0.5044],[5.5379,5.7549,2.0068],[5.5285,5.7529,0.7976],[5.5204,5.7549,5.7586],[5.5137,5.7593,3.0527],[5.5099,5.7654,1.7238],[5.5065,5.7663,4.2959],[5.4982,5.7507,5.2652],[5.4979,5.7457,5.9839],[5.5018,5.7388,5.9783],[5.5162,5.7229,2.0767],[5.5162,5.7096,0.3484],[5.5185,5.709,1.0085],[5.5168,5.7074,0.7973],[5.5185,5.7054,4.107],[5.5174,5.7035,1.221],[5.5204,5.6999,1.4104],[5.5238,5.7004,0.4823],[5.524,5.6904,0.6788],[5.5315,5.6843,0.3334],[5.5449,5.6851,0.0],[5.5518,5.6826,0.0],[5.5546,5.6832,0.0],[5.5549,5.6857,0.8845],[5.5443,5.6957,0.8214],[5.544,5.6985,1.0303],[5.5551,5.714,1.3698],[5.5615,5.7143,0.0],[5.5601,5.7182,2.5709],[5.5543,5.724,1.7175],[5.5585,5.7215,0.9195],[5.5626,5.716,0.6203],[5.5624,5.7132,1.8581],[5.5551,5.7132,3.0021],[5.5449,5.6982,3.8083],[5.5451,5.6957,1.4254],[5.5529,5.6893,1.5972],[5.556,5.684,0.0],[5.554,5.6818,10.9237],[5.5451,5.6843,0.0],[5.5332,5.6829,1.4543],[5.5251,5.6879,1.3301],[5.5229,5.6926,0.0],[5.521,5.6935,2.9562],[5.5137,5.6779,0.7828],[5.5126,5.6568,0.8361],[5.5107,5.6543,0.5821],[5.5081,5.6543,0.6808],[5.5018,5.6475,0.9525],[5.4927,5.643,0.8448],[5.4918,5.6393,2.7206],[5.4829,5.6407,2.1325],[5.4807,5.6396,1.9938],[5.4807,5.6376,1.3233],[5.4837,5.6354,0.5799],[5.4854,5.6304,0.0],[5.4899,5.626,2.8859],[5.5018,5.6207,4.8392],[5.5099,5.6207,0.9134],[5.5254,5.626,6.9261],[5.5382,5.6235,0.0],[5.5385,5.6271,0.0],[5.5351,5.6332,0.2774],[5.5354,5.6404,0.61],[5.5371,5.6424,1.4385],[5.5429,5.6424,2.4981],[5.5476,5.639,0.0],[5.5493,5.6354,0.0],[5.5524,5.6349,0.0],[5.5571,5.6365,0.0],[5.5626,5.6429,4.5378],[5.5685,5.6465,1.5589],[5.5788,5.6485,0.0],[5.5804,5.6504,0.0],[5.5804,5.661,1.3521],[5.5843,5.6654,0.0],[5.5854,5.6704,0.5098],[5.5904,5.6746,3.1209],[5.5882,5.6829,0.9176],[5.5904,5.7013,1.2643],[5.5926,5.7038,1.6449],[5.5979,5.7051,0.0],[5.6032,5.7132,1.2718],[5.6026,5.7093,2.6486],[5.5979,5.7043,0.0],[5.5915,5.7018,1.2643],[5.5896,5.6915,0.6861],[5.5912,5.6874,0.0],[5.5901,5.679,1.0376],[5.6051,5.666,2.4148],[5.6076,5.6701,0.8575],[5.6121,5.6699,0.0],[5.6113,5.6732,0.0],[5.6126,5.6749,0.0],[5.6176,5.6738,2.4555],[5.6282,5.6779,0.0],[5.6313,5.6779,1.6116],[5.6338,5.6738,0.5443],[5.6399,5.6749,1.3194],[5.6438,5.671,0.0],[5.6388,5.6743,0.0],[5.6335,5.6729,2.9955],[5.6313,5.6771,1.6116],[5.6282,5.6771,0.0],[5.619,5.6729,2.4805],[5.6126,5.674,0.0],[5.6129,5.6682,10.439],[5.609,5.6685,0.4096],[5.6076,5.6651,1.9589],[5.6057,5.6646,2.3017],[5.5957,5.6715,1.2417],[5.5924,5.6721,0.0],[5.5871,5.6674,0.0],[5.584,5.661,0.9087],[5.5824,5.6485,0.797],[5.5807,5.6463,1.4029],[5.5749,5.6443,0.0],[5.5746,5.6421,0.0],[5.5779,5.6387,2.3222],[5.5707,5.6435,2.249],[5.5582,5.6329,4.5731],[5.5515,5.6304,4.7354],[5.5463,5.6315,2.8485],[5.5412,5.6387,0.5577],[5.5388,5.6393,0.0],[5.5376,5.6379,0.0],[5.5443,5.6229,0.8103],[5.5415,5.6168,1.5205],[5.5401,5.6068,0.0],[5.5565,5.6071,1.5357],[5.5646,5.6032,0.0],[5.5671,5.5996,0.0],[5.5657,5.5946,0.0],[5.5668,5.591,0.0],[5.5746,5.5829,0.0],[5.5782,5.5821,0.4894],[5.579,5.5915,0.0],[5.5776,5.5999,0.0],[5.5799,5.6057,5.5752],[5.5868,5.6074,1.002],[5.5951,5.6054,0.0],[5.5965,5.6029,2.0396],[5.5965,5.5929,2.698],[5.5979,5.5913,0.0],[5.5999,5.5918,0.0],[5.6024,5.5951,0.0],[5.604,5.6065,0.9324],[5.6074,5.6124,8.2603],[5.6088,5.6235,7.2249],[5.6104,5.6251,14.1481],[5.6168,5.6243,2.7836],[5.6221,5.6143,1.3263],[5.6251,5.6132,0.0],[5.626,5.6265,8.5356],[5.6304,5.6337,0.0],[5.6346,5.634,1.5696],[5.6401,5.631,3.2284],[5.6424,5.6271,4.1071],[5.6415,5.6235,4.0722],[5.6385,5.6207,0.6636],[5.6382,5.6171,2.6732],[5.6443,5.6165,1.1659],[5.6615,5.6374,5.9252],[5.6596,5.6474,13.0522],[5.6615,5.6493,12.1868],[5.6682,5.6485,2.1126],[5.6718,5.6568,4.8351],[5.684,5.6557,2.676],[5.6718,5.656,4.8351],[5.6682,5.6476,2.1126],[5.6615,5.6485,0.0],[5.6601,5.6465,0.0],[5.6629,5.6429,0.0],[5.6632,5.6386,0.0],[5.6699,5.6458,1.6184],[5.6748,5.6485,1.2002],[5.6794,5.647,11.5306],[5.6867,5.6407,1.9596],[5.6925,5.641,3.1003],[5.6983,5.6455,2.4275],[5.6972,5.6513,5.0024],[5.681,5.659,3.4459],[5.6524,5.6878,10.2175],[5.6396,5.6977,12.681]]]]}}