{"type": "Feature","bbox": [4.5523,7.9246,4.8111,8.063],"geometry": {"type": "MultiPolygon","coordinates": [[[[4.7944,8.063,436.0123],[4.7658,8.0536,404.4072],[4.7525,8.0437,441.0201],[4.7313,8.0357,399.6947],[4.708,8.0329,389.7104],[4.6892,8.0307,375.0534],[4.6645,8.0309,388.5514],[4.6514,8.0355,381.5944],[4.62,8.0362,364.4627],[4.5969,8.0336,396.0934],[4.5737,8.0377,384.7527],[4.5556,8.0342,389.2986],[4.5589,8.0214,365.5141],[4.56,8.0052,361.452],[4.563,7.9948,338.7729],[4.5642,7.9828,343.1016],[4.5593,7.9621,353.0155],[4.5523,7.9566,327.0],[4.5595,7.9469,330.3785],[4.5627,7.9307,358.8687],[4.566,7.9246,358.021],[4.5761,7.9305,367.1611],[4.5887,7.9406,337.3527],[4.6023,7.9422,364.657],[4.6079,7.9447,382.1776],[4.6258,7.9395,339.3295],[4.6312,7.9411,344.1261],[4.6533,7.9407,365.9287],[4.6681,7.9437,391.1846],[4.6774,7.9465,434.4547],[4.6829,7.9577,391.8752],[4.6868,7.9611,374.0097],[4.6912,7.9615,389.2015],[4.7041,7.9613,385.1464],[4.7142,7.9576,391.9862],[4.7196,7.9587,419.0306],[4.7262,7.9565,414.1706],[4.7293,7.9502,460.2704],[4.7292,7.9469,477.9547],[4.7414,7.942,519.7346],[4.7583,7.9272,443.1514],[4.7631,7.9292,463.4076],[4.7822,7.95,514.7461],[4.7837,7.9574,602.2247],[4.7872,7.9599,596.7157],[4.7931,7.9692,556.5096],[4.8048,7.9796,484.7051],[4.8095,7.9968,454.7999],[4.8111,8.0118,463.5089],[4.807,8.0146,444.3062],[4.7985,8.0325,419.4651],[4.7991,8.0403,412.3084],[4.7954,8.053,436.2209],[4.7944,8.063,436.0123]]]]}
,"properties": {"GID_2": "NGA.30.25_1","GID_0": "NGA","country": "Nigeria","GID_1": "NGA.30_1","province": "Osun","NL_NAME_1": "NA","county": "Odo-Otin","VARNAME_2": "NA","NL_NAME_2": "NA","TYPE_2": "LocalAuthority","ENGTYPE_2": "LocalAuthority","CC_2": "NA","HASC_2": "NA","name": "Odo-Otin.county","area_km2": 279.1876,"hist_schema_id": "Elevation0-9000","hist_area_km2": {"325": 3.2337,"350": 48.8598,"375": 93.1394,"400": 32.8371,"425": 17.4468,"450": 13.9411,"475": 16.7549,"500": 15.9361,"525": 16.3354,"550": 11.1074,"575": 6.3412,"600": 2.9396,"625": 0.315}}}