{"type":"Feature","properties":{"GID_2":"NGA.17.21_1","GID_0":"NGA","country":"Nigeria","GID_1":"NGA.17_1","province":"Imo","NL_NAME_1":"NA","county":"Orsu","VARNAME_2":"NA","NL_NAME_2":"NA","TYPE_2":"LocalAuthority","ENGTYPE_2":"LocalAuthority","CC_2":"NA","HASC_2":"NA","name":"Orsu.county"},
"geometry":{"type": "MultiPolygon","coordinates": [[[[7.0343,5.9181,51.569],[6.9753,5.9048,37.9325],[6.9572,5.8975,47.0315],[6.9466,5.888,64.8351],[6.9358,5.858,172.4829],[6.9363,5.8457,167.2641],[6.932,5.8319,160.6831],[6.9427,5.8196,162.4525],[6.9595,5.8053,160.7382],[6.9747,5.8013,138.0796],[6.9846,5.8009,153.8582],[6.9901,5.8025,154.0168],[7.0115,5.795,172.4707],[7.0244,5.8083,141.4462],[7.0327,5.8248,139.5368],[7.0343,5.8526,79.8297],[7.0378,5.8666,57.9606],[7.0476,5.8775,53.3346],[7.056,5.8841,111.0042],[7.0591,5.8854,141.5085],[7.0716,5.8854,185.0328],[7.0677,5.9044,186.8841],[7.074,5.9218,201.2341],[7.0717,5.9234,188.8701],[7.0539,5.9226,135.8229],[7.0343,5.9181,51.569]]]]}}