{"type": "Feature","bbox": [4.6027,12.0499,5.2416,12.7681],"geometry": {"type": "MultiPolygon","coordinates": [[[[4.6029,12.1486,233.5583],[4.6027,12.1382,235.837],[4.6074,12.1112,241.2646],[4.6051,12.0925,249.9563],[4.6064,12.0499,284.0016],[4.6413,12.0718,264.9526],[4.6743,12.0876,278.121],[4.6864,12.0917,285.0461],[4.7049,12.0935,263.9928],[4.7153,12.0971,249.4966],[4.7364,12.0987,241.8861],[4.756,12.1024,255.3702],[4.7776,12.1112,254.8969],[4.797,12.1251,225.7798],[4.8231,12.1496,209.2167],[4.8307,12.1601,235.0657],[4.8431,12.1909,258.6991],[4.8532,12.2019,262.3342],[4.8711,12.2069,275.3765],[4.888,12.2078,277.0041],[4.9021,12.2057,281.4113],[4.9154,12.2061,276.1838],[4.9255,12.2013,269.1961],[4.9653,12.2009,238.8342],[4.9745,12.1989,228.2463],[4.9943,12.2017,219.6863],[5.0108,12.209,220.8472],[5.0131,12.2139,225.4494],[5.0216,12.2221,226.3245],[5.038,12.2304,222.2562],[5.0413,12.2457,235.1918],[5.0476,12.2613,256.1967],[5.0624,12.2707,270.5671],[5.0937,12.2629,251.1429],[5.1598,12.2512,234.247],[5.2131,12.2442,257.946],[5.2415,12.2461,264.3529],[5.2308,12.2693,264.9724],[5.2327,12.283,265.0042],[5.2352,12.2892,262.8259],[5.235,12.3003,258.4194],[5.2416,12.3158,258.9823],[5.2406,12.3218,259.6723],[5.2307,12.3404,263.1279],[5.2261,12.347,263.0751],[5.2076,12.3632,259.1361],[5.1968,12.3684,272.3214],[5.1907,12.369,273.827],[5.1843,12.3719,279.195],[5.1694,12.3849,295.1404],[5.1559,12.3935,309.806],[5.1302,12.4177,328.4075],[5.1248,12.4239,329.1426],[5.1193,12.4423,329.0276],[5.1019,12.4654,307.0011],[5.0864,12.4993,287.3638],[5.0821,12.5055,282.3489],[5.0707,12.513,274.1278],[5.0475,12.5199,256.8218],[5.0395,12.5191,260.8135],[5.03,12.5164,279.6912],[5.0156,12.5052,286.4106],[5.011,12.4994,286.7083],[5.0074,12.4938,285.5945],[5.0046,12.4781,289.7999],[5.0003,12.4692,295.5006],[5.0058,12.431,317.7695],[5.0059,12.425,328.2244],[5.0018,12.4173,326.8519],[4.9957,12.4163,329.9605],[4.9678,12.4179,299.8683],[4.9419,12.4286,283.2762],[4.9345,12.4371,304.7068],[4.9309,12.447,311.5688],[4.9389,12.4727,290.5313],[4.9413,12.4953,292.2961],[4.9468,12.5194,290.2672],[4.941,12.5486,274.7325],[4.9378,12.5883,253.2964],[4.9309,12.599,266.346],[4.9283,12.6108,274.775],[4.9241,12.6414,265.2945],[4.9227,12.6751,278.7654],[4.9185,12.687,273.8305],[4.9152,12.7059,272.6721],[4.8955,12.7348,287.502],[4.8771,12.7484,279.8379],[4.8514,12.761,275.3233],[4.8293,12.7651,262.9039],[4.8228,12.7681,252.8905],[4.8241,12.7351,230.7802],[4.8093,12.6795,281.9971],[4.8031,12.639,279.7057],[4.8039,12.6067,290.7226],[4.8188,12.5646,293.9793],[4.8309,12.519,283.0618],[4.8333,12.486,263.2856],[4.8319,12.4269,250.5672],[4.8242,12.3797,269.2101],[4.8166,12.3669,298.4316],[4.8003,12.3663,281.8221],[4.749,12.3987,250.9465],[4.7274,12.4017,254.6169],[4.6807,12.394,268.1127],[4.6419,12.3797,252.2331],[4.6212,12.3562,252.373],[4.605,12.2962,241.2174],[4.6073,12.2867,238.6252],[4.6029,12.1486,233.5583]]]]}
,"properties": {"GID_2": "NGA.34.18_1","GID_0": "NGA","country": "Nigeria","GID_1": "NGA.34_1","province": "Sokoto","NL_NAME_1": "NA","county": "Tambuwal","VARNAME_2": "NA","NL_NAME_2": "NA","TYPE_2": "LocalAuthority","ENGTYPE_2": "LocalAuthority","CC_2": "NA","HASC_2": "NA","name": "Tambuwal.county","area_km2": 2206.37,"hist_schema_id": "Elevation0-9000","hist_area_km2": {"200": 112.747,"225": 174.478,"250": 604.384,"275": 678.142,"300": 509.614,"325": 124.645,"350": 2.36}}}