{"type": "Feature","bbox": [3.0006,7.0676,3.3534,7.4189],"geometry": {"type": "MultiPolygon","coordinates": [[[[3.3534,7.2285,59.5354],[3.3429,7.2368,76.45],[3.3382,7.2452,82.8785],[3.3202,7.2607,64.3277],[3.3159,7.2608,41.4239],[3.2831,7.2756,81.0485],[3.2729,7.2747,92.0042],[3.264,7.2792,74.0521],[3.2546,7.2817,84.146],[3.2396,7.2814,73.7932],[3.2312,7.2867,72.6589],[3.2209,7.2944,70.6344],[3.2011,7.3137,61.0],[3.187,7.3379,63.5061],[3.1839,7.3477,81.5933],[3.1748,7.3519,87.2069],[3.1664,7.3592,71.7561],[3.1367,7.3787,77.0033],[3.1263,7.3899,71.1615],[3.1233,7.3955,89.493],[3.1097,7.3959,75.2827],[3.0941,7.4,90.5457],[3.0683,7.4019,110.953],[3.0438,7.4117,130.5354],[3.0213,7.4165,179.7651],[3.0006,7.4189,192.0677],[3.0088,7.3582,163.7598],[3.0142,7.3371,103.2994],[3.0218,7.3222,167.259],[3.0415,7.3104,174.5768],[3.0414,7.3062,172.2982],[3.0489,7.2868,147.3202],[3.0513,7.2639,99.6325],[3.0588,7.2449,97.4953],[3.0692,7.2279,105.9068],[3.0792,7.2049,144.2481],[3.0839,7.179,120.8807],[3.0885,7.1663,121.074],[3.0982,7.1548,132.5031],[3.106,7.1498,161.487],[3.1111,7.1396,153.5737],[3.1134,7.1237,131.5233],[3.1093,7.0862,104.3278],[3.1422,7.0937,101.0877],[3.1544,7.0893,91.7394],[3.1557,7.0856,90.8988],[3.1699,7.0778,74.204],[3.1723,7.0736,104.4369],[3.1997,7.0676,91.9488],[3.2058,7.0733,69.7869],[3.216,7.0784,67.3049],[3.2323,7.0744,41.9899],[3.2488,7.0776,81.3653],[3.2652,7.0831,53.4634],[3.2736,7.0887,83.2919],[3.2817,7.1019,60.0183],[3.2844,7.1102,54.5778],[3.2952,7.1264,64.2854],[3.3029,7.1268,34.5645],[3.305,7.1317,37.9601],[3.3031,7.1435,45.5804],[3.3058,7.1494,60.8442],[3.3209,7.175,60.6544],[3.3374,7.1945,36.2863],[3.3389,7.2007,52.4258],[3.3431,7.2067,97.7657],[3.3534,7.2285,59.5354]]]]}
,"properties": {"GID_2": "NGA.28.2_1","GID_0": "NGA","country": "Nigeria","GID_1": "NGA.28_1","province": "Ogun","NL_NAME_1": "NA","county": "AbeokutaNorth","VARNAME_2": "NA","NL_NAME_2": "NA","TYPE_2": "LocalAuthority","ENGTYPE_2": "LocalAuthority","CC_2": "NA","HASC_2": "NA","name": "Abeokuta_North.county","area_km2": 801.5824,"hist_schema_id": "Elevation0-9000","hist_area_km2": {"25": 4.5856,"50": 94.7594,"75": 207.5885,"100": 170.9649,"125": 129.1882,"150": 85.497,"175": 79.0139,"200": 22.3734,"225": 7.6114}}}