{"type": "Feature","bbox": [4.4985,12.2104,4.8333,12.6405],"geometry": {"type": "MultiPolygon","coordinates": [[[[4.6051,12.2104,202.1543],[4.6073,12.2867,238.6252],[4.605,12.2962,241.2174],[4.6212,12.3562,252.373],[4.6419,12.3797,252.2331],[4.6807,12.394,268.1127],[4.7274,12.4017,254.6169],[4.749,12.3987,250.9465],[4.8003,12.3663,281.8221],[4.8166,12.3669,298.4316],[4.8242,12.3797,269.2101],[4.8319,12.4269,250.5672],[4.8333,12.486,263.2856],[4.8309,12.519,283.0618],[4.8188,12.5646,293.9793],[4.8039,12.6067,290.7226],[4.8034,12.6405,276.5023],[4.7644,12.634,285.6212],[4.6522,12.6052,265.8413],[4.5795,12.5702,250.9271],[4.5427,12.5444,253.5627],[4.5122,12.5327,240.7474],[4.5002,12.5264,237.8069],[4.4985,12.523,240.4057],[4.5039,12.5241,243.6336],[4.5245,12.5144,248.4448],[4.55,12.4992,253.37],[4.5562,12.4891,249.1438],[4.5615,12.4656,236.1972],[4.5694,12.4535,225.6163],[4.6048,12.4315,233.1097],[4.6123,12.4177,248.5086],[4.6154,12.3995,246.4082],[4.6022,12.386,231.8536],[4.5901,12.3814,235.1407],[4.553,12.3771,245.317],[4.5444,12.3719,254.3164],[4.5159,12.343,267.1638],[4.5193,12.328,279.6294],[4.5253,12.2782,264.0936],[4.5328,12.2582,244.3837],[4.545,12.2442,233.0423],[4.5578,12.2333,221.053],[4.5811,12.2197,199.5866],[4.6051,12.2104,202.1543]]]]}
,"properties": {"GID_2": "NGA.22.11_1","GID_0": "NGA","country": "Nigeria","GID_1": "NGA.22_1","province": "Kebbi","NL_NAME_1": "NA","county": "Gwandu","VARNAME_2": "NA","NL_NAME_2": "NA","TYPE_2": "LocalAuthority","ENGTYPE_2": "LocalAuthority","CC_2": "NA","HASC_2": "NA","name": "Gwandu.county","area_km2": 855.6253,"hist_schema_id": "Elevation0-9000","hist_area_km2": {"200": 6.5894,"225": 109.6226,"250": 373.2962,"275": 283.7515,"300": 80.5654,"325": 1.8002}}}