{"type": "Feature","bbox": [7.8278,11.7783,8.1072,11.9877],"geometry": {"type": "MultiPolygon","coordinates": [[[[8.0251,11.9323,547.3441],[8.0176,11.9304,540.153],[8.0038,11.939,548.2385],[7.9988,11.947,554.8713],[7.9884,11.9521,562.773],[7.9816,11.9528,571.5558],[7.9718,11.951,574.9827],[7.91,11.9293,599.5111],[7.9047,11.9368,595.5227],[7.9003,11.949,591.3025],[7.8845,11.959,589.0867],[7.8766,11.9706,598.9589],[7.8628,11.9834,603.5077],[7.8483,11.985,609.9528],[7.8408,11.9877,624.9066],[7.8376,11.9871,623.9507],[7.839,11.9623,608.0551],[7.8278,11.9246,581.528],[7.8282,11.9147,582.326],[7.8343,11.9099,575.265],[7.862,11.8417,566.7202],[7.859,11.8237,559.8787],[7.8596,11.8124,561.9696],[7.8577,11.7992,547.0398],[7.861,11.7986,553.1471],[7.8719,11.7921,568.1527],[7.883,11.783,562.2902],[7.8976,11.7783,570.5052],[7.9133,11.7783,578.9916],[7.9219,11.7835,578.8177],[7.9249,11.7895,571.9725],[7.933,11.7965,562.3414],[7.9401,11.8056,562.7579],[7.9582,11.818,568.8156],[7.9643,11.8204,563.6447],[7.9732,11.8201,556.7576],[7.9881,11.8246,548.3585],[8.0008,11.8379,534.4655],[8.0066,11.841,534.093],[8.0223,11.8442,534.9569],[8.0297,11.8498,532.2417],[8.0549,11.8573,520.6893],[8.0582,11.8596,525.8887],[8.0581,11.8626,528.891],[8.0643,11.8698,528.4691],[8.0636,11.8723,531.0031],[8.0737,11.887,532.2146],[8.0763,11.8875,532.3866],[8.0785,11.8854,529.8369],[8.0789,11.8873,531.0646],[8.0842,11.8904,524.5951],[8.0959,11.8926,517.2454],[8.1063,11.9047,505.901],[8.1072,11.9079,508.3952],[8.1057,11.9121,512.9268],[8.1019,11.9166,516.4711],[8.0972,11.9189,519.7561],[8.0927,11.9184,523.0844],[8.0542,11.9257,530.6403],[8.0483,11.9252,537.8843],[8.0412,11.9306,538.6428],[8.0251,11.9323,547.3441]]]]}
,"properties": {"GID_2": "NGA.20.19_1","GID_0": "NGA","country": "Nigeria","GID_1": "NGA.20_1","province": "Kano","NL_NAME_1": "NA","county": "Gwarzo","VARNAME_2": "NA","NL_NAME_2": "NA","TYPE_2": "LocalAuthority","ENGTYPE_2": "LocalAuthority","CC_2": "NA","HASC_2": "NA","name": "Gwarzo.county","area_km2": 363.1072,"hist_schema_id": "Elevation0-9000","hist_area_km2": {"500": 1.0373,"525": 43.3412,"550": 77.3058,"575": 167.4639,"600": 71.1798,"625": 2.7793}}}