{"type":"Feature","properties":{"GID_2":"NGA.14.4_1","GID_0":"NGA","country":"Nigeria","GID_1":"NGA.14_1","province":"Enugu","NL_NAME_1":"NA","county":"EnuguNorth","VARNAME_2":"NA","NL_NAME_2":"NA","TYPE_2":"LocalAuthority","ENGTYPE_2":"LocalAuthority","CC_2":"NA","HASC_2":"NA","name":"Enugu_North.county"},
"geometry":{"type": "MultiPolygon","coordinates": [[[[7.4397,6.4859,385.8513],[7.4367,6.4719,303.5987],[7.4375,6.4633,338.4586],[7.4362,6.4546,368.9274],[7.4331,6.4477,354.8679],[7.4327,6.4256,393.9556],[7.4299,6.4224,418.9857],[7.4302,6.4182,418.7337],[7.4515,6.4262,416.1866],[7.4646,6.4262,325.6275],[7.4777,6.4131,245.2476],[7.5171,6.4175,191.7493],[7.5127,6.4218,203.69],[7.552,6.4218,151.2693],[7.5651,6.4044,122.4132],[7.5738,6.3956,129.2419],[7.5713,6.3867,130.463],[7.5809,6.3851,121.3889],[7.5816,6.3876,114.08],[7.5929,6.3987,108.6497],[7.6006,6.4032,103.928],[7.6005,6.411,107.0262],[7.6143,6.423,107.3563],[7.6343,6.4494,129.0802],[7.6393,6.4585,102.88],[7.639,6.4691,102.6451],[7.6418,6.4746,97.0703],[7.6417,6.4795,91.7072],[7.609,6.4848,125.803],[7.5956,6.4816,128.9914],[7.5725,6.4792,129.0497],[7.5,6.4745,184.4792],[7.4821,6.4812,200.6098],[7.472,6.4821,244.6384],[7.4614,6.4855,331.2602],[7.4538,6.4868,300.5787],[7.4411,6.4845,359.4161],[7.4397,6.4859,385.8513]]]]}}