{"type":"Feature","properties":{"GID_2":"NGA.1.9_1","GID_0":"NGA","country":"Nigeria","GID_1":"NGA.1_1","province":"Abia","NL_NAME_1":"NA","county":"ObiNgwa","VARNAME_2":"NA","NL_NAME_2":"NA","TYPE_2":"LocalAuthority","ENGTYPE_2":"LocalAuthority","CC_2":"NA","HASC_2":"NA","name":"Obi_Ngwa.county"},
"geometry":{"type": "MultiPolygon","coordinates": [[[[7.3796,5.0597,53.3497],[7.3818,5.0562,54.8826],[7.3832,5.0462,51.6751],[7.3836,5.028,49.4928],[7.3878,5.028,49.7359],[7.3884,5.0243,50.9291],[7.3912,5.0247,49.1837],[7.3881,5.0187,52.5571],[7.3948,5.0205,49.1611],[7.3947,5.0173,52.7992],[7.4026,5.0047,47.3057],[7.406,5.0019,47.9835],[7.4096,4.9928,44.389],[7.4112,4.9946,47.4173],[7.4218,4.9903,49.8231],[7.4275,4.9918,41.3256],[7.4269,4.9946,30.1692],[7.429,4.9982,23.8249],[7.4358,5.0013,43.9084],[7.4435,5.0114,52.1451],[7.4559,5.0194,55.7998],[7.4698,5.0259,57.351],[7.4935,5.023,57.4801],[7.5005,5.0261,58.5166],[7.5097,5.0361,64.1014],[7.5177,5.0505,68.3572],[7.5222,5.0673,71.6377],[7.5286,5.0828,67.2766],[7.5216,5.1019,76.0172],[7.518,5.1232,79.3369],[7.5184,5.1622,67.3516],[7.5273,5.2121,94.628],[7.5373,5.2479,97.1139],[7.5379,5.2562,101.1238],[7.5339,5.2669,104.5544],[7.5225,5.2841,106.3493],[7.5019,5.2811,108.145],[7.4963,5.2789,112.6012],[7.4905,5.2732,106.936],[7.4874,5.2728,109.702],[7.4876,5.2691,107.668],[7.4812,5.26,100.7236],[7.4736,5.23,88.8242],[7.4701,5.225,78.569],[7.4443,5.2017,87.9814],[7.4214,5.1839,79.6322],[7.4147,5.1819,75.9131],[7.3916,5.1804,75.2722],[7.3806,5.1841,79.2851],[7.3742,5.1741,73.9465],[7.3524,5.1512,41.8634],[7.3511,5.1431,65.6064],[7.354,5.1398,63.7619],[7.3533,5.1336,64.6002],[7.3499,5.1282,64.7067],[7.3654,5.1258,62.8208],[7.3777,5.1201,56.8279],[7.3856,5.107,35.0858],[7.3849,5.0921,57.1221],[7.3867,5.0773,55.9342],[7.3835,5.0647,53.6082],[7.3796,5.0597,53.3497]]]]}}