{"type":"Feature","properties":{"GID_2":"NGA.30.26_1","GID_0":"NGA","country":"Nigeria","GID_1":"NGA.30_1","province":"Osun","NL_NAME_1":"NA","county":"OlaOluwa","VARNAME_2":"NA","NL_NAME_2":"NA","TYPE_2":"LocalAuthority","ENGTYPE_2":"LocalAuthority","CC_2":"NA","HASC_2":"NA","name":"Ola_Oluwa.county"},
"geometry":{"type": "MultiPolygon","coordinates": [[[[4.3243,7.651,250.7744],[4.3195,7.6588,251.5777],[4.3097,7.691,247.975],[4.2965,7.7184,260.6088],[4.2994,7.7243,260.281],[4.3175,7.7457,300.3951],[4.3225,7.7541,287.7769],[4.2956,7.7594,315.4158],[4.288,7.7642,290.718],[4.2636,7.7938,315.1287],[4.2456,7.8093,337.4339],[4.2397,7.8122,323.9574],[4.2253,7.8101,337.8176],[4.2104,7.8129,310.2686],[4.1873,7.8117,334.2446],[4.1608,7.8011,310.4476],[4.1379,7.795,269.723],[4.1325,7.7921,264.7769],[4.1184,7.7889,286.7011],[4.1136,7.7897,368.3568],[4.1011,7.7858,330.6716],[4.0766,7.7972,279.0162],[4.0683,7.7989,241.936],[4.0699,7.7658,236.7142],[4.0672,7.7405,229.8905],[4.0803,7.7294,236.5089],[4.0965,7.7195,221.2552],[4.1015,7.712,228.6422],[4.1105,7.71,220.0966],[4.1384,7.7142,239.9656],[4.158,7.7115,247.3646],[4.1778,7.6957,270.7369],[4.182,7.6867,269.6578],[4.1936,7.6747,268.0917],[4.1979,7.6682,256.3558],[4.2084,7.6597,266.1476],[4.2174,7.6474,246.544],[4.2342,7.6333,276.8669],[4.2459,7.6275,273.2746],[4.2656,7.6226,287.7955],[4.2794,7.6323,266.3145],[4.2915,7.6381,252.4167],[4.3117,7.6428,272.6617],[4.3243,7.651,250.7744]]]]}}