{"type":"Feature","properties":{"GID_2":"NGA.33.22_1","GID_0":"NGA","country":"Nigeria","GID_1":"NGA.33_1","province":"Rivers","NL_NAME_1":"NA","county":"PortHarcourt","VARNAME_2":"NA","NL_NAME_2":"NA","TYPE_2":"LocalAuthority","ENGTYPE_2":"LocalAuthority","CC_2":"NA","HASC_2":"NA","name":"Port_Harcourt.county"},
"geometry":{"type": "MultiPolygon","coordinates": [[[[7.0665,4.671,1.3848],[7.0783,4.6784,3.9786],[7.0879,4.6804,0.2955],[7.0824,4.6843,0.906],[7.0796,4.6957,0.0],[7.0774,4.6985,1.3556],[7.0557,4.704,0.0],[7.0485,4.7021,0.0],[7.0418,4.7029,2.4311],[7.0379,4.7096,1.4528],[7.0343,4.711,0.0],[7.0263,4.7113,1.4872],[7.0237,4.7079,1.348],[7.0129,4.7054,1.0828],[7.0079,4.7015,3.4582],[7.0546,4.6693,4.3463],[7.0665,4.671,1.3848]]],
[[[7.0771,4.7226,0.0],[7.0471,4.7215,2.8951],[7.039,4.7165,0.6633],[7.0368,4.7124,1.3563],[7.0435,4.7049,0.0],[7.0579,4.706,4.3496],[7.0715,4.7024,2.1679],[7.0788,4.7035,0.0],[7.0818,4.7182,0.0],[7.0801,4.7215,0.0],[7.0771,4.7226,0.0]]],
[[[7.0144,4.7205,5.1467],[7.0126,4.709,2.5616],[7.0088,4.7049,2.65],[7.0043,4.7041,2.5388],[7.0057,4.7029,1.4237],[7.0168,4.7088,4.6485],[7.0204,4.709,2.2001],[7.0221,4.7121,0.0],[7.0174,4.7235,2.6582],[7.0046,4.7349,6.4548],[7.0004,4.7426,0.2248],[6.9996,4.749,0.0],[7.001,4.7574,4.4158],[7.0035,4.7654,4.0279],[7.0071,4.771,0.1092],[7.006,4.7729,0.0],[7.0007,4.7699,3.3507],[6.9904,4.7671,0.0],[6.9751,4.7551,4.9548],[6.9649,4.7535,5.9849],[6.961,4.7563,0.0],[6.9643,4.7701,6.2279],[6.9588,4.7743,0.0],[6.9538,4.7726,2.9493],[6.9474,4.7732,3.9972],[6.9437,4.7816,4.5142],[6.9412,4.7772,5.1229],[6.9435,4.7749,3.868],[6.9437,4.7707,10.3291],[6.9401,4.7633,0.938],[6.9418,4.7596,1.1216],[6.9485,4.7565,1.1949],[6.9524,4.7446,3.0086],[6.9626,4.7396,4.2802],[6.9668,4.7301,4.23],[6.9766,4.7223,6.8991],[6.9781,4.7174,7.0697],[6.9855,4.718,11.0844],[6.9906,4.7222,5.7929],[6.9962,4.7242,10.5886],[7.0071,4.7252,4.6519],[7.0144,4.7205,5.1467]]],
[[[7.0635,4.7646,0.0],[7.0638,4.7696,1.1032],[7.0574,4.7671,1.0135],[7.0574,4.7621,5.8138],[7.0546,4.7576,0.0],[7.0568,4.7499,0.0],[7.0626,4.7418,0.0],[7.0612,4.7326,5.9218],[7.0624,4.729,1.4634],[7.0646,4.7301,2.8787],[7.0751,4.7324,4.7497],[7.0735,4.7432,0.0],[7.0649,4.7563,4.6357],[7.0635,4.7646,0.0]]],
[[[7.0638,4.7279,1.3444],[7.0665,4.7285,0.0],[7.0671,4.7299,0.0],[7.0643,4.7296,2.8787],[7.0638,4.7279,1.3444]]],
[[[7.0966,4.7949,16.963],[7.0982,4.8054,9.8751],[7.0751,4.8041,1.1382],[7.0765,4.8001,6.9469],[7.0757,4.7951,2.8646],[7.066,4.7926,1.3333],[7.0638,4.7907,0.7442],[7.0635,4.7879,1.7422],[7.0712,4.7774,0.0],[7.0707,4.769,0.6442],[7.0721,4.7665,0.6411],[7.0746,4.7679,2.6709],[7.0751,4.7704,3.8874],[7.0779,4.7712,1.3355],[7.0757,4.7682,1.3665],[7.0785,4.7663,6.3647],[7.0813,4.7557,0.0],[7.0843,4.7557,3.0208],[7.0821,4.7471,0.2938],[7.0788,4.7463,0.3358],[7.0762,4.7429,2.2332],[7.0788,4.7324,1.2711],[7.0829,4.7296,0.3278],[7.0918,4.7432,1.6405],[7.0863,4.7479,0.0],[7.0868,4.7529,0.0],[7.0946,4.7479,2.1397],[7.0935,4.7435,1.2],[7.0965,4.7413,5.0615],[7.0915,4.7371,0.512],[7.0929,4.7368,0.0],[7.0949,4.7371,2.8521],[7.0932,4.7365,0.0],[7.0943,4.7349,0.0],[7.0924,4.7318,0.0],[7.0913,4.7329,4.963],[7.0932,4.7346,0.0],[7.0924,4.7363,0.0],[7.0868,4.7326,0.6815],[7.0843,4.729,2.4856],[7.0857,4.7274,1.3979],[7.084,4.7221,0.0],[7.0854,4.7218,0.0],[7.0863,4.7185,0.0],[7.0874,4.7215,0.0],[7.0899,4.7174,0.0],[7.0885,4.704,1.9476],[7.091,4.6926,0.0],[7.0929,4.6893,3.9311],[7.0982,4.6863,4.3387],[7.1004,4.6815,6.0902],[7.1035,4.6821,6.9221],[7.1038,4.6883,3.7648],[7.101,4.6978,5.8585],[7.1003,4.721,7.2345],[7.0982,4.7271,3.5539],[7.0957,4.726,4.3696],[7.0932,4.7313,0.0],[7.0963,4.7371,5.3397],[7.0988,4.7374,1.3414],[7.0996,4.7349,0.7882],[7.0976,4.7354,0.0],[7.0949,4.7329,0.8993],[7.096,4.7299,1.2383],[7.0949,4.7287,0.0],[7.0979,4.7279,0.0],[7.0996,4.7326,3.7713],[7.0988,4.7268,0.0],[7.1004,4.7215,7.2345],[7.1045,4.7459,5.1506],[7.1032,4.7512,12.7687],[7.0943,4.7541,5.5682],[7.0928,4.7631,14.1149],[7.1061,4.7742,15.8919],[7.1041,4.7791,16.6456],[7.0967,4.7882,17.5493],[7.0966,4.7949,16.963]]],
[[[7.0765,4.7607,0.8865],[7.0765,4.7621,0.0],[7.0746,4.7604,1.9369],[7.0682,4.761,3.4494],[7.0704,4.7535,0.0],[7.0749,4.7496,0.0],[7.0762,4.7463,0.0],[7.079,4.7549,1.7071],[7.079,4.7571,0.9038],[7.0754,4.7593,1.9369],[7.0765,4.7607,0.8865]]],
[[[7.0712,4.7674,0.872],[7.0699,4.7676,0.872],[7.0704,4.7654,0.0],[7.0715,4.7654,0.0],[7.0712,4.7674,0.872]]],
[[[6.9829,4.797,11.2036],[6.977,4.7886,1.6976],[6.9738,4.7876,0.3555],[6.9729,4.7799,0.1029],[6.981,4.7726,0.0],[6.9857,4.7737,0.0],[6.9882,4.7732,1.0387],[6.9882,4.7696,0.7798],[6.9874,4.7682,0.0],[7.0004,4.774,1.5729],[7.0085,4.7732,0.9027],[7.009,4.7696,0.0],[7.0038,4.7588,0.0],[7.0035,4.751,0.0],[7.0018,4.751,0.0],[7.0057,4.7382,2.476],[7.0079,4.7371,1.4897],[7.0101,4.7388,2.9042],[7.0113,4.7368,0.6521],[7.0104,4.7482,0.9585],[7.0149,4.7529,1.3793],[7.0179,4.7532,0.5164],[7.0185,4.7554,0.8093],[7.0282,4.7579,4.5404],[7.0326,4.7554,1.2363],[7.0326,4.7526,2.4716],[7.031,4.7518,2.1974],[7.0301,4.7551,1.1894],[7.0254,4.7563,0.0],[7.0188,4.7535,0.9471],[7.0115,4.7479,0.9585],[7.0126,4.739,0.0],[7.0118,4.734,1.9328],[7.0199,4.7271,2.1166],[7.0263,4.7151,0.0],[7.0304,4.7151,0.0],[7.0449,4.7251,0.0],[7.0593,4.726,1.0315],[7.0604,4.7274,0.876],[7.0593,4.7301,0.0],[7.0599,4.7429,0.0],[7.0549,4.7485,5.1554],[7.054,4.7524,0.6797],[7.0476,4.7518,0.4735],[7.0454,4.7501,1.8451],[7.0426,4.751,2.662],[7.0418,4.7565,0.0],[7.0443,4.7596,1.071],[7.0415,4.7607,0.4829],[7.0396,4.7593,2.9501],[7.0413,4.764,3.4623],[7.0415,4.7621,1.6722],[7.0449,4.7604,3.1868],[7.0465,4.7532,0.0],[7.0526,4.7526,1.6234],[7.0549,4.766,1.8991],[7.0318,4.7682,1.5377],[7.0282,4.7704,3.9135],[7.0263,4.7765,0.0],[7.0274,4.7849,0.3757],[7.0243,4.7849,0.9691],[7.024,4.7865,0.7442],[7.0207,4.7851,1.9384],[7.0188,4.7876,0.3551],[7.0163,4.7854,5.7394],[7.011,4.7865,8.433],[7.009,4.7901,2.4261],[7.0107,4.7882,0.9323],[7.0157,4.7868,0.8572],[7.019,4.7885,0.3551],[7.0226,4.786,0.7442],[7.0174,4.7929,3.1591],[7.021,4.7946,3.0976],[7.0204,4.7915,2.7066],[7.0293,4.7899,0.2983],[7.0274,4.7787,0.0],[7.029,4.7704,1.7152],[7.0318,4.769,0.7621],[7.0451,4.7699,0.576],[7.0554,4.7668,0.0],[7.0579,4.7696,0.0],[7.0599,4.7688,0.0],[7.0624,4.7704,1.0343],[7.0629,4.7737,2.8198],[7.0685,4.7754,0.0],[7.0665,4.7796,0.0],[7.0604,4.7832,2.4189],[7.0599,4.7876,0.0],[7.0624,4.7932,0.8307],[7.069,4.7954,0.0],[7.0696,4.8032,2.6706],[7.0434,4.8027,5.1676],[7.0181,4.8077,8.1744],[7.0075,4.8084,14.4805],[7.002,4.8112,15.3323],[6.9946,4.8114,5.9031],[6.9847,4.8078,15.8957],[6.9829,4.797,11.2036]]],
[[[6.9476,4.7852,6.8431],[6.9451,4.7862,6.7109],[6.9463,4.7799,6.8482],[6.9496,4.7737,0.9647],[6.959,4.776,0.5256],[6.9635,4.7737,0.6424],[6.9657,4.7707,0.6758],[6.966,4.7635,1.394],[6.9635,4.759,1.1152],[6.9643,4.7557,1.1346],[6.9762,4.7579,2.01],[6.9832,4.7632,0.0],[6.9876,4.7699,0.7798],[6.9871,4.7732,1.0387],[6.9807,4.7721,0.0],[6.9749,4.7765,0.0],[6.9724,4.7796,0.862],[6.9732,4.7874,0.3555],[6.9476,4.7852,6.8431]]],
[[[7.074,4.804,1.1382],[7.0701,4.8037,2.6706],[7.0707,4.8018,2.5353],[7.0696,4.8001,7.4271],[7.0704,4.7963,2.4813],[7.0735,4.7951,0.432],[7.0757,4.7976,12.112],[7.074,4.804,1.1382]]]]}}