{"type": "Feature","bbox": [7.8868,12.3813,8.2828,12.8037],"geometry": {"type": "MultiPolygon","coordinates": [[[[8.1233,12.7937,513.4274],[8.1107,12.7957,499.312],[8.103,12.7995,494.4988],[8.0866,12.8037,510.7065],[8.0838,12.8033,520.4102],[8.086,12.7987,509.905],[8.0851,12.7883,512.4518],[8.0804,12.7714,513.2186],[8.0471,12.75,535.3209],[8.0282,12.7281,525.8291],[8.0162,12.7166,517.3799],[8.0051,12.7096,506.0331],[7.9967,12.7077,497.3154],[7.9744,12.7109,510.9367],[7.9697,12.7152,515.1855],[7.967,12.7212,520.6972],[7.941,12.7459,504.5151],[7.9237,12.7574,503.2613],[7.9148,12.7574,495.7426],[7.9086,12.7499,490.6674],[7.9004,12.7306,491.066],[7.8978,12.7128,484.6871],[7.8988,12.7085,484.8026],[7.8974,12.6909,499.511],[7.8946,12.6773,503.3429],[7.8889,12.6638,498.0308],[7.887,12.6509,504.5623],[7.8868,12.646,518.1703],[7.8937,12.6361,516.0465],[7.9008,12.6346,511.5826],[7.9199,12.6362,505.1246],[7.9317,12.6308,507.7327],[7.937,12.6246,512.4292],[7.9438,12.6124,513.5054],[7.9451,12.6071,505.2031],[7.9495,12.6023,509.7939],[7.9508,12.5927,525.4437],[7.9559,12.5777,512.6553],[7.9594,12.572,519.4203],[7.9619,12.5614,522.774],[7.9744,12.5673,520.8754],[7.9991,12.5708,513.4114],[8.0047,12.5701,504.5753],[8.0127,12.5638,508.3],[8.0232,12.5595,519.0806],[8.0263,12.5565,521.0494],[8.0317,12.5478,517.4363],[8.0408,12.5241,522.0894],[8.0436,12.508,520.3269],[8.0427,12.5008,512.3338],[8.0445,12.4831,512.9662],[8.0509,12.473,505.6058],[8.0587,12.4684,523.1793],[8.0606,12.4645,523.8705],[8.0597,12.4583,514.8715],[8.0637,12.4528,521.0397],[8.0682,12.4298,530.761],[8.0715,12.4259,529.6346],[8.0716,12.4169,533.1129],[8.0785,12.4045,537.2238],[8.0823,12.3927,536.2258],[8.0905,12.3813,542.4357],[8.1219,12.3994,537.9983],[8.1346,12.4129,523.2399],[8.1417,12.4479,513.6825],[8.1527,12.4826,521.9746],[8.1667,12.5068,484.3176],[8.1753,12.5256,485.9491],[8.1793,12.5434,493.9264],[8.1874,12.5557,520.5903],[8.1973,12.5616,506.9642],[8.208,12.564,501.2425],[8.2561,12.5692,495.5351],[8.2828,12.5696,477.4336],[8.2709,12.5975,493.8209],[8.2628,12.6112,494.613],[8.2548,12.6165,497.915],[8.2494,12.6224,489.0651],[8.2357,12.6195,507.2449],[8.1696,12.6243,507.1279],[8.1423,12.6319,528.6559],[8.1233,12.639099999999999,522.1933],[8.1139,12.6505,533.8148],[8.1116,12.689,516.4456],[8.1128,12.7114,511.601],[8.1248,12.7654,524.0669],[8.1233,12.7937,513.4274]]]]}
,"properties": {"GID_2": "NGA.21.15_1","GID_0": "NGA","country": "Nigeria","GID_1": "NGA.21_1","province": "Katsina","NL_NAME_1": "NA","county": "Ingawa","VARNAME_2": "NA","NL_NAME_2": "NA","TYPE_2": "LocalAuthority","ENGTYPE_2": "LocalAuthority","CC_2": "NA","HASC_2": "NA","name": "Ingawa.county","area_km2": 765.8562,"hist_schema_id": "Elevation0-9000","hist_area_km2": {"475": 26.3986,"500": 377.9066,"525": 333.7092,"550": 27.8417}}}