{"type": "Feature","bbox": [7.2781,6.8562,7.4815,7.0648],"geometry": {"type": "MultiPolygon","coordinates": [[[[7.3448,7.0648,299.9971],[7.3089,7.0519,208.1686],[7.2981,7.0408,210.3771],[7.2781,7.0137,235.6491],[7.2842,7.0109,232.0041],[7.2912,7.0045,210.6139],[7.296,6.9862,221.7931],[7.2903,6.9474,260.0953],[7.2894,6.9347,203.3184],[7.2909,6.9241,231.2821],[7.2953,6.9146,305.1313],[7.301,6.9083,262.5639],[7.3212,6.9008,281.5115],[7.3424,6.9009,292.0432],[7.3601,6.8944,311.5215],[7.3837,6.8993,336.2267],[7.3924,6.898,374.2922],[7.4071,6.8929,372.5892],[7.413,6.8898,371.4896],[7.4185,6.8823,390.9803],[7.4335,6.871,473.2473],[7.437,6.8562,498.9592],[7.4529,6.8737,416.007],[7.4592,6.8779,404.0018],[7.4652,6.8894,419.4012],[7.4658,6.8884,414.4413],[7.4715,6.8932,420.8201],[7.4815,6.9118,459.1428],[7.4772,6.9074,477.2508],[7.4668,6.9043,424.7347],[7.4553,6.905,405.9335],[7.4324,6.9146,375.7845],[7.4248,6.9193,376.9545],[7.4025,6.9257,326.102],[7.3932,6.9323,285.4478],[7.3629,6.9856,301.6841],[7.3585,7.0006,298.5784],[7.3565,7.0191,302.6232],[7.3493,7.0445,317.3074],[7.3494,7.063,281.8844],[7.3448,7.0648,299.9971]]]]}
,"properties": {"GID_2": "NGA.14.9_1","GID_0": "NGA","country": "Nigeria","GID_1": "NGA.14_1","province": "Enugu","NL_NAME_1": "NA","county": "Igbo-ezeSouth","VARNAME_2": "NA","NL_NAME_2": "NA","TYPE_2": "LocalAuthority","ENGTYPE_2": "LocalAuthority","CC_2": "NA","HASC_2": "NA","name": "Igbo-eze_South.county","area_km2": 184.7852,"hist_schema_id": "Elevation0-9000","hist_area_km2": {"175": 0.2736,"200": 7.3443,"225": 18.5829,"250": 28.8738,"275": 36.1349,"300": 30.5377,"325": 21.5097,"350": 13.6807,"375": 11.6398,"400": 7.304,"425": 5.6412,"450": 2.4838,"475": 0.5683,"500": 0.2105}}}