{"type":"Feature","properties":{"GID_2":"NGA.3.2_1","GID_0":"NGA","country":"Nigeria","GID_1":"NGA.3_1","province":"AkwaIbom","NL_NAME_1":"NA","county":"EasternObolo","VARNAME_2":"NA","NL_NAME_2":"NA","TYPE_2":"LocalAuthority","ENGTYPE_2":"LocalAuthority","CC_2":"NA","HASC_2":"NA","name":"Eastern_Obolo.county"},
"geometry":{"type": "MultiPolygon","coordinates": [[[[7.611,4.4724,0.8528],[7.6099,4.4713,0.0],[7.611,4.4699,0.0],[7.6137,4.4704,0.0],[7.6132,4.4724,0.0],[7.6121,4.471,0.0],[7.611,4.4724,0.8528]]],
[[[7.556,4.5038,1.1338],[7.556,4.504,1.1338],[7.5557,4.5041,1.1338],[7.556,4.5038,1.1338]]],
[[[7.6449,4.5246,5.1195],[7.6352,4.524,5.5771],[7.6203,4.5305,9.155],[7.6158,4.5356,11.7407],[7.6066,4.5353,6.0104],[7.604,4.5328,10.1607],[7.6051,4.5289,10.1834],[7.5987,4.5205,6.0146],[7.5957,4.5193,3.9977],[7.5982,4.5151,5.4768],[7.6046,4.5165,10.6018],[7.6049,4.5151,3.5588],[7.5976,4.5143,5.4768],[7.5946,4.5193,3.9977],[7.5896,4.5196,4.3526],[7.5846,4.5174,5.9599],[7.5837,4.5132,3.573],[7.5757,4.5135,8.3485],[7.5746,4.511,0.0],[7.5879,4.5046,0.9199],[7.5976,4.4965,0.6218],[7.6015,4.4913,4.0982],[7.6015,4.4799,0.0],[7.604,4.4765,1.1428],[7.6093,4.4729,3.0957],[7.6185,4.4738,3.8855],[7.6229,4.4799,3.6033],[7.6218,4.4815,1.045],[7.6246,4.4804,0.0],[7.6238,4.4763,1.5705],[7.6257,4.4765,0.0],[7.6415,4.4824,0.0],[7.6485,4.4879,4.5203],[7.6585,4.4904,0.0],[7.6629,4.4943,0.0],[7.6615,4.4976,0.0],[7.6535,4.4965,3.0898],[7.6599,4.4976,1.8551],[7.6607,4.4988,0.7541],[7.6585,4.5012,0.5967],[7.6507,4.5001,6.6821],[7.6412,4.501,4.1089],[7.6454,4.5015,2.9225],[7.6501,4.501,0.0],[7.6457,4.5054,5.6598],[7.6513,4.5015,0.0],[7.6579,4.5029,0.0],[7.6554,4.5101,0.9066],[7.6504,4.5143,0.0],[7.6435,4.5129,2.6887],[7.641,4.5107,2.624],[7.6351,4.5104,7.5385],[7.634,4.5115,6.5829],[7.6335,4.514,3.6681],[7.6354,4.5112,3.0684],[7.641,4.5115,2.624],[7.6435,4.5138,4.5487],[7.6493,4.5154,0.7081],[7.649,4.5218,3.2269],[7.6449,4.5246,5.1195]]],
[[[7.6776,4.519,0.0],[7.6724,4.519,0.0],[7.6687,4.5138,2.0846],[7.6638,4.5118,3.8667],[7.6568,4.5126,0.9278],[7.6568,4.5107,2.3706],[7.6624,4.5049,4.2917],[7.6657,4.4979,0.0],[7.6704,4.496,4.9778],[7.6801,4.4951,0.0],[7.7029,4.5024,12.0131],[7.7115,4.5029,0.0],[7.7385,4.5093,4.1158],[7.7757,4.5132,0.0],[7.7796,4.5149,0.0],[7.7788,4.5154,0.0],[7.7693,4.514,0.0],[7.7679,4.5149,0.0],[7.7446,4.511,2.1588],[7.7379,4.5121,3.6614],[7.7326,4.509,3.3502],[7.7299,4.5101,3.1287],[7.7238,4.5174,3.8901],[7.7146,4.5163,1.7464],[7.7049,4.5174,3.1591],[7.6957,4.511,2.1554],[7.6935,4.5107,0.792],[7.6863,4.5176,3.5144],[7.6776,4.519,0.0]]],
[[[7.6801,4.5224,6.0707],[7.6859,4.5344,10.1068],[7.6454,4.5254,5.1195],[7.6499,4.5221,5.0437],[7.6504,4.5151,0.0],[7.6546,4.5132,0.8437],[7.6576,4.5146,2.7967],[7.666,4.5135,0.0],[7.6718,4.5196,1.9966],[7.6793,4.5199,0.0],[7.6801,4.5224,6.0707]]],
[[[7.8276,4.5218,0.0],[7.8161,4.5494,15.882],[7.7699,4.5489,11.9219],[7.7453,4.5449,11.8383],[7.7358,4.5396,10.6102],[7.7339,4.5366,16.3088],[7.7109,4.5273,10.3259],[7.7004,4.5199,14.2215],[7.6974,4.516,4.6674],[7.6896,4.5163,4.7243],[7.6929,4.5118,0.792],[7.6951,4.5115,2.1554],[7.701,4.5168,1.9247],[7.7049,4.5182,3.1591],[7.7238,4.5182,3.8901],[7.7296,4.5238,11.5277],[7.7332,4.5251,2.3492],[7.7318,4.5229,0.7126],[7.7246,4.5188,0.0],[7.7288,4.5124,4.5028],[7.7329,4.5099,3.3502],[7.7379,4.5126,3.6614],[7.7446,4.5118,2.1588],[7.7824,4.5179,3.9248],[7.8082,4.5179,0.0],[7.8276,4.5218,0.0]]]]}}