{"type": "Feature","bbox": [6.96,5.9153,7.1326,6.0368],"geometry": {"type": "MultiPolygon","coordinates": [[[[6.96,5.9979,165.2329],[6.9615,5.9732,145.3223],[6.9677,5.9708,153.4716],[6.9726,5.9611,142.411],[6.9843,5.953,172.9811],[7.0081,5.9464,66.7265],[7.0372,5.93,62.3938],[7.0318,5.9236,65.3305],[7.0343,5.9181,51.569],[7.0539,5.9226,135.8229],[7.0772,5.9236,197.831],[7.1003,5.9216,275.1559],[7.1236,5.9153,321.2295],[7.1251,5.917,320.8697],[7.1319,5.9369,260.1905],[7.1307,5.951,286.0806],[7.1326,5.9626,193.3441],[7.1114,5.9688,280.7544],[7.1058,5.9779,202.0583],[7.0985,5.9824,196.6497],[7.0944,5.9871,240.0004],[7.0808,6.0187,300.2416],[7.0674,6.0295,322.9556],[7.0465,6.0368,350.8943],[7.0207,6.0351,355.989],[7.012,6.0263,354.6153],[6.9969,6.021,308.797],[6.9817,6.0086,236.0567],[6.9734,6.0085,219.5541],[6.9681,6.0068,191.4225],[6.96,5.9979,165.2329]]]]}
,"properties": {"GID_2": "NGA.4.1_1","GID_0": "NGA","country": "Nigeria","GID_1": "NGA.4_1","province": "Anambra","NL_NAME_1": "NA","county": "Aguata","VARNAME_2": "NA","NL_NAME_2": "NA","TYPE_2": "LocalAuthority","ENGTYPE_2": "LocalAuthority","CC_2": "NA","HASC_2": "NA","name": "Aguata.county","area_km2": 162.6865,"hist_schema_id": "Elevation0-9000","hist_area_km2": {"50": 0.949,"75": 4.8081,"100": 5.6938,"125": 4.9557,"150": 7.5283,"175": 16.2374,"200": 18.0086,"225": 17.5866,"250": 16.49,"275": 17.6288,"300": 19.632,"325": 13.9806,"350": 15.2869,"375": 3.9008}}}