{"type":"Feature","properties":{"GID_2":"NGA.17.26_1","GID_0":"NGA","country":"Nigeria","GID_1":"NGA.17_1","province":"Imo","NL_NAME_1":"NA","county":"OwerriWest","VARNAME_2":"NA","NL_NAME_2":"NA","TYPE_2":"LocalAuthority","ENGTYPE_2":"LocalAuthority","CC_2":"NA","HASC_2":"NA","name":"Owerri_West.county"},
"geometry":{"type": "MultiPolygon","coordinates": [[[[6.9451,5.5468,65.4964],[6.9416,5.5431,63.4048],[6.9042,5.531,62.4395],[6.9078,5.5303,61.2644],[6.9081,5.5204,58.7186],[6.9042,5.5106,62.506],[6.8985,5.5026,58.3684],[6.8913,5.4795,61.2498],[6.8924,5.4523,59.578],[6.9051,5.4401,57.9578],[6.9132,5.439,60.8187],[6.923,5.4347,52.2418],[6.9353,5.4195,52.7304],[6.9358,5.4089,50.3641],[6.9435,5.3998,51.0593],[6.9578,5.3864,50.4082],[6.9668,5.3844,56.2191],[6.9745,5.3794,53.9795],[6.9834,5.3696,55.7697],[6.9864,5.359,54.7983],[6.9812,5.3489,55.4386],[6.9786,5.3165,46.3263],[6.9862,5.2885,30.3607],[6.9893,5.2688,33.2087],[6.988,5.2601,38.6176],[6.9906,5.26,38.246],[7.0034,5.2666,41.7331],[7.0266,5.2887,50.5807],[7.0347,5.2922,55.6621],[7.0402,5.3011,54.7338],[7.0416,5.3223,57.4297],[7.0366,5.3249,53.9597],[7.0302,5.3423,60.3212],[7.0342,5.3466,59.3567],[7.0323,5.3591,61.3641],[7.0351,5.3766,64.9604],[7.0416,5.3889,67.6086],[7.0562,5.4096,72.3854],[7.0619,5.4211,73.235],[7.0625,5.4268,73.4975],[7.0592,5.4356,72.859],[7.0415,5.4475,69.788],[7.0326,5.4462,69.758],[7.0231,5.4473,53.5598],[7.0127,5.4567,68.7705],[7.008,5.466,68.0917],[7.0088,5.4738,70.9228],[7.0066,5.4807,73.263],[7.0103,5.492,70.9971],[7.0259,5.5216,84.2619],[7.0257,5.5327,103.0046],[7.0207,5.54,102.4682],[6.9973,5.5463,70.7065],[6.9731,5.5481,79.137],[6.9465,5.5451,68.4622],[6.9451,5.5468,65.4964]]]]}}