{"type": "Feature","bbox": [12.8152,13.0734,13.4861,13.7144],"geometry": {"type": "MultiPolygon","coordinates": [[[[12.9318,13.4946,294.9089],[12.924,13.4832,296.0508],[12.9062,13.4811,295.817],[12.9012,13.4852,296.1566],[12.8925,13.4856,296.0497],[12.8915,13.493,296.1758],[12.8771,13.4971,296.5276],[12.8738,13.495,297.3786],[12.8726,13.4881,297.4274],[12.8735,13.4839,296.9185],[12.8794,13.4775,298.1232],[12.8784,13.4701,296.0537],[12.8744,13.4704,296.1397],[12.8658,13.477,297.8471],[12.8585,13.48,298.2323],[12.8561,13.4759,297.9703],[12.8521,13.4741,296.7141],[12.8493,13.4704,298.0916],[12.8512,13.4686,299.024],[12.8613,13.4678,297.3172],[12.8625,13.4656,296.5807],[12.8554,13.4495,297.2845],[12.8617,13.4412,298.8065],[12.8612,13.4366,298.1486],[12.8479,13.4391,297.1796],[12.8417,13.4437,296.8364],[12.8378,13.4426,296.628],[12.8354,13.438,298.2484],[12.8387,13.4318,298.4172],[12.838,13.429,298.1572],[12.8298,13.4306,298.236],[12.8276,13.4263,299.1225],[12.8168,13.4256,298.4075],[12.8152,13.4233,297.6139],[12.8161,13.4212,299.1566],[12.829,13.4198,298.3047],[12.8316,13.4173,297.7894],[12.834,13.4044,298.0911],[12.8319,13.3987,297.1475],[12.8389,13.3908,299.157],[12.8791,13.3626,299.3781],[12.8873,13.3509,297.9984],[12.8897,13.3449,298.1071],[12.9235,13.3225,298.6691],[12.9357,13.3097,297.7117],[12.9689,13.2938,294.7339],[12.985,13.279,293.6844],[13.0055,13.2688,294.5093],[13.0285,13.2494,293.8877],[13.0585,13.2208,298.9804],[13.0761,13.198,292.3768],[13.0905,13.1713,292.8718],[13.1234,13.1496,294.4465],[13.1418,13.1353,293.8734],[13.1608,13.1156,295.5287],[13.1632,13.0955,291.6259],[13.1755,13.0752,294.0073],[13.2187,13.0734,286.4255],[13.2504,13.0774,292.8605],[13.2942,13.1007,293.7174],[13.3509,13.1407,289.3843],[13.3568,13.1468,285.8633],[13.3678,13.1844,290.4893],[13.3911,13.2417,288.1868],[13.4069,13.268,287.0813],[13.4254,13.2919,290.0569],[13.4444,13.3028,285.6444],[13.4674,13.3074,283.3317],[13.4861,13.3082,281.299],[13.483,13.3134,282.0811],[13.4777,13.3307,281.8295],[13.4715,13.3404,279.4972],[13.4589,13.3435,282.3747],[13.4544,13.3521,282.1304],[13.4603,13.3564,281.3645],[13.465,13.3626,279.8301],[13.4521,13.3652,281.4308],[13.4418,13.3641,282.5945],[13.4252,13.3723,282.5464],[13.4092,13.3876,282.7164],[13.3868,13.4126,282.3486],[13.3904,13.443,280.4307],[13.397,13.4553,278.9476],[13.4071,13.4639,278.3895],[13.4045,13.4358,280.7946],[13.4026,13.4296,278.4336],[13.4099,13.4374,278.5969],[13.4132,13.4772,276.9981],[13.4052,13.4957,277.4929],[13.3646,13.5571,278.9341],[13.3568,13.5761,278.7422],[13.3602,13.5991,276.4922],[13.3663,13.6071,275.8957],[13.3703,13.6236,273.2658],[13.3667,13.6504,277.2951],[13.3604,13.6698,277.0991],[13.3595,13.6963,278.8956],[13.3614,13.7048,282.1785],[13.359,13.7128,280.7364],[13.3538,13.7144,281.7413],[13.3491,13.7101,282.1173],[13.3411,13.71,282.5515],[13.3348,13.6933,283.6222],[13.3313,13.6915,286.3943],[13.3178,13.691,283.7719],[13.3148,13.6894,284.6053],[13.3136,13.683,285.4293],[13.3087,13.6812,284.6569],[13.3063,13.6747,285.0717],[13.2995,13.6743,284.3514],[13.2978,13.6727,284.5895],[13.3004,13.6642,285.7178],[13.2985,13.658,285.8164],[13.2933,13.6594,285.6181],[13.2832,13.6516,287.9704],[13.2745,13.6475,284.9218],[13.2712,13.6431,287.3702],[13.2754,13.6383,285.5782],[13.265,13.6311,285.8228],[13.2615,13.6224,286.6633],[13.2572,13.6178,288.7],[13.2499,13.6151,287.4301],[13.2483,13.613,288.3048],[13.2541,13.6063,287.8458],[13.2548,13.5969,289.6835],[13.2621,13.5987,289.2463],[13.2652,13.5941,288.0389],[13.2569,13.5879,289.0123],[13.2571,13.5845,287.8741],[13.2548,13.5815,290.1024],[13.2517,13.5806,288.9286],[13.2397,13.5864,289.9318],[13.2355,13.5848,289.5983],[13.2324,13.5735,289.153],[13.2331,13.5717,291.5235],[13.2385,13.5721,289.4841],[13.2414,13.5705,290.4611],[13.2411,13.5636,289.1036],[13.2376,13.5583,289.3267],[13.2321,13.5553,293.1638],[13.2216,13.5528,289.5097],[13.2201,13.5466,290.3519],[13.2185,13.5462,290.799],[13.2157,13.5515,288.6732],[13.2143,13.5503,289.9217],[13.2083,13.5266,291.4645],[13.2001,13.5225,291.1318],[13.1987,13.5188,290.1444],[13.2001,13.5115,290.7457],[13.1987,13.5103,290.576],[13.1949,13.5108,290.8619],[13.1916,13.5149,289.7264],[13.1865,13.5301,292.5599],[13.1839,13.5322,292.1192],[13.1792,13.5324,291.6893],[13.1653,13.5283,292.1838],[13.1627,13.5263,291.2195],[13.163,13.5219,291.8087],[13.158,13.5178,292.0898],[13.1594,13.514099999999999,291.8508],[13.158,13.5129,292.5378],[13.1552,13.5127,292.0731],[13.1495,13.5155,292.3864],[13.1432,13.5148,293.0308],[13.142,13.518,291.5706],[13.1453,13.5298,293.2484],[13.1444,13.5367,293.3535],[13.1498,13.5449,292.3738],[13.1482,13.5477,293.2888],[13.1456,13.5472,291.7858],[13.139,13.5401,292.3023],[13.1242,13.5397,293.3466],[13.1225,13.5362,292.8003],[13.1286,13.5284,293.8472],[13.1253,13.5247,293.1927],[13.1274,13.519,293.3727],[13.123,13.5197,294.0013],[13.1056,13.5353,293.5789],[13.1007,13.5308,293.6226],[13.0936,13.5163,293.3837],[13.0908,13.5147,294.5287],[13.0868,13.5204,291.4308],[13.0833,13.5195,292.1219],[13.072,13.5232,294.0223],[13.0671,13.5271,293.8141],[13.0675,13.531,294.4798],[13.0715,13.535,292.8318],[13.0753,13.5349,296.2921],[13.0819,13.5437,294.641],[13.0814,13.5457,293.2971],[13.0755,13.5474,292.5301],[13.065,13.5471,292.1435],[13.0577,13.5403,295.7509],[13.0548,13.5394,293.1219],[13.0492,13.5426,293.7295],[13.0476,13.5414,293.7088],[13.045,13.532,294.1907],[13.0467,13.5244,294.6495],[13.0418,13.5255,293.1855],[13.0302,13.5321,294.2817],[13.0262,13.531,294.4834],[13.012,13.5139,295.6601],[13.0078,13.5111,295.4966],[13.0045,13.5111,294.584],[13.0012,13.514,294.5302],[12.9951,13.5138,295.0467],[12.9861,13.5098,294.0945],[12.9758,13.5095,294.9535],[12.9741,13.5139,295.6372],[12.9706,13.5155,294.0854],[12.9612,13.4972,297.3748],[12.9542,13.5096,295.4715],[12.9469,13.5029,295.3583],[12.9378,13.5001,295.274],[12.9318,13.4946,294.9089]]]]}
,"properties": {"GID_2": "NGA.8.1_1","GID_0": "NGA","country": "Nigeria","GID_1": "NGA.8_1","province": "Borno","NL_NAME_1": "NA","county": "Abadam","VARNAME_2": "NA","NL_NAME_2": "NA","TYPE_2": "LocalAuthority","ENGTYPE_2": "LocalAuthority","CC_2": "NA","HASC_2": "NA","name": "Abadam.county","area_km2": 2429.786,"hist_schema_id": "Elevation0-9000","hist_area_km2": {"275": 412.322,"300": 2017.465}}}