{"type":"Feature","properties":{"GID_2":"NGA.27.4_1","GID_0":"NGA","country":"Nigeria","GID_1":"NGA.27_1","province":"Niger","NL_NAME_1":"NA","county":"Borgu","VARNAME_2":"NA","NL_NAME_2":"NA","TYPE_2":"LocalAuthority","ENGTYPE_2":"LocalAuthority","CC_2":"NA","HASC_2":"NA","name":"Borgu.county"},
"geometry":{"type": "MultiPolygon","coordinates": [[[[3.8488,10.6499,344.1106],[3.8517,10.6058,348.5638],[3.8484,10.5888,354.8869],[3.8318,10.5686,333.7948],[3.8062,10.503,303.5066],[3.801,10.4853,300.1353],[3.8022,10.4552,288.1788],[3.786,10.4054,303.7762],[3.7693,10.4158,317.0003],[3.7607,10.4186,308.5148],[3.6951,10.4538,330.8196],[3.6877,10.4564,344.3681],[3.6654,10.4425,334.0191],[3.6461,10.4351,332.3139],[3.6377,10.4276,328.5435],[3.6316,10.4168,334.9894],[3.6347,10.3949,321.7275],[3.6339,10.3899,319.2379],[3.6263,10.3736,327.1729],[3.6144,10.3557,332.1661],[3.5842,10.2784,306.1832],[3.5922,10.2533,293.5118],[3.5977,10.2418,290.2618],[3.6125,10.2217,300.664],[3.6232,10.2141,287.9056],[3.6463,10.1894,303.5703],[3.6553,10.1841,306.5321],[3.6725,10.1838,283.6273],[3.6781,10.1783,281.4338],[3.679,10.1698,289.5565],[3.6759,10.156,292.6501],[3.6761,10.1493,299.6159],[3.6701,10.1299,293.2979],[3.677,10.1326,286.9247],[3.7259,10.1421,291.6894],[3.757,10.1446,316.6972],[3.8511,10.1459,270.4034],[3.8688,10.1435,275.3636],[3.94,10.1501,283.61],[3.9861,10.1414,289.4359],[3.9983,10.1353,283.422],[4.0069,10.1197,283.2762],[4.0401,10.0894,290.0021],[4.0737,10.0543,290.9235],[4.0856,10.0412,277.1406],[4.0966,10.0252,291.5101],[4.1412,9.9706,280.9016],[4.1711,9.938,272.059],[4.1884,9.9164,263.8004],[4.2242,9.8813,251.5047],[4.2439,9.8574,220.7112],[4.2563,9.8317,212.0576],[4.2761,9.8127,203.4143],[4.3027,9.7762,239.0813],[4.3469,9.7279,252.7983],[4.3687,9.7101,272.4445],[4.384,9.7026,262.5967],[4.4115,9.7054,226.6632],[4.4281,9.6977,208.3218],[4.4323,9.6788,202.6307],[4.4326,9.6506,201.3856],[4.4281,9.6367,224.8482],[4.4208,9.5761,187.4479],[4.4226,9.5438,183.2829],[4.4217,9.4897,249.2312],[4.4263,9.4514,252.069],[4.4359,9.4307,260.2679],[4.4569,9.4245,258.5097],[4.5128,9.429,186.2606],[4.5513,9.4361,176.8569],[4.5792,9.4373,153.5494],[4.581,9.4357,152.6659],[4.5828,9.4509,128.9062],[4.5784,9.4606,142.7664],[4.5518,9.4954,106.2178],[4.544,9.5124,100.0],[4.5389,9.5316,100.0],[4.5377,9.5447,100.0],[4.5447,9.5737,100.4602],[4.5518,9.5869,100.4578],[4.5633,9.6032,102.1276],[4.5784,9.6167,100.0],[4.5863,9.6332,100.0],[4.5924,9.6534,100.0],[4.6003,9.6696,100.0],[4.6116,9.6863,102.6595],[4.6197,9.7024,104.2924],[4.6265,9.7188,102.3471],[4.6312,9.7658,100.0],[4.626,9.7888,115.9312],[4.6266,9.7941,115.8657],[4.6211,9.7994,118.1361],[4.6151,9.8174,129.2549],[4.6033,9.8706,130.0],[4.5881,9.9116,130.0],[4.5739,9.9635,130.0],[4.5706,9.9888,130.0],[4.5711,10.0106,130.0],[4.5753,10.0275,130.0],[4.575,10.0425,130.0],[4.57,10.0713,130.0],[4.5545,10.0917,130.0],[4.5521,10.1044,140.4121],[4.5531,10.1072,143.5775],[4.5466,10.1099,135.4146],[4.5401,10.119,130.0],[4.5378,10.14,130.0],[4.5396,10.1555,130.0],[4.5488,10.191,130.0],[4.5563,10.2079,134.3941],[4.5609,10.2373,130.0],[4.5595,10.2525,130.0],[4.561,10.271,130.0],[4.5507,10.2851,130.0],[4.5137,10.3135,130.0],[4.5047,10.3272,130.0],[4.4955,10.3521,130.0],[4.4964,10.3706,130.0],[4.4937,10.3915,130.0],[4.4946,10.4252,130.0],[4.4983,10.4382,130.0],[4.4985,10.4532,130.0],[4.5045,10.4755,130.0],[4.5221,10.5053,134.2392],[4.5406,10.5264,130.0],[4.5104,10.5312,130.0],[4.4996,10.5347,130.0],[4.4868,10.5341,130.0],[4.4678,10.537,138.4933],[4.4608,10.5348,148.6572],[4.4442,10.5334,150.491],[4.4366,10.5361,151.4133],[4.4231,10.5379,158.1805],[4.3957,10.5389,193.4213],[4.3823,10.5427,206.2427],[4.3709,10.54,214.4271],[4.3621,10.5353,205.3369],[4.3483,10.5344,193.8624],[4.3495,10.5483,204.6687],[4.3653,10.569,195.9328],[4.3737,10.5938,208.661],[4.3837,10.6443,172.6853],[4.3974,10.6696,179.9218],[4.4047,10.7154,180.2447],[4.4034,10.7382,161.024],[4.3898,10.778,167.0242],[4.3845,10.8117,206.327],[4.3842,10.8329,220.8977],[4.3772,10.8665,219.9702],[4.3833,10.9102,237.5326],[4.3637,10.9661,235.4612],[4.3526,10.9888,206.3451],[4.3447,10.998,197.5509],[4.3415,11.0134,211.4793],[4.3423,11.0145,206.1677],[4.3014,11.013,222.8257],[4.2897,11.0161,234.2863],[4.2351,11.0191,229.8555],[4.1854,11.013,198.6171],[4.1682,11.0163,229.6051],[4.1377,11.0118,267.5563],[4.1079,11.0117,294.0715],[4.0708,11.0048,325.8441],[4.0385,11.0063,304.6612],[4.0085,11.0108,285.3588],[3.9522,11.0335,274.5856],[3.8907,11.0642,243.5862],[3.8203,11.1073,210.0719],[3.7989,11.1153,203.2529],[3.7738,11.1305,209.045],[3.7581,11.1347,195.7686],[3.7272,11.1362,199.4774],[3.7119,11.1281,199.9907],[3.7175,11.1278,197.4673],[3.7259,11.1241,207.9754],[3.7275,11.1177,213.7786],[3.7192,11.0867,223.7063],[3.7238,11.0556,238.1791],[3.7215,11.0425,252.9041],[3.7173,11.0352,268.3959],[3.7169,11.0243,270.2728],[3.7342,11.0198,284.8194],[3.7515,11.0114,260.2145],[3.7595,10.9972,249.6268],[3.7712,10.9308,242.2904],[3.7691,10.8981,251.303],[3.7492,10.8375,261.0828],[3.7495,10.8247,253.4114],[3.7522,10.8159,251.2905],[3.7722,10.7852,255.4036],[3.7852,10.7535,269.876],[3.7975,10.7352,299.6467],[3.8127,10.7232,287.1739],[3.8331,10.7123,301.0037],[3.841,10.7049,298.9868],[3.844,10.6929,301.7988],[3.8459,10.6711,317.64],[3.848,10.6677,324.0406],[3.8488,10.6499,344.1106]]]]}}