{"type":"Feature","properties":{"GID_2":"NGA.25.4_1","GID_0":"NGA","country":"Nigeria","GID_1":"NGA.25_1","province":"Lagos","NL_NAME_1":"NA","county":"AmuwoOdofin","VARNAME_2":"NA","NL_NAME_2":"NA","TYPE_2":"LocalAuthority","ENGTYPE_2":"LocalAuthority","CC_2":"NA","HASC_2":"NA","name":"Amuwo_Odofin.county"},
"geometry":{"type": "MultiPolygon","coordinates": [[[[3.307,6.4778,4.074],[3.3118,6.4963,2.4638],[3.308,6.516,4.461],[3.3114,6.5285,11.7194],[3.2889,6.5237,10.7805],[3.2838,6.5212,6.0611],[3.2794,6.5213,5.5184],[3.2733,6.5246,4.8469],[3.2619,6.5228,17.1094],[3.2437,6.5251,10.4162],[3.2158,6.5236,4.201],[3.2192,6.5186,3.3677],[3.2205,6.5129,3.8651],[3.2163,6.4966,3.3997],[3.2106,6.458,7.4254],[3.2045,6.4525,0.0],[3.1901,6.4463,1.9645],[3.1866,6.4418,0.9932],[3.1846,6.4331,2.6197],[3.1854,6.4037,0.0],[3.2554,6.4054,0.0],[3.2924,6.4054,4.4018],[3.2974,6.404,7.151],[3.3013,6.4057,4.6639],[3.3076,6.404,4.495],[3.3135,6.4051,4.055],[3.3157,6.4037,1.8418],[3.334,6.4037,3.7006],[3.3351,6.4024,4.2337],[3.3393,6.4032,3.9128],[3.3396,6.4021,3.9128],[3.3521,6.4018,3.4573],[3.3692,6.3987,1.0258],[3.3685,6.4094,0.0],[3.3608,6.4199,0.0],[3.3517,6.4224,2.0348],[3.3419,6.4196,1.8178],[3.3343,6.4215,3.2687],[3.3309,6.42,3.3566],[3.3243,6.4447,6.1309],[3.3123,6.4549,4.2947],[3.3089,6.4623,7.4592],[3.3063,6.4718,5.5684],[3.307,6.4778,4.074]]]]}}