{"type":"Feature","properties":{"GID_2":"NGA.25.18_1","GID_0":"NGA","country":"Nigeria","GID_1":"NGA.25_1","province":"Lagos","NL_NAME_1":"NA","county":"Oshodi/Isolo","VARNAME_2":"NA","NL_NAME_2":"NA","TYPE_2":"LocalAuthority","ENGTYPE_2":"LocalAuthority","CC_2":"NA","HASC_2":"NA","name":"Oshodi_Isolo.county"},
"geometry":{"type": "MultiPolygon","coordinates": [[[[3.2746,6.5244,4.8469],[3.2794,6.5213,5.5184],[3.2838,6.5212,6.0611],[3.2889,6.5237,10.7805],[3.3114,6.5285,11.7194],[3.3212,6.5342,4.8655],[3.3281,6.5627,14.6638],[3.3333,6.5683,28.4619],[3.3446,6.5748,26.1994],[3.3356,6.5973,38.7504],[3.3321,6.5946,39.4132],[3.3273,6.5857,33.9652],[3.3187,6.5787,24.9982],[3.3154,6.5795,19.4481],[3.3076,6.5907,33.4848],[3.2969,6.5862,35.5228],[3.286,6.5848,38.1685],[3.2802,6.5801,34.7471],[3.2775,6.5713,35.0143],[3.2775,6.5425,22.1445],[3.2746,6.5244,4.8469]]]]}}