{"type":"Feature","properties":{"GID_2":"NGA.7.3_1","GID_0":"NGA","country":"Nigeria","GID_1":"NGA.7_1","province":"Benue","NL_NAME_1":"NA","county":"Apa","VARNAME_2":"NA","NL_NAME_2":"NA","TYPE_2":"LocalAuthority","ENGTYPE_2":"LocalAuthority","CC_2":"NA","HASC_2":"NA","name":"Apa.county"},
"geometry":{"type": "MultiPolygon","coordinates": [[[[7.7554,7.7453,195.6769],[7.7579,7.7211,215.5992],[7.7576,7.6868,217.3375],[7.7544,7.6451,203.5321],[7.7574,7.6035,187.7178],[7.7622,7.5695,283.2618],[7.7637,7.5353,281.7498],[7.7837,7.4462,266.8533],[7.8042,7.4292,270.6556],[7.8204,7.4283,255.804],[7.8548,7.4459,243.5633],[7.8937,7.4715,277.5162],[7.9157,7.4893,226.9556],[7.9322,7.4964,211.4799],[7.9637,7.5185,165.3279],[7.9972,7.5382,152.5973],[8.0122,7.5501,145.036],[8.0221,7.5633,151.3094],[8.0324,7.5733,145.6678],[8.0546,7.5925,143.9916],[8.0668,7.6006,161.217],[8.0768,7.6119,144.6124],[8.0645,7.6725,113.8842],[8.0631,7.6917,132.5306],[8.0627,7.6905,132.5306],[8.0487,7.6933,133.7627],[8.0345,7.7005,121.1129],[8.0177,7.7051,117.156],[7.9995,7.7091,112.2831],[7.9852,7.7094,116.1525],[7.9689,7.7136,107.9971],[7.9513,7.7224,125.028],[7.9205,7.7312,159.4728],[7.9066,7.7388,196.6456],[7.895,7.748,177.1358],[7.8659,7.7598,206.1205],[7.847,7.7645,204.3707],[7.8378,7.7628,162.1111],[7.829,7.7636,193.9886],[7.7985,7.7584,193.6221],[7.7554,7.7453,195.6769]]]]}}