{"type":"Feature","properties":{"GID_2":"NGA.3.16_1","GID_0":"NGA","country":"Nigeria","GID_1":"NGA.3_1","province":"AkwaIbom","NL_NAME_1":"NA","county":"Itu","VARNAME_2":"NA","NL_NAME_2":"NA","TYPE_2":"LocalAuthority","ENGTYPE_2":"LocalAuthority","CC_2":"NA","HASC_2":"NA","name":"Itu.county"},
"geometry":{"type": "MultiPolygon","coordinates": [[[[7.8523,5.0246,73.5258],[7.8611,5.0239,72.8123],[7.8781,5.0351,64.6947],[7.8927,5.0425,66.2234],[7.9126,5.0573,70.2248],[7.92,5.0604,71.9912],[7.9197,5.0676,58.741],[7.9286,5.0694,24.5733],[7.9297,5.0729,21.6774],[7.9358,5.08,16.9551],[7.9474,5.0881,51.8423],[7.9611,5.0925,65.8134],[7.9967,5.0948,20.9155],[8.0032,5.0982,22.7348],[8.0416,5.107,11.2328],[8.054,5.1118,14.7262],[8.0549,5.1339,15.279],[8.0579,5.1456,8.8029],[8.059,5.1732,7.4284],[8.0651,5.19,3.6672],[8.0638,5.2098,6.3958],[8.0587,5.224,14.644],[8.0475,5.2327,12.0366],[8.0275,5.2391,11.5046],[8.0086,5.2544,10.9054],[7.9952,5.2606,7.0083],[7.9885,5.256,14.1087],[7.9829,5.2414,10.0801],[7.9764,5.2374,3.0],[7.9719,5.2301,3.0],[7.9752,5.2203,5.3598],[7.9733,5.2169,2.5],[7.9693,5.2124,3.2863],[7.9584,5.2075,7.613],[7.9493,5.1913,27.9289],[7.9397,5.1824,62.4161],[7.9364,5.1751,63.3324],[7.9362,5.1507,40.1461],[7.9224,5.135,44.2257],[7.9013,5.1186,21.157],[7.899,5.1156,21.7749],[7.8965,5.1064,54.0896],[7.8819,5.0869,56.78],[7.8827,5.0804,78.4911],[7.8799,5.0761,81.2082],[7.8687,5.0694,76.8986],[7.8686,5.065,74.5457],[7.8612,5.0462,70.5667],[7.8553,5.0366,67.1126],[7.8523,5.0246,73.5258]]]]}}