{"type":"Feature","properties":{"GID_1":"NGA.1_1","GID_0":"NGA","country":"Nigeria","province":"Abia","VARNAME_1":"NA","NL_NAME_1":"NA","TYPE_1":"State","ENGTYPE_1":"State","CC_1":"NA","HASC_1":"NG.AB","ISO_1":"NG-AB","name":"Abia.province"},
"geometry":{"type": "MultiPolygon","coordinates": [[[[7.4628,4.9818,37.8373],[7.4704,4.9923,50.208],[7.469,5.0047,57.5624],[7.4865,5.0199,55.0306],[7.5005,5.0261,58.5166],[7.5097,5.0361,64.1014],[7.5177,5.0505,68.3572],[7.5222,5.0673,71.6377],[7.5286,5.0828,67.2766],[7.5216,5.1019,76.0172],[7.518,5.1232,79.3369],[7.5184,5.1622,67.3516],[7.5273,5.2121,94.628],[7.5373,5.2479,97.1139],[7.5379,5.2562,101.1238],[7.5339,5.2669,104.5544],[7.5271,5.2755,107.4663],[7.5206,5.2876,108.6302],[7.5217,5.2998,107.185],[7.5289,5.3108,95.048],[7.5395,5.3157,69.7446],[7.5634,5.3171,90.9907],[7.5852,5.3117,76.2283],[7.624,5.3101,120.9165],[7.6379,5.3131,120.1105],[7.6496,5.3276,115.5726],[7.6609,5.3671,99.1759],[7.6528,5.3691,104.9871],[7.6385,5.3652,76.4592],[7.6248,5.3645,73.6512],[7.6196,5.3717,58.1215],[7.622,5.3881,53.8647],[7.6327,5.4066,55.0093],[7.6364,5.4241,41.0947],[7.6447,5.4343,38.6242],[7.6494,5.4543,33.9916],[7.6498,5.4654,40.4071],[7.6469,5.488,50.9076],[7.6408,5.5112,92.458],[7.6454,5.5259,80.6949],[7.6605,5.5291,48.5713],[7.6845,5.5282,64.0055],[7.7232,5.5211,47.6741],[7.7394,5.5134,35.9663],[7.7503,5.5022,23.3162],[7.7587,5.4896,25.649],[7.7625,5.4681,31.043],[7.7681,5.4555,26.7865],[7.7915,5.4343,24.4319],[7.8125,5.4208,33.0187],[7.8258,5.416,35.2971],[7.8442,5.4122,44.9235],[7.8536,5.4072,35.972],[7.8748,5.3905,11.6752],[7.8878,5.3778,8.1966],[7.8971,5.365,9.5205],[7.9132,5.3617,15.7833],[7.9361,5.3539,23.2956],[7.9523,5.3527,67.3831],[7.962,5.3724,145.4406],[7.9498,5.4136,46.3051],[7.9221,5.446,43.5505],[7.9103,5.4731,54.6766],[7.9065,5.4942,50.1326],[7.8971,5.526,77.1171],[7.8882,5.548,59.9647],[7.8855,5.5778,36.4153],[7.8857,5.6092,73.3407],[7.8945,5.6536,41.2487],[7.8953,5.6695,43.1079],[7.8874,5.6851,57.1526],[7.8778,5.6903,51.2416],[7.8562,5.6937,99.7231],[7.8418,5.7059,129.5181],[7.8196,5.7197,203.2034],[7.8044,5.7315,149.9646],[7.7931,5.7483,103.9917],[7.7895,5.7837,91.7916],[7.7799,5.8041,78.4224],[7.7694,5.8138,62.4922],[7.6615,5.8186,59.9889],[7.6385,5.8229,63.3506],[7.6105,5.8218,63.5738],[7.5418,5.8278,75.196],[7.5266,5.8444,77.2864],[7.5259,5.8562,78.2242],[7.5282,5.8878,61.0476],[7.5347,5.9024,51.8095],[7.5354,5.9188,64.9667],[7.5324,5.9631,64.3984],[7.5339,5.9811,60.2404],[7.5303,5.9855,62.9876],[7.5284,5.9967,62.1075],[7.4952,6.0182,70.2777],[7.4514,6.0227,181.2904],[7.4052,6.0184,377.1938],[7.3808,6.0121,300.0648],[7.3734,6.0083,278.6279],[7.3705,6.0178,280.2017],[7.3637,6.0207,285.8017],[7.3348,6.0094,218.9465],[7.3088,5.9951,194.5677],[7.2926,5.9834,174.8298],[7.2823,5.972,159.4679],[7.2706,5.9623,125.1196],[7.2501,5.9263,145.3077],[7.252,5.9259,145.7137],[7.2688,5.9065,124.1531],[7.2825,5.8991,140.8828],[7.2963,5.8933,139.64],[7.3156,5.8889,150.719],[7.3385,5.8776,196.2997],[7.3532,5.8758,190.6148],[7.3689,5.8702,231.8472],[7.3782,5.864,248.3605],[7.3856,5.8468,244.2997],[7.3933,5.825,220.5731],[7.3924,5.7807,205.2497],[7.3943,5.7595,190.1978],[7.4004,5.737,112.7245],[7.3994,5.6879,87.88],[7.3961,5.6854,73.4607],[7.3857,5.6833,72.382],[7.3796,5.6755,95.1041],[7.3915,5.6541,95.5173],[7.4039,5.6359,95.6073],[7.3994,5.6027,105.9774],[7.4033,5.5842,77.559],[7.4028,5.5688,84.7306],[7.4052,5.547,57.9002],[7.4043,5.5323,55.6777],[7.3982,5.5144,69.4979],[7.3839,5.4999,57.7065],[7.3785,5.4824,62.9293],[7.3649,5.4506,62.3424],[7.3538,5.4386,48.3025],[7.3353,5.4234,47.5033],[7.3185,5.3958,42.2772],[7.3015,5.3608,51.1273],[7.2764,5.2733,40.9921],[7.2721,5.2496,42.3268],[7.2623,5.2173,38.3451],[7.2515,5.1947,32.5859],[7.2603,5.194,51.8296],[7.2709,5.1661,58.333],[7.2697,5.1463,63.4126],[7.2718,5.1211,62.0804],[7.2642,5.1054,59.5336],[7.2562,5.0976,53.2152],[7.2463,5.0833,52.7586],[7.2331,5.0533,48.1545],[7.2063,5.0205,37.536],[7.2003,5.0068,35.9763],[7.178,4.9832,18.9202],[7.167,4.9596,16.8954],[7.1557,4.9231,14.67],[7.1532,4.9054,16.7585],[7.1628,4.8875,17.4992],[7.1732,4.8769,9.3724],[7.1862,4.8647,15.1889],[7.1989,4.8617,13.9478],[7.2152,4.8603,11.2982],[7.2282,4.866,16.4702],[7.2574,4.8674,9.2729],[7.2657,4.8698,9.3849],[7.2837,4.8801,11.4834],[7.3021,4.8765,11.5836],[7.3183,4.8781,9.1414],[7.3287,4.8821,11.5306],[7.3574,4.8694,9.2233],[7.3817,4.8623,11.1757],[7.4109,4.8692,12.6468],[7.4295,4.8621,13.1624],[7.4583,4.8464,13.2215],[7.493,4.8154,12.0062],[7.4993,4.8206,9.914],[7.4944,4.8474,10.5188],[7.4655,4.9019,35.7639],[7.4763,4.9282,17.4703],[7.4759,4.9472,16.4927],[7.4664,4.9579,44.9102],[7.4626,4.9679,16.6675],[7.4628,4.9818,37.8373]]]]}}