{"type": "Feature","id": "2841","bbox": [7.16332,4.81738,7.95707,6.02219],"geometry": {"type": "Polygon","coordinates": [[[7.53353,5.97297,58.1178],[7.46831,6.02219,97.157],[7.42004,6.02038,316.1146],[7.3725,6.0125,283.6038],[7.36981,6.01594,284.745],[7.36372,6.02061,285.8017],[7.29664,5.98527,181.3925],[7.25013,5.92625,145.3077],[7.27142,5.90796,117.8028],[7.32165,5.88248,161.5742],[7.34945,5.8762,179.5113],[7.3879,5.84207,259.6589],[7.40082,5.73006,102.7266],[7.3909,5.68428,68.7896],[7.38201,5.67012,80.2377],[7.39338,5.65121,120.8319],[7.40041,5.62529,97.6459],[7.40041,5.59788,90.8357],[7.40433,5.57067,91.2305],[7.40495,5.54318,57.2805],[7.39741,5.51956,54.9635],[7.38366,5.49899,57.7065],[7.37426,5.47259,63.3189],[7.36227,5.44778,53.2262],[7.32444,5.40546,47.4646],[7.25148,5.1947,32.5859],[7.27142,5.15788,61.4315],[7.26615,5.10938,57.101],[7.16332,4.9514,16.2946],[7.17654,4.87366,13.897],[7.21716,4.86115,14.0908],[7.29943,4.87795,11.2764],[7.33829,4.87864,10.1808],[7.37643,4.86358,9.8821],[7.42945,4.86208,12.7027],[7.49632,4.81738,9.7659],[7.48919,4.85885,11.2891],[7.46717,4.89854,37.0709],[7.47017,4.91497,41.6627],[7.47616,4.93311,18.0004],[7.46283,4.98171,37.8373],[7.48526,5.01773,55.8973],[7.51771,5.05044,68.3572],[7.52371,5.09522,73.2251],[7.51761,5.14142,82.3404],[7.52185,5.18496,89.9078],[7.53549,5.24733,97.5874],[7.53394,5.26681,104.5544],[7.52329,5.28485,106.3493],[7.52526,5.30526,111.5488],[7.57011,5.31745,95.0914],[7.62086,5.31043,121.7775],[7.65,5.32936,111.0929],[7.6562,5.34802,130.0555],[7.64587,5.36699,95.4139],[7.62127,5.37425,57.3212],[7.622,5.38804,53.8647],[7.6469,5.44251,31.4692],[7.64081,5.51114,92.458],[7.66716,5.52992,55.6113],[7.7053,5.52411,75.6894],[7.7547,5.48928,25.8901],[7.78881,5.43696,25.0789],[7.84513,5.40556,46.9076],[7.89712,5.36497,9.5205],[7.94456,5.35613,49.4464],[7.95707,5.39148,72.4743],[7.90839,5.48364,47.5446],[7.88554,5.58883,78.6539],[7.89433,5.64464,72.191],[7.87779,5.69027,51.2416],[7.84079,5.70371,142.8016],[7.80834,5.72838,161.2462],[7.79211,5.75918,106.2782],[7.78467,5.79383,83.0424],[7.73093,5.81884,51.3046],[7.58561,5.82058,63.9036],[7.52619,5.85026,79.1404],[7.53518,5.9145,60.8689],[7.53353,5.97297,58.1178]]]}
,"properties": {"ISO3166-1-Alpha-3": "NGA","country": "Nigeria","fill": "#F0F","name": "Abia","area_km2": 4725.736,"hist_schema_id": "Elevation0-9000","hist_area_km2": {"0": 73.324,"25": 392.522,"50": 885.321,"75": 1092.505,"100": 1005.29,"125": 620.408,"150": 265.57,"175": 125.706,"200": 82.284,"225": 53.762,"250": 44.818,"275": 32.119,"300": 18.937,"325": 13.918,"350": 10.522,"375": 5.272,"400": 3.037,"425": 0.422}}}