{"type":"Feature","properties":{"GID_2":"NGA.21.10_1","GID_0":"NGA","country":"Nigeria","GID_1":"NGA.21_1","province":"Katsina","NL_NAME_1":"NA","county":"Daura","VARNAME_2":"NA","NL_NAME_2":"NA","TYPE_2":"LocalAuthority","ENGTYPE_2":"LocalAuthority","CC_2":"NA","HASC_2":"NA","name":"Daura.county"},
"geometry":{"type": "MultiPolygon","coordinates": [[[[8.2156,12.8708,472.0542],[8.2482,12.8764,448.9346],[8.3087,12.9149,485.2014],[8.3119,12.9205,488.4422],[8.3127,12.9337,481.3587],[8.3075,12.9643,472.204],[8.3088,12.9701,465.7001],[8.3292,12.9851,488.4021],[8.3447,12.9931,480.2269],[8.3481,12.9978,474.8304],[8.3442,13.0205,464.7817],[8.3391,13.0373,466.5536],[8.3321,13.0391,460.0786],[8.3027,13.0341,479.177],[8.2911,13.0359,481.0647],[8.2808,13.0415,481.0355],[8.2428,13.0764,477.9916],[8.2299,13.0843,478.1898],[8.2221,13.0854,474.0735],[8.2167,13.089,478.6524],[8.2057,13.0852,478.808],[8.1937,13.0763,472.0096],[8.1739,13.0676,458.5129],[8.1621,13.0573,446.051],[8.1434,13.0527,442.7583],[8.1406,13.0461,436.6471],[8.1561,13.0302,442.1867],[8.1558,13.0282,446.569],[8.1598,13.0222,442.4908],[8.1639,13.007,450.6883],[8.166,12.9733,472.2053],[8.1694,12.9632,474.0211],[8.1767,12.9564,468.2574],[8.1815,12.949,464.7368],[8.1934,12.9213,451.8476],[8.2086,12.8944,469.351],[8.2114,12.8797,473.9894],[8.2156,12.8708,472.0542]]]]}}