{"type":"Feature","properties":{"GID_2":"NGA.25.9_1","GID_0":"NGA","country":"Nigeria","GID_1":"NGA.25_1","province":"Lagos","NL_NAME_1":"NA","county":"Ibeju-Lekki","VARNAME_2":"IbejuLekki","NL_NAME_2":"NA","TYPE_2":"LocalAuthority","ENGTYPE_2":"LocalAuthority","CC_2":"NA","HASC_2":"NA","name":"Ibeju-Lekki.county"},
"geometry":{"type": "MultiPolygon","coordinates": [[[[3.6621,6.4944,6.5633],[3.666,6.4871,4.4633],[3.6681,6.4753,3.2423],[3.6581,6.47,7.5774],[3.6474,6.4672,7.1036],[3.6395,6.4601,5.05],[3.6361,6.4538,4.6387],[3.6296,6.449,4.7223],[3.6213,6.4249,2.187],[3.6601,6.4246,0.0],[3.7129,6.4274,3.2107],[3.8029,6.4396,5.7512],[3.9132,6.4368,0.0],[3.9888,6.4282,4.3665],[4.0007,6.4249,0.0],[4.0757,6.4138,13.4216],[4.1513,6.3988,4.7186],[4.1532,6.4026,3.2245],[4.1551,6.3979,1.3449],[4.2015,6.3896,0.0],[4.2435,6.3843,3.7973],[4.2149,6.4117,3.8563],[4.2058,6.4169,8.0195],[4.1934,6.4199,10.7627],[4.1884,6.4246,0.0],[4.1698,6.4189,5.1478],[4.1583,6.4177,6.6692],[4.1501,6.4268,13.1569],[4.1435,6.4299,11.0899],[4.1292,6.4302,6.1944],[4.1078,6.4213,8.6147],[4.0995,6.4199,6.3337],[4.0759,6.4327,15.7351],[4.0621,6.4313,12.7053],[4.0546,6.44,13.2323],[4.0414,6.4494,12.4525],[4.0352,6.4643,13.8881],[4.0267,6.4697,0.0],[4.0049,6.4749,10.4685],[3.998,6.478,14.8364],[3.9941,6.4811,11.3515],[3.9935,6.4871,12.9611],[3.9913,6.4904,9.8116],[3.984,6.4969,0.0],[3.9757,6.4978,0.0],[3.9676,6.4963,7.7756],[3.9644,6.4989,9.1153],[3.9652,6.5037,1.2352],[3.9474,6.5001,14.0699],[3.927,6.5067,0.0],[3.9095,6.5099,0.0],[3.9064,6.5158,3.5026],[3.8934,6.527,9.8002],[3.8873,6.5382,6.6607],[3.8738,6.5421,8.679],[3.864,6.549,12.5717],[3.8456,6.5539,7.4844],[3.8147,6.554,9.5558],[3.8076,6.5552,9.2756],[3.7822,6.543,11.6796],[3.7382,6.5177,9.3983],[3.728,6.5135,13.1311],[3.7227,6.5145,8.8571],[3.6621,6.4944,6.5633]]]]}}