{"type":"Feature","properties":{"GID_2":"NGA.10.6_1","GID_0":"NGA","country":"Nigeria","GID_1":"NGA.10_1","province":"Delta","NL_NAME_1":"NA","county":"EthiopeEast","VARNAME_2":"NA","NL_NAME_2":"NA","TYPE_2":"LocalAuthority","ENGTYPE_2":"LocalAuthority","CC_2":"NA","HASC_2":"NA","name":"Ethiope_East.county"},
"geometry":{"type": "MultiPolygon","coordinates": [[[[5.9899,5.7513,9.1936],[5.9892,5.7527,8.0924],[5.9687,5.748,13.9888],[5.9379,5.7439,7.8588],[5.918,5.739,8.4449],[5.8933,5.7419,10.4537],[5.8835,5.7481,6.2461],[5.8905,5.7685,10.6678],[5.8818,5.7634,9.5984],[5.8809,5.751,8.1687],[5.8601,5.7338,16.2118],[5.8574,5.7288,9.8706],[5.8488,5.7202,11.8489],[5.8451,5.7096,12.652],[5.8404,5.7019,13.8671],[5.8437,5.6931,15.2093],[5.8591,5.6776,18.7604],[5.8658,5.6733,14.4244],[5.8708,5.6723,14.813],[5.8795,5.6644,16.2888],[5.8934,5.6584,11.8424],[5.8993,5.653,11.3158],[5.9101,5.6357,14.8239],[5.9111,5.6244,13.619],[5.9054,5.6089,9.5794],[5.911,5.6062,10.3215],[5.9205,5.5913,10.2046],[5.9321,5.5794,16.0572],[5.9345,5.5738,12.6811],[5.9455,5.5706,20.9558],[5.9583,5.5642,18.2044],[5.9694,5.5644,13.2101],[5.9782,5.568,10.9756],[6.0162,5.5918,11.9956],[6.0278,5.5966,12.5619],[6.0458,5.6106,15.8246],[6.0537,5.6234,13.1394],[6.0556,5.6312,23.1535],[6.0475,5.6581,13.8575],[6.035,5.6702,13.9813],[6.0303,5.6913,13.6982],[6.0247,5.7038,14.8191],[6.0171,5.7164,14.8737],[6.0121,5.722,14.3627],[6.0094,5.7225,9.8531],[6.0031,5.7339,13.994],[5.9978,5.7377,14.5745],[5.9899,5.7513,9.1936]]],
[[[6.1527,5.7397,16.2378],[6.1549,5.7403,16.866],[6.1545,5.742,17.1082],[6.1348,5.7764,27.7401],[6.1331,5.7833,29.1223],[6.1284,5.7919,29.3344],[6.1286,5.7952,28.2372],[6.1227,5.8119,28.7538],[6.1137,5.8291,16.6274],[6.114,5.8318,15.6734],[6.1097,5.8421,28.972],[6.0967,5.8287,24.9163],[6.0766,5.7976,10.5081],[6.034,5.767,15.5868],[6.0526,5.7453,19.7878],[6.0561,5.7436,20.1632],[6.0634,5.7428,23.5296],[6.075,5.7451,19.6325],[6.0915,5.7389,19.8287],[6.1062,5.7359,17.9493],[6.1527,5.7397,16.2378]]]]}}