{"type": "Feature","bbox": [8.1908,4.7109,8.2958,4.7838],"geometry": {"type": "MultiPolygon","coordinates": [[[[8.2958,4.746,5.5112],[8.2927,4.7575,10.2142],[8.287,4.768,11.6249],[8.2696,4.7683,22.2947],[8.2615,4.7652,36.9173],[8.2482,4.7685,41.957],[8.2349,4.7634,23.9711],[8.2071,4.7807,16.418],[8.1988,4.7838,15.6689],[8.1908,4.7834,19.694],[8.196,4.7806,20.0015],[8.2038,4.7655,14.3699],[8.2069,4.7556,21.3426],[8.2053,4.7441,29.702],[8.1982,4.7327,25.6728],[8.1963,4.7258,26.1349],[8.1996,4.7191,26.2225],[8.2103,4.712,28.609],[8.219,4.7109,11.3972],[8.2317,4.7204,23.705],[8.2405,4.722,20.1959],[8.2453,4.7201,20.4673],[8.2564,4.7243,35.4531],[8.2582,4.7206,32.1668],[8.2661,4.7195,33.6836],[8.2743,4.7291,8.0999],[8.2891,4.7344,3.5326],[8.2946,4.7469,4.8787],[8.2958,4.746,5.5112]]]]}
,"properties": {"GID_2": "NGA.3.27_1","GID_0": "NGA","country": "Nigeria","GID_1": "NGA.3_1","province": "AkwaIbom","NL_NAME_1": "NA","county": "UdungUko","VARNAME_2": "NA","NL_NAME_2": "NA","TYPE_2": "LocalAuthority","ENGTYPE_2": "LocalAuthority","CC_2": "NA","HASC_2": "NA","name": "Udung_Uko.county","area_km2": 53.77467,"hist_schema_id": "Elevation0-9000","hist_area_km2": {"0": 7.52208,"25": 41.64643,"50": 4.60616}}}