{"type":"Feature","properties":{"GID_2":"NGA.7.8_1","GID_0":"NGA","country":"Nigeria","GID_1":"NGA.7_1","province":"Benue","NL_NAME_1":"NA","county":"GwerWest","VARNAME_2":"NA","NL_NAME_2":"NA","TYPE_2":"LocalAuthority","ENGTYPE_2":"LocalAuthority","CC_2":"NA","HASC_2":"NA","name":"Gwer_West.county"},
"geometry":{"type": "MultiPolygon","coordinates": [[[[8.0631,7.6917,132.5306],[8.0645,7.6725,113.8842],[8.0769,7.6117,144.6124],[8.0824,7.5536,134.4441],[8.0901,7.5055,138.3688],[8.1038,7.4647,146.3691],[8.1061,7.4389,160.1823],[8.1123,7.4178,157.6268],[8.115,7.3993,196.2156],[8.1281,7.356,177.3845],[8.1661,7.3786,155.0718],[8.1895,7.3888,134.5076],[8.2195,7.4169,161.3827],[8.2414,7.4435,130.0861],[8.2561,7.484,158.2157],[8.2687,7.5069,122.9458],[8.2824,7.5235,120.3979],[8.302,7.5374,116.2873],[8.3256,7.5607,133.7051],[8.3323,7.5724,130.482],[8.3404,7.6029,110.9692],[8.3479,7.6134,88.9877],[8.3621,7.6214,81.8415],[8.3738,7.6311,83.952],[8.4047,7.6431,104.042],[8.402,7.6475,113.4585],[8.3919,7.691,97.1985],[8.3893,7.7198,98.0706],[8.39,7.7594,65.2724],[8.3837,7.7756,61.7141],[8.367,7.7809,64.0811],[8.3496,7.7911,63.897],[8.3257,7.7987,65.6537],[8.3005,7.8238,58.5703],[8.2722,7.8439,58.3365],[8.2548,7.8416,56.8316],[8.2319,7.8488,61.248],[8.2271,7.844,61.4005],[8.2185,7.8388,61.7938],[8.2065,7.8252,64.5884],[8.1981,7.8205,65.8423],[8.1867,7.8101,70.0529],[8.1671,7.8024,79.0145],[8.1572,7.803,82.4524],[8.1351,7.7907,90.3556],[8.1112,7.7681,98.7011],[8.1055,7.7569,101.7018],[8.0689,7.7061,151.0927],[8.0631,7.6917,132.5306]]]]}}