{"type":"Feature","properties":{"GID_2":"NGA.4.2_1","GID_0":"NGA","country":"Nigeria","GID_1":"NGA.4_1","province":"Anambra","NL_NAME_1":"NA","county":"AnambraEast","VARNAME_2":"NA","NL_NAME_2":"NA","TYPE_2":"LocalAuthority","ENGTYPE_2":"LocalAuthority","CC_2":"NA","HASC_2":"NA","name":"Anambra_East.county"},
"geometry":{"type": "MultiPolygon","coordinates": [[[[6.7487,6.186,45.2289],[6.7568,6.1697,14.0],[6.7606,6.1489,18.17],[6.7581,6.1353,14.0],[6.7538,6.1236,14.0],[6.7791,6.1305,30.0751],[6.7841,6.1288,29.6383],[6.7897,6.1321,48.4844],[6.808,6.1532,77.1145],[6.8147,6.1674,104.244],[6.822,6.1779,131.2518],[6.8255,6.1907,95.1983],[6.8318,6.1994,103.2309],[6.859,6.2215,86.4734],[6.8777,6.2417,52.1225],[6.8997,6.2602,59.4763],[6.9226,6.2928,61.185],[6.9415,6.3056,74.6234],[6.9449,6.3263,59.6919],[6.947,6.3601,38.2083],[6.9495,6.3716,64.3049],[6.9492,6.3831,54.841],[6.9544,6.3904,25.6708],[6.9584,6.3929,28.5506],[6.9644,6.4084,24.3412],[6.9652,6.4144,24.6034],[6.9613,6.4311,19.1373],[6.9547,6.4369,16.9496],[6.9456,6.459,24.3957],[6.9411,6.4634,29.6174],[6.9328,6.4647,45.2091],[6.924,6.4637,27.7634],[6.9101,6.4591,23.4854],[6.9024,6.4549,23.5922],[6.8979,6.4473,21.0696],[6.8957,6.4366,23.6922],[6.8967,6.4276,23.3136],[6.8937,6.4149,23.1352],[6.8826,6.3971,23.1274],[6.8673,6.3829,19.6834],[6.8568,6.3757,20.9803],[6.8492,6.3714,19.9856],[6.8377,6.3688,21.2534],[6.8335,6.3565,20.7606],[6.8013,6.3197,22.0621],[6.7972,6.3108,21.3576],[6.797,6.3002,24.4219],[6.785,6.284,24.5662],[6.7641,6.245,23.3454],[6.7578,6.2267,25.6968],[6.7582,6.2101,21.3056],[6.7556,6.1922,14.0],[6.7487,6.186,45.2289]]]]}}