{"type":"Feature","properties":{"GID_2":"NGA.11.1_1","GID_0":"NGA","country":"Nigeria","GID_1":"NGA.11_1","province":"Ebonyi","NL_NAME_1":"NA","county":"Abakaliki","VARNAME_2":"NA","NL_NAME_2":"NA","TYPE_2":"LocalAuthority","ENGTYPE_2":"LocalAuthority","CC_2":"NA","HASC_2":"NA","name":"Abakaliki.county"},
"geometry":{"type": "MultiPolygon","coordinates": [[[[8.3985,6.2807,32.8367],[8.3988,6.2884,37.3198],[8.393,6.2987,30.6164],[8.3766,6.316,47.5996],[8.3541,6.3091,51.8612],[8.3208,6.3177,59.4709],[8.302,6.3143,66.2605],[8.2971,6.3089,70.4764],[8.2786,6.3055,70.6704],[8.2719,6.3082,76.2267],[8.2585,6.3043,75.3229],[8.2462,6.3031,61.9782],[8.2375,6.3048,63.1227],[8.2257,6.3004,56.508],[8.2187,6.2959,49.4398],[8.1893,6.2909,40.1775],[8.1767,6.2943,44.0624],[8.1703,6.3023,39.8682],[8.1639,6.3178,44.5069],[8.1644,6.3238,49.5214],[8.1627,6.3326,50.255],[8.1542,6.3351,40.2883],[8.1464,6.3322,43.6928],[8.1384,6.327,35.4669],[8.1305,6.3191,40.1771],[8.1283,6.3134,46.896],[8.1227,6.3098,36.0681],[8.0857,6.318,65.1392],[8.0568,6.3162,73.7272],[8.0501,6.3133,79.0517],[8.0419,6.3046,71.5533],[8.0439,6.304,71.5069],[8.052,6.2868,75.6342],[8.0517,6.2428,56.107],[8.0464,6.2293,61.5919],[8.0411,6.2257,57.1771],[8.0333,6.2037,72.9641],[8.0333,6.1862,66.6989],[8.0432,6.1752,63.6435],[8.0499,6.1714,70.003],[8.0848,6.1616,55.2842],[8.1038,6.1543,63.3356],[8.1112,6.1547,39.1905],[8.1193,6.158,44.3005],[8.1252,6.1639,46.2145],[8.1338,6.1679,41.2967],[8.1435,6.1691,36.965],[8.1564,6.1666,39.1565],[8.1623,6.1637,39.0108],[8.1794,6.1616,23.9498],[8.1889,6.1642,29.3166],[8.2126,6.1755,40.1642],[8.224,6.1862,44.8376],[8.2356,6.1897,53.6786],[8.2439,6.1884,41.5907],[8.2615,6.1911,54.1198],[8.2709,6.1992,50.5912],[8.2799,6.2046,40.2426],[8.2853,6.2102,50.3028],[8.3016,6.2176,41.5979],[8.3172,6.2092,48.993899999999996],[8.3204,6.1956,37.1459],[8.3203,6.188,35.029],[8.3234,6.1788,23.7504],[8.3358,6.1871,25.3062],[8.3861,6.2455,29.0883],[8.3985,6.2658,30.2674],[8.3985,6.2807,32.8367]]]]}}