{"type":"Feature","properties":{"GID_2":"NGA.20.32_1","GID_0":"NGA","country":"Nigeria","GID_1":"NGA.20_1","province":"Kano","NL_NAME_1":"NA","county":"Rano","VARNAME_2":"NA","NL_NAME_2":"NA","TYPE_2":"LocalAuthority","ENGTYPE_2":"LocalAuthority","CC_2":"NA","HASC_2":"NA","name":"Rano.county"},
"geometry":{"type": "MultiPolygon","coordinates": [[[[8.3989,11.413,517.5],[8.4034,11.4015,517.5],[8.4111,11.3937,517.5],[8.4164,11.3813,521.9414],[8.4225,11.379,517.5],[8.4266,11.3735,520.016],[8.4384,11.3695,519.9512],[8.4462,11.3631,529.2298],[8.452,11.3625,528.132],[8.4556,11.3586,524.9945],[8.4693,11.3557,528.7888],[8.5002,11.3338,606.5048],[8.5162,11.3275,546.1995],[8.5268,11.3253,550.2841],[8.536,11.3251,541.9263],[8.5632,11.3298,517.9247],[8.569,11.3349,517.5],[8.5706,11.3601,543.4432],[8.5674,11.3677,552.3452],[8.5562,11.3768,547.2291],[8.5541,11.381,542.0476],[8.5568,11.3879,531.7064],[8.5731,11.4079,565.0349],[8.5705,11.4305,569.8333],[8.5629,11.4441,579.7759],[8.557,11.4605,558.6003],[8.5604,11.4894,561.1644],[8.5666,11.5063,558.343],[8.5951,11.5216,543.029],[8.6087,11.5388,526.1478],[8.611,11.5501,548.6754],[8.6102,11.5864,485.7753],[8.6286,11.6036,471.4702],[8.6105,11.5998,480.7441],[8.5899,11.5984,490.5652],[8.5717,11.5913,496.9365],[8.5698,11.5832,511.0576],[8.5652,11.5793,514.7125],[8.5591,11.5667,521.8146],[8.5548,11.5618,520.4496],[8.5446,11.5583,518.6481],[8.5412,11.5703,518.9694],[8.5418,11.5804,515.0756],[8.5386,11.5845,521.9443],[8.538,11.5924,509.1751],[8.5163,11.586,509.9681],[8.5037,11.5778,501.9175],[8.4758,11.5653,510.5417],[8.4707,11.5643,513.625],[8.4567,11.5655,500.0937],[8.447,11.5576,493.1119],[8.4339,11.5571,489.1605],[8.4278,11.5602,481.6262],[8.4074,11.5629,494.9389],[8.3988,11.5604,500.029],[8.4048,11.5393,498.0297],[8.4037,11.5303,495.1799],[8.4073,11.5159,502.2068],[8.4134,11.5112,497.8252],[8.4176,11.5111,489.9416],[8.4202,11.5058,489.9579],[8.4196,11.5021,481.4576],[8.4112,11.4896,485.3964],[8.4085,11.4708,499.223],[8.4019,11.4602,517.5],[8.3924,11.4522,517.5],[8.395,11.4211,517.5],[8.3989,11.413,517.5]]]]}}