{"type":"Feature","properties":{"GID_2":"NGA.8.17_1","GID_0":"NGA","country":"Nigeria","GID_1":"NGA.8_1","province":"Borno","NL_NAME_1":"NA","county":"Kukawa","VARNAME_2":"NA","NL_NAME_2":"NA","TYPE_2":"LocalAuthority","ENGTYPE_2":"LocalAuthority","CC_2":"NA","HASC_2":"NA","name":"Kukawa.county"},
"geometry":{"type": "MultiPolygon","coordinates": [[[[13.3584,13.1516,285.5992],[13.3722,13.1494,288.1649],[13.3778,13.1441,289.7103],[13.3754,13.1291,289.7117],[13.3846,13.1124,285.7887],[13.4101,13.0239,290.4678],[13.4154,12.984,286.6827],[13.4197,12.9633,289.4159],[13.4243,12.9501,292.8953],[13.4232,12.9374,291.1353],[13.4304,12.9067,289.8222],[13.4374,12.8942,289.9583],[13.4465,12.8824,290.3368],[13.4567,12.8631,289.2499],[13.4719,12.8438,289.2585],[13.4859,12.8201,291.5342],[13.5109,12.7956,290.1258],[13.5414,12.7582,290.0192],[13.5544,12.749,291.0351],[13.5707,12.7345,287.9645],[13.592,12.7234,285.9468],[13.6072,12.7018,285.1121],[13.6197,12.6924,288.0759],[13.6296,12.6796,284.1928],[13.6366,12.675,285.4165],[13.6434,12.6831,284.778],[13.6794,12.7067,283.9293],[13.698,12.7053,282.2896],[13.7304,12.7102,283.8129],[13.7513,12.7156,283.7073],[13.7951,12.7188,281.7605],[13.7863,12.7188,281.678],[13.7971,12.7352,282.4493],[13.7999,12.7453,281.4496],[13.788,12.7434,281.0219],[13.7837,12.7485,281.6129],[13.7841,12.7552,282.1314],[13.7896,12.7581,282.7333],[13.8005,12.7589,280.5601],[13.8041,12.7531,281.7582],[13.8119,12.7601,280.3718],[13.81,12.7695,282.0477],[13.79,12.7659,282.718],[13.788,12.7726,280.8474],[13.797,12.7778,282.6683],[13.8094,12.7778,282.2593],[13.8208,12.7869,280.3379],[13.8215,12.7912,282.2092],[13.8021,12.792,280.9742],[13.7988,12.7943,280.3129],[13.8044,12.8062,283.0067],[13.7999,12.8095,282.5583],[13.785,12.8145,282.2257],[13.7753,12.8112,283.2186],[13.7727,12.814,283.7356],[13.7809,12.8213,281.7563],[13.7902,12.822,281.0755],[13.8016,12.8253,282.8662],[13.8109,12.831,281.5411],[13.8151,12.8362,282.5752],[13.8105,12.8448,281.1665],[13.7851,12.838,283.2625],[13.7786,12.8471,282.5914],[13.7887,12.8653,283.2875],[13.7972,12.8714,280.312],[13.8028,12.893,280.9151],[13.7915,12.8947,283.0527],[13.7889,12.8936,282.9009],[13.7983,12.9119,282.6689],[13.7999,12.9275,283.1603],[13.7978,12.9439,282.2245],[13.7994,12.9505,283.0514],[13.7942,12.9508,282.476],[13.783,12.9441,281.2596],[13.7773,12.9435,283.5071],[13.7725,12.9484,282.9916],[13.7708,12.9555,281.9676],[13.8008,13.0147,282.8375],[13.811,13.0224,282.8097],[13.82,13.0326,283.6057],[13.8105,13.0544,283.3476],[13.8092,13.0624,283.6424],[13.8418,13.0714,283.5126],[13.8487,13.0789,282.7781],[13.851,13.0908,282.3654],[13.8647,13.0985,281.4453],[13.8756,13.0767,281.6569],[13.8808,13.0801,280.2744],[13.881,13.0853,280.3655],[13.8769,13.0914,279.9302],[13.873,13.102,281.3912],[13.8746,13.108,282.7423],[13.8717,13.1172,283.2666],[13.8612,13.1142,282.7677],[13.8588,13.1213,284.2469],[13.876,13.1418,279.2736],[13.8762,13.1491,279.4087],[13.8634,13.1463,279.2007],[13.8503,13.1385,279.3829],[13.8307,13.1203,280.9838],[13.8105,13.1066,280.5909],[13.7916,13.0889,283.993],[13.7732,13.0652,286.3694],[13.7105,13.0468,282.5352],[13.7068,13.0521,283.1082],[13.7074,13.0678,282.7143],[13.7062,13.0747,282.4404],[13.6992,13.087,282.7469],[13.6918,13.0871,282.8151],[13.6891,13.0931,282.9552],[13.6828,13.1001,284.269],[13.6878,13.1035,284.0466],[13.6948,13.0995,283.8241],[13.7026,13.1077,282.6652],[13.7054,13.1085,282.567],[13.7058,13.095,283.3796],[13.7087,13.0921,283.0229],[13.7146,13.0964,283.3051],[13.7178,13.1095,281.8748],[13.7271,13.1094,282.0727],[13.7229,13.123,281.9153],[13.7153,13.1266,281.9297],[13.705,13.1267,282.8489],[13.6898,13.1306,282.275],[13.6604,13.1349,282.8522],[13.6467,13.1462,281.6391],[13.634,13.1539,281.4626],[13.6226,13.153,281.6755],[13.6063,13.1691,282.0587],[13.601,13.1678,281.3983],[13.5893,13.1725,281.9196],[13.571,13.1923,281.196],[13.5503,13.2214,279.632],[13.5436,13.2213,282.2119],[13.531,13.2454,277.7034],[13.5159,13.2622,280.6769],[13.4861,13.3082,281.299],[13.4674,13.3074,283.3317],[13.4444,13.3028,285.6444],[13.4254,13.2919,290.0569],[13.4069,13.268,287.0813],[13.3911,13.2417,288.1868],[13.3678,13.1844,290.4893],[13.3584,13.1516,285.5992]]]]}}