{"type":"Feature","properties":{"GID_2":"NGA.10.1_1","GID_0":"NGA","country":"Nigeria","GID_1":"NGA.10_1","province":"Delta","NL_NAME_1":"NA","county":"AniochaNorth","VARNAME_2":"NA","NL_NAME_2":"NA","TYPE_2":"LocalAuthority","ENGTYPE_2":"LocalAuthority","CC_2":"NA","HASC_2":"NA","name":"Aniocha_North.county"},
"geometry":{"type": "MultiPolygon","coordinates": [[[[6.614,6.2495,157.6351],[6.5944,6.2778,195.8048],[6.588,6.2823,168.9555],[6.5681,6.3082,188.8383],[6.5637,6.3224,193.7504],[6.5677,6.3297,193.3737],[6.5703,6.3425,199.9195],[6.5747,6.3489,195.2292],[6.5777,6.3583,178.6284],[6.5828,6.3649,141.1852],[6.5846,6.3715,131.3562],[6.5846,6.3861,170.8452],[6.579,6.4004,192.6862],[6.58,6.4055,188.3824],[6.5749,6.4146,192.3176],[6.5665,6.438,175.7407],[6.5689,6.4428,147.5117],[6.5652,6.4583,186.0035],[6.5712,6.4961,37.7467],[6.5394,6.4927,42.3735],[6.5267,6.4899,44.2184],[6.5088,6.483,62.3032],[6.4827,6.4678,89.7404],[6.4635,6.4511,140.8269],[6.4467,6.44,189.6298],[6.4174,6.4281,186.7498],[6.3765,6.4004,250.5284],[6.3594,6.3925,218.1054],[6.3633,6.3804,232.1309],[6.3633,6.3679,210.9436],[6.3682,6.357,207.3199],[6.3671,6.3497,221.7006],[6.3762,6.3391,235.6191],[6.3817,6.3252,259.8293],[6.3896,6.3246,251.3895],[6.39,6.3083,247.8028],[6.3934,6.293,222.4651],[6.3895,6.2896,206.7679],[6.3746,6.267,246.1388],[6.3679,6.2524,248.7366],[6.3717,6.2394,244.2576],[6.3835,6.2372,235.4203],[6.4007,6.2426,175.9207],[6.4256,6.2417,141.4327],[6.457,6.2567,243.4732],[6.4733,6.2663,213.4236],[6.4901,6.2812,253.3627],[6.5197,6.2998,255.4183],[6.5321,6.2966,208.59],[6.5432,6.2969,145.3007],[6.5676,6.2893,138.0018],[6.5735,6.2856,94.8821],[6.5834,6.2589,201.7924],[6.5911,6.2484,195.9576],[6.6065,6.2456,200.7256],[6.614,6.2495,157.6351]]]]}}