{"type": "Feature","bbox": [5.6019,7.7659,6.048,8.4482],"geometry": {"type": "MultiPolygon","coordinates": [[[[5.7854,7.7659,527.9035],[5.8003,7.7713,521.4451],[5.8059,7.7785,522.9885],[5.8134,7.7973,507.0598],[5.8196,7.8221,486.7151],[5.8173,7.8394,508.5827],[5.8058,7.882,500.423],[5.7997,7.8895,453.4665],[5.7865,7.901,477.2865],[5.7638,7.9117,465.6852],[5.7435,7.9282,435.0278],[5.7406,7.931,441.8931],[5.7305,7.951,409.0746],[5.7267,7.9725,394.4467],[5.7224,8.0364,445.0164],[5.7263,8.0603,412.0476],[5.7329,8.0708,349.2065],[5.7736,8.1194,323.2802],[5.7843,8.14,345.2201],[5.7865,8.1614,306.5495],[5.7927,8.1693,288.2353],[5.8013,8.1789,248.3559],[5.8432,8.2122,295.5734],[5.8563,8.2275,298.1783],[5.8901,8.2449,276.925],[5.9118,8.2592,245.5201],[5.9482,8.2754,243.0354],[5.9893,8.2913,240.4744],[6.032,8.3056,264.4523],[6.0446,8.3137,267.944],[6.0402,8.3428,271.0288],[6.048,8.3736,273.5157],[6.0114,8.3833,247.1947],[5.9598,8.3911,202.6035],[5.9474,8.398,212.6297],[5.9124,8.3997,226.8169],[5.8841,8.396,189.5315],[5.8754,8.3971,183.5088],[5.8644,8.4058,197.1082],[5.8497,8.407,200.0315],[5.7898,8.4037,225.5863],[5.7737,8.4072,226.0128],[5.7588,8.4159,228.8796],[5.7453,8.421,234.7431],[5.7155,8.4224,199.1799],[5.7021,8.4305,234.9169],[5.6611,8.4411,194.5556],[5.6481,8.4482,184.1032],[5.6463,8.4366,180.1138],[5.6463,8.4183,183.1865],[5.6493,8.4065,197.1466],[5.6467,8.39,196.8161],[5.6468,8.3773,202.892],[5.6506,8.371,194.7779],[5.6518,8.3609,196.1956],[5.658,8.3449,206.0204],[5.6629,8.3059,199.3731],[5.6653,8.251,220.8497],[5.6633,8.2303,220.4084],[5.6541,8.2173,213.3251],[5.6439,8.1976,240.0],[5.6346,8.1844,259.843],[5.6305,8.1732,240.0],[5.6047,8.1317,252.4925],[5.6019,8.1168,341.6732],[5.6024,8.0857,417.8186],[5.6069,8.0665,360.0661],[5.6115,8.0238,381.2118],[5.6102,8.0175,401.4768],[5.641,8.0207,377.8539],[5.6635,8.0155,358.5198],[5.6726,8.0042,362.0872],[5.6742,7.9911,365.4134],[5.6681,7.9822,354.9681],[5.6464,7.9719,416.1271],[5.6361,7.9599,419.1482],[5.6291,7.9448,480.6294],[5.6219,7.9393,456.7293],[5.6094,7.9234,467.9532],[5.6081,7.8983,513.4266],[5.6158,7.8795,510.2479],[5.6172,7.861,501.3365],[5.6209,7.8503,494.3902],[5.6295,7.8379,510.0669],[5.639,7.8281,510.7103],[5.656,7.8209,479.8242],[5.6687,7.8234,524.7185],[5.6774,7.8175,520.0424],[5.7013,7.7947,542.6664],[5.7094,7.7946,532.6866],[5.7195,7.7916,518.462],[5.7431,7.7795,538.1578],[5.7498,7.7801,522.3209],[5.7633,7.7771,527.7672],[5.7854,7.7659,527.9035]]]]}
,"properties": {"GID_2": "NGA.23.20_1","GID_0": "NGA","country": "Nigeria","GID_1": "NGA.23_1","province": "Kogi","NL_NAME_1": "NA","county": "YagbaEast","VARNAME_2": "NA","NL_NAME_2": "NA","TYPE_2": "LocalAuthority","ENGTYPE_2": "LocalAuthority","CC_2": "NA","HASC_2": "NA","name": "Yagba_East.county","area_km2": 1518.236,"hist_schema_id": "Elevation0-9000","hist_area_km2": {"175": 6.796,"200": 113.152,"225": 238.99,"250": 257.745,"275": 174.845,"300": 118.439,"325": 89.684,"350": 70.235,"375": 51.916,"400": 52.592,"425": 47.767,"450": 37.146,"475": 59.981,"500": 91.975,"525": 79.607,"550": 22.578,"575": 3.486,"600": 1.029,"625": 0.252,"650": 0.021}}}