{"type":"Feature","properties":{"GID_2":"NGA.35.10_1","GID_0":"NGA","country":"Nigeria","GID_1":"NGA.35_1","province":"Taraba","NL_NAME_1":"NA","county":"Lau","VARNAME_2":"NA","NL_NAME_2":"NA","TYPE_2":"LocalAuthority","ENGTYPE_2":"LocalAuthority","CC_2":"NA","HASC_2":"NA","name":"Lau.county"},
"geometry":{"type": "MultiPolygon","coordinates": [[[[11.8018,9.2579,294.5824],[11.7905,9.2842,247.1661],[11.7686,9.3268,212.8408],[11.7463,9.36,183.1938],[11.7126,9.3806,160.5228],[11.6834,9.3898,141.423],[11.6527,9.3966,137.1679],[11.6451,9.3897,137.5174],[11.5874,9.3682,132.0195],[11.5673,9.3492,142.1717],[11.5323,9.3255,133.6199],[11.5244,9.3173,132.8832],[11.4912,9.2995,137.6345],[11.4631,9.2867,134.6864],[11.4165,9.2545,146.7467],[11.4045,9.2455,145.9655],[11.3877,9.2236,155.2731],[11.3668,9.2114,138.8578],[11.3597,9.2114,137.0171],[11.3425,9.1954,162.1134],[11.2905,9.1752,141.2445],[11.2652,9.1585,144.5028],[11.2332,9.155,136.2422],[11.2129,9.1458,132.9077],[11.18,9.1381,130.9599],[11.16,9.1272,129.8587],[11.1443,9.1211,126.991],[11.1462,9.1093,127.4799],[11.1457,9.0993,129.8672],[11.1472,9.0937,130.771],[11.1605,9.0709,138.4815],[11.1733,9.0578,148.7598],[11.1807,9.047,162.2042],[11.1979,9.0321,162.2903],[11.2108,9.024,169.1686],[11.2095,9.024,173.9621],[11.2174,9.0213,164.9608],[11.2346,9.0107,153.2434],[11.2595,9.0065,173.1246],[11.3026,9.006,243.2569],[11.3092,9.0041,259.373],[11.3531,9.0066,500.4516],[11.3761,8.9941,303.7532],[11.3868,8.9814,515.9833],[11.4754,9.0242,572.0748],[11.4947,9.0371,418.1577],[11.4879,9.037,638.7244],[11.5183,9.0535,483.0338],[11.5742,9.0625,317.4714],[11.6017,9.0721,410.4053],[11.6126,9.0702,443.227],[11.624,9.0652,521.4189],[11.6313,9.0649,578.7241],[11.6399,9.0677,534.7173],[11.6451,9.0719,546.5344],[11.6608,9.0923,538.8723],[11.6829,9.0968,414.0089],[11.7321,9.1189,385.3824],[11.7664,9.1271,345.7206],[11.7775,9.1269,363.1299],[11.7988,9.1227,810.72],[11.8256,9.1318,565.3797],[11.8237,9.1675,360.6824],[11.8311,9.2023,309.6631],[11.821,9.2251,316.235],[11.8053,9.2496,324.2751],[11.8018,9.2579,294.5824]]]]}}