{"type":"Feature","properties":{"GID_2":"NGA.20.29_1","GID_0":"NGA","country":"Nigeria","GID_1":"NGA.20_1","province":"Kano","NL_NAME_1":"NA","county":"Makoda","VARNAME_2":"NA","NL_NAME_2":"NA","TYPE_2":"LocalAuthority","ENGTYPE_2":"LocalAuthority","CC_2":"NA","HASC_2":"NA","name":"Makoda.county"},
"geometry":{"type": "MultiPolygon","coordinates": [[[[8.4466,12.5506,428.4281],[8.4266,12.5412,425.7387],[8.4076,12.5282,433.4696],[8.3986,12.5196,445.8736],[8.3951,12.5131,445.6041],[8.3909,12.4962,446.6395],[8.3886,12.4784,442.2292],[8.3725,12.4415,440.4167],[8.3625,12.4243,441.2699],[8.3635,12.4098,453.2776],[8.371,12.3923,443.3328],[8.3816,12.3766,467.7971],[8.4,12.3629,479.9545],[8.4098,12.3508,465.579],[8.4135,12.341,469.4515],[8.4129,12.339,470.1075],[8.4239,12.3365,464.6058],[8.4325,12.3233,473.6709],[8.4332,12.3095,471.992],[8.4446,12.3039,464.3087],[8.4643,12.2827,446.0796],[8.4664,12.2735,451.6805],[8.4654,12.2471,462.5683],[8.484,12.2475,450.3815],[8.4902,12.243,442.6948],[8.4962,12.229,441.2321],[8.5063,12.2379,434.427],[8.5207,12.2379,440.2603],[8.5208,12.2436,436.9],[8.5272,12.255,444.4575],[8.5379,12.2623,454.6229],[8.5432,12.2621,457.3023],[8.5463,12.2539,454.7159],[8.5491,12.2505,452.2035],[8.5509,12.2281,459.935],[8.553,12.224,462.3316],[8.5618,12.2244,470.6737],[8.5688,12.2293,464.5607],[8.575,12.2312,465.3108],[8.5711,12.2321,460.0663],[8.567,12.2429,461.9243],[8.5651,12.2643,457.2977],[8.5539,12.2892,449.8551],[8.54,12.3056,432.4944],[8.5159,12.3451,440.8474],[8.5037,12.3572,453.2124],[8.4898,12.36,454.7459],[8.4842,12.3567,460.6193],[8.4802,12.3486,461.4615],[8.473,12.3443,457.6121],[8.4667,12.3447,455.2583],[8.4653,12.3551,462.3077],[8.4703,12.3959,477.8335],[8.4782,12.4319,468.3189],[8.4805,12.4513,457.9307],[8.4896,12.4565,452.8165],[8.5169,12.4654,449.1206],[8.5321,12.482,442.1811],[8.5346,12.4979,431.5096],[8.5179,12.512,431.247],[8.5076,12.5291,427.5582],[8.5035,12.5404,426.4943],[8.5188,12.5495,421.5273],[8.5269,12.5702,416.3371],[8.5277,12.5759,416.9287],[8.4911,12.5717,421.1641],[8.4711,12.5634,422.0965],[8.4466,12.5506,428.4281]]]]}}