{"type": "Feature","bbox": [6.9415,6.2222,7.1466,6.4405],"geometry": {"type": "MultiPolygon","coordinates": [[[[6.9415,6.3056,74.6234],[6.9416,6.3032,72.1918],[6.9543,6.2939,77.8624],[6.956,6.2848,83.0826],[6.9671,6.2777,93.187],[6.9751,6.2677,84.2346],[6.982,6.2434,96.8081],[6.9897,6.2292,97.4489],[6.9933,6.2273,90.3674],[7.0014,6.2267,91.0505],[7.0081,6.2289,105.9729],[7.0212,6.2381,121.7902],[7.0412,6.2484,71.9807],[7.0581,6.2506,73.6601],[7.0691,6.2491,108.1599],[7.0843,6.2329,139.4861],[7.1031,6.2238,71.8141],[7.1183,6.2222,50.5424],[7.1322,6.2283,46.5603],[7.127,6.2367,43.5514],[7.1277,6.248,38.0437],[7.1343,6.2553,47.5936],[7.1351,6.2629,47.8673],[7.1281,6.275,42.0334],[7.1285,6.2849,36.7819],[7.1329,6.2878,38.0457],[7.1417,6.2898,37.5978],[7.146,6.2992,73.3945],[7.1466,6.3051,89.1028],[7.1349,6.3253,81.0156],[7.1254,6.335,60.4668],[7.1189,6.3621,57.2127],[7.1037,6.394,33.5952],[7.0899,6.4145,31.6685],[7.0809,6.423,38.556399999999996],[7.0692,6.4287,33.8656],[7.0221,6.4405,23.9408],[6.9765,6.4161,21.928],[6.9705,6.4141,23.991],[6.965,6.4186,20.2938],[6.9644,6.4084,24.3412],[6.9584,6.3929,28.5506],[6.9544,6.3904,25.6708],[6.9492,6.3831,54.841],[6.9495,6.3716,64.3049],[6.947,6.3601,38.2083],[6.9449,6.3263,59.6919],[6.9415,6.3056,74.6234]]]]}
,"properties": {"GID_2": "NGA.4.5_1","GID_0": "NGA","country": "Nigeria","GID_1": "NGA.4_1","province": "Anambra","NL_NAME_1": "NA","county": "AwkaNorth","VARNAME_2": "NA","NL_NAME_2": "NA","TYPE_2": "LocalAuthority","ENGTYPE_2": "LocalAuthority","CC_2": "NA","HASC_2": "NA","name": "Awka_North.county","area_km2": 389.7025,"hist_schema_id": "Elevation0-9000","hist_area_km2": {"25": 166.799,"50": 130.7431,"75": 65.8793,"100": 22.6138,"125": 3.4986,"150": 0.1686}}}