{"type": "Feature","bbox": [4.4648,7.7779,4.561,7.9405],"geometry": {"type": "MultiPolygon","coordinates": [[[[4.561,7.866,336.2873],[4.5606,7.875,358.7747],[4.5557,7.885,374.2113],[4.5578,7.9112,334.2615],[4.5545,7.9212,327.0],[4.5484,7.9293,327.0],[4.5432,7.9405,356.8112],[4.5231,7.9058,349.195],[4.5154,7.8721,329.1023],[4.5108,7.8608,329.8484],[4.4986,7.8445,318.0201],[4.4942,7.8461,309.7608],[4.4846,7.8362,329.9664],[4.4732,7.8198,319.5778],[4.4673,7.8063,331.1422],[4.4648,7.795,328.5894],[4.4704,7.7836,283.7219],[4.4843,7.7779,291.5685],[4.4863,7.7871,320.3394],[4.4991,7.809,313.7487],[4.5272,7.8306,310.3058],[4.5342,7.8392,340.1396],[4.5574,7.8603,360.3275],[4.561,7.866,336.2873]]]]}
,"properties": {"GID_2": "NGA.30.20_1","GID_0": "NGA","country": "Nigeria","GID_1": "NGA.30_1","province": "Osun","NL_NAME_1": "NA","county": "Irepodun","VARNAME_2": "NA","NL_NAME_2": "NA","TYPE_2": "LocalAuthority","ENGTYPE_2": "LocalAuthority","CC_2": "NA","HASC_2": "NA","name": "Irepodun.county","area_km2": 65.88702,"hist_schema_id": "Elevation0-9000","hist_area_km2": {"275": 0.67221,"300": 21.92905,"325": 30.83192,"350": 11.59278,"375": 0.71405,"400": 0.14701}}}