{"type":"Feature","properties":{"GID_2":"NGA.34.1_1","GID_0":"NGA","country":"Nigeria","GID_1":"NGA.34_1","province":"Sokoto","NL_NAME_1":"NA","county":"Binji","VARNAME_2":"NA","NL_NAME_2":"NA","TYPE_2":"LocalAuthority","ENGTYPE_2":"LocalAuthority","CC_2":"NA","HASC_2":"NA","name":"Binji.county"},
"geometry":{"type": "MultiPolygon","coordinates": [[[[4.8192,13.1045,231.5649],[4.8254,13.1073,237.9806],[4.8392,13.1093,239.1598],[4.8477,13.1041,239.6288],[4.8599,13.0994,243.9856],[4.8796,13.0858,252.2697],[4.9027,13.0757,266.958],[4.9205,13.0708,280.4608],[4.9317,13.0763,282.0092],[4.9497,13.0781,288.3843],[4.9732,13.0874,281.2103],[4.9841,13.094,279.9411],[5.0216,13.1184,282.1135],[5.0385,13.1276,279.146],[5.054,13.1423,265.2742],[5.0631,13.1558,283.5132],[5.0687,13.1612,286.2195],[5.042,13.1745,285.761],[5.0073,13.1986,278.0627],[4.9861,13.2064,254.0571],[4.9787,13.2162,247.89],[4.9546,13.2411,267.4633],[4.9504,13.2549,261.8574],[4.9498,13.265,271.0524],[4.9397,13.2827,268.3744],[4.9338,13.2882,264.0975],[4.9209,13.288,261.6354],[4.9081,13.2853,257.7736],[4.8774,13.275,252.8928],[4.844,13.2682,248.5563],[4.83,13.2671,253.1944],[4.8046,13.27,254.6793],[4.7858,13.2802,257.4088],[4.7608,13.287,260.9706],[4.7642,13.2679,261.3243],[4.7542,13.2207,272.0159],[4.757,13.2166,266.7723],[4.7652,13.1867,260.9811],[4.7599,13.1691,268.3707],[4.7614,13.1474,258.0649],[4.7594,13.1405,256.4352],[4.7632,13.123,243.4814],[4.7687,13.1157,227.3349],[4.769,13.113,227.8557],[4.7798,13.1246,239.618],[4.7868,13.1284,243.7056],[4.7984,13.1295,238.776],[4.8093,13.1261,236.2245],[4.816,13.1156,231.0047],[4.8192,13.1045,231.5649]]]]}}