{"type": "Feature","bbox": [6.6121,5.6931,7.3637,6.7762],"geometry": {"type": "MultiPolygon","coordinates": [[[[6.9358,5.858,172.4829],[6.9466,5.888,64.8351],[6.9572,5.8975,47.0315],[6.9753,5.9048,37.9325],[7.0539,5.9226,135.8229],[7.0772,5.9236,197.831],[7.1003,5.9216,275.1559],[7.1641,5.9034,164.9181],[7.1862,5.9081,132.4686],[7.2314,5.9247,129.9641],[7.2501,5.9263,145.3077],[7.2706,5.9623,125.1196],[7.2823,5.972,159.4679],[7.2926,5.9834,174.8298],[7.3088,5.9951,194.5677],[7.3348,6.0094,218.9465],[7.3637,6.0207,285.8017],[7.3503,6.0235,263.5298],[7.3509,6.0322,256.371],[7.342,6.0397,200.1796],[7.3329,6.0441,177.0121],[7.3153,6.0455,125.4703],[7.2885,6.03,140.2181],[7.2768,6.0328,149.1143],[7.2499,6.0526,117.4285],[7.2377,6.0685,103.726],[7.2348,6.093,107.6752],[7.2304,6.1026,83.4637],[7.2218,6.1138,69.9571],[7.2044,6.1542,75.4399],[7.2045,6.1699,67.6753],[7.2101,6.1889,68.9021],[7.2005,6.197,66.6874],[7.1885,6.1992,110.9781],[7.1861,6.2064,153.7694],[7.182,6.2116,95.1536],[7.1833,6.221,113.159],[7.179,6.2409,65.4217],[7.1691,6.2429,88.3353],[7.1615,6.2387,52.6993],[7.1532,6.2303,46.4762],[7.1386,6.2248,39.1377],[7.1322,6.2283,46.5603],[7.127,6.2367,43.5514],[7.1277,6.248,38.0437],[7.1343,6.2553,47.5936],[7.1351,6.2629,47.8673],[7.1281,6.275,42.0334],[7.1285,6.2849,36.7819],[7.1329,6.2878,38.0457],[7.1417,6.2898,37.5978],[7.146,6.2992,73.3945],[7.1466,6.3051,89.1028],[7.1349,6.3253,81.0156],[7.1254,6.335,60.4668],[7.1189,6.3621,57.2127],[7.1037,6.394,33.5952],[7.0899,6.4145,31.6685],[7.0809,6.423,38.556399999999996],[7.0692,6.4287,33.8656],[7.0285,6.4382,22.7665],[7.0186,6.4418,23.5853],[7.0123,6.4505,25.3399],[7.0129,6.4641,26.361],[7.0192,6.478,25.2302],[7.0193,6.4884,32.2908],[7.0292,6.5019,36.9112],[7.0254,6.5095,39.2832],[7.0274,6.516,36.7656],[7.0253,6.5174,38.0677],[7.0374,6.537,40.5754],[7.0553,6.5575,41.3397],[7.0826,6.5759,63.377],[7.0947,6.5933,74.3009],[7.1085,6.6343,90.8896],[7.115,6.649,104.8993],[7.1092,6.6618,88.3544],[7.0914,6.6738,71.0674],[7.0801,6.6766,69.3687],[7.0489,6.6893,52.253],[7.0378,6.6877,45.8087],[7.0235,6.6881,40.7733],[7.0157,6.6906,38.8611],[6.9908,6.7083,38.0175],[6.9763,6.7134,50.8094],[6.9505,6.7154,54.4774],[6.9386,6.7108,25.2173],[6.9261,6.7085,26.1025],[6.9144,6.7112,24.529],[6.913,6.7209,26.4512],[6.9143,6.7306,29.3785],[6.913,6.7696,27.6531],[6.9059,6.7762,33.988],[6.9003,6.7652,26.7984],[6.8843,6.7459,27.148],[6.8751,6.7389,28.672],[6.8593,6.732,27.4339],[6.8397,6.7155,28.146],[6.8366,6.7086,33.1638],[6.8232,6.6948,24.6228],[6.8112,6.6541,24.6734],[6.8057,6.6406,22.2094],[6.8032,6.6282,22.4692],[6.8046,6.6143,20.7684],[6.8022,6.5842,22.4349],[6.7966,6.5706,21.6125],[6.7789,6.5523,24.8271],[6.7725,6.5436,23.8276],[6.7631,6.5362,24.2298],[6.7494,6.5292,27.5659],[6.7116,6.5347,25.0194],[6.6914,6.5399,27.8582],[6.6644,6.5275,17.0],[6.6726,6.4883,16.5],[6.6788,6.4771,17.0973],[6.6798,6.4654,20.836],[6.6923,6.4232,15.0],[6.6944,6.4093,19.5584],[6.6949,6.3874,15.0],[6.6999,6.3681,21.2463],[6.7181,6.3498,21.2404],[6.7168,6.3277,14.5],[6.7245,6.3047,14.5],[6.7265,6.2832,19.8874],[6.7308,6.2603,14.5],[6.7351,6.246,19.6687],[6.7408,6.2099,14.0],[6.7465,6.1911,46.1161],[6.7568,6.1697,14.0],[6.7606,6.1489,18.17],[6.7581,6.1353,14.0],[6.7496,6.1101,14.0],[6.7434,6.1005,17.3276],[6.74,6.0899,21.4617],[6.7377,6.0736,20.5719],[6.7379,6.041,14.0],[6.7338,5.9927,17.3174],[6.7218,5.9783,15.6971],[6.7174,5.9606,16.2621],[6.7072,5.9456,16.7296],[6.7014,5.9305,14.0],[6.6934,5.9191,13.5],[6.6895,5.9069,18.4235],[6.6874,5.8922,17.0948],[6.6814,5.8747,12.5],[6.6728,5.856,18.6774],[6.6649,5.8432,20.5885],[6.6668,5.8298,25.2026],[6.6594,5.8006,19.1679],[6.6405,5.7707,13.9746],[6.6318,5.7506,10.0],[6.6284,5.7375,14.2394],[6.6195,5.7282,10.0889],[6.6139,5.7255,11.5317],[6.6121,5.7185,15.5185],[6.6191,5.7069,16.057],[6.63,5.6978,21.7499],[6.6438,5.6931,22.4009],[6.6794,5.6958,30.3544],[6.6913,5.6997,26.537],[6.7025,5.7078,22.2558],[6.7193,5.7338,22.2216],[6.751,5.7697,20.9108],[6.7613,5.776,18.0936],[6.7771,5.7827,15.7431],[6.787,5.7814,16.4419],[6.8015,5.7765,21.6755],[6.8154,5.7677,66.4436],[6.85,5.7517,65.975],[6.8601,5.7494,65.2035],[6.8933,5.756,90.488],[6.9316,5.8306,160.6831],[6.9363,5.8457,167.2641],[6.9358,5.858,172.4829]]]]}
,"properties": {"GID_1": "NGA.4_1","GID_0": "NGA","country": "Nigeria","province": "Anambra","VARNAME_1": "NA","NL_NAME_1": "NA","TYPE_1": "State","ENGTYPE_1": "State","CC_1": "NA","HASC_1": "NG.AN","ISO_1": "NG-AN","name": "Anambra.province","area_km2": 4610.61,"hist_schema_id": "Elevation0-9000","hist_area_km2": {"0": 13.818,"25": 1891.634,"50": 663.699,"75": 588.786,"100": 372.517,"125": 309.574,"150": 253.099,"175": 159.967,"200": 102.934,"225": 66.48,"250": 45.797,"275": 40.59,"300": 43.183,"325": 32.176,"350": 21.76,"375": 4.597}}}