{"type":"Feature","properties":{"ISO3166-1-Alpha-3":"NGA","country":"Nigeria","fill":"#FF0","id":"2857","name":"Anambra"},
"geometry":{"type": "Polygon","coordinates": [[[6.92674,6.70993,25.7095],[6.91372,6.71602,24.3801],[6.91465,6.74812,24.697],[6.90597,6.77612,33.988],[6.83806,6.71199,24.9773],[6.8144,6.66463,25.3929],[6.79238,6.56681,24.0021],[6.75952,6.5343,24.0484],[6.73409,6.53035,29.6256],[6.70784,6.5358,25.2331],[6.68551,6.53678,24.2732],[6.67673,6.53511,22.9755],[6.67663,6.5034,18.2057],[6.68097,6.474,16.0],[6.70877,6.3761,15.0],[6.71497,6.32109,20.0077],[6.73275,6.27223,16.1157],[6.73667,6.23329,20.5326],[6.74081,6.21952,14.5],[6.75393,6.19438,14.0],[6.759,6.18107,14.0],[6.76086,6.16712,16.2703],[6.75766,6.12288,14.0],[6.75383,6.10955,14.9587],[6.7468,6.10159,18.4486],[6.73657,6.09655,16.89],[6.72345,6.09182,14.0],[6.7037,6.07593,14.0],[6.69936,6.0534,20.9502],[6.70329,6.00093,20.8591],[6.68996,5.95002,24.0428],[6.68903,5.94103,25.5107],[6.69048,5.92364,13.5],[6.68903,5.91429,13.5],[6.68531,5.90576,13.0],[6.64541,5.85269,18.586],[6.62598,5.81851,14.0288],[6.61606,5.79275,25.2771],[6.60945,5.7658,22.6909],[6.60573,5.72317,15.4633],[6.6358,5.6966,29.7803],[6.66877,5.69428,30.2248],[6.73574,5.74769,22.7916],[6.81326,5.76903,63.6047],[6.85625,5.75081,66.4359],[6.89584,5.76203,106.253],[6.93511,5.84207,162.0802],[6.94855,5.88447,68.5627],[6.98606,5.90729,82.2104],[7.03123,5.91827,54.3017],[7.07722,5.92354,197.831],[7.16755,5.90411,168.0685],[7.20858,5.9178,114.8429],[7.25013,5.92625,145.3077],[7.29664,5.98527,181.3925],[7.36372,6.02061,285.8017],[7.35369,6.02276,268.6694],[7.34863,6.03335,252.0457],[7.33075,6.04353,206.2237],[7.31989,6.04506,143.233],[7.29344,6.03723,124.5215],[7.26512,6.0417,107.7674],[7.24331,6.06674,115.3945],[7.23256,6.09772,106.3146],[7.21634,6.1249,72.27],[7.20445,6.15415,75.4399],[7.21003,6.1889,68.9021],[7.18605,6.20639,153.7694],[7.18182,6.23058,81.9984],[7.16528,6.24076,79.8837],[7.15122,6.22965,45.1821],[7.13541,6.22649,46.6158],[7.12714,6.23812,44.0692],[7.13097,6.25161,38.7422],[7.13334,6.26897,44.5604],[7.13293,6.28778,38.0457],[7.13944,6.29135,38.8602],[7.14606,6.2991,73.3945],[7.14368,6.30931,84.5817],[7.13799,6.3184,84.4968],[7.10585,6.39098,32.5655],[7.08539,6.41873,31.8974],[7.07019,6.42702,35.6609],[7.03681,6.43335,24.3203],[7.02203,6.44049,22.8447],[7.01325,6.46508,26.361],[7.04022,6.54017,39.6133],[7.09593,6.60053,73.1311],[7.10027,6.66776,78.3316],[7.06968,6.68088,64.1953],[7.03774,6.6876,45.8087],[6.98007,6.71202,33.0579],[6.92674,6.70993,25.7095]]]}}