{"type":"Feature","properties":{"featurecla":"River","scalerank":3,"rivernum":59,"dissolve":"59River","name":"Niger19","name_alt":null,"note":null,"min_zoom":3.0,"strokeweig":1.0,"name_en":"Niger","min_label":4.0},
"geometry":{"type": "LineString","coordinates": [[6.7098632812500227,7.36200592655662,28.5],[6.6964355468750227,7.23932526249412,27.5],[6.6971679687500227,7.22040436405662,27.5],[6.6993652343750227,7.2119326843691169,27.0],[6.71533203125,7.1775088562441169,27.0],[6.718017578125,7.16840241093162,27.0],[6.7193847656250227,7.14899323124412,29.609],[6.71533203125,7.13043854374412,27.0],[6.703125,7.0937686218691169,27.0],[6.6983886718750227,7.0420108093691169,31.6644],[6.689697265625,7.01850006718162,29.8],[6.6888671875000227,7.0081729187441084,31.4794],[6.6893554687500227,6.9641299499941169,27.0],[6.6874023437500227,6.9551944031191084,27.0],[6.6612792968750227,6.89960358280662,22.8621],[6.650390625,6.8606143249941169,26.595],[6.649169921875,6.8438662781191084,29.2756],[6.655029296875,6.79132721561912,28.1973],[6.650634765625,6.66327545780662,18.0],[6.6546875000000227,6.62079498905662,18.0],[6.6748046875,6.56427643436912,24.4802],[6.6767578125,6.54926178593162,24.0737],[6.6766601562500227,6.50348541874412,18.2057],[6.680908203125,6.47406647343162,16.0],[6.6905761718750227,6.44037506718162,22.6957]]}}