{"type":"Feature","properties":{"featurecla":"River","scalerank":3,"rivernum":59,"dissolve":"59River","name":"Niger20","name_alt":null,"note":null,"min_zoom":3.0,"strokeweig":1.25,"name_en":"Niger","min_label":4.0},
"geometry":{"type": "LineString","coordinates": [[6.6905761718750227,6.44037506718162,22.6957],[6.708740234375,6.37616608280662,15.0],[6.7149902343750227,6.32111237186912,20.0077],[6.7328125000000227,6.27228424686912,16.1157],[6.7367187500000227,6.23334381718162,20.5326],[6.7408691406250227,6.21954987186912,14.5],[6.75390625,6.19440338749412,14.0],[6.759033203125,6.18109772343162,14.0],[6.7608886718750227,6.16718170780662,16.2703],[6.7577148437500227,6.1229190124941084,14.0],[6.7538085937500227,6.1096377624941169,14.9587],[6.746826171875,6.10162994999412,18.4486],[6.736572265625,6.09662506718162,16.89],[6.723388671875,6.09186432499412,14.0],[6.7037597656250227,6.07599518436912,14.0],[6.6993652343750227,6.0534854187441169,20.9502],[6.7032714843750227,6.0009951843691169,20.8591],[6.68994140625,5.9500674499941084,24.0428],[6.68896484375,5.94110748905662,25.5107],[6.6904296875,5.9237002624941084,13.5],[6.68896484375,5.91437409061912,13.5],[6.685302734375,5.90582916874412,13.0],[6.6454101562500227,5.85272858280662,18.586],[6.6259765625,5.81854889530662,14.0288],[6.6161132812500227,5.79279205936912,25.2771],[6.609375,5.7658877624941169,22.6909],[6.605712890625,5.72321198124412,15.4633],[6.579833984375,5.6077822937441084,27.5335],[6.559814453125,5.5617861999941169,20.6353],[6.5562988281250227,5.54132721561912,23.4175]]}}