{"type":"Feature","properties":{"GID_2":"NGA.23.7_1","GID_0":"NGA","country":"Nigeria","GID_1":"NGA.23_1","province":"Kogi","NL_NAME_1":"NA","county":"Idah","VARNAME_2":"NA","NL_NAME_2":"NA","TYPE_2":"LocalAuthority","ENGTYPE_2":"LocalAuthority","CC_2":"NA","HASC_2":"NA","name":"Idah.county"},
"geometry":{"type": "MultiPolygon","coordinates": [[[[6.6734,7.0334,27.0],[6.7018,7.0283,34.5728],[6.7414,7.0162,32.2076],[6.7331,7.0227,31.0881],[6.7329,7.0303,31.1843],[6.7363,7.0496,31.1351],[6.734,7.0547,32.0627],[6.7429,7.062,32.1327],[6.7486,7.0692,31.3528],[6.7474,7.0835,31.5285],[6.7335,7.0937,31.9857],[6.7225,7.0985,30.7884],[6.6962,7.1009,45.2075],[6.6958,7.0889,27.0],[6.6844,7.0642,27.0799],[6.6814,7.0497,27.0],[6.6734,7.0334,27.0]]]]}}