{"type": "Feature","bbox": [6.4887,4.9001,6.7085,5.2064],"geometry": {"type": "MultiPolygon","coordinates": [[[[6.6503,4.9026,12.248],[6.648,4.9156,6.3628],[6.6495,4.9216,9.8497],[6.6489,4.9269,7.986],[6.6518,4.9395,8.4654],[6.6552,4.9457,8.7565],[6.656,4.9546,7.1894],[6.6547,4.9607,7.0942],[6.6482,4.9698,7.4132999999999996],[6.6489,4.9753,6.5264],[6.6504,4.981,10.0118],[6.6575,4.992,7.4998],[6.6592,4.9972,9.5617],[6.6625,5.0004,6.8512],[6.6671,5.0164,9.9069],[6.6656,5.0238,12.1372],[6.6685,5.042,9.3969],[6.6715,5.0447,8.3004],[6.6717,5.0539,10.3715],[6.6788,5.0646,9.7405],[6.681,5.0717,9.165],[6.6973,5.1268,16.4229],[6.7018,5.1486,13.9553],[6.7071,5.1635,13.4085],[6.7085,5.1759,17.9887],[6.7066,5.1828,14.1632],[6.6934,5.1819,15.4151],[6.6868,5.1769,12.4282],[6.6788,5.1658,13.0126],[6.6753,5.1633,15.949],[6.6477,5.1813,17.8807],[6.6412,5.1837,12.9299],[6.634,5.1942,15.2021],[6.6261,5.2003,13.6282],[6.6157,5.2035,15.1206],[6.6024,5.2051,13.2793],[6.591,5.2034,12.4912],[6.5805,5.2064,15.4207],[6.5753,5.2003,15.3402],[6.5747,5.1927,16.547],[6.5845,5.1819,21.4298],[6.5856,5.125,13.1801],[6.5835,5.1084,12.8073],[6.5866,5.0837,10.3378],[6.5858,5.0777,13.5902],[6.5915,5.0719,11.5322],[6.5833,5.0658,10.568],[6.5704,5.0658,8.2992],[6.5659,5.0629,9.0002],[6.567,5.0568,11.5432],[6.5757,5.0373,12.3575],[6.573,5.0275,12.7954],[6.5628,5.0136,12.7683],[6.5449,5.0028,17.431],[6.5389,5.0011,19.4476],[6.5287,5.0017,11.0404],[6.5236,4.9827,17.4921],[6.5095,4.9659,18.2566],[6.4887,4.9515,13.7318],[6.4907,4.9441,20.9508],[6.4957,4.9417,20.0153],[6.5002,4.9322,20.8065],[6.5122,4.9352,17.4878],[6.5299,4.9337,16.8416],[6.5368,4.9355,14.0633],[6.5379,4.9384,15.7304],[6.5363,4.9424,16.5995],[6.5389,4.9578,9.5513],[6.5448,4.9694,14.0294],[6.5602,4.977,12.4735],[6.5643,4.9781,17.172],[6.5738,4.9772,16.7164],[6.5893,4.9664,7.2261],[6.5947,4.9601,7.709],[6.605,4.9412,18.2393],[6.614,4.9093,15.8408],[6.6256,4.9015,16.3571],[6.6387,4.9001,7.9647],[6.6503,4.9026,12.248]]]]}
,"properties": {"GID_2": "NGA.33.2_1","GID_0": "NGA","country": "Nigeria","GID_1": "NGA.33_1","province": "Rivers","NL_NAME_1": "NA","county": "AhoadaEast","VARNAME_2": "NA","NL_NAME_2": "NA","TYPE_2": "LocalAuthority","ENGTYPE_2": "LocalAuthority","CC_2": "NA","HASC_2": "NA","name": "Ahoada_East.county","area_km2": 353.88,"hist_schema_id": "Elevation0-9000","hist_area_km2": {"0": 207.249,"25": 146.6311}}}