{"type":"Feature","properties":{"GID_2":"NGA.2.2_1","GID_0":"NGA","country":"Nigeria","GID_1":"NGA.2_1","province":"Adamawa","NL_NAME_1":"NA","county":"Fufore","VARNAME_2":"NA","NL_NAME_2":"NA","TYPE_2":"LocalAuthority","ENGTYPE_2":"LocalAuthority","CC_2":"NA","HASC_2":"NA","name":"Fufore.county"},
"geometry":{"type": "MultiPolygon","coordinates": [[[[13.0771,9.5147,211.532],[13.0802,9.5197,212.01],[13.0853,9.5204,213.681],[13.0926,9.527,216.3401],[13.1055,9.5248,218.1666],[13.1127,9.5289,219.2219],[13.1259,9.5285,220.875],[13.139,9.5366,225.2659],[13.1563,9.543,229.3051],[13.1617,9.5399,230.4068],[13.1741,9.5454,233.3256],[13.1836,9.5519,236.5391],[13.1892,9.5587,239.0735],[13.1954,9.5605,239.447],[13.1868,9.5638,280.8259],[13.1719,9.574,251.9717],[13.1601,9.571,244.614],[13.1399,9.5859,267.0102],[13.0896,9.6009,250.902],[13.0807,9.5995,247.924],[13.046,9.6266,284.5971],[13.0127,9.6485,432.2802],[12.972,9.6626,301.5599],[12.9314,9.6844,338.8238],[12.8934,9.7019,449.6068],[12.8687,9.7199,437.7282],[12.8469,9.7427,396.0317],[12.8342,9.748,361.5698],[12.8271,9.7345,426.5871],[12.8238,9.6872,244.499],[12.8237,9.6558,221.2809],[12.8115,9.6297,213.0337],[12.7971,9.6184,206.86],[12.7561,9.5574,188.3748],[12.7401,9.5307,193.7413],[12.7255,9.5,253.2619],[12.7218,9.4788,275.2736],[12.7214,9.4217,221.4493],[12.7183,9.3904,185.0278],[12.7024,9.3273,161.7466],[12.7005,9.304,185.2135],[12.7048,9.2804,184.265],[12.7218,9.2519,189.7326],[12.7131,9.2271,213.682],[12.7221,9.1879,184.071],[12.7199,9.1722,177.6011],[12.7056,9.1234,179.3969],[12.6934,9.1093,178.4785],[12.6863,9.0905,179.6267],[12.6479,9.084,196.5961],[12.6147,9.0815,226.4],[12.5761,9.0831,238.4368],[12.5351,9.0896,333.2445],[12.5171,9.0984,236.4728],[12.5034,9.1139,209.1254],[12.4289,9.2167,170.405],[12.4179,9.2386,185.1063],[12.4104,9.2367,182.7189],[12.3682,9.2474,195.5787],[12.332,9.2443,206.8067],[12.3166,9.233,204.4892],[12.2833,9.2192,213.4175],[12.2517,9.196,225.4491],[12.2296,9.1855,187.1374],[12.1971,9.1668,197.2645],[12.1746,9.1654,218.2937],[12.1698,9.1583,234.6873],[12.1651,9.1385,221.1419],[12.1426,9.0991,240.7029],[12.1368,9.0844,282.183],[12.1252,9.0469,307.6276],[12.1247,9.0392,323.275],[12.089,9.0392,311.7811],[12.0875,9.0288,317.321],[12.091,9.0166,308.5747],[12.1054,9.0141,329.8869],[12.117,9.0161,332.9611],[12.1223,9.0207,317.455],[12.1279,9.0196,305.2531],[12.1361,9.0214,289.1235],[12.1412,9.0205,290.357],[12.149,9.027,278.6259],[12.1528,9.0259,272.0424],[12.1588,9.0271,275.4739],[12.2094,9.027,241.1151],[12.2128,9.0239,238.3102],[12.2122,9.0197,244.0207],[12.2158,9.0096,258.8651],[12.218,8.9957,290.6395],[12.2209,8.9914,278.8188],[12.2203,8.984,272.7239],[12.2322,8.9651,281.1946],[12.2385,8.9467,293.186],[12.2416,8.9243,253.226],[12.2495,8.916,282.5018],[12.2537,8.9003,279.126],[12.2631,8.8962,295.54],[12.263,8.8893,313.1971],[12.2728,8.8907,322.1316],[12.2802,8.8797,313.2204],[12.2838,8.8802,303.1592],[12.2899,8.8608,299.8298],[12.3099,8.838,329.4262],[12.3264,8.828,281.2305],[12.3531,8.808,299.4088],[12.3645,8.8041,303.2545],[12.3738,8.8056,296.8376],[12.3725,8.809,287.4502],[12.375,8.8123,290.4529],[12.3853,8.8144,288.8971],[12.39,8.8167,304.4315],[12.3934,8.8214,314.0483],[12.3994,8.8223,338.9147],[12.425,8.8132,369.0424],[12.4302,8.8077,377.2249],[12.4523,8.7923,379.7214],[12.4655,8.7804,331.2252],[12.476,8.7781,359.9069],[12.4798,8.7744,368.8775],[12.4984,8.7664,402.2284],[12.5034,8.7628,397.3932],[12.5265,8.7573,441.3133],[12.5332,8.7576,428.796],[12.5369,8.762,422.843],[12.541,8.7576,445.8224],[12.5567,8.772,392.0494],[12.5754,8.7753,430.5753],[12.5862,8.7819,438.3487],[12.5954,8.7814,430.8727],[12.6086,8.7833,390.3953],[12.6335,8.7943,368.2675],[12.6572,8.8013,350.99],[12.687,8.8186,325.1016],[12.697,8.8214,323.4282],[12.7149,8.8319,296.764],[12.7332,8.8389,303.9628],[12.7419,8.8463,287.0695],[12.7574,8.8531,295.2251],[12.7651,8.8598,319.3322],[12.7756,8.8656,632.3405],[12.7951,8.8728,589.2062],[12.7898,8.8605,875.6874],[12.7884,8.8524,597.2866],[12.7896,8.8453,404.2785],[12.7941,8.8353,386.4989],[12.7987,8.8293,496.7396],[12.8065,8.8094,647.0277],[12.8085,8.7948,622.4343],[12.8118,8.8004,732.5121],[12.8102,8.8118,766.3735],[12.811,8.8178,937.3617],[12.8144,8.819,1005.3276],[12.8154,8.8237,990.6954],[12.8198,8.8311,958.7686],[12.818,8.8346,1033.4819],[12.8133,8.8342,1008.4895],[12.8094,8.8361,1037.8954],[12.8009,8.8533,1022.8794],[12.8045,8.8618,929.4822],[12.8158,8.8629,989.9795],[12.8155,8.8666,996.9955],[12.8075,8.8748,914.1071],[12.8075,8.8863,782.8333],[12.8127,8.8911,787.1949],[12.8159,8.8917,772.1183],[12.8188,8.899,719.8018],[12.8128,8.9055,823.6361],[12.8105,8.9049,861.3777],[12.8097,8.9026,867.0278],[12.8065,8.9024,901.4891],[12.804,8.9165,612.2534],[12.8115,8.9222,721.3544],[12.8209,8.9357,617.6718],[12.8229,8.9491,674.723],[12.8279,8.9553,676.2133],[12.8263,8.9726,261.3465],[12.8351,8.9913,417.8784],[12.8385,9.0073,229.5259],[12.8733,9.0657,201.5591],[12.8776,9.076,195.3547],[12.8836,9.0848,188.0093],[12.8876,9.0877,183.1979],[12.8887,9.096,182.6639],[12.8868,9.1009,183.3733],[12.8903,9.1104,182.5793],[12.8956,9.1118,181.8741],[12.8979,9.1148,181.7056],[12.8981,9.1169,181.5309],[12.8909,9.1266,180.6863],[12.894,9.1346,179.7423],[12.8908,9.1412,180.0378],[12.8838,9.1466,179.4638],[12.8827,9.1498,179.0957],[12.8841,9.1535,178.4215],[12.8836,9.1586,178.293],[12.8846,9.1633,177.8593],[12.8892,9.1672,177.7589],[12.889,9.1749,177.6809],[12.886,9.1803,178.7583],[12.8907,9.1839,176.9292],[12.8894,9.189,177.1241],[12.8959,9.1956,176.5725],[12.8987,9.2046,175.9664],[12.8973,9.2083,175.6268],[12.8979,9.2181,175.3679],[12.9021,9.2229,173.8837],[12.9064,9.2246,173.8109],[12.91,9.2318,172.0],[12.9096,9.2357,172.8573],[12.9136,9.2516,171.0],[12.9096,9.2595,173.2222],[12.9099,9.2649,172.1894],[12.9145,9.2717,170.0],[12.916,9.2768,170.0],[12.913,9.2816,170.5872],[12.9087,9.2847,171.8991],[12.9086,9.2921,170.9185],[12.9144,9.3001,169.0],[12.9135,9.305,168.5],[12.916,9.3143,169.7386],[12.9127,9.317,168.0],[12.912,9.3206,169.3423],[12.917,9.3286,167.5],[12.9166,9.3379,168.3859],[12.914,9.3415,167.2689],[12.9082,9.3484,166.5],[12.9012,9.3526,167.6137],[12.8924,9.355,167.752],[12.8774,9.3474,167.5775],[12.8668,9.3525,165.7118],[12.8657,9.3588,165.0],[12.8595,9.3605,165.0],[12.8538,9.359,167.3289],[12.8493,9.3628,166.3699],[12.8484,9.3689,165.1409],[12.8438,9.3727,164.5],[12.8453,9.3753,165.1356],[12.848,9.3762,168.772],[12.8526,9.3725,165.1642],[12.8648,9.3699,166.6418],[12.8678,9.3718,168.6313],[12.8655,9.3773,168.3163],[12.866,9.3818,168.0404],[12.87,9.3869,168.0907],[12.871,9.3914,169.5873],[12.8829,9.3944,171.8571],[12.9105,9.4072,177.3601],[12.9175,9.4131,177.9995],[12.9236,9.4132,178.8457],[12.9368,9.4193,183.6763],[12.9422,9.4249,182.8326],[12.9414,9.4282,183.2869],[12.9459,9.4358,185.288],[12.95,9.4395,186.3099],[12.9593,9.4427,188.1244],[12.9671,9.4513,190.2037],[12.9702,9.4582,190.446],[12.9723,9.4711,198.0723],[12.9744,9.473,197.9748],[12.9814,9.4693,192.0442],[12.9863,9.4756,193.3964],[13.0049,9.4834,197.7942],[13.009,9.4907,199.1066],[13.0196,9.4972,200.5358],[13.0343,9.5113,206.0299],[13.0468,9.507,205.8786],[13.058,9.512,208.4338],[13.0635,9.5177,208.5499],[13.0674,9.5176,209.6412],[13.0738,9.5144,211.0605],[13.0771,9.5147,211.532]]]]}}