{"type": "Feature","bbox": [4.4185,7.8233,4.5432,7.9466],"geometry": {"type": "MultiPolygon","coordinates": [[[[4.4762,7.8247,303.3204],[4.4942,7.8461,309.7608],[4.4986,7.8445,318.0201],[4.5108,7.8608,329.8484],[4.5154,7.8721,329.1023],[4.5231,7.9058,349.195],[4.5432,7.9405,356.8112],[4.5391,7.9466,334.0916],[4.5132,7.9361,355.4974],[4.5023,7.9344,354.3714],[4.4885,7.9268,357.7903],[4.4726,7.91,395.3888],[4.4681,7.9163,394.6286],[4.4612,7.9086,388.0664],[4.4522,7.894,518.4023],[4.4428,7.8884,355.1323],[4.4413,7.8926,381.1615],[4.4191,7.8752,345.6893],[4.4185,7.8737,356.4276],[4.4334,7.8541,332.8928],[4.4525,7.834,325.8801],[4.465,7.8252,324.285],[4.471,7.8233,320.5847],[4.4762,7.8247,303.3204]]]]}
,"properties": {"GID_2": "NGA.30.29_1","GID_0": "NGA","country": "Nigeria","GID_1": "NGA.30_1","province": "Osun","NL_NAME_1": "NA","county": "Orolu","VARNAME_2": "NA","NL_NAME_2": "NA","TYPE_2": "LocalAuthority","ENGTYPE_2": "LocalAuthority","CC_2": "NA","HASC_2": "NA","name": "Orolu.county","area_km2": 87.30475,"hist_schema_id": "Elevation0-9000","hist_area_km2": {"300": 0.79816,"325": 19.4701,"350": 34.00199,"375": 24.00407,"400": 7.16133,"425": 1.21806,"450": 0.37802,"475": 0.16801,"500": 0.042,"525": 0.063}}}