{"type": "Feature","bbox": [7.1339,4.5776,7.2408,4.7158],"geometry": {"type": "MultiPolygon","coordinates": [[[[7.1584,4.5839,2.2564],[7.1703,4.5883,2.0027],[7.174,4.5912,1.1662],[7.1738,4.5943,0.0],[7.1687,4.6007,0.0],[7.1671,4.6085,0.0],[7.1585,4.6221,0.0],[7.156,4.6321,0.0],[7.1504,4.6407,0.0],[7.146,4.6443,0.0],[7.1366,4.6336,1.0188],[7.1339,4.624,4.0061],[7.1351,4.6094,2.7919],[7.1371,4.6059,1.9992],[7.1366,4.6027,2.6459],[7.1496,4.5947,2.2486],[7.1486,4.588,2.4079],[7.1501,4.5776,1.5933],[7.1584,4.5839,2.2564]]],
[[[7.1913,4.6228,3.6654],[7.1774,4.6257,0.9488],[7.1785,4.6221,4.1909],[7.1868,4.6149,0.2421],[7.1913,4.6228,3.6654]]],
[[[7.1743,4.6379,5.1686],[7.1729,4.6388,2.9738],[7.1732,4.6346,4.4553],[7.1715,4.6324,3.4803],[7.1729,4.6296,0.0],[7.1743,4.6326,3.7297],[7.1743,4.6379,5.1686]]],
[[[7.2063,4.6456,3.6775],[7.2157,4.645,1.3714],[7.2154,4.6476,1.365],[7.2188,4.6493,1.5965],[7.2226,4.6649,0.2572],[7.2246,4.6674,0.0],[7.2249,4.6701,0.0],[7.2229,4.6718,6.9545],[7.2254,4.6707,0.0],[7.2263,4.6743,0.5576],[7.2268,4.6679,0.5524],[7.2246,4.6626,0.9754],[7.2361,4.6642,6.0409],[7.2389,4.666,4.64],[7.2408,4.6728,3.652],[7.2402,4.6772,7.1275],[7.236,4.6835,0.7787],[7.2337,4.6838,0.0],[7.2307,4.6796,0.0],[7.2326,4.6765,2.0488],[7.229,4.6785,1.292],[7.219,4.6751,1.5893],[7.2154,4.6704,5.4535],[7.2118,4.6704,3.3735],[7.2079,4.6749,0.0],[7.2049,4.676,1.8651],[7.1976,4.676,1.3294],[7.191,4.6704,1.7866],[7.1893,4.6629,3.8153],[7.186,4.6607,0.0],[7.181,4.6613,0.6062],[7.1738,4.6685,3.3998],[7.1699,4.6674,1.034],[7.169,4.6571,0.0],[7.1738,4.6504,0.6062],[7.1763,4.6379,0.0],[7.1757,4.6313,0.9031],[7.1826,4.6251,1.0611],[7.1917,4.624,1.8869],[7.1966,4.6365,1.7594],[7.2063,4.6456,3.6775]]],
[[[7.1879,4.6654,0.9209],[7.1882,4.6654,0.9209],[7.1882,4.6655,1.9491],[7.1879,4.6654,0.9209]]],
[[[7.2012,4.7064,2.335],[7.1976,4.6978,2.2969],[7.1989,4.6915,5.606],[7.2057,4.6829,3.2206],[7.2086,4.6775,4.9485],[7.2071,4.6765,0.0],[7.2126,4.671,0.0],[7.2171,4.6754,0.0],[7.2263,4.6785,0.0],[7.2263,4.6907,1.4321],[7.2271,4.6846,0.6244],[7.2288,4.6818,0.0],[7.2312,4.6821,2.7213],[7.2299,4.6832,2.7213],[7.2335,4.6893,6.4653],[7.2335,4.6925,3.4942],[7.2278,4.6938,0.9184],[7.2142,4.7083,3.5135],[7.2145,4.7158,4.3752],[7.2041,4.7129,4.3029],[7.2012,4.7064,2.335]]]]}
,"properties": {"GID_2": "NGA.33.17_1","GID_0": "NGA","country": "Nigeria","GID_1": "NGA.33_1","province": "Rivers","NL_NAME_1": "NA","county": "Ogu/Bolo","VARNAME_2": "NA","NL_NAME_2": "NA","TYPE_2": "LocalAuthority","ENGTYPE_2": "LocalAuthority","CC_2": "NA","HASC_2": "NA","name": "Ogu_Bolo.county","area_km2": 51.96478,"hist_schema_id": "Elevation0-9000","hist_area_km2": {"0": 51.81685,"25": 0.14793}}}