{"type": "Feature","bbox": [9.379,11.5796,9.9283,11.9676],"geometry": {"type": "MultiPolygon","coordinates": [[[[9.9283,11.9282,379.9342],[9.9138,11.9431,374.2297],[9.8782,11.9644,372.8478],[9.8562,11.9652,372.7148],[9.8392,11.9676,372.2634],[9.8236,11.9667,372.2899],[9.807,11.9633,373.5892],[9.6938,11.9291,383.0298],[9.6713,11.9192,382.9408],[9.6513,11.9155,388.1721],[9.6439,11.9168,384.0115],[9.6384,11.9206,382.4229],[9.6307,11.9382,384.608],[9.6321,11.9418,376.2768],[9.6243,11.9496,378.0168],[9.6119,11.9563,378.0819],[9.597,11.9578,396.4604],[9.5723,11.9482,390.9462],[9.5139,11.9385,381.998],[9.4962,11.9253,391.5042],[9.4674,11.9096,389.4454],[9.4349,11.8954,390.3704],[9.4201,11.891,390.8138],[9.4081,11.8418,397.9826],[9.4031,11.8271,401.6326],[9.3963,11.8183,406.2559],[9.3901,11.7862,424.9769],[9.3839,11.7688,442.8527],[9.379,11.7377,481.919],[9.382,11.7145,441.2598],[9.3851,11.7014,442.8763],[9.3904,11.689,437.2701],[9.3853,11.6739,439.5157],[9.3881,11.6606,439.6237],[9.395,11.6564,433.5136],[9.4049,11.6555,432.3938],[9.4133,11.6502,419.4645],[9.4261,11.6381,417.9765],[9.4351,11.6271,403.8629],[9.4419,11.6156,402.8519],[9.4441,11.587,413.563],[9.4496,11.5796,413.5595],[9.4605,11.5905,413.913],[9.4867,11.611,407.479],[9.4957,11.6203,409.2061],[9.5231,11.6324,404.7244],[9.5395,11.6417,404.5341],[9.5475,11.6519,400.2767],[9.5576,11.6592,401.9291],[9.571,11.6667,404.0041],[9.5848,11.6715,403.357],[9.607,11.676,401.6293],[9.6164,11.6801,400.155],[9.6295,11.6876,395.4728],[9.6385,11.6966,391.7593],[9.6442,11.7032,389.8581],[9.6269,11.7112,389.3741],[9.6249,11.7328,387.9767],[9.6346,11.7791,385.9286],[9.657,11.8157,384.3495],[9.6745,11.839,382.098],[9.6868,11.8512,381.5905],[9.7331,11.8507,384.8388],[9.7863,11.8586,380.7767],[9.8261,11.8816,379.4834],[9.8747,11.907,378.5739],[9.9283,11.9282,379.9342]]]]}
,"properties": {"GID_2": "NGA.18.19_1","GID_0": "NGA","country": "Nigeria","GID_1": "NGA.18_1","province": "Jigawa","NL_NAME_1": "NA","county": "Kiyawa","VARNAME_2": "NA","NL_NAME_2": "NA","TYPE_2": "LocalAuthority","ENGTYPE_2": "LocalAuthority","CC_2": "NA","HASC_2": "NA","name": "Kiyawa.county","area_km2": 1107.4758,"hist_schema_id": "Elevation0-9000","hist_area_km2": {"375": 367.3636,"400": 581.6955,"425": 141.2697,"450": 16.0675,"475": 1.0794}}}