{"type": "Feature","bbox": [5.3475,13.1064,5.834,13.3787],"geometry": {"type": "MultiPolygon","coordinates": [[[[5.5286,13.3787,281.8575],[5.5199,13.3555,266.4901],[5.5099,13.342,263.0286],[5.4978,13.3345,270.4333],[5.4787,13.3267,258.816],[5.4546,13.3125,256.982],[5.4328,13.3028,254.716],[5.4261,13.296,260.9893],[5.4188,13.2851,270.7675],[5.4007,13.272,271.7497],[5.3962,13.2618,290.0253],[5.3935,13.2507,260.472],[5.3899,13.246,254.0646],[5.3524,13.2319,250.7467],[5.3485,13.2273,250.3975],[5.3475,13.218,250.1118],[5.3546,13.1973,255.8927],[5.3557,13.1704,307.83],[5.359,13.1508,312.973],[5.3647,13.1338,307.5786],[5.3719,13.1212,305.3002],[5.3788,13.1122,301.198],[5.3829,13.1098,285.1081],[5.392,13.1064,274.5378],[5.406,13.1107,265.9168],[5.4556,13.13,281.5023],[5.4726,13.135,278.8973],[5.4893,13.1436,272.4456],[5.5016,13.1522,317.0082],[5.5317,13.1687,278.7429],[5.5523,13.1858,287.0633],[5.588,13.207,283.7991],[5.6058,13.2225,287.0241],[5.6132,13.2269,282.0844],[5.6303,13.2428,305.9756],[5.6893,13.2726,291.3722],[5.7011,13.276,289.1025],[5.7122,13.2733,284.2247],[5.7339,13.2611,285.5887],[5.7372,13.2547,284.8717],[5.7459,13.2451,285.5807],[5.7664,13.2338,295.0221],[5.7725,13.2332,294.2996],[5.7956,13.2346,302.0918],[5.8045,13.2382,306.8462],[5.8131,13.2434,315.3321],[5.8239,13.2532,303.8568],[5.8289,13.2599,298.9176],[5.8323,13.2688,294.2654],[5.834,13.2824,292.7888],[5.8292,13.2897,285.3569],[5.8151,13.305,291.5594],[5.7951,13.3149,293.9564],[5.778,13.3184,295.6373],[5.747,13.3215,317.0069],[5.7391,13.3207,328.5747],[5.7238,13.3233,331.009],[5.6849,13.3127,310.0845],[5.6267,13.3051,263.7667],[5.593,13.3098,261.7581],[5.5731,13.3084,260.8486],[5.5631,13.3161,260.8652],[5.5527,13.3278,260.9759],[5.5509,13.3337,261.4849],[5.5406,13.3525,263.3074],[5.5405,13.356,266.6335],[5.5355,13.3647,289.1674],[5.534,13.3714,298.649],[5.5286,13.3787,281.8575]]]]}
,"properties": {"GID_2": "NGA.34.22_1","GID_0": "NGA","country": "Nigeria","GID_1": "NGA.34_1","province": "Sokoto","NL_NAME_1": "NA","county": "Wurno","VARNAME_2": "NA","NL_NAME_2": "NA","TYPE_2": "LocalAuthority","ENGTYPE_2": "LocalAuthority","CC_2": "NA","HASC_2": "NA","name": "Wurno.county","area_km2": 641.9981,"hist_schema_id": "Elevation0-9000","hist_area_km2": {"250": 96.4034,"275": 181.1424,"300": 242.3617,"325": 115.2181,"350": 6.5425,"375": 0.3301}}}