{"type":"Feature","properties":{"GID_2":"NGA.14.1_1","GID_0":"NGA","country":"Nigeria","GID_1":"NGA.14_1","province":"Enugu","NL_NAME_1":"NA","county":"Aninri","VARNAME_2":"NA","NL_NAME_2":"NA","TYPE_2":"LocalAuthority","ENGTYPE_2":"LocalAuthority","CC_2":"NA","HASC_2":"NA","name":"Aninri.county"},
"geometry":{"type": "MultiPolygon","coordinates": [[[[7.5336,5.973,58.1178],[7.5399,5.9752,53.9797],[7.5572,5.9772,48.0497],[7.5835,5.9887,44.7964],[7.5922,5.9893,56.7006],[7.616,5.9746,43.5683],[7.6243,5.9618,38.3398],[7.6368,5.9604,37.7023],[7.6689,5.9244,48.5577],[7.6717,5.9232,45.5061],[7.6709,5.9197,47.8361],[7.6827,5.9186,46.2729],[7.6932,5.9419,41.1354],[7.694,5.9486,44.8313],[7.689,5.9699,33.0178],[7.6804,5.9892,38.4988],[7.6783,6.0068,45.0243],[7.6694,6.0089,47.4599],[7.6646,6.0125,52.6534],[7.6605,6.019,52.7552],[7.6627,6.0242,58.1639],[7.6483,6.0344,59.454],[7.6431,6.0667,52.3043],[7.6342,6.0844,56.1257],[7.6323,6.1112,59.5499],[7.6235,6.1226,66.111],[7.6112,6.132,63.3179],[7.5893,6.1379,68.9823],[7.5817,6.1383,74.3154],[7.5581,6.1348,90.4389],[7.5527,6.1367,85.2703],[7.5306,6.1161,86.7096],[7.502,6.0843,90.9715],[7.4988,6.0726,80.2961],[7.4962,6.0529,80.0473],[7.4966,6.0372,76.4371],[7.4941,6.0266,77.9939],[7.4943,6.0183,70.2777],[7.5284,5.9967,62.1075],[7.5303,5.9855,62.9876],[7.5339,5.9811,60.2404],[7.5336,5.973,58.1178]]]]}}