{"type":"Feature","properties":{"GID_2":"NGA.15.3_1","GID_0":"NGA","country":"Nigeria","GID_1":"NGA.15_1","province":"FederalCapitalTerritory","NL_NAME_1":"NA","county":"Bwari","VARNAME_2":"NA","NL_NAME_2":"NA","TYPE_2":"LocalAuthority","ENGTYPE_2":"LocalAuthority","CC_2":"NA","HASC_2":"NA","name":"Bwari.county"},
"geometry":{"type": "MultiPolygon","coordinates": [[[[7.5574,9.0585,594.7629],[7.5581,9.0786,590.1347],[7.5562,9.0975,734.7361],[7.5599,9.1207,715.2936],[7.5586,9.1461,676.5641],[7.5644,9.1662,716.9624],[7.5711,9.1815,752.5859],[7.5762,9.204,694.0603],[7.5928,9.2508,685.3655],[7.6012,9.2606,646.4353],[7.6179,9.2617,651.7369],[7.6248,9.2717,666.9725],[7.6285,9.2911,690.0038],[7.6265,9.2973,699.8089],[7.6258,9.3107,724.0782],[7.6169,9.3026,714.8311],[7.6069,9.2981,692.1422],[7.5916,9.303,708.2635],[7.5898,9.3069,714.5124],[7.5832,9.3133,735.0256],[7.5744,9.3426,725.0309],[7.5679,9.3529,707.0122],[7.5572,9.3586,707.7588],[7.5506,9.3599,716.3333],[7.5416,9.3569,737.9473],[7.5334,9.3512,684.2615],[7.5043,9.3024,674.955],[7.4956,9.2924,673.8641],[7.486,9.2889,646.929],[7.4753,9.292,643.2358],[7.4614,9.3025,640.377],[7.4516,9.3045,625.2537],[7.4097,9.3076,622.9423],[7.3946,9.3081,672.6373],[7.3634,9.3034,549.5425],[7.3387,9.3043,549.5755],[7.3253,9.3001,533.5497],[7.3221,9.2973,524.9137],[7.3088,9.2974,515.2849],[7.304,9.2934,517.5255],[7.2841,9.2588,502.8801],[7.276,9.2525,496.8747],[7.2521,9.2137,533.0178],[7.2351,9.1918,483.7105],[7.224,9.1739,585.0454],[7.2107,9.1562,446.5125],[7.1974,9.1411,426.3052],[7.1703,9.0993,311.7746],[7.1751,9.0928,329.0354],[7.1892,9.0901,352.0295],[7.2052,9.0947,373.3708],[7.218,9.102,419.3991],[7.2381,9.1181,393.9556],[7.2726,9.1357,412.5366],[7.2841,9.1493,502.5189],[7.2946,9.1549,703.8468],[7.3268,9.1529,426.1412],[7.3422,9.1466,426.3416],[7.3477,9.1413,435.6457],[7.3588,9.1368,458.9366],[7.3705,9.1367,456.5932],[7.4008,9.1291,527.2949],[7.4081,9.1257,565.0983],[7.4201,9.1253,514.6968],[7.4374,9.1197,474.3334],[7.4447,9.1212,498.1667],[7.4591,9.1149,502.2461],[7.4652,9.1154,516.8203],[7.4843,9.0991,557.6829],[7.4896,9.0983,519.0275],[7.4971,9.0891,511.6184],[7.4998,9.0845,485.3282],[7.5004,9.079,496.4757],[7.4982,9.0771,497.6454],[7.5049,9.0635,492.0367],[7.504,9.0557,495.4788],[7.5056,9.0522,502.3774],[7.511,9.0486,514.1307],[7.5297,9.0444,567.4556],[7.5391,9.0458,582.4051],[7.5521,9.0531,568.4987],[7.5574,9.0585,594.7629]]]]}}