{"type": "Feature","bbox": [7.7975,4.5376,7.9029,4.7068],"geometry": {"type": "MultiPolygon","coordinates": [[[[7.8789,4.7068,27.3953],[7.8713,4.7009,36.5383],[7.843,4.6938,24.2407],[7.839,4.6984,24.5958],[7.8327,4.6955,26.9535],[7.8316,4.7013,29.525],[7.8262,4.6973,30.0605],[7.8289,4.7048,28.202],[7.821,4.7015,31.4896],[7.8128,4.6952,36.0524],[7.8118,4.7005,38.2531],[7.8078,4.7009,34.1265],[7.8042,4.6903,23.5675],[7.8031,4.6813,9.8194],[7.8081,4.6748,7.4379],[7.8229,4.6611,11.9478],[7.8239,4.6544,26.0285],[7.822,4.6476,19.9561],[7.8012,4.6196,11.7597],[7.7975,4.6035,14.5558],[7.7979,4.5987,15.3902],[7.803,4.5861,14.8937],[7.8042,4.5762,13.6251],[7.8125,4.5602,12.2762],[7.8161,4.5494,15.882],[7.8188,4.5495,14.188],[7.8217,4.5464,14.7548],[7.8246,4.5376,7.1549],[7.8475,4.5441,6.905],[7.8743,4.5455,7.3998],[7.8912,4.5446,9.1561],[7.8991,4.5502,5.4592],[7.9012,4.5561,9.9594],[7.9018,4.5612,7.9872],[7.8864,4.5829,8.9291],[7.8898,4.59,6.6498],[7.8989,4.5979,1.446],[7.9029,4.6146,7.6868],[7.8995,4.6207,7.8024],[7.8938,4.6256,6.204],[7.8895,4.6264,7.6285],[7.8744,4.6628,15.5045],[7.8749,4.6932,31.9221],[7.8789,4.7068,27.3953]]]]}
,"properties": {"GID_2": "NGA.3.24_1","GID_0": "NGA","country": "Nigeria","GID_1": "NGA.3_1","province": "AkwaIbom","NL_NAME_1": "NA","county": "Onna","VARNAME_2": "NA","NL_NAME_2": "NA","TYPE_2": "LocalAuthority","ENGTYPE_2": "LocalAuthority","CC_2": "NA","HASC_2": "NA","name": "Onna.county","area_km2": 150.9773,"hist_schema_id": "Elevation0-9000","hist_area_km2": {"0": 66.4035,"25": 84.3835,"50": 0.1902}}}