{"type":"Feature","properties":{"GID_2":"NGA.27.6_1","GID_0":"NGA","country":"Nigeria","GID_1":"NGA.27_1","province":"Niger","NL_NAME_1":"NA","county":"Chanchaga","VARNAME_2":"NA","NL_NAME_2":"NA","TYPE_2":"LocalAuthority","ENGTYPE_2":"LocalAuthority","CC_2":"NA","HASC_2":"NA","name":"Chanchaga.county"},
"geometry":{"type": "MultiPolygon","coordinates": [[[[6.5393,9.6454,287.8486],[6.5177,9.65,278.8263],[6.5041,9.6478,266.2585],[6.4892,9.6402,265.4648],[6.4842,9.6332,238.8895],[6.4739,9.6112,241.266],[6.4743,9.6036,222.9883],[6.4666,9.5952,233.0205],[6.4616,9.5857,252.3373],[6.4643,9.5765,242.1168],[6.4726,9.5722,225.9904],[6.4808,9.5704,227.9521],[6.4979,9.5716,217.4696],[6.5422,9.5686,240.9004],[6.5512,9.5793,241.8496],[6.5563,9.5831,237.285],[6.5613,9.5935,253.3061],[6.5582,9.6175,262.9249],[6.541,9.6399,277.6894],[6.5447,9.6416,273.7841],[6.5393,9.6454,287.8486]]]]}}