{"type":"Feature","properties":{"GID_2":"NGA.11.7_1","GID_0":"NGA","country":"Nigeria","GID_1":"NGA.11_1","province":"Ebonyi","NL_NAME_1":"NA","county":"Ikwo","VARNAME_2":"NA","NL_NAME_2":"NA","TYPE_2":"LocalAuthority","ENGTYPE_2":"LocalAuthority","CC_2":"NA","HASC_2":"NA","name":"Ikwo.county"},
"geometry":{"type": "MultiPolygon","coordinates": [[[[8.1186,5.9708,25.9029],[8.1215,5.9704,22.3491],[8.142,5.9795,16.0316],[8.1525,5.9897,16.9155],[8.1695,5.9993,17.365],[8.1775,6.007,23.4886],[8.182,6.0282,19.7846],[8.1876,6.0306,19.3592],[8.2123,6.033,30.4963],[8.2236,6.0286,17.5242],[8.2386,6.0143,15.7113],[8.2476,6.0125,21.3258],[8.2612,6.0273,16.9037],[8.2616,6.0404,16.9424],[8.2722,6.0645,20.9723],[8.271,6.0754,20.1829],[8.2761,6.0916,20.5966],[8.2738,6.1065,19.006],[8.2866,6.1302,20.2961],[8.295,6.1338,23.2745],[8.3234,6.1788,23.7504],[8.3203,6.188,35.029],[8.3204,6.1956,37.1459],[8.3172,6.2092,48.993899999999996],[8.3016,6.2176,41.5979],[8.2937,6.2149,41.1022],[8.2853,6.2102,50.3028],[8.2799,6.2046,40.2426],[8.2709,6.1992,50.5912],[8.2615,6.1911,54.1198],[8.2439,6.1884,41.5907],[8.2356,6.1897,53.6786],[8.224,6.1862,44.8376],[8.2126,6.1755,40.1642],[8.1889,6.1642,29.3166],[8.1794,6.1616,23.9498],[8.1623,6.1637,39.0108],[8.1483,6.1682,37.8507],[8.1496,6.1628,33.311],[8.1434,6.1336,47.6964],[8.1271,6.1086,42.8238],[8.1186,6.1013,54.897],[8.0954,6.0902,48.1873],[8.0794,6.0886,68.7004],[8.065,6.0921,61.9971],[8.0553,6.0923,63.8414],[8.0488,6.091,65.3947],[8.0457,6.0878,53.2109],[8.0461,6.0841,51.8364],[8.0599,6.0756,63.3963],[8.0632,6.0707,60.0036],[8.0629,6.0612,53.3145],[8.0507,6.0532,44.3562],[8.0451,6.0463,43.5076],[8.0268,6.0418,28.1193],[8.0068,6.0343,22.9443],[8.0048,6.0231,24.7266],[8.0108,6.0052,25.0763],[8.0272,6.0071,34.0288],[8.0353,6.0055,34.1169],[8.042,6.0061,37.47],[8.0491,6.0012,37.5564],[8.0607,5.9807,30.6839],[8.0675,5.9572,29.5973],[8.0758,5.9412,22.2115],[8.0805,5.9353,20.4505],[8.0854,5.9334,25.2652],[8.0949,5.9406,17.4116],[8.0962,5.9471,20.1295],[8.1029,5.9615,20.4378],[8.1071,5.9669,25.6295],[8.1153,5.9712,25.0946],[8.1186,5.9708,25.9029]]]]}}