{"type":"Feature","properties":{"GID_2":"NGA.18.11_1","GID_0":"NGA","country":"Nigeria","GID_1":"NGA.18_1","province":"Jigawa","NL_NAME_1":"NA","county":"Gwaram","VARNAME_2":"NA","NL_NAME_2":"NA","TYPE_2":"LocalAuthority","ENGTYPE_2":"LocalAuthority","CC_2":"NA","HASC_2":"NA","name":"Gwaram.county"},
"geometry":{"type": "MultiPolygon","coordinates": [[[[10.3926,11.1744,435.809],[10.3775,11.1953,416.1547],[10.3105,11.1972,425.3119],[10.2341,11.2043,429.0885],[10.1417,11.2245,437.9688],[10.0895,11.2325,462.7087],[10.0386,11.2368,463.1301],[9.9902,11.2662,492.3279],[9.9567,11.31,432.72],[9.9316,11.3479,417.2684],[9.9047,11.3845,409.2392],[9.8877,11.4244,409.8178],[9.8801,11.4653,410.0939],[9.8371,11.4534,411.8915],[9.818,11.4504,413.1379],[9.813,11.455,412.3178],[9.7898,11.4486,415.0076],[9.7791,11.4486,418.4608],[9.7485,11.4354,418.9515],[9.7184,11.4309,426.8189],[9.7123,11.4279,429.8527],[9.7076,11.4218,434.9148],[9.6976,11.4157,437.9011],[9.6941,11.4003,429.5854],[9.6846,11.3793,437.4651],[9.6602,11.3589,438.4779],[9.6461,11.3497,432.3888],[9.6427,11.3344,431.8288],[9.6501,11.3047,441.9022],[9.6508,11.2846,449.7502],[9.6558,11.2677,452.1714],[9.6522,11.2587,451.2188],[9.6505,11.2456,444.6287],[9.6515,11.2409,442.1338],[9.7528,11.247,425.899],[9.776,11.2516,425.8142],[9.8105,11.2614,426.6003],[9.829,11.2566,426.5311],[9.849,11.2275,435.528],[9.8721,11.1785,458.0513],[9.8807,11.1443,467.691],[9.8788,11.0972,481.2881],[9.8681,11.0522,491.9681],[9.8674,11.019,511.89],[9.8804,10.9863,514.0432],[9.9022,10.9646,520.9259],[9.9568,10.9517,532.336],[9.9943,10.9456,504.19],[10.0585,10.96,481.8419],[10.0847,10.9678,480.3836],[10.11,10.965,478.36],[10.14,10.9434,457.6461],[10.1798,10.9334,473.8735],[10.2098,10.9425,478.6384],[10.1918,10.9972,483.5427],[10.1925,11.0261,462.7719],[10.2173,11.0565,452.6261],[10.2581,11.0782,434.4195],[10.293,11.085,441.0274],[10.3233,11.0941,430.5431],[10.3466,11.1064,428.2679],[10.3764,11.1285,438.8073],[10.3943,11.1721,434.6318],[10.3926,11.1744,435.809]]]]}}