{"type": "Feature","bbox": [4.4544,5.8568,5.0502,6.6485],"geometry": {"type": "MultiPolygon","coordinates": [[[[4.9974,5.8626,5.2934],[4.996,5.8632,0.2811],[4.9993,5.8588,5.4648],[4.9993,5.8599,5.4648],[4.9974,5.8626,5.2934]]],
[[[4.991,5.8713,1.7173],[4.9899,5.871,1.7173],[4.994,5.866,0.8754],[4.994,5.8671,3.0378],[4.991,5.8713,1.7173]]],
[[[4.9799,5.8874,3.5877],[4.9779,5.8876,0.0],[4.9781,5.8854,0.0],[4.9874,5.8749,3.6509],[4.9863,5.8793,3.8131],[4.9799,5.8874,3.5877]]],
[[[4.9379,5.9354,3.5435],[4.9365,5.9362,3.243],[4.9415,5.9307,2.4086],[4.9413,5.9324,5.7191],[4.9379,5.9354,3.5435]]],
[[[5.0035,5.8568,7.1848],[5.0502,5.9691,2.0198],[5.0131,6.0244,6.798],[4.9882,6.0557,6.7481],[4.953,6.1047,11.1503],[4.9258,6.1469,12.9656],[4.8691,6.2107,6.8406],[4.8521,6.2267,7.3673],[4.8374,6.2468,2.1994],[4.8345,6.2657,2.2765],[4.8384,6.2765,9.0585],[4.8421,6.2806,9.2794],[4.8483,6.2924,1.8902],[4.856,6.2978,2.5214],[4.8676,6.3165,6.6284],[4.8686,6.3218,10.9089],[4.8669,6.3433,7.1414],[4.8636,6.3516,6.7087],[4.8563,6.3598,6.718],[4.8562,6.367,7.4426],[4.8528,6.3725,15.1317],[4.8529,6.3792,15.2642],[4.8616,6.3851,8.8226],[4.8672,6.3926,16.7024],[4.8699,6.4024,19.9784],[4.8702,6.4218,6.323],[4.8738,6.4406,8.043],[4.8734,6.4458,13.915],[4.8617,6.4367,1.8947],[4.8544,6.4342,2.908],[4.85,6.4233,19.4434],[4.839,6.4138,14.5808],[4.8022,6.4063,10.5632],[4.7873,6.3988,13.0845],[4.7687,6.3926,14.853],[4.7535,6.3927,13.0957],[4.701,6.3979,2.8105],[4.6802,6.4073,7.7638],[4.6714,6.4201,9.1327],[4.6476,6.4451,5.65],[4.6466,6.4585,14.2344],[4.6368,6.4638,4.5193],[4.6172,6.4825,8.6641],[4.5948,6.5232,26.1626],[4.5949,6.5394,16.0711],[4.5926,6.5424,21.6042],[4.593,6.567,33.4042],[4.597,6.5854,44.9154],[4.6066,6.606,29.6153],[4.6072,6.6191,35.0855],[4.6015,6.6349,61.7716],[4.5856,6.6485,54.4389],[4.5807,6.6481,71.1019],[4.566,6.6362,27.2413],[4.562,6.6287,54.0762],[4.5722,6.6291,55.7819],[4.5826,6.6165,32.4603],[4.586,6.6072,65.6253],[4.5864,6.5601,28.6832],[4.5824,6.5443,15.1271],[4.5856,6.5138,7.7718],[4.596,6.4866,14.261],[4.5923,6.4719,8.3388],[4.5845,6.4572,7.9277],[4.5653,6.4541,13.1648],[4.545,6.4466,8.9065],[4.5325,6.4281,5.55],[4.5146,6.4171,5.3909],[4.4917,6.418,0.1539],[4.4757,6.4155,10.1735],[4.4636,6.4051,5.2399],[4.4544,6.3937,8.2787],[4.4702,6.3868,10.7734],[4.494,6.3905,0.0],[4.5153,6.3908,1.0247],[4.5387,6.3801,3.9987],[4.5686,6.3627,10.6847],[4.572,6.3453,15.1018],[4.5626,6.3197,6.9551],[4.5587,6.3174,8.3596],[4.542,6.3154,2.8292],[4.5181,6.323,4.593],[4.494,6.3218,2.4562],[4.4963,6.3213,3.2213],[4.5007,6.3154,0.0],[4.5054,6.3146,0.0],[4.5051,6.3132,0.0],[4.5107,6.3087,0.0],[4.5268,6.3007,0.0],[4.5329,6.296,0.0],[4.5376,6.2951,0.0],[4.5379,6.2918,0.0],[4.5454,6.2843,0.0],[4.5543,6.2776,0.0],[4.5671,6.2707,0.0],[4.569,6.271,0.9935],[4.5693,6.269,1.3367],[4.5774,6.2621,0.3824],[4.6096,6.2376,0.0],[4.6149,6.234,0.0],[4.6185,6.2365,0.6381],[4.6179,6.2324,0.0],[4.6324,6.2185,0.0],[4.6537,6.204,1.2125],[4.6621,6.1951,0.0],[4.6754,6.1854,0.0],[4.6804,6.1793,0.1894],[4.6915,6.1704,0.0],[4.6938,6.171,0.325],[4.7113,6.1529,0.0],[4.7374,6.1357,0.9312],[4.7385,6.1324,0.0],[4.7413,6.1318,0.0],[4.7518,6.1221,0.2686],[4.7554,6.121,0.1879],[4.7571,6.1171,0.0],[4.7657,6.1118,0.0],[4.766,6.1096,0.0],[4.7771,6.1018,0.6067],[4.7776,6.0999,0.0],[4.7793,6.1001,0.2944],[4.7834,6.094,0.0],[4.7993,6.0799,0.0],[4.7999,6.0779,0.0],[4.8079,6.0721,0.0],[4.816,6.0626,0.0],[4.8201,6.0607,0.0],[4.821,6.0582,0.0],[4.8315,6.049,0.724],[4.8374,6.041,0.0],[4.8474,6.0329,4.4097],[4.8565,6.0221,1.7514],[4.8668,6.0137,1.3444],[4.886,5.9938,1.7137],[4.929,5.9432,0.0],[4.9296,5.944,3.1149],[4.9274,5.9474,3.6932],[4.9118,5.966,3.5933],[4.914,5.9646,3.0002],[4.9329,5.9429,3.3088],[4.9368,5.9401,2.4638],[4.9349,5.9374,0.3107],[4.9404,5.9368,2.7239],[4.9451,5.9299,4.3802],[4.944,5.9265,3.7595],[4.9638,5.9082,0.0],[4.9742,5.8915,0.0],[4.9771,5.8918,1.6987],[4.9804,5.8888,4.6686],[5.0035,5.8568,7.1848]]]]}
,"properties": {"GID_2": "NGA.29.10_1","GID_0": "NGA","country": "Nigeria","GID_1": "NGA.29_1","province": "Ondo","NL_NAME_1": "NA","county": "Ilaje","VARNAME_2": "NA","NL_NAME_2": "NA","TYPE_2": "LocalAuthority","ENGTYPE_2": "LocalAuthority","CC_2": "NA","HASC_2": "NA","name": "Ilaje.county","area_km2": 1472.635,"hist_schema_id": "Elevation0-9000","hist_area_km2": {"0": 1316.956,"25": 138.198,"50": 9.351,"75": 8.108,"100": 0.021}}}