{"type": "Feature","bbox": [7.4078,12.2307,7.6346,12.5851],"geometry": {"type": "MultiPolygon","coordinates": [[[[7.6183,12.5851,526.5796],[7.594,12.568,551.6622],[7.5392,12.5453,559.2175],[7.5294,12.5447,555.9647],[7.5103,12.5491,556.29],[7.5029,12.5493,562.8032],[7.4883,12.5463,548.7143],[7.4585,12.5559,553.1813],[7.4429,12.5571,554.5977],[7.4378,12.5545,561.9929],[7.4078,12.5469,560.099],[7.4121,12.5329,555.7666],[7.4165,12.5043,561.1777],[7.4238,12.4933,542.8956],[7.4277,12.4753,532.671],[7.4385,12.4597,518.1954],[7.4571,12.4209,504.9305],[7.4591,12.4013,497.5034],[7.4572,12.3782,500.6343],[7.4546,12.359,479.7878],[7.4452,12.3444,497.6843],[7.4416,12.3277,493.378],[7.4395,12.2914,507.6385],[7.4445,12.2764,512.0755],[7.4492,12.2696,513.8528],[7.4486,12.2671,513.2598],[7.4538,12.2498,511.8643],[7.4627,12.2326,512.68],[7.4794,12.2307,524.3539],[7.4878,12.2331,532.1251],[7.5067,12.2347,538.782],[7.5228,12.2393,525.86],[7.5247,12.255,514.3901],[7.5206,12.2782,517.1437],[7.5202,12.2914,508.2965],[7.5238,12.3011,497.8953],[7.5289,12.3065,498.6082],[7.5293,12.3157,496.9518],[7.5287,12.3252,506.8851],[7.5235,12.3429,495.4888],[7.5247,12.3565,491.4309],[7.5367,12.3581,490.5],[7.5651,12.3463,492.1512],[7.5785,12.3435,494.3007],[7.5879,12.3392,498.2681],[7.6013,12.3398,505.9872],[7.6035,12.3413,502.2684],[7.6032,12.3476,494.2242],[7.5968,12.3689,495.8989],[7.5896,12.3852,508.472],[7.5916,12.4042,518.7061],[7.5988,12.4315,533.8314],[7.6139,12.4557,539.3405],[7.6312,12.4743,550.9888],[7.6341,12.487,554.4564],[7.6346,12.497,560.0488],[7.6325,12.5235,561.3612],[7.6229,12.5534,547.6073],[7.6183,12.5851,526.5796]]]]}
,"properties": {"GID_2": "NGA.21.12_1","GID_0": "NGA","country": "Nigeria","GID_1": "NGA.21_1","province": "Katsina","NL_NAME_1": "NA","county": "Dutsinma","VARNAME_2": "NA","NL_NAME_2": "NA","TYPE_2": "LocalAuthority","ENGTYPE_2": "LocalAuthority","CC_2": "NA","HASC_2": "NA","name": "Dutsinma.county","area_km2": 546.5355,"hist_schema_id": "Elevation0-9000","hist_area_km2": {"475": 1.3669,"500": 155.4508,"525": 157.9906,"550": 151.9154,"575": 75.3407,"600": 4.4503,"625": 0.0207}}}