{"type": "Feature","bbox": [6.1661,9.3776,6.6546,9.7991],"geometry": {"type": "MultiPolygon","coordinates": [[[[6.1772,9.4912,117.9323],[6.1901,9.4794,109.4401],[6.1953,9.4769,118.4058],[6.2016,9.4797,136.9666],[6.2178,9.4767,155.3155],[6.2262,9.4625,145.5695],[6.247,9.4464,148.567],[6.2482,9.4274,130.8124],[6.2312,9.4044,101.225],[6.2309,9.3936,92.5169],[6.2361,9.3878,91.6672],[6.2511,9.3894,102.227],[6.2642,9.3933,105.6726],[6.2743,9.3913,122.6607],[6.2884,9.3848,126.3854],[6.3027,9.3845,112.5225],[6.3104,9.3876,107.0179],[6.3328,9.3781,134.5035],[6.3431,9.3776,137.4131],[6.3542,9.3881,129.5991],[6.3616,9.3992,130.584],[6.3768,9.4038,158.9553],[6.4195,9.4103,170.5063],[6.4416,9.4089,177.8058],[6.4626,9.4147,181.4972],[6.4678,9.4323,190.9894],[6.4676,9.4757,189.0365],[6.4718,9.4914,207.4336],[6.4859,9.5119,201.057],[6.5035,9.5234,196.8845],[6.5278,9.5288,202.3909],[6.5711,9.5346,214.4743],[6.5998,9.5308,213.7612],[6.627,9.5399,222.3835],[6.6267,9.5482,222.634],[6.6315,9.5538,232.5412],[6.642,9.5606,246.8349],[6.6516,9.5746,251.8453],[6.6546,9.6297,304.8257],[6.65,9.6592,335.3067],[6.6394,9.6787,320.2381],[6.6169,9.6964,284.7372],[6.5902,9.7083,276.7188],[6.5788,9.7218,269.1602],[6.5724,9.7409,264.1112],[6.5625,9.7611,262.1487],[6.5511,9.7715,244.3892],[6.5085,9.7851,231.6082],[6.4935,9.7845,235.4785],[6.4863,9.7821,229.6578],[6.4761,9.7884,236.0321],[6.464,9.7991,258.5612],[6.4348,9.7803,266.6668],[6.4219,9.764,313.0417],[6.4031,9.7481,304.8134],[6.3928,9.7455,278.7316],[6.3826,9.7382,270.1072],[6.3706,9.7431,272.7353],[6.3391,9.7467,257.2921],[6.3281,9.7505,261.3005],[6.2869,9.7427,212.5552],[6.2731,9.7455,194.7119],[6.2533,9.746,172.8081],[6.1964,9.7569,169.9888],[6.1957,9.7246,160.6322],[6.1916,9.7006,161.7685],[6.1797,9.679,157.9917],[6.1709,9.6671,141.7367],[6.1661,9.6398,146.7479],[6.1694,9.6135,152.1006],[6.1801,9.5728,135.2707],[6.1903,9.5542,142.665],[6.2011,9.5421,159.4208],[6.1993,9.5208,150.9182],[6.1772,9.4912,117.9323]],
[[6.5393,9.6454,287.8486],[6.5447,9.6416,273.7841],[6.541,9.6399,277.6894],[6.5582,9.6175,262.9249],[6.5613,9.5935,253.3061],[6.5563,9.5831,237.285],[6.5512,9.5793,241.8496],[6.5422,9.5686,240.9004],[6.4979,9.5716,217.4696],[6.4808,9.5704,227.9521],[6.4726,9.5722,225.9904],[6.4643,9.5765,242.1168],[6.4616,9.5857,252.3373],[6.4666,9.5952,233.0205],[6.4743,9.6036,222.9883],[6.4739,9.6112,241.266],[6.4842,9.6332,238.8895],[6.4892,9.6402,265.4648],[6.5041,9.6478,266.2585],[6.5177,9.65,278.8263],[6.5393,9.6454,287.8486]]]]}
,"properties": {"GID_2": "NGA.27.5_1","GID_0": "NGA","country": "Nigeria","GID_1": "NGA.27_1","province": "Niger","NL_NAME_1": "NA","county": "Bosso","VARNAME_2": "NA","NL_NAME_2": "NA","TYPE_2": "LocalAuthority","ENGTYPE_2": "LocalAuthority","CC_2": "NA","HASC_2": "NA","name": "Bosso.county","area_km2": 1588.871,"hist_schema_id": "Elevation0-9000","hist_area_km2": {"100": 17.089,"125": 69.564,"150": 162.429,"175": 228.651,"200": 206.819,"225": 195.915,"250": 189.633,"275": 178.662,"300": 166.953,"325": 107.698,"350": 48.78,"375": 14.045,"400": 1.338,"425": 1.066,"450": 0.23}}}