{"type": "Feature","bbox": [9.7901,11.318,10.6835,11.8099],"geometry": {"type": "MultiPolygon","coordinates": [[[[10.646,11.6657,394.8708],[10.6219,11.6601,390.0175],[10.6048,11.6495,391.4111],[10.5956,11.6485,392.1504],[10.5882,11.6459,391.9741],[10.5723,11.665,390.2],[10.5641,11.6801,382.0516],[10.5558,11.6876,390.3922],[10.5483,11.6976,394.9462],[10.5454,11.7089,393.5283],[10.5291,11.7181,393.2488],[10.4929,11.7553,391.4065],[10.4799,11.7711,388.7295],[10.475,11.788,386.412],[10.4607,11.797,385.136],[10.4539,11.8099,383.5062],[10.451599999999999,11.8038,383.6106],[10.4378,11.7906,385.9944],[10.4231,11.78,381.8039],[10.407,11.7722,390.0467],[10.3982,11.7734,385.8056],[10.3757,11.7839,388.5178],[10.3424,11.7967,385.7613],[10.3193,11.7989,382.9153],[10.2873,11.7914,388.4789],[10.2743,11.7864,389.4255],[10.2452,11.7698,384.4619],[10.2211,11.759,383.7395],[10.1992,11.7591,385.5746],[10.1643,11.7743,388.8395],[10.1423,11.7785,384.3588],[10.0956,11.7968,380.0267],[10.076,11.8024,380.5542],[10.0586,11.8018,381.9139],[10.0423,11.7944,383.208],[10.019,11.7758,383.0532],[9.9938,11.7619,386.0209],[10.0187,11.7466,384.2155],[10.0377,11.7394,387.3532],[10.0491,11.7318,391.9533],[10.1166,11.7028,393.424],[10.1239,11.6945,394.8807],[10.1202,11.6778,394.3745],[10.1103,11.6611,393.3385],[10.0812,11.6394,396.1365],[10.0606,11.6297,397.6845],[10.046,11.6254,397.5908],[10.0315,11.6273,396.202],[10.0002,11.638,393.1099],[9.9833,11.6405,396.5756],[9.9717,11.6312,394.4118],[9.9622,11.6195,393.9108],[9.9489,11.5942,394.7111],[9.9393,11.5838,397.6723],[9.9235,11.5707,402.5961],[9.9034,11.5574,403.393],[9.8859,11.5523,406.2869],[9.8683,11.5495,409.9228],[9.8475,11.5488,414.0702],[9.8178,11.5516,423.85],[9.799,11.5181,421.0224],[9.7901,11.4957,416.7366],[9.7989,11.4681,413.4861],[9.818,11.4504,413.1379],[9.8371,11.4534,411.8915],[9.8801,11.4653,410.0939],[9.8877,11.4244,409.8178],[9.9047,11.3845,409.2392],[9.9514,11.318,429.2978],[9.9599,11.3312,431.4072],[9.962,11.3476,422.766],[9.9774,11.3566,418.4944],[9.9774,11.3695,426.8914],[9.9858,11.3881,431.3588],[9.9791,11.3981,426.4658],[9.973,11.4132,413.1275],[9.9589,11.4604,403.8518],[9.9648,11.4894,409.2853],[9.9641,11.5032,405.5785],[9.9787,11.5228,404.5043],[10.0005,11.5449,400.7538],[10.0157,11.5731,402.0245],[10.0268,11.59,400.7067],[10.0388,11.5977,398.3714],[10.0595,11.5944,400.4854],[10.081,11.5859,399.0005],[10.0925,11.5733,409.0281],[10.1223,11.5611,410.7131],[10.1321,11.5589,405.9576],[10.1583,11.6,411.6437],[10.1694,11.6026,419.8397],[10.1912,11.5974,414.0732],[10.2028,11.5864,419.0625],[10.2136,11.5819,425.9938],[10.2225,11.5813,434.1189],[10.2285,11.5842,439.0142],[10.2378,11.5855,442.0865],[10.2878,11.5898,428.2523],[10.3042,11.5898,425.1605],[10.3269,11.5856,411.52],[10.36,11.5842,416.874],[10.376,11.5764,425.3171],[10.378,11.5644,433.5333],[10.3759,11.5243,428.5265],[10.3737,11.5146,424.4345],[10.3851,11.5028,420.2095],[10.3893,11.487,420.0055],[10.4049,11.4721,431.8683],[10.4187,11.4684,437.8463],[10.4332,11.473,441.8925],[10.4941,11.4761,412.9333],[10.5653,11.4852,398.9201],[10.59,11.4938,385.9984],[10.6297,11.5008,413.6698],[10.6575,11.5108,434.2167],[10.6798,11.5296,438.0527],[10.6835,11.5448,433.7339],[10.6449,11.6073,404.2279],[10.6356,11.6192,399.8963],[10.6328,11.6351,398.4927],[10.633,11.6482,396.1053],[10.646,11.6657,394.8708]]]]}
,"properties": {"GID_2": "NGA.5.12_1","GID_0": "NGA","country": "Nigeria","GID_1": "NGA.5_1","province": "Bauchi","NL_NAME_1": "NA","county": "Katagum","VARNAME_2": "NA","NL_NAME_2": "NA","TYPE_2": "LocalAuthority","ENGTYPE_2": "LocalAuthority","CC_2": "NA","HASC_2": "NA","name": "Katagum.county","area_km2": 1954.442,"hist_schema_id": "Elevation0-9000","hist_area_km2": {"375": 206.38,"400": 1327.363,"425": 362.428,"450": 58.272}}}