{"type": "Feature","bbox": [7.87,6.0233,8.1496,6.1979],"geometry": {"type": "MultiPolygon","coordinates": [[[[8.033,6.1979,69.9067],[8.0168,6.1945,84.9853],[8.0004,6.1934,72.4611],[7.9809,6.188,48.9398],[7.9757999999999996,6.1673,43.6025],[7.9772,6.1553,56.6449],[7.976,6.142,42.147],[7.9744,6.1386,38.1352],[7.9678,6.1334,38.2574],[7.9567,6.1301,36.4755],[7.9415,6.1324,54.5876],[7.9376,6.1348,36.6056],[7.9398,6.1394,45.6339],[7.9374,6.1479,36.4503],[7.9331,6.1538,36.9161],[7.9262,6.1539,56.2274],[7.9197,6.151,55.1528],[7.9149,6.1548,49.3649],[7.9108,6.1611,42.0155],[7.8988,6.1709,40.3621],[7.8825,6.1772,40.7114],[7.8782,6.1768,54.0515],[7.8724,6.167,70.1558],[7.87,6.1583,92.185],[7.8708,6.1537,71.3792],[7.88,6.1383,73.1783],[7.8935,6.1328,88.7303],[7.8987,6.1246,72.2496],[7.9009,6.1009,54.2935],[7.8992,6.097,52.7342],[7.8995,6.0723,52.0353],[7.8923,6.0593,68.8798],[7.8967,6.0415,41.5931],[7.9047,6.037,44.5862],[7.9103,6.0304,42.5764],[7.9177,6.0296,53.1954],[7.9274,6.0313,46.744],[7.9413,6.0366,38.0179],[7.9542,6.0444,21.5602],[7.9645,6.0452,28.5292],[7.9912,6.0408,24.7312],[8.0053,6.0233,24.7266],[8.0068,6.0343,22.9443],[8.0268,6.0418,28.1193],[8.0451,6.0463,43.5076],[8.0507,6.0532,44.3562],[8.0629,6.0612,53.3145],[8.0632,6.0707,60.0036],[8.0599,6.0756,63.3963],[8.0461,6.0841,51.8364],[8.0457,6.0878,53.2109],[8.0488,6.091,65.3947],[8.065,6.0921,61.9971],[8.0794,6.0886,68.7004],[8.0954,6.0902,48.1873],[8.1086,6.0955,52.5869],[8.1186,6.1013,54.897],[8.1271,6.1086,42.8238],[8.1434,6.1336,47.6964],[8.1496,6.1628,33.311],[8.1483,6.1682,37.8507],[8.1435,6.1691,36.965],[8.1338,6.1679,41.2967],[8.1252,6.1639,46.2145],[8.1193,6.158,44.3005],[8.1112,6.1547,39.1905],[8.1038,6.1543,63.3356],[8.0848,6.1616,55.2842],[8.0499,6.1714,70.003],[8.0432,6.1752,63.6435],[8.0333,6.1862,66.6989],[8.033,6.1979,69.9067]]]]}
,"properties": {"GID_2": "NGA.11.6_1","GID_0": "NGA","country": "Nigeria","GID_1": "NGA.11_1","province": "Ebonyi","NL_NAME_1": "NA","county": "EzzaSouth","VARNAME_2": "NA","NL_NAME_2": "NA","TYPE_2": "LocalAuthority","ENGTYPE_2": "LocalAuthority","CC_2": "NA","HASC_2": "NA","name": "Ezza_South.county","area_km2": 329.4435,"hist_schema_id": "Elevation0-9000","hist_area_km2": {"25": 59.6218,"50": 174.8528,"75": 90.3733,"100": 4.5955}}}