{"type": "Feature","bbox": [7.0066,5.4462,7.0712,5.5216],"geometry": {"type": "MultiPolygon","coordinates": [[[[7.0259,5.5216,84.2619],[7.0103,5.492,70.9971],[7.0066,5.4807,73.263],[7.0088,5.4738,70.9228],[7.008,5.466,68.0917],[7.0127,5.4567,68.7705],[7.0231,5.4473,53.5598],[7.0326,5.4462,69.758],[7.0415,5.4475,69.788],[7.0426,5.4532,69.2363],[7.0582,5.4612,70.1559],[7.0678,5.4721,89.4299],[7.0712,5.4806,83.6277],[7.0683,5.4864,84.9913],[7.0338,5.5056,66.079],[7.0259,5.5216,84.2619]]]]}
,"properties": {"GID_2": "NGA.17.24_1","GID_0": "NGA","country": "Nigeria","GID_1": "NGA.17_1","province": "Imo","NL_NAME_1": "NA","county": "OwerriMunicipal","VARNAME_2": "NA","NL_NAME_2": "NA","TYPE_2": "LocalAuthority","ENGTYPE_2": "LocalAuthority","CC_2": "NA","HASC_2": "NA","name": "Owerri_Municipal.county","area_km2": 34.35954,"hist_schema_id": "Elevation0-9000","hist_area_km2": {"50": 4.68542,"75": 28.63997,"100": 1.03415}}}