{"type": "Feature","bbox": [7.853,12.9136,8.1561,13.3325],"geometry": {"type": "MultiPolygon","coordinates": [[[[7.8745,13.3325,457.4259],[7.8739,13.3185,452.4978],[7.8754,13.2973,444.0676],[7.8784,13.2904,442.7292],[7.8781,13.2784,447.725],[7.8917,13.2506,470.6048],[7.895,13.2481,471.0448],[7.9002,13.2373,477.2332],[7.9037,13.2081,481.2844],[7.9001,13.1845,481.4562],[7.888,13.1666,477.4531],[7.8839,13.1504,491.1708],[7.8732,13.1274,466.0542],[7.8668,13.1167,457.167],[7.853,13.1003,439.1368],[7.8556,13.0848,447.1591],[7.855,13.0809,452.8747],[7.8569,13.0742,458.5989],[7.8665,13.0591,477.1409],[7.8695,13.0346,493.451],[7.879,13.014,503.9796],[7.8861,12.9924,493.581],[7.8945,12.9837,512.2194],[7.9126,12.9567,509.3173],[7.931,12.9207,517.1041],[7.9364,12.9136,505.7008],[7.9473,12.9213,514.565],[7.9498,12.9333,522.2181],[7.9543,12.9403,525.5779],[7.9622,12.9466,520.491],[7.9808,12.9376,530.2262],[7.9907,12.9365,523.4835],[7.9994,12.9313,524.405],[8.0051,12.9305,522.4035],[8.0232,12.9404,516.2978],[8.0244,12.9515,513.0844],[8.031,12.9686,489.2714],[8.0321,12.9901,504.6996],[8.0355,13.0,499.1979],[8.0413,13.0045,496.0781],[8.0488,13.0029,503.3828],[8.0559,12.9968,498.3369],[8.0714,12.9787,475.2173],[8.0773,12.9756,475.4181],[8.0821,12.9851,466.5086],[8.097,13.0019,456.0479],[8.1112,13.0147,466.6173],[8.125,13.0149,475.6562],[8.1469,13.0188,455.6076],[8.1548,13.0219,446.8738],[8.1561,13.0302,442.1867],[8.1428,13.0434,454.9426],[8.1293,13.0604,460.192],[8.1144,13.072,452.9531],[8.1069,13.0832,467.8936],[8.1062,13.1023,453.2896],[8.1026,13.1111,455.1841],[8.1003,13.1256,456.655],[8.0831,13.1683,466.7397],[8.0701,13.1956,455.7074],[8.0577,13.234,434.6552],[8.0525,13.2441,454.165],[8.0535,13.2644,443.5212],[8.0578,13.2767,428.4495],[8.0606,13.3032,412.0122],[8.0464,13.3066,434.6532],[8.037,13.3064,448.8739],[8.0336,13.3088,450.2416],[8.0259,13.3093,447.5192],[8.0229,13.3111,444.0538],[7.9475,13.3236,433.4458],[7.8916,13.3301,463.0859],[7.8817,13.3296,459.8741],[7.8745,13.3325,457.4259]]]]}
,"properties": {"GID_2": "NGA.21.27_1","GID_0": "NGA","country": "Nigeria","GID_1": "NGA.21_1","province": "Katsina","NL_NAME_1": "NA","county": "Mashi","VARNAME_2": "NA","NL_NAME_2": "NA","TYPE_2": "LocalAuthority","ENGTYPE_2": "LocalAuthority","CC_2": "NA","HASC_2": "NA","name": "Mashi.county","area_km2": 910.8204,"hist_schema_id": "Elevation0-9000","hist_area_km2": {"400": 0.227,"425": 12.6498,"450": 238.2624,"475": 376.0241,"500": 238.3248,"525": 45.3323}}}