{"type": "Feature","bbox": [5.5286,13.0523,6.0488,13.5983],"geometry": {"type": "MultiPolygon","coordinates": [[[[5.5286,13.3787,281.8575],[5.534,13.3714,298.649],[5.5355,13.3647,289.1674],[5.5405,13.356,266.6335],[5.5406,13.3525,263.3074],[5.5509,13.3337,261.4849],[5.5527,13.3278,260.9759],[5.5631,13.3161,260.8652],[5.5731,13.3084,260.8486],[5.593,13.3098,261.7581],[5.6267,13.3051,263.7667],[5.6849,13.3127,310.0845],[5.7238,13.3233,331.009],[5.7391,13.3207,328.5747],[5.747,13.3215,317.0069],[5.778,13.3184,295.6373],[5.7951,13.3149,293.9564],[5.8151,13.305,291.5594],[5.8292,13.2897,285.3569],[5.834,13.2824,292.7888],[5.8323,13.2688,294.2654],[5.8289,13.2599,298.9176],[5.8239,13.2532,303.8568],[5.8131,13.2434,315.3321],[5.7956,13.2346,302.0918],[5.7664,13.2338,295.0221],[5.7459,13.2451,285.5807],[5.7372,13.2547,284.8717],[5.7431,13.2292,283.3307],[5.7517,13.2133,286.5922],[5.7506,13.1956,281.0838],[5.7543,13.1663,297.8757],[5.7733,13.1658,302.5969],[5.8407,13.1786,301.3498],[5.8548,13.1795,305.0596],[5.8663,13.1727,302.9176],[5.8752,13.1596,295.3435],[5.8837,13.1533,298.1445],[5.9028,13.1307,287.0105],[5.9142,13.122,286.9162],[5.9218,13.112,290.3215],[5.9503,13.1001,298.1165],[5.9745,13.0969,296.2986],[6.0058,13.0813,295.2605],[6.0238,13.0601,306.1882],[6.0324,13.0523,310.9921],[6.0324,13.0814,306.4791],[6.0337,13.09,302.5134],[6.0468,13.119,296.9442],[6.0488,13.1301,305.5907],[6.0477,13.137,306.3081],[6.036,13.1426,300.355],[6.0139,13.1617,292.9493],[5.9723,13.2049,304.3742],[5.963,13.2179,315.6979],[5.956,13.2319,319.0932],[5.9565,13.2432,325.3579],[5.9535,13.2577,322.6165],[5.9548,13.2813,316.1633],[5.9586,13.3076,316.0579],[5.9689,13.3237,322.3137],[5.9859,13.3421,322.191],[5.9977,13.351,322.0576],[6.0046,13.3589,324.8401],[6.0178,13.3819,320.062],[6.0216,13.4007,302.4281],[6.0074,13.4192,299.538],[5.9925,13.4596,294.5552],[5.9787,13.4763,290.5071],[5.9663,13.4868,294.7865],[5.9634,13.4951,295.3238],[5.955,13.5088,288.0001],[5.9438,13.5225,283.0],[5.9396,13.5345,283.0],[5.9266,13.5583,283.0949],[5.9251,13.5675,284.1351],[5.9277,13.5805,284.7177],[5.9325,13.5889,284.6989],[5.9313,13.5924,283.4472],[5.9241,13.5867,283.8521],[5.915,13.5833,284.9596],[5.8884,13.575,310.029],[5.8735,13.5729,300.2645],[5.8568,13.5794,283.3449],[5.8527,13.5845,276.1497],[5.8374,13.5898,276.5573],[5.8215,13.5931,285.9453],[5.8145,13.5923,292.418],[5.8026,13.5848,286.8994],[5.7954,13.5556,273.5825],[5.7886,13.5405,272.8016],[5.7753,13.4783,273.5003],[5.7708,13.4635,310.0339],[5.7651,13.451,320.1263],[5.7563,13.4476,314.6223],[5.7427,13.4484,303.3819],[5.7342,13.4536,281.443],[5.7003,13.5732,330.2132],[5.6882,13.5966,341.832],[5.6791,13.5983,351.5277],[5.6107,13.5731,357.4362],[5.597,13.5696,305.8542],[5.5931,13.562,305.0478],[5.5927,13.5569,305.0625],[5.5971,13.5104,306.5531],[5.5968,13.4889,321.6843],[5.5918,13.4787,295.4347],[5.5673,13.441,332.8127],[5.5409,13.4211,324.6348],[5.5308,13.4074,341.4565],[5.5291,13.4011,316.7933],[5.5286,13.3787,281.8575]]]]}
,"properties": {"GID_2": "NGA.34.5_1","GID_0": "NGA","country": "Nigeria","GID_1": "NGA.34_1","province": "Sokoto","NL_NAME_1": "NA","county": "Goronyo","VARNAME_2": "NA","NL_NAME_2": "NA","TYPE_2": "LocalAuthority","ENGTYPE_2": "LocalAuthority","CC_2": "NA","HASC_2": "NA","name": "Goronyo.county","area_km2": 1651.569,"hist_schema_id": "Elevation0-9000","hist_area_km2": {"250": 42.806,"275": 434.731,"300": 730.253,"325": 342.271,"350": 75.41,"375": 25.438,"400": 0.66}}}