{"type":"Feature","properties":{"GID_2":"NGA.25.5_1","GID_0":"NGA","country":"Nigeria","GID_1":"NGA.25_1","province":"Lagos","NL_NAME_1":"NA","county":"Apapa","VARNAME_2":"NA","NL_NAME_2":"NA","TYPE_2":"LocalAuthority","ENGTYPE_2":"LocalAuthority","CC_2":"NA","HASC_2":"NA","name":"Apapa.county"},
"geometry":{"type": "MultiPolygon","coordinates": [[[[3.3226,6.4467,5.8279],[3.3259,6.4413,4.2815],[3.3309,6.42,3.3566],[3.3343,6.4215,3.2687],[3.3419,6.4196,1.8178],[3.3517,6.4224,2.0348],[3.3592,6.4207,1.0239],[3.3685,6.4094,0.0],[3.3692,6.3987,1.0258],[3.3946,6.3962,1.3659],[3.3993,6.3921,0.5431],[3.3954,6.396,1.3659],[3.3959,6.3983,0.0],[3.3897,6.4084,5.525],[3.3892,6.4195,0.0],[3.3944,6.4383,0.0],[3.4049,6.4471,6.325],[3.4014,6.4485,6.4729],[3.3922,6.4475,4.6872],[3.3819,6.4518,0.0],[3.3723,6.4578,0.3313],[3.3583,6.4773,3.2888],[3.3508,6.4825,4.4852],[3.3446,6.484,4.6435],[3.3389,6.4758,4.4413],[3.3402,6.4673,5.14],[3.3448,6.4562,6.4883],[3.3316,6.4529,5.4029],[3.3226,6.4467,5.8279]]]]}}