{"type": "Feature","bbox": [7.6668,4.8815,7.8187,5.1],"geometry": {"type": "MultiPolygon","coordinates": [[[[7.6668,5.0294,69.7167],[7.668,5.0251,68.5727],[7.6799,5.0067,62.8964],[7.6964,4.9873,64.7136],[7.7029,4.9849,56.5043],[7.7106,4.9932,59.2165],[7.7325,5.0076,57.0534],[7.7448,5.0086,68.3619],[7.762,5.0064,37.6721],[7.7645,5.0002,39.9614],[7.7615,4.9848,53.0797],[7.7548,4.984,50.6772],[7.7463,4.9864,68.5744],[7.734,4.9815,62.7539],[7.7257999999999996,4.9745,48.4536],[7.7211,4.9656,48.4453],[7.7369,4.9645,50.8664],[7.7435,4.9588,47.6796],[7.7514,4.9455,50.4158],[7.7675,4.9437,23.9883],[7.7716,4.9397,32.7618],[7.7786,4.9209,41.3008],[7.7758,4.9027,15.476],[7.7783,4.8988,14.1997],[7.7825,4.9008,13.3875],[7.7851,4.8904,26.2652],[7.7905,4.8815,43.4029],[7.8002,4.9002,42.666],[7.8133,4.9655,53.3221],[7.8187,4.973,56.4692],[7.8186,4.9956,71.4077],[7.8171,5.0048,68.9868],[7.8113,5.0118,61.9965],[7.8064,5.0276,69.394],[7.8055,5.04,55.211],[7.8084,5.0506,69.1603],[7.7876,5.0906,80.0107],[7.7848,5.1,79.4307],[7.7778,5.0962,75.4749],[7.7677,5.0835,74.0911],[7.7588,5.0774,76.9286],[7.7504,5.0691,75.8511],[7.7356,5.0659,75.9328],[7.7183,5.0659,64.4215],[7.6933,5.0463,68.4113],[7.6668,5.0294,69.7167]]]]}
,"properties": {"GID_2": "NGA.3.1_1","GID_0": "NGA","country": "Nigeria","GID_1": "NGA.3_1","province": "AkwaIbom","NL_NAME_1": "NA","county": "Abak","VARNAME_2": "NA","NL_NAME_2": "NA","TYPE_2": "LocalAuthority","ENGTYPE_2": "LocalAuthority","CC_2": "NA","HASC_2": "NA","name": "Abak.county","area_km2": 178.0316,"hist_schema_id": "Elevation0-9000","hist_area_km2": {"0": 0.7605,"25": 12.1672,"50": 83.8756,"75": 81.2283}}}