{"type": "Feature","bbox": [11.006,10.3146,11.5902,10.706],"geometry": {"type": "MultiPolygon","coordinates": [[[[11.2122,10.3146,381.2852],[11.2369,10.3322,356.237],[11.2785,10.3502,331.8922],[11.3735,10.4301,311.6943],[11.3954,10.4579,272.3609],[11.4187,10.4714,258.3629],[11.4424,10.4828,246.5409],[11.4651,10.5082,240.5099],[11.4768,10.5285,240.7232],[11.4918,10.5357,239.0],[11.5086,10.5504,239.0],[11.5198,10.5735,239.0],[11.5497,10.5974,239.0],[11.574,10.5891,239.0],[11.5902,10.5965,239.0],[11.5868,10.6022,251.3158],[11.582,10.6564,280.7887],[11.5606,10.6601,259.19],[11.5064,10.645,249.1494],[11.4847,10.6444,260.6128],[11.4522,10.6524,267.4309],[11.4298,10.6514,280.3009],[11.3901,10.6411,312.3748],[11.3487,10.6327,337.9751],[11.3253,10.6319,424.4196],[11.2828,10.6525,437.4073],[11.2583,10.6685,509.833],[11.2231,10.6856,545.5752],[11.1902,10.6941,579.3796],[11.1759,10.7057,549.5317],[11.1724,10.6934,556.1692],[11.1429,10.6966,507.6708],[11.121,10.6965,484.5118],[11.0477,10.706,532.7678],[11.0386,10.6969,519.9705],[11.021,10.6486,460.803],[11.006,10.5543,522.9738],[11.0113,10.519,576.1772],[11.0112,10.4603,562.3401],[11.0162,10.4315,554.3103],[11.0226,10.4339,562.6817],[11.0339,10.4305,544.0585],[11.0498,10.419,524.0605],[11.0719,10.4072,499.4468],[11.0777,10.394,498.3856],[11.1008,10.3716,497.6042],[11.1233,10.3561,515.1078],[11.1747,10.3379,433.8022],[11.1927,10.3294,408.395],[11.2122,10.3146,381.2852]]]]}
,"properties": {"GID_2": "NGA.16.8_1","GID_0": "NGA","country": "Nigeria","GID_1": "NGA.16_1","province": "Gombe","NL_NAME_1": "NA","county": "Kwami","VARNAME_2": "NA","NL_NAME_2": "NA","TYPE_2": "LocalAuthority","ENGTYPE_2": "LocalAuthority","CC_2": "NA","HASC_2": "NA","name": "Kwami.county","area_km2": 1658.571,"hist_schema_id": "Elevation0-9000","hist_area_km2": {"250": 179.061,"275": 163.891,"300": 115.901,"325": 108.993,"350": 88.98,"375": 98.899,"400": 112.085,"425": 116.684,"450": 134.047,"475": 149.435,"500": 155.025,"525": 111.643,"550": 79.712,"575": 41.632,"600": 2.501,"625": 0.083}}}