{"type":"Feature","properties":{"GID_2":"NGA.24.8_1","GID_0":"NGA","country":"Nigeria","GID_1":"NGA.24_1","province":"Kwara","NL_NAME_1":"NA","county":"IlorinWest","VARNAME_2":"NA","NL_NAME_2":"NA","TYPE_2":"LocalAuthority","ENGTYPE_2":"LocalAuthority","CC_2":"NA","HASC_2":"NA","name":"Ilorin_West.county"},
"geometry":{"type": "MultiPolygon","coordinates": [[[[4.6126,8.4076,365.8513],[4.6203,8.4088,383.1003],[4.6265,8.4125,373.5076],[4.6226,8.4117,384.3993],[4.6181,8.4164,353.7359],[4.6064,8.4221,382.7352],[4.6012,8.4282,380.199],[4.5962,8.4313,360.4017],[4.5901,8.4399,338.1433],[4.5821,8.4606,312.0335],[4.5791,8.4724,302.0401],[4.579,8.4816,326.8654],[4.5746,8.4946,280.942],[4.5662,8.5053,274.1328],[4.5549,8.5288,276.0209],[4.5525,8.5433,292.1019],[4.5492,8.5526,296.2502],[4.5506,8.5606,300.6519],[4.5376,8.5604,302.2922],[4.5307,8.5624,291.9028],[4.524,8.5611,295.9396],[4.5117,8.5449,316.3164],[4.5158,8.5363,324.9891],[4.5136,8.5311,319.3638],[4.512,8.5189,310.0916],[4.5194,8.5079,306.936],[4.5393,8.4929,311.7433],[4.5299,8.4856,304.6337],[4.5279,8.4753,315.4559],[4.5242,8.4715,313.1714],[4.5279,8.4467,313.0122],[4.5349,8.424,319.9029],[4.5458,8.4137,292.6077],[4.5571,8.3999,303.0093],[4.5698,8.3995,309.9732],[4.6062,8.4069,339.966],[4.6094,8.4064,347.8477],[4.6099,8.4092,341.3501],[4.6126,8.4076,365.8513]]]]}}