{"type":"Feature","properties":{"GID_2":"NGA.12.3_1","GID_0":"NGA","country":"Nigeria","GID_1":"NGA.12_1","province":"Edo","NL_NAME_1":"NA","county":"EsanCentral","VARNAME_2":"NA","NL_NAME_2":"NA","TYPE_2":"LocalAuthority","ENGTYPE_2":"LocalAuthority","CC_2":"NA","HASC_2":"NA","name":"Esan_Central.county"},
"geometry":{"type": "MultiPolygon","coordinates": [[[[6.3587,6.7971,231.2536],[6.3442,6.7989,235.6926],[6.3254,6.8073,222.8932],[6.2925,6.8113,260.4834],[6.2811,6.8055,288.5487],[6.2761,6.7987,318.6782],[6.267,6.7924,342.0565],[6.2517,6.7843,376.7621],[6.2427,6.7868,412.7455],[6.241,6.7958,357.0556],[6.2368,6.8033,334.4185],[6.2349,6.8155,239.4807],[6.2261,6.8233,192.3091],[6.2189,6.8125,228.8235],[6.2163,6.8059,254.8677],[6.2166,6.8004,269.273],[6.2136,6.7953,270.5859],[6.1976,6.7942,301.8527],[6.1914,6.7923,297.7938],[6.1873,6.7854,323.7738],[6.1865,6.7755,321.2326],[6.1895,6.7621,337.2155],[6.1896,6.7407,371.3002],[6.1861,6.735,368.8324],[6.1776,6.7278,357.5036],[6.151,6.7091,365.4663],[6.1447,6.7,346.7225],[6.1443,6.6908,323.3812],[6.1478,6.6787,242.9648],[6.1534,6.6696,207.9738],[6.1552,6.6556,204.4286],[6.1622,6.6423,222.8839],[6.1643,6.6312,238.8416],[6.1655,6.6208,228.4745],[6.1616,6.6061,272.2281],[6.1397,6.5901,187.5895],[6.1157,6.5795,125.2572],[6.1122,6.5736,122.0636],[6.1144,6.5705,101.4481],[6.1398,6.5724,203.8885],[6.1624,6.5709,226.0671],[6.1826,6.5753,235.8307],[6.19,6.5955,260.2202],[6.1962,6.6042,247.1012],[6.2228,6.6226,257.3586],[6.2425,6.6327,270.037],[6.2323,6.6538,270.6187],[6.2288,6.6649,291.0325],[6.226,6.6792,324.4327],[6.2255,6.6928,349.9125],[6.2229,6.703,368.4328],[6.2128,6.7173,403.6154],[6.2134,6.7251,409.8434],[6.2398,6.7341,386.9553],[6.2555,6.7375,409.1839],[6.3092,6.7444,378.7855],[6.3276,6.7418,351.493],[6.3394,6.7446,340.3588],[6.3503,6.7495,321.4283],[6.3548,6.7556,309.0187],[6.3587,6.7971,231.2536]]]]}}