{"type": "Feature","bbox": [4.9134,7.5219,5.0945,7.8571],"geometry": {"type": "MultiPolygon","coordinates": [[[[4.9529,7.5368,358.5331],[4.9767,7.5271,357.6399],[5.0025,7.5219,376.7543],[5.0316,7.5234,370.1567],[5.0442,7.5322,375.0018],[5.0512,7.5395,369.313],[5.0564,7.5502,368.176],[5.0665,7.5616,373.7173],[5.0721,7.576,415.9608],[5.0827,7.6058,450.9813],[5.0839,7.62,538.9568],[5.0945,7.6641,524.8986],[5.0881,7.669,519.8813],[5.0608,7.7034,460.1858],[5.0478,7.717,452.8105],[5.0047,7.7449,435.8666],[4.9852,7.7696,393.994],[4.9695,7.7959,385.4275],[4.9618,7.8168,378.8724],[4.9525,7.8292,382.2884],[4.9537,7.8328,390.9693],[4.9493,7.8421,397.2154],[4.933,7.8571,533.4578],[4.9235,7.8283,394.5102],[4.9154,7.8111,514.5174],[4.9134,7.7885,549.6168],[4.9182,7.773,520.6946],[4.9499,7.7539,466.1284],[4.9705,7.7438,416.5401],[4.991,7.7274,441.9074],[5.0025,7.7108,538.7607],[5.0089,7.6748,508.1355],[5.006,7.6538,544.3202],[5.002,7.6491,514.1573],[5.0014,7.6392,494.8235],[4.9984,7.6284,498.88869999999997],[4.9883,7.6138,469.1187],[4.9805,7.6073,544.106],[4.9777,7.5912,509.9959],[4.9636,7.5603,401.3367],[4.9544,7.546,372.8129],[4.9529,7.5368,358.5331]]]]}
,"properties": {"GID_2": "NGA.13.5_1","GID_0": "NGA","country": "Nigeria","GID_1": "NGA.13_1","province": "Ekiti","NL_NAME_1": "NA","county": "EkitiWest","VARNAME_2": "NA","NL_NAME_2": "NA","TYPE_2": "LocalAuthority","ENGTYPE_2": "LocalAuthority","CC_2": "NA","HASC_2": "NA","name": "Ekiti_West.county","area_km2": 276.8268,"hist_schema_id": "Elevation0-9000","hist_area_km2": {"350": 0.3994,"375": 28.0141,"400": 33.7679,"425": 29.248,"450": 30.5103,"475": 34.2512,"500": 37.7605,"525": 37.2986,"550": 22.3162,"575": 11.2629,"600": 4.5387,"625": 3.2985,"650": 2.2691,"675": 1.1556,"700": 0.5465,"725": 0.1261,"750": 0.0631}}}