{"type":"Feature","properties":{"GID_2":"NGA.24.7_1","GID_0":"NGA","country":"Nigeria","GID_1":"NGA.24_1","province":"Kwara","NL_NAME_1":"NA","county":"IlorinSouth","VARNAME_2":"NA","NL_NAME_2":"NA","TYPE_2":"LocalAuthority","ENGTYPE_2":"LocalAuthority","CC_2":"NA","HASC_2":"NA","name":"Ilorin_South.county"},
"geometry":{"type": "MultiPolygon","coordinates": [[[[4.6147,8.4065,367.1926],[4.6645,8.3928,307.229],[4.6745,8.3949,336.5879],[4.6894,8.3871,365.0727],[4.7023,8.3765,376.3663],[4.7402,8.3662,393.8923],[4.7539,8.3694,364.3444],[4.7612,8.3769,352.8435],[4.7719,8.4007,350.401],[4.7732,8.411,333.3461],[4.7667,8.4314,328.6927],[4.7583,8.4442,348.64],[4.7513,8.4517,359.9913],[4.7355,8.4582,386.249],[4.7252,8.466,386.2199],[4.7144,8.4692,409.2727],[4.7067,8.4746,406.6346],[4.6929,8.4919,338.0304],[4.6923,8.4983,328.3992],[4.698,8.5036,345.7145],[4.6078,8.4919,326.101],[4.5963,8.4949,343.1635],[4.5942,8.4926,342.3295],[4.5892,8.4842,346.4148],[4.588,8.4789,330.6949],[4.5945,8.4716,340.0778],[4.6184,8.4664,357.4337],[4.6279,8.4674,346.4918],[4.638,8.4624,360.0622],[4.6497,8.4594,328.649],[4.654,8.4561,339.0028],[4.6553,8.452,346.4621],[4.6547,8.4411,320.8035],[4.6502,8.4327,332.6695],[4.638,8.4209,375.6616],[4.6331,8.4187,384.2841],[4.6263,8.4124,373.5076],[4.6203,8.4088,383.1003],[4.6126,8.408,365.8513],[4.6147,8.4065,367.1926]]]]}}