{"type": "Feature","bbox": [7.3084,5.499,7.4052,5.5875],"geometry": {"type": "MultiPolygon","coordinates": [[[[7.4029,5.5733,93.6005],[7.3905,5.5808,102.9706],[7.3573,5.583,102.4],[7.3595,5.5875,99.0347],[7.3094,5.5875,120.5367],[7.3154,5.5771,177.2538],[7.3152,5.5635,168.4698],[7.3084,5.5392,166.028],[7.3122,5.5355,166.167],[7.3347,5.5273,161.3405],[7.3386,5.524,144.1982],[7.3429,5.5227,131.6897],[7.3452,5.5206,134.8657],[7.3461,5.5165,146.1865],[7.3571,5.5131,148.8491],[7.3836,5.499,57.7065],[7.3982,5.5144,69.4979],[7.4043,5.5323,55.6777],[7.4052,5.547,57.9002],[7.4029,5.5733,93.6005]]]]}
,"properties": {"GID_2": "NGA.17.16_1","GID_0": "NGA","country": "Nigeria","GID_1": "NGA.17_1","province": "Imo","NL_NAME_1": "NA","county": "Obowo","VARNAME_2": "NA","NL_NAME_2": "NA","TYPE_2": "LocalAuthority","ENGTYPE_2": "LocalAuthority","CC_2": "NA","HASC_2": "NA","name": "Obowo.county","area_km2": 76.16013,"hist_schema_id": "Elevation0-9000","hist_area_km2": {"50": 4.43181,"75": 17.57886,"100": 24.01462,"125": 11.81762,"150": 8.06131,"175": 10.2137,"200": 0.0422}}}