{"type":"Feature","properties":{"GID_2":"NGA.25.2_1","GID_0":"NGA","country":"Nigeria","GID_1":"NGA.25_1","province":"Lagos","NL_NAME_1":"NA","county":"Ajeromi/Ifelodun","VARNAME_2":"NA","NL_NAME_2":"NA","TYPE_2":"LocalAuthority","ENGTYPE_2":"LocalAuthority","CC_2":"NA","HASC_2":"NA","name":"Ajeromi_Ifelodun.county"},
"geometry":{"type": "MultiPolygon","coordinates": [[[[3.3226,6.4467,5.8279],[3.3316,6.4529,5.4029],[3.3448,6.4562,6.4883],[3.3402,6.4673,5.14],[3.3389,6.4758,4.4413],[3.3263,6.4827,6.0943],[3.3224,6.4833,5.7867],[3.3143,6.482,3.8494],[3.307,6.4778,4.074],[3.3063,6.4718,5.5684],[3.3123,6.4549,4.2947],[3.3226,6.4467,5.8279]]]]}}