{"type": "Feature","bbox": [8.5455,9.347,8.8533,9.7184],"geometry": {"type": "MultiPolygon","coordinates": [[[[8.5785,9.4588,563.4216],[8.5842,9.4482,585.6652],[8.5949,9.436,548.5758],[8.5998,9.4252,539.964],[8.6173,9.4021,539.5631],[8.6413,9.3757,530.5757],[8.6689,9.3564,542.2878],[8.6744,9.347,558.7083],[8.6896,9.3528,702.4745],[8.7228,9.3768,1359.6902],[8.7411,9.3866,1266.2964],[8.7602,9.4067,1198.2019],[8.7756,9.4403,1198.5741],[8.7955,9.4661,1252.625],[8.7985,9.4828,1244.3701],[8.8069,9.5052,1214.558],[8.8177,9.5197,1218.525],[8.8439,9.5408,1302.13],[8.8516,9.5568,1297.9425],[8.8533,9.5679,1265.3958],[8.8517,9.5916,1262.9226],[8.8482,9.6127,1269.234],[8.8291,9.6359,1243.8542],[8.7941,9.6302,1237.1112],[8.7818,9.6266,1210.7264],[8.7798,9.6194,1197.4254],[8.7646,9.6116,1175.885],[8.7507,9.6182,1183.3928],[8.7353,9.632,1267.1704],[8.7249,9.6388,1316.1818],[8.695,9.642,1241.8335],[8.6543,9.6528,974.4827],[8.6478,9.67,939.6865],[8.6471,9.6923,968.0659],[8.6401,9.7115,1006.7477],[8.645,9.7184,1078.0803],[8.6165,9.7143,1180.1377],[8.594,9.6967,900.0212],[8.59,9.6824,901.8691],[8.5934,9.6656,908.6363],[8.5876,9.6474,911.0755],[8.559,9.6269,937.7631],[8.5561,9.608,1093.7001],[8.5624,9.551,744.9776],[8.5455,9.5284,584.3077],[8.547,9.5098,597.5695],[8.5785,9.4588,563.4216]]]]}
,"properties": {"GID_2": "NGA.32.15_1","GID_0": "NGA","country": "Nigeria","GID_1": "NGA.32_1","province": "Plateau","NL_NAME_1": "NA","county": "Riyom","VARNAME_2": "NA","NL_NAME_2": "NA","TYPE_2": "LocalAuthority","ENGTYPE_2": "LocalAuthority","CC_2": "NA","HASC_2": "NA","name": "Riyom.county","area_km2": 806.9621,"hist_schema_id": "Elevation0-9000","hist_area_km2": {"525": 7.3842,"550": 20.5827,"575": 10.5825,"600": 16.0185,"625": 11.9201,"650": 10.5609,"675": 9.0971,"700": 10.3309,"725": 5.3121,"750": 4.2244,"775": 4.1826,"800": 3.597,"825": 4.1197,"850": 5.2489,"875": 8.5118,"900": 21.2004,"925": 45.532,"950": 51.0948,"975": 54.3436,"1000": 48.1567,"1025": 40.3355,"1050": 41.0246,"1075": 41.5266,"1100": 43.806,"1125": 38.7665,"1150": 38.5774,"1175": 49.7014,"1200": 50.4957,"1225": 42.6529,"1250": 37.2985,"1275": 21.1585,"1300": 5.4987,"1325": 2.7806,"1350": 0.8781,"1375": 0.3763,"1400": 0.0836}}}