{"type": "Feature","bbox": [7.8562,4.8163,8.0003,4.9897],"geometry": {"type": "MultiPolygon","coordinates": [[[[7.9992,4.8895,50.2644],[7.9975,4.9047,48.5058],[7.9944,4.9094,53.6048],[7.992,4.918,52.5262],[7.9935,4.9237,53.7632],[7.9924,4.9302,53.4157],[7.9869,4.9436,58.2233],[7.9863,4.9496,56.8469],[7.981,4.9539,49.59],[7.9766,4.9666,61.6204],[7.9736,4.9655,60.5823],[7.9549,4.9764,51.2903],[7.9319,4.9826,55.3862],[7.9283,4.9868,62.554],[7.9212,4.9897,55.4874],[7.8971,4.9827,60.6674],[7.8734,4.9856,58.5607],[7.8607,4.9893,57.4901],[7.8562,4.9879,60.9608],[7.8659,4.9786,47.3473],[7.8703,4.9682,43.3884],[7.8717,4.9564,47.4985],[7.8707,4.9504,55.2994],[7.8738,4.9439,53.2662],[7.8817,4.9429,32.0756],[7.8852,4.9359,46.3301],[7.8932,4.9302,51.3001],[7.8957,4.9124,47.4173],[7.8998,4.9078,54.6729],[7.9008,4.9006,57.8371],[7.9094,4.8871,54.4756],[7.9125,4.8788,53.445],[7.9123,4.8705,51.4269],[7.9226,4.8502,43.2323],[7.9297,4.8298,40.2281],[7.9365,4.8249,48.4716],[7.938,4.8198,42.7493],[7.943,4.8163,37.7931],[7.9658,4.8262,43.1059],[7.9697,4.8259,43.7703],[7.9729,4.8235,27.8778],[7.9816,4.8313,40.138],[7.9839,4.8345,42.9251],[7.9838,4.8414,46.9379],[7.9879,4.8526,51.7386],[7.9947,4.8592,54.2137],[7.9991,4.8711,50.9113],[8.0003,4.8773,52.4331],[7.9992,4.8895,50.2644]]]]}
,"properties": {"GID_2": "NGA.3.9_1","GID_0": "NGA","country": "Nigeria","GID_1": "NGA.3_1","province": "AkwaIbom","NL_NAME_1": "NA","county": "IbesikpoAsutan","VARNAME_2": "NA","NL_NAME_2": "NA","TYPE_2": "LocalAuthority","ENGTYPE_2": "LocalAuthority","CC_2": "NA","HASC_2": "NA","name": "Ibesikpo_Asutan.county","area_km2": 175.5433,"hist_schema_id": "Elevation0-9000","hist_area_km2": {"25": 7.6687,"50": 164.9385,"75": 2.9361}}}