{"type":"Feature","properties":{"GID_2":"NGA.2.1_1","GID_0":"NGA","country":"Nigeria","GID_1":"NGA.2_1","province":"Adamawa","NL_NAME_1":"NA","county":"Demsa","VARNAME_2":"NA","NL_NAME_2":"NA","TYPE_2":"LocalAuthority","ENGTYPE_2":"LocalAuthority","CC_2":"NA","HASC_2":"NA","name":"Demsa.county"},
"geometry":{"type": "MultiPolygon","coordinates": [[[[12.1746,9.1654,218.2937],[12.1971,9.1668,197.2645],[12.2296,9.1855,187.1374],[12.2517,9.196,225.4491],[12.2833,9.2192,213.4175],[12.3166,9.233,204.4892],[12.332,9.2443,206.8067],[12.3682,9.2474,195.5787],[12.4104,9.2367,182.7189],[12.4174,9.2387,182.8619],[12.4327,9.2377,180.597],[12.4366,9.2407,183.0536],[12.4382,9.2394,177.6479],[12.4383,9.2513,183.6108],[12.4653,9.2746,200.0307],[12.4836,9.2877,154.7529],[12.5011,9.2974,190.2208],[12.5216,9.3026,231.6013],[12.521,9.3051,224.5863],[12.5045,9.3225,255.2582],[12.4753,9.3688,189.1152],[12.465,9.3826,178.5041],[12.4625,9.3914,174.4429],[12.4549,9.3997,171.3935],[12.4522,9.4085,171.4256],[12.4299,9.4304,195.9516],[12.4122,9.4439,201.6412],[12.3997,9.4584,199.6487],[12.385,9.4712,163.1284],[12.3771,9.4759,161.2734],[12.374,9.4861,158.788],[12.3878,9.515,176.754],[12.3786,9.5193,175.6098],[12.3795,9.5401,185.9347],[12.3701,9.562,198.9812],[12.3765,9.59,234.0209],[12.3786,9.6135,291.3144],[12.3675,9.6469,379.0622],[12.3564,9.6556,441.2287],[12.355,9.6584,439.4029],[12.3285,9.6535,323.0101],[12.27,9.6501,295.375],[12.238,9.6428,304.0812],[12.2141,9.64,295.5548],[12.1893,9.6406,258.9792],[12.1757,9.6363,262.7618],[12.1749,9.6249,258.1188],[12.1685,9.607,226.9872],[12.1629,9.5466,151.4997],[12.1589,9.5287,144.069],[12.1552,9.4932,144.4352],[12.1556,9.4689,143.236],[12.1498,9.4526,147.7836],[12.144,9.4416,163.2561],[12.1387,9.4399,158.2779],[12.1189,9.4268,201.5796],[12.0841,9.4186,203.163],[12.0578,9.4167,209.8138],[12.0163,9.4206,182.6603],[11.9621,9.4205,185.9222],[11.941,9.4097,172.4879],[11.9169,9.3893,170.116],[11.897,9.3783,179.2156],[11.8882,9.3665,194.3432],[11.88,9.3484,208.8698],[11.8647,9.3218,223.6567],[11.8459,9.2949,259.5919],[11.8368,9.2775,312.1406],[11.8141,9.2612,314.1656],[11.8018,9.2579,294.5824],[11.8053,9.2496,324.2751],[11.821,9.2251,316.235],[11.8311,9.2023,309.6631],[11.8274,9.1847,321.0319],[11.8654,9.1784,309.2439],[11.9265,9.1802,297.1345],[11.961,9.1716,294.4613],[11.9944,9.1731,257.1727],[12.0269,9.1783,236.2611],[12.0781,9.1832,277.9441],[12.1138,9.1893,272.7368],[12.1451,9.1816,243.7515],[12.1637,9.1692,219.2372],[12.1746,9.1654,218.2937]]]]}}