{"type":"Feature","properties":{"GID_2":"NGA.23.21_1","GID_0":"NGA","country":"Nigeria","GID_1":"NGA.23_1","province":"Kogi","NL_NAME_1":"NA","county":"YagbaWest","VARNAME_2":"NA","NL_NAME_2":"NA","TYPE_2":"LocalAuthority","ENGTYPE_2":"LocalAuthority","CC_2":"NA","HASC_2":"NA","name":"Yagba_West.county"},
"geometry":{"type": "MultiPolygon","coordinates": [[[[5.6102,8.0175,401.4768],[5.6115,8.0238,381.2118],[5.6069,8.0665,360.0661],[5.6024,8.0857,417.8186],[5.6019,8.1168,341.6732],[5.6047,8.1317,252.4925],[5.6305,8.1732,240.0],[5.6346,8.1844,259.843],[5.6439,8.1976,240.0],[5.6541,8.2173,213.3251],[5.6633,8.2303,220.4084],[5.6653,8.251,220.8497],[5.6629,8.3059,199.3731],[5.658,8.3449,206.0204],[5.6518,8.3609,196.1956],[5.6506,8.371,194.7779],[5.6468,8.3773,202.892],[5.6467,8.39,196.8161],[5.6493,8.4065,197.1466],[5.6463,8.4183,183.1865],[5.6463,8.4366,180.1138],[5.6481,8.4482,184.1032],[5.6337,8.4552,179.3562],[5.6167,8.4608,201.1367],[5.5751,8.4899,242.6027],[5.5563,8.511,247.6935],[5.5543,8.5186,238.8763],[5.5448,8.5313,243.0181],[5.5433,8.5384,244.6508],[5.5381,8.5413,259.345],[5.5227,8.5353,282.5276],[5.4963,8.5125,285.1156],[5.48,8.5044,283.7902],[5.4712,8.4901,288.6219],[5.4443,8.4661,296.1859],[5.4201,8.4395,291.3031],[5.383,8.3764,294.3573],[5.3485,8.3374,224.8376],[5.3457,8.3215,259.8011],[5.3704,8.2775,315.5795],[5.3768,8.2619,291.9438],[5.3926,8.2411,308.2281],[5.4156,8.2225,292.8997],[5.4147,8.2199,279.7869],[5.4169,8.2118,282.1438],[5.4303,8.1992,306.701],[5.4559,8.1826,354.8782],[5.458,8.1731,331.5836],[5.4726,8.1634,348.1442],[5.497,8.1542,357.3682],[5.5168,8.1391,377.8388],[5.5349,8.1316,339.7289],[5.5415,8.1223,306.4865],[5.5482,8.0929,320.1072],[5.5447,8.077,329.9335],[5.5348,8.0686,324.4158],[5.5184,8.0629,338.696],[5.5196,8.0546,345.9396],[5.5173,8.0226,422.4407],[5.5179,7.9939,401.4113],[5.5268,7.9866,394.025],[5.5289,7.9871,399.408],[5.5376,7.9957,402.6166],[5.5606,8.0073,384.8116],[5.5792,8.0134,384.4113],[5.6102,8.0175,401.4768]]]]}}