{"type": "Feature","bbox": [8.2027,10.9627,8.7716,11.4572],"geometry": {"type": "MultiPolygon","coordinates": [[[[8.7716,11.0865,624.5552],[8.7707,11.0905,618.2778],[8.7639,11.1018,608.1341],[8.7585,11.1218,594.9626],[8.7517,11.1287,586.3945],[8.7463,11.1378,577.2692],[8.7399,11.1535,568.9963],[8.7286,11.1661,564.181],[8.7133,11.177,569.0104],[8.7129,11.1842,571.2659],[8.7033,11.1901,571.4096],[8.6936,11.1987,576.6558],[8.6877,11.2068,578.5485],[8.6832,11.2199,579.6937],[8.6855,11.2398,560.5471],[8.6949,11.2602,541.3721],[8.7052,11.2716,543.7108],[8.721,11.281,545.0604],[8.7292,11.2882,551.1078],[8.7375,11.3024,553.4156],[8.7532,11.3478,562.3702],[8.7555,11.3594,571.8985],[8.7581,11.3797,575.8808],[8.7511,11.3919,578.377],[8.7486,11.4023,580.29],[8.73,11.4323,545.9863],[8.7241,11.4496,535.1791],[8.7212,11.4514,537.3342],[8.7209,11.4572,540.8466],[8.718,11.4486,543.4875],[8.7136,11.4435,550.9465],[8.7043,11.4369,551.8255],[8.6935,11.4213,561.8767],[8.6859,11.416,561.1082],[8.6791,11.4083,570.1888],[8.651,11.3934,594.6183],[8.629,11.3778,574.2691],[8.6251,11.3733,572.2064],[8.6025,11.3609,563.0334],[8.5849,11.3478,539.991],[8.5785,11.3452,540.5809],[8.5753,11.3405,534.7468],[8.5632,11.3298,517.9247],[8.536,11.3251,541.9263],[8.5268,11.3253,550.2841],[8.5162,11.3275,546.1995],[8.5002,11.3338,606.5048],[8.4693,11.3557,528.7888],[8.4556,11.3586,524.9945],[8.452,11.3625,528.132],[8.4462,11.3631,529.2298],[8.4384,11.3695,519.9512],[8.4266,11.3735,520.016],[8.4225,11.379,517.5],[8.4164,11.3813,521.9414],[8.4111,11.3937,517.5],[8.4034,11.4015,517.5],[8.3989,11.413,517.5],[8.3956,11.4058,517.5],[8.3903,11.3993,517.5],[8.386,11.3893,517.5],[8.3624,11.3637,517.5],[8.3149,11.33,541.9506],[8.3063,11.3199,534.7297],[8.3082,11.3188,535.7062],[8.3073,11.3163,536.7285],[8.2989,11.3086,553.4467],[8.2804,11.3028,558.6533],[8.2649,11.3006,548.9604],[8.252,11.3024,556.4312],[8.2476,11.3076,563.6808],[8.2342,11.3087,574.5421],[8.2027,11.3045,575.6049],[8.2277,11.2983,577.6975],[8.2551,11.287,555.192],[8.2795,11.2618,571.2195],[8.2943,11.2358,572.525],[8.3119,11.2212,596.3062],[8.3366,11.2124,605.8318],[8.3642,11.2145,638.3995],[8.3815,11.2128,614.7299],[8.4211,11.2034,649.2275],[8.4634,11.1717,609.3324],[8.4871,11.1466,609.0482],[8.4959,11.1525,600.7064],[8.5129,11.1697,595.258],[8.5268,11.1786,583.8239],[8.5636,11.2139,565.8011],[8.6011,11.2343,546.3317],[8.6091,11.2339,542.8259],[8.6166,11.2278,549.7133],[8.6207,11.219,549.8058],[8.6242,11.1886,561.3587],[8.6294,11.1628,563.8348],[8.6283,11.1131,559.9177],[8.6307,11.1055,568.3934],[8.6346,11.0986,575.3434],[8.641,11.0922,576.1512],[8.6521,11.0843,563.2036],[8.6639,11.0786,574.9281],[8.6673,11.0736,572.5005],[8.6727,11.0547,592.1652],[8.6735,11.0212,593.4372],[8.6778,11.0143,584.874],[8.6956,10.9983,606.5793],[8.7102,10.9957,638.1356],[8.7154,10.9879,610.6557],[8.7167,10.9794,603.3113],[8.7318,10.9627,613.7298],[8.738,11.0104,591.4564],[8.7501,11.0568,595.9614],[8.7638,11.0832,621.1033],[8.7716,11.0865,624.5552]]]]}
,"properties": {"GID_2": "NGA.20.41_1","GID_0": "NGA","country": "Nigeria","GID_1": "NGA.20_1","province": "Kano","NL_NAME_1": "NA","county": "TudunWada","VARNAME_2": "NA","NL_NAME_2": "NA","TYPE_2": "LocalAuthority","ENGTYPE_2": "LocalAuthority","CC_2": "NA","HASC_2": "NA","name": "Tudun_Wada.county","area_km2": 1132.4381,"hist_schema_id": "Elevation0-9000","hist_area_km2": {"525": 116.149,"550": 308.1451,"575": 397.8945,"600": 238.2038,"625": 61.6046,"650": 9.7755,"675": 0.52,"700": 0.1456}}}