{"type":"Feature","properties":{"GID_2":"NGA.8.11_1","GID_0":"NGA","country":"Nigeria","GID_1":"NGA.8_1","province":"Borno","NL_NAME_1":"NA","county":"Gwoza","VARNAME_2":"NA","NL_NAME_2":"NA","TYPE_2":"LocalAuthority","ENGTYPE_2":"LocalAuthority","CC_2":"NA","HASC_2":"NA","name":"Gwoza.county"},
"geometry":{"type": "MultiPolygon","coordinates": [[[[13.9721,11.3018,333.502],[13.9451,11.2957,336.6593],[13.9165,11.2842,344.1404],[13.8947,11.285,345.1754],[13.8661,11.2922,344.7463],[13.854,11.3079,339.6194],[13.8396,11.3342,332.9542],[13.8195,11.3566,331.2762],[13.7929,11.3716,331.9571],[13.7643,11.3926,331.6949],[13.7128,11.4178,332.5703],[13.6427,11.4457,334.396],[13.5918,11.4587,334.8305],[13.5545,11.4657,336.2233],[13.5258,11.4775,336.0106],[13.5172,11.479,336.2579],[13.5131,11.4747,336.3723],[13.5109,11.462,337.0726],[13.4923,11.4307,339.7053],[13.4778,11.3985,341.3516],[13.4788,11.3899,342.8862],[13.4756,11.3766,343.9036],[13.47,11.3613,344.9624],[13.4607,11.3446,345.0042],[13.443,11.2958,351.6115],[13.4364,11.2841,352.1462],[13.4334,11.2717,353.8235],[13.4304,11.2395,358.0226],[13.4406,11.1928,363.2025],[13.4447,11.1828,363.9081],[13.4544,11.1448,365.5668],[13.4587,11.1111,370.3303],[13.4625,11.0949,374.6634],[13.46,11.0742,381.199],[13.456,11.0572,391.0066],[13.4323,11.0089,412.1826],[13.4217,10.9934,408.8647],[13.4255,10.9696,408.8768],[13.4356,10.9477,416.9101],[13.4444,10.9334,426.61],[13.468,10.9366,426.0307],[13.478,10.9249,424.8743],[13.4988,10.9162,423.0781],[13.5385,10.9066,438.3612],[13.601,10.9113,456.6999],[13.663,10.9324,493.6507],[13.6917,10.939,741.2139],[13.6947,10.9668,644.1486],[13.7073,10.9788,832.8203],[13.7244,10.9815,904.4536],[13.7263,10.9835,874.0266],[13.7309,10.994,961.8967],[13.7278,10.9985,888.0895],[13.728,11.0019,867.332],[13.7347,11.0114,907.8887],[13.7459,11.0112,978.6237],[13.7637,11.0074,953.5632],[13.7849,11.0076,633.838],[13.7925,11.0097,501.1302],[13.7973,11.0166,494.6124],[13.7947,11.0259,502.6696],[13.8,11.0311,490.6493],[13.799,11.0339,491.498],[13.8085,11.0461,476.9428],[13.8109,11.0532,472.7938],[13.8137,11.0627,465.6891],[13.8123,11.0692,466.781],[13.8185,11.0743,463.3506],[13.8256,11.0713,459.0155],[13.8295,11.0858,451.7362],[13.8344,11.0864,450.1725],[13.8393,11.0915,444.5031],[13.8472,11.0922,439.9143],[13.8488,11.0959,436.0654],[13.8554,11.1007,430.7138],[13.8578,11.1039,427.3347],[13.8573,11.1065,426.2363],[13.8606,11.1106,421.9867],[13.8585,11.1153,421.1825],[13.8595,11.1176,419.7866],[13.8655,11.12,418.5707],[13.8717,11.133,410.101],[13.8767,11.1351,406.052],[13.8788,11.1465,400.9004],[13.8817,11.1534,398.2287],[13.8893,11.1606,396.6879],[13.9062,11.1682,385.7879],[13.9102,11.1737,383.2899],[13.9125,11.1812,381.1255],[13.9136,11.1941,374.8055],[13.9153,11.197,374.2336],[13.9272,11.2026,369.2213],[13.9276,11.2106,365.255],[13.9338,11.216,361.794],[13.9363,11.2234,359.2914],[13.9403,11.2244,358.9534],[13.9475,11.2392,353.7558],[13.9532,11.2457,350.8728],[13.9575,11.2611,345.6205],[13.9686,11.2804,339.3474],[13.9721,11.3018,333.502]]]]}}