{"type":"Feature","properties":{"GID_2":"NGA.31.8_1","GID_0":"NGA","country":"Nigeria","GID_1":"NGA.31_1","province":"Oyo","NL_NAME_1":"NA","county":"IbadanNorth-West","VARNAME_2":"NA","NL_NAME_2":"NA","TYPE_2":"LocalAuthority","ENGTYPE_2":"LocalAuthority","CC_2":"NA","HASC_2":"NA","name":"Ibadan_North-West.county"},
"geometry":{"type": "MultiPolygon","coordinates": [[[[3.856,7.4121,191.071],[3.85,7.4089,173.2995],[3.8474,7.4039,178.5277],[3.8471,7.395,158.7516],[3.8634,7.3808,192.2269],[3.8693,7.3786,196.3487],[3.8774,7.3789,194.9064],[3.8821,7.3812,176.4755],[3.894,7.375,204.7078],[3.8997,7.3661,170.5729],[3.9145,7.3758,206.1729],[3.9073,7.3853,188.2617],[3.9092,7.3922,211.2841],[3.9074,7.3952,195.2162],[3.8897,7.3992,186.3637],[3.8859,7.4055,213.7138],[3.888,7.4368,206.3307],[3.8831,7.4311,185.4018],[3.8719,7.4392,177.8929],[3.8579,7.4251,175.4611],[3.8569,7.4215,183.6487],[3.8591,7.4184,193.2603],[3.856,7.4121,191.071]]]]}}