{"type": "Feature","bbox": [4.707,7.0892,4.8806,7.5697],"geometry": {"type": "MultiPolygon","coordinates": [[[[4.8806,7.2924,284.2411],[4.8722,7.299,272.3405],[4.8693,7.3064,273.1919],[4.8502,7.3344,272.8118],[4.8437,7.3462,260.1395],[4.8304,7.3792,237.4539],[4.8294,7.39,338.7222],[4.8343,7.4084,250.7174],[4.838,7.4212,259.808],[4.8506,7.4466,248.9514],[4.8531,7.4592,274.872],[4.8492,7.4745,340.6065],[4.827,7.5274,357.6434],[4.8306,7.5377,345.8646],[4.8213,7.5697,410.6883],[4.8168,7.5672,423.3884],[4.7999,7.564,367.7637],[4.7825,7.557,377.2579],[4.7824,7.5357,303.5272],[4.7785,7.5227,315.0261],[4.7643,7.5024,287.0574],[4.7521,7.492,263.974],[4.7411,7.462,254.383],[4.7449,7.4122,240.0011],[4.7499,7.3953,276.7949],[4.7521,7.3775,250.6464],[4.7585,7.3553,243.0199],[4.7713,7.3352,246.1882],[4.7773,7.3215,240.8595],[4.778,7.3095,228.5411],[4.7661,7.2872,231.8513],[4.7579,7.2788,210.7153],[4.7466,7.2626,222.7699],[4.7445,7.2465,204.0906],[4.7373,7.2298,216.8958],[4.7373,7.2139,201.3399],[4.73,7.2062,196.2981],[4.7219,7.2022,212.6964],[4.707,7.1835,208.8336],[4.7076,7.1626,230.3493],[4.7111,7.1475,222.3236],[4.7249,7.1497,235.7888],[4.7456,7.1473,222.982],[4.7615,7.141,226.5422],[4.763,7.1343,254.454],[4.7696,7.131,247.637],[4.7862,7.1272,260.5471],[4.8199,7.0983,241.5469],[4.8332,7.0914,254.1147],[4.85,7.0892,270.6446],[4.8625,7.0909,248.5998],[4.8707,7.0997,242.2028],[4.8727,7.1112,238.4965],[4.869,7.1376,272.2225],[4.8756,7.1716,258.3021],[4.8695,7.2114,235.2575],[4.8681,7.2359,251.4535],[4.8775,7.2604,327.4144],[4.878,7.283,251.9679],[4.8806,7.2924,284.2411]]]]}
,"properties": {"GID_2": "NGA.30.1_1","GID_0": "NGA","country": "Nigeria","GID_1": "NGA.30_1","province": "Osun","NL_NAME_1": "NA","county": "AtakumosaEast","VARNAME_2": "NA","NL_NAME_2": "NA","TYPE_2": "LocalAuthority","ENGTYPE_2": "LocalAuthority","CC_2": "NA","HASC_2": "NA","name": "Atakumosa_East.county","area_km2": 576.8369,"hist_schema_id": "Elevation0-9000","hist_area_km2": {"175": 0.3366,"200": 19.5199,"225": 106.4473,"250": 235.4316,"275": 102.7481,"300": 39.9908,"325": 30.3593,"350": 20.3505,"375": 10.6587,"400": 5.8022,"425": 3.5945,"450": 1.3242,"475": 0.2102,"500": 0.0631}}}