{"type":"Feature","properties":{"GID_2":"NGA.14.11_1","GID_0":"NGA","country":"Nigeria","GID_1":"NGA.14_1","province":"Enugu","NL_NAME_1":"NA","county":"NkanuEast","VARNAME_2":"NA","NL_NAME_2":"NA","TYPE_2":"LocalAuthority","ENGTYPE_2":"LocalAuthority","CC_2":"NA","HASC_2":"NA","name":"Nkanu_East.county"},
"geometry":{"type": "MultiPolygon","coordinates": [[[[7.6985,6.6066,108.5705],[7.6674,6.5963,123.1926],[7.6313,6.5963,130.1283],[7.6316,6.5669,120.8867],[7.6338,6.5492,115.4989],[7.638,6.5337,125.8543],[7.6391,6.5044,103.5423],[7.6439,6.4877,101.3791],[7.6415,6.4841,98.0641],[7.6418,6.4746,97.0703],[7.639,6.4691,102.6451],[7.6393,6.4585,102.88],[7.6215,6.4316,106.9652],[7.6086,6.4169,100.7328],[7.6005,6.411,107.0262],[7.6006,6.4032,103.928],[7.5929,6.3987,108.6497],[7.5816,6.3876,114.08],[7.5791,6.3729,137.829],[7.5805,6.3644,135.7409],[7.5759,6.3607,135.6118],[7.5705,6.3596,151.2643],[7.5956,6.3116,123.253],[7.5995,6.2779,91.6407],[7.5966,6.2715,97.5557],[7.5973,6.2608,94.8724],[7.5881,6.2456,93.3729],[7.5785,6.2409,99.5514],[7.5732,6.2357,87.4721],[7.544,6.227,114.8624],[7.5308,6.2274,112.8675],[7.5069,6.2329,132.0639],[7.478,6.2334,175.4848],[7.5127,6.1938,144.4802],[7.5254,6.1763,126.8635],[7.5298,6.1634,99.3128],[7.5372,6.1533,90.7894],[7.5406,6.1457,89.7732],[7.5463,6.1426,81.7113],[7.5506,6.1374,79.8319],[7.5581,6.1348,90.4389],[7.5817,6.1383,74.3154],[7.5893,6.1379,68.9823],[7.6112,6.132,63.3179],[7.6235,6.1226,66.111],[7.6323,6.1112,59.5499],[7.6342,6.0844,56.1257],[7.6431,6.0667,52.3043],[7.6483,6.0344,59.454],[7.6627,6.0242,58.1639],[7.6605,6.019,52.7552],[7.6646,6.0125,52.6534],[7.6694,6.0089,47.4599],[7.6783,6.0068,45.0243],[7.6778,6.0318,88.8471],[7.7025,6.0604,40.955],[7.721,6.076,38.4227],[7.7339,6.1039,53.626],[7.7317,6.1245,44.9755],[7.7246,6.1407,43.9096],[7.7238,6.1808,61.3093],[7.7179,6.2113,65.9319],[7.7116,6.2253,60.7714],[7.7079,6.2525,66.1904],[7.6904,6.2699,72.5195],[7.6908,6.2897,74.4017],[7.7026,6.3206,71.1202],[7.7115,6.3303,64.8665],[7.735,6.3885,71.7555],[7.7352,6.4825,93.4426],[7.7292,6.4978,97.7563],[7.7246,6.5011,102.2039],[7.7186,6.5542,111.8055],[7.7126,6.5709,101.6503],[7.7081,6.5769,111.5848],[7.702,6.5999,105.8474],[7.6985,6.6066,108.5705]]]]}}