{"type":"Feature","properties":{"GID_2":"NGA.18.21_1","GID_0":"NGA","country":"Nigeria","GID_1":"NGA.18_1","province":"Jigawa","NL_NAME_1":"NA","county":"MalamMaduri","VARNAME_2":"NA","NL_NAME_2":"NA","TYPE_2":"LocalAuthority","ENGTYPE_2":"LocalAuthority","CC_2":"NA","HASC_2":"NA","name":"Malam_Maduri.county"},
"geometry":{"type": "MultiPolygon","coordinates": [[[[10.0008,12.4019,356.6253],[9.9978,12.4102,357.3239],[9.9983,12.4165,358.0191],[9.9936,12.4264,357.3074],[9.9989,12.4352,357.351],[9.9961,12.4482,356.7839],[10.0144,12.46,355.813],[10.0243,12.4629,356.3495],[10.0375,12.4598,356.4183],[10.0486,12.4542,357.1868],[10.0562,12.4489,358.1578],[10.0593,12.4447,355.1877],[10.0652,12.4511,354.7213],[10.0726,12.4694,354.5586],[10.0802,12.4822,354.5388],[10.0901,12.514,354.5842],[10.1076,12.5568,351.3849],[10.1219,12.5519,352.818],[10.1422,12.5394,352.8597],[10.1588,12.5424,352.802],[10.1693,12.5478,352.8026],[10.1816,12.5566,352.5633],[10.1929,12.5702,354.3442],[10.1939,12.5765,350.2078],[10.1978,12.5823,349.3547],[10.1971,12.5965,350.9008],[10.1823,12.6034,352.2989],[10.1829,12.6086,351.1576],[10.1796,12.6286,350.7144],[10.1814,12.6399,349.1846],[10.1782,12.6498,350.9893],[10.1707,12.6635,350.8677],[10.1605,12.6715,350.3477],[10.1577,12.6723,349.2819],[10.1387,12.6555,350.2194],[10.106,12.645,350.9506],[10.0945,12.6495,350.4863],[10.0857,12.6585,352.5607],[10.0682,12.6656,352.9404],[10.0482,12.6536,352.9102],[10.0346,12.6383,351.9555],[10.0158,12.6285,353.8556],[9.9977,12.6159,353.3355],[9.9609,12.6076,353.2692],[9.9386,12.5981,354.8015],[9.9225,12.5936,354.0486],[9.8649,12.5952,358.0314],[9.8406,12.6113,355.7669],[9.8374,12.612,355.7098],[9.8392,12.6045,356.5911],[9.8193,12.5568,359.342],[9.8184,12.5262,360.606],[9.8238,12.4416,360.3766],[9.816,12.4267,359.5427],[9.8028,12.4151,360.505],[9.8043,12.3972,361.8816],[9.8132,12.3916,363.4676],[9.857,12.3973,360.7541],[9.8681,12.3926,359.489],[9.8812,12.39,361.8808],[9.9045,12.3912,359.4031],[9.9409,12.3695,358.7429],[9.9513,12.3839,357.6263],[9.9646,12.3934,357.3732],[9.97,12.3928,357.9723],[9.973,12.3901,357.3422],[9.9813,12.3872,357.8215],[9.9935,12.3994,356.2832],[10.0008,12.4019,356.6253]]]]}}