{"type":"Feature","properties":{"GID_2":"NGA.21.20_1","GID_0":"NGA","country":"Nigeria","GID_1":"NGA.21_1","province":"Katsina","NL_NAME_1":"NA","county":"Kankia","VARNAME_2":"NA","NL_NAME_2":"NA","TYPE_2":"LocalAuthority","ENGTYPE_2":"LocalAuthority","CC_2":"NA","HASC_2":"NA","name":"Kankia.county"},
"geometry":{"type": "MultiPolygon","coordinates": [[[[7.8593,12.2823,531.0375],[7.8705,12.2933,537.4943],[7.9094,12.3147,548.9302],[7.9078,12.3332,554.9523],[7.9038,12.3534,562.7563],[7.8911,12.3914,574.6715],[7.8815,12.4106,572.8389],[7.8787,12.4378,567.4547],[7.8829,12.4612,568.589],[7.8849,12.4633,564.9405],[7.9242,12.4764,539.8115],[7.9305,12.4792,535.3058],[7.9332,12.4832,537.4026],[7.9364,12.4918,540.5177],[7.9286,12.5436,539.0659],[7.9336,12.5598,522.3002],[7.9386,12.5678,521.3436],[7.9309,12.5722,525.9581],[7.922,12.5747,533.2615],[7.9108,12.5914,515.0541],[7.8978,12.6053,530.9788],[7.8868,12.6034,529.3065],[7.8622,12.607,512.0625],[7.8416,12.6052,516.5092],[7.8145,12.6127,540.2275],[7.8096,12.6127,543.9821],[7.8019,12.616,553.0543],[7.8015,12.6188,552.3694],[7.7921,12.5917,555.1544],[7.7847,12.584,540.9605],[7.7661,12.5762,526.6653],[7.7445,12.563,536.2982],[7.7351,12.5454,545.0264],[7.728,12.5358,542.6638],[7.7282,12.5028,534.4738],[7.7139,12.4879,528.3658],[7.7025,12.4629,545.4382],[7.7055,12.4498,549.3669],[7.7057,12.4375,539.1005],[7.7033,12.4223,531.6749],[7.6994,12.4172,530.1603],[7.6922,12.4104,530.579],[7.6876,12.4083,529.2407],[7.6745,12.4047,539.8429],[7.6691,12.4062,537.3114],[7.6641,12.4105,529.5877],[7.662,12.4158,522.5124],[7.6617,12.4331,535.187],[7.6592,12.4451,544.6262],[7.6531,12.4517,543.645],[7.6195,12.4608,533.0413],[7.6139,12.4557,539.3405],[7.5988,12.4315,533.8314],[7.5916,12.4042,518.7061],[7.5896,12.3852,508.472],[7.5968,12.3689,495.8989],[7.6032,12.3476,494.2242],[7.6035,12.3413,502.2684],[7.6103,12.3459,494.5875],[7.6248,12.3488,495.3347],[7.6413,12.3554,498.6583],[7.6704,12.3537,501.0341],[7.6797,12.3483,506.9415],[7.6913,12.3292,511.0654],[7.6975,12.3254,510.2664],[7.7217,12.2961,508.3661],[7.7328,12.2945,512.4766],[7.7668,12.2839,512.149],[7.7823,12.2757,517.5225],[7.7857,12.271,511.5016],[7.7905,12.2712,513.0484],[7.8002,12.2609,516.8381],[7.8161,12.2516,529.2745],[7.8339,12.247,527.0184],[7.8352,12.2571,519.0853],[7.8382,12.2629,521.4083],[7.8593,12.2823,531.0375]]]]}}