{"type": "Feature","bbox": [3.2517,6.6434,3.3538,6.7069],"geometry": {"type": "MultiPolygon","coordinates": [[[[3.3323,6.6488,25.7347],[3.3538,6.6692,36.8889],[3.3374,6.6794,16.5932],[3.2936,6.6984,61.5276],[3.2679,6.7069,45.1675],[3.2521,6.7054,72.7392],[3.2524,6.7065,71.0147],[3.2517,6.7051,72.7392],[3.2583,6.6956,44.879],[3.2582,6.6924,30.9968],[3.2636,6.684,39.8121],[3.2743,6.6758,60.3491],[3.289,6.6732,64.7722],[3.307,6.6573,53.6705],[3.3177,6.6446,40.4885],[3.3232,6.6434,48.9618],[3.3323,6.6488,25.7347]]]]}
,"properties": {"GID_2": "NGA.25.10_1","GID_0": "NGA","country": "Nigeria","GID_1": "NGA.25_1","province": "Lagos","NL_NAME_1": "NA","county": "Ifako/Ijaye","VARNAME_2": "NA","NL_NAME_2": "NA","TYPE_2": "LocalAuthority","ENGTYPE_2": "LocalAuthority","CC_2": "NA","HASC_2": "NA","name": "Ifako_Ijaye.county","area_km2": 33.63024,"hist_schema_id": "Elevation0-9000","hist_area_km2": {"0": 1.24247,"25": 5.05407,"50": 20.13192,"75": 7.20179}}}