{"type":"Feature","properties":{"GID_2":"NGA.26.5_1","GID_0":"NGA","country":"Nigeria","GID_1":"NGA.26_1","province":"Nasarawa","NL_NAME_1":"NA","county":"Keana","VARNAME_2":"NA","NL_NAME_2":"NA","TYPE_2":"LocalAuthority","ENGTYPE_2":"LocalAuthority","CC_2":"NA","HASC_2":"NA","name":"Keana.county"},
"geometry":{"type": "MultiPolygon","coordinates": [[[[8.9899,8.0508,181.3146],[8.9896,8.1659,170.1878],[8.9781,8.1792,204.3003],[8.9603,8.1894,195.1326],[8.948,8.1988,210.2816],[8.9412,8.2111,197.4306],[8.938,8.2225,216.8813],[8.9375,8.2379,230.4786],[8.9505,8.2723,210.4907],[8.9523,8.2805,193.7714],[8.9493,8.2797,192.7995],[8.9283,8.2835,210.3865],[8.8821,8.2755,200.3874],[8.837,8.2827,207.9947],[8.819,8.2833,174.7991],[8.7956,8.2795,150.938],[8.7802,8.2809,139.6353],[8.7703,8.268,137.2143],[8.7542,8.256,134.4241],[8.7,8.256,135.5129],[8.6899,8.2474,150.8315],[8.6495,8.2562,157.794],[8.6299,8.2574,174.4192],[8.5872,8.245,199.4541],[8.575,8.2457,201.104],[8.554,8.2567,183.0922],[8.5332,8.2441,205.9796],[8.5188,8.2476,210.5355],[8.4905,8.2507,207.0991],[8.4871,8.2449,219.5803],[8.4884,8.2239,202.1038],[8.4996,8.1781,172.5615],[8.4969,8.1421,163.7663],[8.519,8.1421,166.7237],[8.5367,8.1402,176.5516],[8.5622,8.1349,171.9701],[8.6035,8.1165,134.1363],[8.7252,8.0752,119.7879],[8.7733,8.0651,122.2047],[8.8025,8.0559,143.4467],[8.8697,8.0452,139.7183],[8.9149,8.0435,122.5228],[8.9789,8.0471,191.7524],[8.979,8.0583,186.3965],[8.9899,8.0508,181.3146]]]]}}