{"type":"Feature","properties":{"GID_2":"NGA.17.9_1","GID_0":"NGA","country":"Nigeria","GID_1":"NGA.17_1","province":"Imo","NL_NAME_1":"NA","county":"IsialaMbano","VARNAME_2":"NA","NL_NAME_2":"NA","TYPE_2":"LocalAuthority","ENGTYPE_2":"LocalAuthority","CC_2":"NA","HASC_2":"NA","name":"Isiala_Mbano.county"},
"geometry":{"type": "MultiPolygon","coordinates": [[[[7.2776,5.7427,144.039],[7.2657,5.7388,103.7724],[7.2511,5.7374,119.6661],[7.2383,5.73,137.4624],[7.2353,5.7257,118.9251],[7.2306,5.7249,123.1135],[7.2103,5.7234,155.7036],[7.192,5.7303,169.7644],[7.1863,5.7236,184.899],[7.1845,5.7132,182.7025],[7.1771,5.6968,184.3999],[7.1597,5.6777,235.3026],[7.1516,5.6741,215.9765],[7.1371,5.6762,197.6054],[7.1146,5.6699,168.4528],[7.1074,5.6622,163.0163],[7.095,5.6541,165.6104],[7.0877,5.645,162.9995],[7.0875,5.6388,161.6715],[7.097,5.6373,158.9062],[7.111,5.6317,157.7236],[7.129,5.6337,160.8159],[7.1375,5.6285,164.3961],[7.182,5.6105,156.9157],[7.1889,5.6,170.6321],[7.2027,5.5942,171.4783],[7.217,5.5956,169.7236],[7.2249,5.5996,129.1686],[7.235,5.5985,151.2771],[7.2293,5.6129,146.81],[7.2366,5.6377,160.2501],[7.2411,5.645,130.8465],[7.2595,5.6548,153.632],[7.2747,5.6668,122.6437],[7.2881,5.6859,203.1124],[7.2855,5.694,132.713],[7.2857,5.7039,104.5514],[7.2831,5.7194,100.2579],[7.2807,5.7245,105.2516],[7.2776,5.7427,144.039]]]]}}