{"type": "Feature","bbox": [5.9878,6.4623,6.2261,6.8292],"geometry": {"type": "MultiPolygon","coordinates": [[[[6.2261,6.8233,192.3091],[6.2155,6.8292,168.3484],[6.1958,6.8217,188.614],[6.0956,6.8033,211.9426],[6.0765,6.7944,196.0725],[6.0371,6.7702,332.9581],[6.0283,6.7662,314.5301],[6.0161,6.7646,289.9042],[5.9878,6.755,240.0536],[6.0012,6.7446,278.4399],[6.01,6.7317,336.7114],[6.0191,6.7258,306.4947],[6.0246,6.72,261.868],[6.0371,6.6983,146.5713],[6.0529,6.6868,248.9147],[6.0573,6.6763,271.43],[6.0625,6.6693,292.033],[6.0652,6.6502,252.5581],[6.0621,6.6177,182.701],[6.0594,6.6058,176.7604],[6.0599,6.5943,164.0548],[6.0538,6.5877,123.1451],[6.046,6.5731,123.9603],[6.0453,6.5452,177.9744],[6.0527,6.5193,160.8193],[6.0624,6.5034,127.5221],[6.0694,6.4805,103.4791],[6.0729,6.4735,105.7893],[6.0831,6.4623,119.744],[6.0883,6.465,108.0245],[6.0951,6.4738,104.8207],[6.1111,6.4805,120.6618],[6.1361,6.4842,130.6095],[6.1377,6.4817,137.9025],[6.148,6.4806,169.041],[6.17,6.4839,164.1887],[6.1784,6.4867,160.06],[6.189,6.5004,208.9114],[6.1914,6.5082,229.5701],[6.1849,6.5184,172.5542],[6.1884,6.5377,187.1093],[6.1787,6.5494,227.4981],[6.1826,6.5753,235.8307],[6.1624,6.5709,226.0671],[6.1398,6.5724,203.8885],[6.1144,6.5705,101.4481],[6.1122,6.5736,122.0636],[6.1157,6.5795,125.2572],[6.1397,6.5901,187.5895],[6.1616,6.6061,272.2281],[6.1655,6.6208,228.4745],[6.1643,6.6312,238.8416],[6.1622,6.6423,222.8839],[6.1552,6.6556,204.4286],[6.1534,6.6696,207.9738],[6.1478,6.6787,242.9648],[6.1443,6.6908,323.3812],[6.1447,6.7,346.7225],[6.1473,6.705,354.079],[6.1562,6.7136,379.5026],[6.1861,6.735,368.8324],[6.1896,6.7407,371.3002],[6.1905,6.751,389.0048],[6.1865,6.7755,321.2326],[6.1873,6.7854,323.7738],[6.1914,6.7923,297.7938],[6.1976,6.7942,301.8527],[6.2136,6.7953,270.5859],[6.2166,6.8004,269.273],[6.2163,6.8059,254.8677],[6.2189,6.8125,228.8235],[6.2261,6.8233,192.3091]]]]}
,"properties": {"GID_2": "NGA.12.6_1","GID_0": "NGA","country": "Nigeria","GID_1": "NGA.12_1","province": "Edo","NL_NAME_1": "NA","county": "EsanWest","VARNAME_2": "NA","NL_NAME_2": "NA","TYPE_2": "LocalAuthority","ENGTYPE_2": "LocalAuthority","CC_2": "NA","HASC_2": "NA","name": "Esan_West.county","area_km2": 505.5294,"hist_schema_id": "Elevation0-9000","hist_area_km2": {"75": 3.5391,"100": 27.9746,"125": 39.1168,"150": 42.8016,"175": 52.024,"200": 58.525,"225": 47.6333,"250": 39.2294,"275": 41.1659,"300": 49.2515,"325": 46.5972,"350": 40.0478,"375": 17.0126,"400": 0.6106}}}