{"type":"Feature","properties":{"GID_2":"NGA.26.2_1","GID_0":"NGA","country":"Nigeria","GID_1":"NGA.26_1","province":"Nasarawa","NL_NAME_1":"NA","county":"Awe","VARNAME_2":"NA","NL_NAME_2":"NA","TYPE_2":"LocalAuthority","ENGTYPE_2":"LocalAuthority","CC_2":"NA","HASC_2":"NA","name":"Awe.county"},
"geometry":{"type": "MultiPolygon","coordinates": [[[[9.1694,7.9145,72.7246],[9.1725,7.9141,75.5851],[9.1745,7.9159,71.7705],[9.1803,7.9297,101.6912],[9.1891,7.9369,122.0483],[9.2005,7.9415,120.4159],[9.2566,7.9784,81.2336],[9.2839,7.9942,97.3397],[9.3175,8.02,100.0998],[9.3419,8.0334,98.4002],[9.3491,8.0399,92.4344],[9.3599,8.0445,92.3276],[9.3704,8.0531,85.676],[9.3725,8.0622,91.7213],[9.3722,8.0722,93.7305],[9.3581,8.1037,105.115],[9.3593,8.1047,107.2737],[9.3561,8.1154,114.4202],[9.3648,8.1258,102.4441],[9.3591,8.1722,94.2432],[9.3264,8.2125,99.7085],[9.2987,8.2345,134.2262],[9.305,8.2468,121.7656],[9.3105,8.2805,94.4061],[9.332,8.3148,97.3558],[9.3527,8.3287,108.374],[9.3616,8.3299,110.6715],[9.3641,8.3279,112.0609],[9.3828,8.3288,119.4156],[9.3989,8.3177,132.5383],[9.4107,8.3143,130.1724],[9.4206,8.3055,126.6604],[9.4269,8.2971,108.1429],[9.4515,8.3008,103.0143],[9.4567,8.2942,97.9075],[9.4736,8.2914,110.1037],[9.4908,8.2849,131.8941],[9.5161,8.2826,148.8127],[9.5296,8.2788,135.7675],[9.562,8.2845,125.2116],[9.5738,8.292,141.4433],[9.5869,8.3044,144.2115],[9.6155,8.3512,136.0799],[9.5919,8.3944,140.8638],[9.5512,8.4276,146.0419],[9.4715,8.4568,131.1041],[9.3839,8.4973,132.2509],[9.2791,8.4689,125.3333],[9.2262,8.4524,106.3499],[9.1129,8.4536,105.6395],[9.0939,8.45,105.2836],[9.0348,8.4709,125.7794],[8.9838,8.5,115.4037],[8.9715,8.4692,136.4819],[8.965,8.4464,150.4972],[8.9682,8.417,129.4384],[8.9793,8.4015,130.9009],[8.9829,8.4027,128.4839],[9.0074,8.3843,136.7074],[9.0107,8.3648,200.7788],[9.0107,8.3288,194.7898],[9.0042,8.2962,182.2782],[8.9893,8.2921,192.1816],[8.9836,8.2934,196.6574],[8.9671,8.2844,196.1804],[8.9523,8.2805,193.7714],[8.9505,8.2723,210.4907],[8.9375,8.2379,230.4786],[8.938,8.2225,216.8813],[8.9412,8.2111,197.4306],[8.948,8.1988,210.2816],[8.9603,8.1894,195.1326],[8.9781,8.1792,204.3003],[8.9896,8.1659,170.1878],[8.9899,8.0508,181.3146],[9.0466,8.0122,189.392],[9.1694,7.9145,72.7246]]]]}}