{"type":"Feature","properties":{"GID_2":"NGA.21.31_1","GID_0":"NGA","country":"Nigeria","GID_1":"NGA.21_1","province":"Katsina","NL_NAME_1":"NA","county":"Sabuwa","VARNAME_2":"NA","NL_NAME_2":"NA","TYPE_2":"LocalAuthority","ENGTYPE_2":"LocalAuthority","CC_2":"NA","HASC_2":"NA","name":"Sabuwa.county"},
"geometry":{"type": "MultiPolygon","coordinates": [[[[7.2169,11.1291,635.3703],[7.2393,11.146,667.868],[7.2484,11.1655,675.0463],[7.244,11.1818,674.7079],[7.2192,11.219,672.0549],[7.2136,11.2374,694.1997],[7.2152,11.2436,687.7345],[7.2105,11.2487,699.6597],[7.2063,11.264099999999999,695.8571],[7.2057,11.2837,672.6319],[7.2004,11.2961,684.7546],[7.1856,11.3066,702.2009],[7.1725,11.3122,721.4022],[7.1643,11.3186,735.2959],[7.1553,11.3314,720.1393],[7.154,11.3441,706.4551],[7.1452,11.3599,697.6525],[7.1381,11.3684,705.7507],[7.1285,11.3748,680.6566],[7.1189,11.3777,687.4161],[7.1116,11.3847,680.8518],[7.1018,11.3996,667.3101],[7.0871,11.4318,699.673],[7.0861,11.4357,704.488],[7.0904,11.4524,696.1452],[7.0893,11.4579,699.4938],[7.0853,11.4629,710.5895],[7.0818,11.462,709.6945],[7.0693,11.4524,700.6558],[7.0531,11.4513,702.2216],[7.0406,11.4449,693.4359],[7.0094,11.4471,675.078],[6.9876,11.4307,662.0103],[6.9771,11.4267,631.9437],[6.967,11.4176,613.9175],[6.9571,11.4062,615.6569],[6.9507,11.3895,610.934],[6.9416,11.388,608.0471],[6.934,11.3768,599.7554],[6.924,11.3777,586.5527],[6.904,11.3641,603.4182],[6.9025,11.3479,609.5679],[6.9159,11.3476,617.6977],[6.9404,11.3397,624.5342],[6.9737,11.3339,635.0823],[7.005,11.3367,666.2849],[7.027,11.3224,666.6555],[7.0398,11.2946,675.2176],[7.036,11.2775,662.0773],[7.0216,11.2693,667.5382],[6.9893,11.2347,651.2349],[6.983,11.2137,660.5687],[6.9966,11.2085,672.0643],[7.0261,11.2035,685.3705],[7.0857,11.1829,662.0884],[7.1175,11.1567,673.1949],[7.1303,11.1367,681.9829],[7.1543,11.1144,731.4536],[7.1825,11.1108,661.7582],[7.1979,11.1167,642.1069],[7.2169,11.1291,635.3703]]]]}}