{"type":"Feature","properties":{"GID_2":"NGA.20.14_1","GID_0":"NGA","country":"Nigeria","GID_1":"NGA.20_1","province":"Kano","NL_NAME_1":"NA","county":"Garko","VARNAME_2":"NA","NL_NAME_2":"NA","TYPE_2":"LocalAuthority","ENGTYPE_2":"LocalAuthority","CC_2":"NA","HASC_2":"NA","name":"Garko.county"},
"geometry":{"type": "MultiPolygon","coordinates": [[[[8.9008,11.6079,470.9968],[8.8884,11.6057,478.6041],[8.875,11.5959,471.2748],[8.8631,11.5978,474.0673],[8.8609,11.6045,472.4047],[8.858,11.6287,465.3022],[8.8523,11.6402,472.9938],[8.8501,11.6531,472.8477],[8.8456,11.6634,465.246],[8.8403,11.6641,468.1612],[8.8362,11.658,472.6417],[8.8309,11.6384,481.6111],[8.8139,11.6617,458.5682],[8.8086,11.6633,459.6973],[8.7936,11.6611,458.2269],[8.7897,11.6627,457.423],[8.7669,11.6862,430.8722],[8.7631,11.6874,430.5901],[8.7551,11.6861,438.4783],[8.7401,11.7003,443.8325],[8.7282,11.6916,443.0569],[8.7262,11.6882,444.6598],[8.7288,11.657,456.7844],[8.7247,11.6413,468.0537],[8.7276,11.6332,470.1345],[8.725,11.6272,473.0359],[8.723,11.6103,478.472],[8.7267,11.5198,495.7377],[8.7256,11.4875,494.698],[8.7205,11.4655,522.7223],[8.7212,11.4514,537.3342],[8.7241,11.4496,535.1791],[8.73,11.4323,545.9863],[8.7361,11.4211,552.3539],[8.7486,11.4023,580.29],[8.7511,11.3919,578.377],[8.7569,11.3816,575.5016],[8.7654,11.3895,578.2883],[8.7682,11.396,583.4483],[8.7819,11.4007,583.9822],[8.7894,11.3992,581.153],[8.807,11.4174,572.9243],[8.8071,11.4252,584.2476],[8.8105,11.4426,561.5736],[8.8253,11.4748,538.5982],[8.8383,11.484,531.9674],[8.8426,11.4889,532.0466],[8.845,11.5064,530.6682],[8.8418,11.5175,514.6183],[8.8503,11.534,498.6078],[8.8572,11.5423,485.3256],[8.8627,11.5463,484.9498],[8.8976,11.5591,484.2559],[8.915,11.5602,480.3192],[8.9254,11.5539,488.7081],[8.9425,11.5399,484.8092],[8.9554,11.5248,474.0788],[8.9634,11.5129,481.0258],[8.9662,11.5039,483.6429],[9.0009,11.5019,461.8887],[8.9944,11.5607,456.8013],[8.9705,11.5666,469.4387],[8.9705,11.5635,470.3436],[8.9661,11.5649,472.466],[8.9639,11.5677,474.3696],[8.9563,11.5685,474.996],[8.9562,11.5719,473.6894],[8.9497,11.5737,471.3013],[8.9317,11.5837,467.4284],[8.9008,11.6079,470.9968]]]]}}