{"type": "Feature","bbox": [3.928,6.8351,4.0938,6.9417],"geometry": {"type": "MultiPolygon","coordinates": [[[[3.9753,6.8372,112.5734],[3.9827,6.8428,119.5137],[3.9874,6.851,75.5464],[4.0012,6.8573,64.091],[4.0119,6.8541,71.9275],[4.0292,6.8526,49.6883],[4.04,6.8471,49.4893],[4.0479,6.8378,48.4748],[4.0555,6.8351,43.4333],[4.058,6.8379,55.6595],[4.0605,6.8461,55.9366],[4.0581,6.8579,54.4476],[4.055,6.8637,54.2339],[4.0567,6.8715,58.1741],[4.0721,6.8957,50.6981],[4.0794,6.9015,51.1944],[4.0938,6.9218,57.4689],[4.0797,6.9417,76.2314],[4.068,6.9391,74.5022],[4.051,6.9412,87.1186],[4.0423,6.9367,104.2595],[4.0292,6.937,101.1501],[4.0182,6.9279,89.9694],[3.9983,6.9234,74.9965],[3.9896,6.9155,70.4813],[3.9658,6.9085,53.3086],[3.9303,6.8916,57.4463],[3.9283,6.8877,45.2267],[3.928,6.8822,45.075],[3.929,6.8748,63.4101],[3.9335,6.8672,57.7121],[3.933,6.863,80.8983],[3.9432,6.8525,107.4316],[3.9651,6.8401,112.0091],[3.9753,6.8372,112.5734]]]]}
,"properties": {"GID_2": "NGA.28.8_1","GID_0": "NGA","country": "Nigeria","GID_1": "NGA.28_1","province": "Ogun","NL_NAME_1": "NA","county": "IjebuNorth-East","VARNAME_2": "NA","NL_NAME_2": "NA","TYPE_2": "LocalAuthority","ENGTYPE_2": "LocalAuthority","CC_2": "NA","HASC_2": "NA","name": "Ijebu_North-East.county","area_km2": 127.78928,"hist_schema_id": "Elevation0-9000","hist_area_km2": {"25": 0.82098,"50": 44.66706,"75": 60.15754,"100": 18.05987,"125": 4.06278,"150": 0.02105}}}