{"type": "Feature","bbox": [4.5492,8.4117,5.003,8.7212],"geometry": {"type": "MultiPolygon","coordinates": [[[[4.8758,8.7212,320.4585],[4.8714,8.7147,337.393],[4.862,8.7091,390.0202],[4.845,8.6826,330.0152],[4.8366,8.674,283.0669],[4.8242,8.6671,272.4368],[4.795,8.6436,309.2242],[4.7746,8.6211,279.0984],[4.755,8.6079,320.2776],[4.7482,8.6006,311.6498],[4.7407,8.5957,337.1366],[4.6997,8.5549,338.6686],[4.6858,8.554,325.2286],[4.6458,8.5341,374.2812],[4.622,8.5442,302.7658],[4.6059,8.5452,290.7198],[4.5678,8.5583,281.674],[4.5506,8.5606,300.6519],[4.5492,8.5526,296.2502],[4.5525,8.5433,292.1019],[4.5549,8.5288,276.0209],[4.5662,8.5053,274.1328],[4.5746,8.4946,280.942],[4.579,8.4816,326.8654],[4.5791,8.4724,302.0401],[4.5821,8.4606,312.0335],[4.5901,8.4399,338.1433],[4.5962,8.4313,360.4017],[4.6012,8.4282,380.199],[4.6064,8.4221,382.7352],[4.6181,8.4164,353.7359],[4.6226,8.4117,384.3993],[4.6265,8.4125,373.5076],[4.6331,8.4187,384.2841],[4.638,8.4209,375.6616],[4.6502,8.4327,332.6695],[4.6547,8.4411,320.8035],[4.6553,8.452,346.4621],[4.654,8.4561,339.0028],[4.6497,8.4594,328.649],[4.638,8.4624,360.0622],[4.6279,8.4674,346.4918],[4.6184,8.4664,357.4337],[4.5945,8.4716,340.0778],[4.588,8.4789,330.6949],[4.5892,8.4842,346.4148],[4.5963,8.4949,343.1635],[4.6078,8.4919,326.101],[4.698,8.5036,345.7145],[4.7052,8.5126,371.3572],[4.7122,8.5164,390.7459],[4.7176,8.5244,401.8587],[4.731,8.5357,336.8675],[4.7577,8.5468,338.8541],[4.8196,8.5554,301.3066],[4.8389,8.5627,302.5417],[4.8877,8.5718,249.3439],[4.9215,8.5912,259.0924],[4.9699,8.6155,254.7298],[4.9827,8.6254,213.1056],[5.002,8.6461,194.8586],[5.003,8.6546,173.0669],[5.0017,8.6599,176.1596],[4.9944,8.6658,192.8452],[4.9852,8.6671,181.9301],[4.9808,8.6653,184.5178],[4.9748,8.6657,191.9856],[4.9657,8.6702,201.4461],[4.9601,8.6703,210.2008],[4.9569,8.6683,214.0686],[4.923,8.6834,229.2771],[4.9191,8.683,233.7961],[4.9155,8.6777,259.0309],[4.897,8.6891,332.6842],[4.8893,8.6971,342.153],[4.8816,8.7073,316.6372],[4.8758,8.7212,320.4585]]]]}
,"properties": {"GID_2": "NGA.24.6_1","GID_0": "NGA","country": "Nigeria","GID_1": "NGA.24_1","province": "Kwara","NL_NAME_1": "NA","county": "IlorinEast","VARNAME_2": "NA","NL_NAME_2": "NA","TYPE_2": "LocalAuthority","ENGTYPE_2": "LocalAuthority","CC_2": "NA","HASC_2": "NA","name": "Ilorin_East.county","area_km2": 434.9771,"hist_schema_id": "Elevation0-9000","hist_area_km2": {"175": 3.4585,"200": 16.8947,"225": 31.5476,"250": 30.962,"275": 59.078,"300": 66.1022,"325": 62.8738,"350": 72.7309,"375": 62.5009,"400": 25.1176,"425": 3.1866,"450": 0.5241}}}