{"type": "Feature","bbox": [11.2122,10.2924,11.2607,10.3362],"geometry": {"type": "MultiPolygon","coordinates": [[[[11.2599,10.2924,382.7348],[11.2607,10.3006,353.4572],[11.259,10.3116,357.4512],[11.2472,10.3362,346.9682],[11.2369,10.3322,356.237],[11.2122,10.3146,381.2852],[11.2247,10.3015,472.5999],[11.247,10.2938,361.9698],[11.2599,10.2924,382.7348]]]]}
,"properties": {"GID_2": "NGA.16.6_1","GID_0": "NGA","country": "Nigeria","GID_1": "NGA.16_1","province": "Gombe","NL_NAME_1": "NA","county": "Gombe","VARNAME_2": "NA","NL_NAME_2": "NA","TYPE_2": "LocalAuthority","ENGTYPE_2": "LocalAuthority","CC_2": "NA","HASC_2": "NA","name": "Gombe.county","area_km2": 15.41532,"hist_schema_id": "Elevation0-9000","hist_area_km2": {"350": 5.0063,"375": 5.92415,"400": 1.04299,"425": 0.45891,"450": 0.68837,"475": 0.58408,"500": 0.43806,"525": 0.5215,"550": 0.29204,"575": 0.18774,"600": 0.08344,"625": 0.12516,"650": 0.04172,"675": 0.02086}}}