{"type":"Feature","properties":{"GID_2":"NGA.22.21_1","GID_0":"NGA","country":"Nigeria","GID_1":"NGA.22_1","province":"Kebbi","NL_NAME_1":"NA","county":"Zuru","VARNAME_2":"NA","NL_NAME_2":"NA","TYPE_2":"LocalAuthority","ENGTYPE_2":"LocalAuthority","CC_2":"NA","HASC_2":"NA","name":"Zuru.county"},
"geometry":{"type": "MultiPolygon","coordinates": [[[[5.4693,11.6578,363.555],[5.4302,11.6586,377.7388],[5.4176,11.6736,375.5399],[5.4114,11.6944,365.1628],[5.403,11.7111,348.8865],[5.3936,11.7174,349.7293],[5.379,11.6314,356.7595],[5.3756,11.6193,357.6278],[5.3732,11.595,370.6176],[5.3672,11.5777,370.2755],[5.3542,11.5573,386.9534],[5.3418,11.5461,403.9301],[5.3216,11.5312,416.5741],[5.2955,11.521,408.6082],[5.2719,11.5223,413.4489],[5.2481,11.5351,377.6274],[5.2343,11.5393,380.4372],[5.2,11.5264,391.4431],[5.1622,11.5341,349.5394],[5.1601,11.531,371.1275],[5.1602,11.5232,431.2931],[5.1625,11.5118,463.4427],[5.1692,11.509,465.4386],[5.1819,11.5126,461.9196],[5.1881,11.5162,421.2527],[5.1954,11.5168,425.9585],[5.2052,11.515,399.9284],[5.215,11.507,392.1772],[5.2144,11.5005,392.3463],[5.2173,11.4918,400.4427],[5.2149,11.4837,423.4013],[5.2074,11.4745,468.2349],[5.1996,11.4686,450.0563],[5.1956,11.4571,444.776],[5.1982,11.4481,441.6223],[5.19,11.4331,421.5643],[5.1823,11.4076,325.6705],[5.1744,11.3724,335.4795],[5.1741,11.356,323.8157],[5.1694,11.3425,335.6001],[5.2124,11.3467,340.6006],[5.2711,11.3462,349.1229],[5.2872,11.3443,346.2311],[5.298,11.3394,332.9708],[5.3276,11.3669,343.0228],[5.3379,11.3788,352.9281],[5.3616,11.3979,365.279],[5.3877,11.4145,400.2527],[5.3813,11.4247,397.4734],[5.3776,11.4418,384.1752],[5.3754,11.4592,393.5922],[5.3778,11.477,397.6365],[5.4056,11.5418,382.1174],[5.4254,11.5758,364.7614],[5.4379,11.6064,390.7939],[5.4693,11.6578,363.555]]]]}}