{"type": "Feature","bbox": [10.1493,6.8888,11.0719,7.6857],"geometry": {"type": "MultiPolygon","coordinates": [[[[10.8417,6.9367,267.0502],[10.8449,6.9327,274.6333],[10.8658,6.9418,270.381],[10.8832,6.9569,309.714],[10.9234,6.9981,450.0592],[10.9331,7.0116,632.8602],[10.9569,7.0316,743.4613],[11.0085,7.0824,1091.3538],[11.0163,7.0969,1152.2504],[11.0317,7.1112,1632.9674],[11.0389,7.1319,1650.9202],[11.0473,7.1491,1790.739],[11.0556,7.1768,1601.963],[11.0563,7.1937,1355.4792],[11.0624,7.2104,1171.1172],[11.065,7.229,1093.6082],[11.0672,7.2689,1090.2756],[11.0719,7.2877,1236.1354],[11.0635,7.3032,1189.4459],[11.0578,7.3184,1073.7847],[11.0583,7.3377,938.4732],[11.0527,7.3522,886.3522],[11.0327,7.3752,896.4949],[11.0249,7.39,855.7419],[11.0244,7.3999,853.924],[11.0132,7.4168,831.1372],[11.0065,7.4387,829.5714],[11.0079,7.4471,845.3908],[11.0002,7.4628,599.0068],[10.9965,7.4928,539.2447],[10.9992,7.5026,514.2989],[10.9956,7.5136,608.0034],[10.9936,7.5294,649.7087],[10.9944,7.5397,493.808],[10.9845,7.5613,341.5511],[10.9791,7.5633,331.8475],[10.9747,7.5788,645.6322],[10.9692,7.5832,772.0069],[10.9705,7.5887,656.4357],[10.956,7.6042,353.6649],[10.9369,7.6182,392.4576],[10.9167,7.6369,742.3598],[10.907,7.6435,800.1815],[10.8976,7.6573,997.9669],[10.879,7.6753,886.7418],[10.8727,7.6801,906.0723],[10.8594,7.6857,954.4811],[10.8557,7.6851,860.34],[10.8511,7.6807,860.3038],[10.8413,7.6774,871.3057],[10.7791,7.6194,548.4287],[10.7262,7.576,532.0145],[10.7112,7.5655,621.4867],[10.6791,7.5341,780.1227],[10.6447,7.5048,555.3857],[10.6304,7.4952,346.7035],[10.6116,7.4723,871.5117],[10.5693,7.4374,227.3611],[10.5567,7.4174,214.0867],[10.547,7.4117,236.483],[10.5272,7.3954,240.8394],[10.5163,7.3899,248.4931],[10.512,7.3783,251.7302],[10.5091,7.3829,246.9712],[10.4946,7.3754,222.9772],[10.472,7.3547,214.6275],[10.4626,7.3405,218.8287],[10.4602,7.3311,217.2469],[10.4517,7.3113,218.8501],[10.4533,7.3066,212.8331],[10.4506,7.297,222.7422],[10.4399,7.2771,199.8766],[10.4246,7.2773,197.22559999999999],[10.4085,7.2801,222.5211],[10.3913,7.2795,223.275],[10.364,7.2702,201.8445],[10.3539,7.2684,193.9214],[10.321,7.2828,202.6531],[10.3157,7.2871,233.8513],[10.3041,7.3054,214.2301],[10.3009,7.3044,219.8447],[10.2829,7.2799,184.5022],[10.281,7.2724,168.7749],[10.2776,7.2701,163.7059],[10.2749,7.2629,168.9467],[10.2716,7.2186,197.4512],[10.2626,7.1845,209.3067],[10.2612,7.1656,208.9753],[10.2508,7.1445,224.5708],[10.2427,7.1347,557.8487],[10.2264,7.1205,819.2026],[10.2189,7.117,875.9232],[10.1673,7.0831,240.2949],[10.1582,7.0759,228.5278],[10.1493,7.0652,223.8482],[10.1551,7.0395,201.3878],[10.1537,7.0384,198.6306],[10.1629,7.0361,201.8126],[10.1658,7.0339,199.8036],[10.1632,7.0213,208.574],[10.1779,7.0146,206.3692],[10.1795,7.0117,209.9141],[10.1686,7.0002,211.2982],[10.1711,6.9979,216.8161],[10.1715,6.9951,216.3812],[10.1742,6.9934,220.043],[10.1723,6.9907,217.077],[10.1769,6.986,210.6825],[10.1826,6.9848,211.3139],[10.1806,6.9773,220.6046],[10.1813,6.9722,218.6243],[10.1845,6.9666,213.4918],[10.1835,6.9591,223.7567],[10.1793,6.9495,237.1554],[10.1785,6.9421,229.398],[10.1733,6.9417,242.7091],[10.1732,6.9404,241.8978],[10.2171,6.8888,1094.3925],[10.4631,6.9148,882.9817],[10.4731,6.9127,878.019],[10.4774,6.9042,726.7391],[10.4866,6.8996,560.1802],[10.4904,6.8997,525.1777],[10.4935,6.9042,523.4477],[10.494,6.9121,480.5049],[10.4959,6.9148,490.9305],[10.5162,6.9239,308.1949],[10.5281,6.9266,295.8437],[10.5352,6.9397,276.4834],[10.541,6.9386,268.3606],[10.5397,6.947,267.5835],[10.5412,6.9682,279.5193],[10.551,6.9777,266.9316],[10.5521,6.9939,256.9362],[10.555,7.0009,269.7223],[10.5548,7.0126,267.844],[10.5603,7.0347,235.1578],[10.557,7.0494,250.7222],[10.5597,7.066,231.9746],[10.5593,7.0819,222.4421],[10.5638,7.1069,226.2021],[10.5663,7.1469,213.5277],[10.5686,7.1563,208.8795],[10.572,7.1623,207.3786],[10.5838,7.1564,208.4285],[10.5875,7.1477,206.8098],[10.5978,7.1454,210.5049],[10.6015,7.1364,219.4111],[10.6029,7.1266,223.6296],[10.6013,7.1177,220.4285],[10.607,7.1033,222.2832],[10.6049,7.091,230.9057],[10.5977,7.0779,224.9551],[10.6064,7.0709,222.466],[10.6129,7.0611,223.227],[10.6276,7.0494,218.4084],[10.6323,7.0501,225.1405],[10.6547,7.0431,228.8111],[10.6557,7.0493,225.6159],[10.6587,7.0516,222.6076],[10.678,7.0423,234.4905],[10.6836,7.036,237.8146],[10.6825,7.0232,232.8066],[10.6866,7.0191,236.7783],[10.6865,7.0156,230.1254],[10.6936,7.0167,235.3755],[10.704,7.0121,241.1678],[10.7111,6.9974,235.1416],[10.7208,6.9893,236.239],[10.7321,6.9903,237.1739],[10.7332,6.9919,235.0],[10.7384,6.9901,239.904],[10.7477,6.9788,260.3805],[10.7504,6.974,286.7298],[10.7501,6.9696,244.6712],[10.7608,6.9644,249.3231],[10.7655,6.9574,252.0598],[10.768,6.9567,248.4293],[10.7707,6.9626,245.6477],[10.7758,6.9668,243.0415],[10.7822,6.968,251.3636],[10.7919,6.9603,248.1268],[10.8007,6.9627,255.6451],[10.8148,6.9489,255.1581],[10.8412,6.9396,260.8192],[10.8417,6.9367,267.0502]]]]}
,"properties": {"GID_2": "NGA.35.9_1","GID_0": "NGA","country": "Nigeria","GID_1": "NGA.35_1","province": "Taraba","NL_NAME_1": "NA","county": "Kurmi","VARNAME_2": "NA","NL_NAME_2": "NA","TYPE_2": "LocalAuthority","ENGTYPE_2": "LocalAuthority","CC_2": "NA","HASC_2": "NA","name": "Kurmi.county","area_km2": 4965.668,"hist_schema_id": "Elevation0-9000","hist_area_km2": {"150": 2.839,"175": 47.071,"200": 150.058,"225": 496.086,"250": 605.996,"275": 314.92,"300": 137.391,"325": 89.085,"350": 86.664,"375": 93.06,"400": 92.109,"425": 80.996,"450": 74.872,"475": 75.209,"500": 76.827,"525": 70.556,"550": 81.733,"575": 105.866,"600": 114.546,"625": 136.917,"650": 158.778,"675": 163.593,"700": 164.676,"725": 150.108,"750": 138.311,"775": 132.0,"800": 128.004,"825": 139.295,"850": 129.159,"875": 104.64,"900": 95.514,"925": 86.744,"950": 77.052,"975": 59.557,"1000": 45.763,"1025": 31.233,"1050": 22.926,"1075": 19.31,"1100": 16.954,"1125": 13.925,"1150": 13.736,"1175": 12.515,"1200": 10.328,"1225": 10.097,"1250": 8.982,"1275": 9.129,"1300": 9.739,"1325": 8.813,"1350": 8.161,"1375": 7.783,"1400": 6.941,"1425": 5.995,"1450": 5.806,"1475": 4.817,"1500": 3.87,"1525": 3.912,"1550": 3.197,"1575": 2.545,"1600": 2.44,"1625": 2.735,"1650": 2.377,"1675": 2.272,"1700": 1.599,"1725": 2.125,"1750": 1.473,"1775": 1.388,"1800": 1.304,"1825": 0.673,"1850": 0.337,"1875": 0.189,"1900": 0.042}}}