{"type":"Feature","properties":{"GID_2":"NGA.25.19_1","GID_0":"NGA","country":"Nigeria","GID_1":"NGA.25_1","province":"Lagos","NL_NAME_1":"NA","county":"Shomolu","VARNAME_2":"NA","NL_NAME_2":"NA","TYPE_2":"LocalAuthority","ENGTYPE_2":"LocalAuthority","CC_2":"NA","HASC_2":"NA","name":"Shomolu.county"},
"geometry":{"type": "MultiPolygon","coordinates": [[[[3.3601,6.5761,36.4409],[3.3616,6.5672,33.7038],[3.3573,6.5346,26.0463],[3.3708,6.5359,18.5417],[3.3848,6.5324,6.4766],[3.3936,6.5367,7.4905],[3.4025,6.5533,1.7483],[3.4014,6.5607,0.7631],[3.3974,6.5666,2.1535],[3.3897,6.5718,7.4888],[3.379,6.5715,2.3124],[3.3723,6.5746,21.3436],[3.3601,6.5761,36.4409]]]]}}