{"type": "Feature","bbox": [8.9046,11.9508,9.3061,12.2995],"geometry": {"type": "MultiPolygon","coordinates": [[[[9.2769,12.0238,387.0285],[9.2884,12.0404,385.8781],[9.2923,12.0515,383.206],[9.2903,12.069,389.6099],[9.292,12.079,387.4148],[9.3043,12.1025,386.1284],[9.3061,12.1084,386.2381],[9.3037,12.1153,384.7751],[9.2941,12.1275,386.8858],[9.2148,12.1725,386.0052],[9.1858,12.1705,385.6463],[9.1623,12.1794,386.0447],[9.1517,12.1811,385.8876],[9.1231,12.2002,384.7919],[9.0872,12.2594,384.4233],[9.0784,12.2909,382.8795],[9.0551,12.2929,383.596],[9.0432,12.2981,385.3006],[9.0105,12.2995,386.6016],[8.9729,12.2939,388.0576],[8.9585,12.2854,389.9093],[8.9421,12.2821,391.9084],[8.9225,12.2756,394.3837],[8.9046,12.273,405.4744],[8.9209,12.2683,399.8306],[8.9278,12.264,398.0208],[8.9357,12.2555,398.3538],[8.9415,12.2387,398.4516],[8.9465,12.2135,399.0093],[8.9488,12.2087,399.4052],[8.9474,12.1196,393.8275],[8.9284,12.0976,400.4387],[8.9198,12.0702,398.1706],[8.9256,12.064,395.883],[8.9464,12.0586,393.5776],[8.9464,12.0423,399.7714],[8.9662,12.0578,398.6307],[8.9772,12.0594,397.1158],[8.9772,12.0613,396.1411],[8.9924,12.0607,398.7188],[9.0279,12.0653,395.7386],[9.037,12.0424,399.5014],[9.0372,12.0015,412.2701],[9.0594,11.9975,412.6443],[9.0888,12.0004,408.9286],[9.1262,12.0229,399.0899],[9.1499,12.0508,394.1718],[9.1701,12.0592,395.1211],[9.1816,12.0271,394.02],[9.2051,11.9508,396.1326],[9.2182,11.9619,392.5241],[9.2675,12.0123,386.7835],[9.2769,12.0238,387.0285]]]]}
,"properties": {"GID_2": "NGA.18.23_1","GID_0": "NGA","country": "Nigeria","GID_1": "NGA.18_1","province": "Jigawa","NL_NAME_1": "NA","county": "Ringim","VARNAME_2": "NA","NL_NAME_2": "NA","TYPE_2": "LocalAuthority","ENGTYPE_2": "LocalAuthority","CC_2": "NA","HASC_2": "NA","name": "Ringim.county","area_km2": 872.5578,"hist_schema_id": "Elevation0-9000","hist_area_km2": {"375": 247.8152,"400": 624.556,"425": 0.1867}}}