{"type": "Feature","bbox": [6.7715,5.7494,6.9459,5.9021],"geometry": {"type": "MultiPolygon","coordinates": [[[[6.8083,5.9001,59.4966],[6.8036,5.8981,59.5501],[6.8039,5.8964,61.3896],[6.7994,5.8907,62.4881],[6.7915,5.8846,53.2946],[6.7804,5.8682,24.4173],[6.7775,5.8604,25.7314],[6.7715,5.8331,19.071],[6.7743,5.8077,18.1356],[6.7774,5.8005,18.1212],[6.773,5.781,16.5697],[6.7771,5.7827,15.7431],[6.787,5.7814,16.4419],[6.8015,5.7765,21.6755],[6.8154,5.7677,66.4436],[6.842,5.7544,65.5163],[6.8601,5.7494,65.2035],[6.8933,5.756,90.488],[6.9316,5.8306,160.6831],[6.9363,5.8457,167.2641],[6.9358,5.858,172.4829],[6.9459,5.8861,62.0887],[6.9258,5.89,48.9018],[6.9196,5.8944,43.7071],[6.9118,5.8936,59.2409],[6.8895,5.8977,73.3846],[6.8776,5.9021,70.9914],[6.8676,5.8972,51.9288],[6.8622,5.8913,52.0156],[6.8607,5.8705,151.891],[6.8577,5.8588,148.1396],[6.8546,5.8531,115.1155],[6.8344,5.8567,70.1866],[6.8279,5.8686,68.9585],[6.8229,5.8728,70.2072],[6.8083,5.9001,59.4966]]]]}
,"properties": {"GID_2": "NGA.4.12_1","GID_0": "NGA","country": "Nigeria","GID_1": "NGA.4_1","province": "Anambra","NL_NAME_1": "NA","county": "Ihiala","VARNAME_2": "NA","NL_NAME_2": "NA","TYPE_2": "LocalAuthority","ENGTYPE_2": "LocalAuthority","CC_2": "NA","HASC_2": "NA","name": "Ihiala.county","area_km2": 222.2322,"hist_schema_id": "Elevation0-9000","hist_area_km2": {"25": 31.302,"50": 28.2634,"75": 83.2962,"100": 18.5609,"125": 15.8193,"150": 39.0423,"175": 5.9479}}}