{"type": "Feature","bbox": [6.7708,5.9002,6.8744,6.0556],"geometry": {"type": "MultiPolygon","coordinates": [[[[6.773,6.0503,21.3583],[6.7708,6.0481,21.5452],[6.7765,6.0171,20.4898],[6.7817,6.0078,21.6397],[6.7896,5.983,20.3246],[6.7948,5.9795,18.9399],[6.8007,5.97,20.5914],[6.8024,5.9623,22.3945],[6.8006,5.9232,23.4576],[6.8043,5.9095,62.7558],[6.8026,5.9043,58.2859],[6.8102,5.9002,60.1444],[6.8216,5.9067,68.6893],[6.8249,5.9117,70.7418],[6.8337,5.9178,76.6376],[6.8475,5.9551,113.9385],[6.8614,5.9735,76.4659],[6.8636,5.9816,49.0301],[6.8635,5.9896,70.4775],[6.8662,5.9974,91.2677],[6.8725,6.0475,148.2805],[6.8744,6.0516,153.0531],[6.8616,6.0556,149.4158],[6.8542,6.0541,120.4117],[6.838,6.041,50.2555],[6.8193,6.0342,71.0939],[6.8091,6.0329,66.574],[6.7953,6.0366,22.5937],[6.783,6.0456,21.5867],[6.773,6.0503,21.3583]]]]}
,"properties": {"GID_2": "NGA.4.9_1","GID_0": "NGA","country": "Nigeria","GID_1": "NGA.4_1","province": "Anambra","NL_NAME_1": "NA","county": "Ekwusigo","VARNAME_2": "NA","NL_NAME_2": "NA","TYPE_2": "LocalAuthority","ENGTYPE_2": "LocalAuthority","CC_2": "NA","HASC_2": "NA","name": "Ekwusigo.county","area_km2": 107.26675,"hist_schema_id": "Elevation0-9000","hist_area_km2": {"25": 37.21764,"50": 17.90302,"75": 30.65993,"100": 10.9857,"125": 8.32876,"150": 2.04519,"175": 0.1265}}}