{"type":"Feature","properties":{"GID_2":"NGA.3.28_1","GID_0":"NGA","country":"Nigeria","GID_1":"NGA.3_1","province":"AkwaIbom","NL_NAME_1":"NA","county":"Ukanafun","VARNAME_2":"NA","NL_NAME_2":"NA","TYPE_2":"LocalAuthority","ENGTYPE_2":"LocalAuthority","CC_2":"NA","HASC_2":"NA","name":"Ukanafun.county"},
"geometry":{"type": "MultiPolygon","coordinates": [[[[7.4964,4.8174,9.7659],[7.4941,4.8144,8.3192],[7.5127,4.7929,12.825],[7.521,4.7743,12.4979],[7.5337,4.7783,15.5599],[7.5825,4.7996,29.8543],[7.6276,4.8253,39.835],[7.6323,4.8317,35.8513],[7.6391,4.8371,38.1284],[7.659,4.866,43.3668],[7.6615,4.8796,42.9812],[7.6607,4.8911,49.8348],[7.6634,4.8989,49.9741],[7.6811,4.911,38.5081],[7.7043,4.9323,49.8598],[7.7084,4.943,53.9251],[7.7257999999999996,4.9745,48.4536],[7.734,4.9815,62.7539],[7.7463,4.9864,68.5744],[7.7548,4.984,50.6772],[7.7615,4.9848,53.0797],[7.7645,5.0002,39.9614],[7.762,5.0064,37.6721],[7.7448,5.0086,68.3619],[7.7325,5.0076,57.0534],[7.7106,4.9932,59.2165],[7.7045,4.9876,58.6008],[7.6853,4.9563,55.9652],[7.6731,4.9406,42.1548],[7.6607,4.9293,54.8418],[7.655,4.9352,51.8802],[7.6452,4.9397,56.2683],[7.6309,4.9432,54.4138],[7.5951,4.9401,54.2312],[7.5552,4.9244,43.4768],[7.5302,4.9034,45.0568],[7.5118,4.8839,34.2897],[7.5085,4.8778,33.5716],[7.505,4.8751,32.36],[7.49,4.8551,9.4002],[7.4944,4.8474,10.5188],[7.4993,4.8206,9.914],[7.4964,4.8174,9.7659]]]]}}