{"type": "Feature","bbox": [8.2912,6.2784,8.9229,6.8955],"geometry": {"type": "MultiPolygon","coordinates": [[[[8.6165,6.8431,54.9465],[8.6177,6.8305,72.0089],[8.6278,6.8027,79.1785],[8.628,6.7821,82.4514],[8.6135,6.772,61.174],[8.5921,6.7611,77.993],[8.5774,6.7512,66.6877],[8.5268,6.7377,89.7441],[8.4648,6.7399,93.3107],[8.4315,6.7509,118.072],[8.4004,6.7436,135.5744],[8.3785,6.7153,102.3002],[8.3403,6.6837,59.5027],[8.2951,6.6731,42.1226],[8.292,6.6756,41.8605],[8.2912,6.6709,42.0161],[8.2942,6.6436,51.0647],[8.3,6.629,44.8129],[8.3179,6.6079,39.348],[8.3248,6.5949,45.2389],[8.3321,6.5867,39.9076],[8.3676,6.5593,33.8286],[8.3757,6.5564,34.9685],[8.3815,6.5452,35.2394],[8.3838,6.5288,31.9099],[8.3881,6.5244,28.8176],[8.3989,6.5198,32.8623],[8.4045,6.5107,29.6308],[8.4008,6.5108,31.7745],[8.4,6.5039,46.4179],[8.4063,6.4955,30.2571],[8.4028,6.49,29.2879],[8.4028,6.4794,28.6678],[8.4113,6.4735,29.1363],[8.413,6.463,34.8068],[8.4178,6.4491,30.4069],[8.423,6.4423,28.6704],[8.4402,6.4331,30.3928],[8.4441,6.4161,33.4388],[8.4368,6.3969,34.4492],[8.4307,6.3887,30.0889],[8.4221,6.3858,35.5822],[8.4169,6.3894,33.9209],[8.3953,6.3826,51.5579],[8.3768,6.3663,39.5965],[8.3685,6.3563,44.5142],[8.3669,6.3416,43.3143],[8.3688,6.3305,43.0295],[8.3757,6.317,50.2833],[8.393,6.2987,30.6164],[8.3988,6.2884,37.3198],[8.3985,6.2807,32.8367],[8.4094,6.2819,27.5099],[8.4447,6.2808,27.5184],[8.4518,6.2784,28.9996],[8.4569,6.2806,27.0135],[8.4649,6.2885,30.117],[8.4678,6.2963,25.8759],[8.4792,6.316,28.944],[8.4796,6.3279,38.3688],[8.4729,6.3386,38.3888],[8.47,6.3488,42.9082],[8.4678,6.3512,62.6448],[8.4728,6.3601,36.9118],[8.4729,6.3656,36.4076],[8.4762,6.3738,32.5426],[8.4766,6.3976,31.8853],[8.4704,6.4108,31.2756],[8.457,6.4285,30.5125],[8.4563,6.4389,36.1607],[8.4664,6.4505,40.5017],[8.472,6.4541,39.3424],[8.4833,6.4528,43.2866],[8.516,6.4381,28.5449],[8.5271,6.4396,30.7952],[8.5317,6.4519,27.752],[8.5295,6.4605,28.54],[8.5122,6.4868,39.0601],[8.5112,6.4979,41.655],[8.5139,6.5071,48.94],[8.5136,6.5161,40.8571],[8.5231,6.5221,33.057],[8.5328,6.5231,37.3471],[8.5501,6.5182,51.8346],[8.5862,6.5153,38.0994],[8.6025,6.5231,36.3776],[8.6175,6.5364,37.4866],[8.6454,6.5654,44.5272],[8.7179,6.6232,74.117],[8.7557,6.664,65.5579],[8.7748,6.6768,76.4015],[8.8122,6.6921,69.0931],[8.8367,6.7092,82.1916],[8.8716,6.7439,109.9591],[8.8959,6.7633,109.1288],[8.9224,6.8052,99.2232],[8.9229,6.8111,98.013],[8.9157,6.8162,100.1878],[8.8712,6.8449,79.245],[8.8583,6.8506,110.6197],[8.8334,6.8661,97.3429],[8.8139,6.874,113.8379],[8.7645,6.8857,89.6922],[8.7457,6.8934,63.1445],[8.7314,6.8955,79.7719],[8.7115,6.8944,77.9068],[8.6955,6.8913,78.4903],[8.6577,6.8783,67.8341],[8.6401,6.8742,66.7713],[8.6155,6.8548,60.4623],[8.6165,6.8431,54.9465]]]]}
,"properties": {"GID_2": "NGA.9.18_1","GID_0": "NGA","country": "Nigeria","GID_1": "NGA.9_1","province": "CrossRiver","NL_NAME_1": "NA","county": "Yala","VARNAME_2": "YalaCross","NL_NAME_2": "NA","TYPE_2": "LocalAuthority","ENGTYPE_2": "LocalAuthority","CC_2": "NA","HASC_2": "NA","name": "Yala.county","area_km2": 1766.537,"hist_schema_id": "Elevation0-9000","hist_area_km2": {"25": 157.887,"50": 688.999,"75": 601.5,"100": 248.815,"125": 53.649,"150": 6.97,"175": 3.222,"200": 1.621,"225": 1.074,"250": 1.579,"275": 0.842,"300": 0.316,"325": 0.063}}}