{"type": "Feature","bbox": [4.7679,12.8357,5.0225,13.1093],"geometry": {"type": "MultiPolygon","coordinates": [[[[4.8094,12.8357,261.8206],[4.8164,12.8391,260.3807],[4.8498,12.8445,267.4066],[4.8827,12.8558,274.6247],[4.9077,12.857,269.9905],[4.9403,12.853,287.2605],[4.9634,12.854,295.7509],[4.9711,12.8557,294.566],[4.9815,12.8632,299.8703],[4.9991,12.8793,295.1798],[5.0027,12.8847,291.3385],[5.0119,12.9,296.42],[5.0134,12.9067,296.197],[5.0225,12.9234,297.8945],[5.02,12.9356,299.2817],[5.0076,12.9634,293.7562],[5.0127,12.9819,290.4832],[5.0124,13.0184,236.5224],[5.0089,13.0285,286.369],[4.9931,13.0519,285.234],[4.9725,13.0712,281.7209],[4.9688,13.0809,279.0136],[4.9695,13.086,278.3568],[4.9497,13.0781,288.3843],[4.9317,13.0763,282.0092],[4.9205,13.0708,280.4608],[4.9027,13.0757,266.958],[4.8796,13.0858,252.2697],[4.8599,13.0994,243.9856],[4.8477,13.1041,239.6288],[4.8392,13.1093,239.1598],[4.8254,13.1073,237.9806],[4.8192,13.1045,231.5649],[4.8224,13.0958,231.7786],[4.816,13.0837,229.3923],[4.8138,13.0712,232.4929],[4.805,13.0519,241.9306],[4.8002,13.0459,243.406],[4.7962,13.0336,237.5638],[4.7977,12.9955,237.5674],[4.7876,12.9841,238.6477],[4.7831,12.9565,241.2185],[4.7748,12.9484,243.0114],[4.7679,12.8896,255.1367],[4.773,12.8793,261.9035],[4.7834,12.8713,258.285],[4.798,12.8556,256.6054],[4.8094,12.8357,261.8206]]]]}
,"properties": {"GID_2": "NGA.34.15_1","GID_0": "NGA","country": "Nigeria","GID_1": "NGA.34_1","province": "Sokoto","NL_NAME_1": "NA","county": "Silame","VARNAME_2": "NA","NL_NAME_2": "NA","TYPE_2": "LocalAuthority","ENGTYPE_2": "LocalAuthority","CC_2": "NA","HASC_2": "NA","name": "Silame.county","area_km2": 610.2452,"hist_schema_id": "Elevation0-9000","hist_area_km2": {"225": 56.9894,"250": 240.9964,"275": 237.6445,"300": 74.5944,"325": 0.0207}}}