{"type": "Feature","bbox": [6.8039,6.0732,6.9684,6.1456],"geometry": {"type": "MultiPolygon","coordinates": [[[[6.9662,6.1167,93.1562],[6.9575,6.121,147.1294],[6.9472,6.1313,180.0309],[6.9369,6.1356,197.2031],[6.9309,6.136,194.9348],[6.9258,6.1326,197.0797],[6.9156,6.1309,186.372],[6.9053,6.1357,181.7417],[6.9062,6.1432,158.6001],[6.8843,6.1456,138.1414],[6.8811,6.1373,149.6322],[6.8571,6.1227,130.8555],[6.8469,6.1203,155.953],[6.838,6.1214,144.8691],[6.8306,6.1197,124.5727],[6.8188,6.1229,82.4746],[6.8088,6.1007,75.8203],[6.8079,6.0885,24.9613],[6.8039,6.08,23.3674],[6.8123,6.0762,41.4016],[6.8296,6.0771,100.0288],[6.8444,6.0757,139.559],[6.852,6.0732,156.4848],[6.8696,6.0796,95.1898],[6.8938,6.0813,124.9639],[6.9172,6.086,154.1475],[6.9338,6.0965,141.5862],[6.9398,6.0982,114.9049],[6.9476,6.0983,88.3395],[6.9613,6.094,149.4147],[6.9684,6.1109,81.8317],[6.9662,6.1167,93.1562]]]]}
,"properties": {"GID_2": "NGA.4.10_1","GID_0": "NGA","country": "Nigeria","GID_1": "NGA.4_1","province": "Anambra","NL_NAME_1": "NA","county": "IdemiliNorth","VARNAME_2": "NA","NL_NAME_2": "NA","TYPE_2": "LocalAuthority","ENGTYPE_2": "LocalAuthority","CC_2": "NA","HASC_2": "NA","name": "Idemili_North.county","area_km2": 87.63747,"hist_schema_id": "Elevation0-9000","hist_area_km2": {"25": 3.20453,"50": 6.64096,"75": 9.65569,"100": 12.50171,"125": 16.42289,"150": 16.14865,"175": 11.10996,"200": 9.38117,"225": 2.57192}}}