{"type": "Feature","bbox": [4.5346,7.7616,4.6139,7.9566],"geometry": {"type": "MultiPolygon","coordinates": [[[[4.6093,7.8118,356.6047],[4.6139,7.8319,375.6636],[4.6124,7.8501,365.4043],[4.6137,7.8589,374.7601],[4.6107,7.8774,364.3413],[4.6083,7.8818,372.9262],[4.608,7.8912,368.7235],[4.5891,7.8971,377.0086],[4.5703,7.9158,343.5568],[4.5627,7.9307,358.8687],[4.5595,7.9469,330.3785],[4.5523,7.9566,327.0],[4.55,7.9547,327.9924],[4.5485,7.948,341.6711],[4.5432,7.9405,356.8112],[4.5484,7.9293,327.0],[4.5545,7.9212,327.0],[4.5578,7.9112,334.2615],[4.5557,7.885,374.2113],[4.5606,7.875,358.7747],[4.5629,7.8431,355.9848],[4.5628,7.809,344.7415],[4.56,7.8036,329.0735],[4.5544,7.8011,331.0988],[4.5375,7.7869,316.41],[4.5346,7.7759,294.669],[4.538,7.7651,307.9971],[4.5615,7.772,315.5303],[4.5759,7.7616,345.7308],[4.5865,7.7646,343.1186],[4.5907,7.7784,357.0552],[4.5954,7.7848,354.5325],[4.6007,7.7976,346.468],[4.6085,7.804,352.9972],[4.6093,7.8118,356.6047]]]]}
,"properties": {"GID_2": "NGA.30.27_1","GID_0": "NGA","country": "Nigeria","GID_1": "NGA.30_1","province": "Osun","NL_NAME_1": "NA","county": "Olorunda","VARNAME_2": "NA","NL_NAME_2": "NA","TYPE_2": "LocalAuthority","ENGTYPE_2": "LocalAuthority","CC_2": "NA","HASC_2": "NA","name": "Olorunda.county","area_km2": 92.58523,"hist_schema_id": "Elevation0-9000","hist_area_km2": {"275": 0.02101,"300": 4.22242,"325": 21.0047,"350": 32.0102,"375": 27.8919,"400": 7.37199,"425": 0.06301}}}