{"type":"Feature","properties":{"GID_2":"NGA.14.16_1","GID_0":"NGA","country":"Nigeria","GID_1":"NGA.14_1","province":"Enugu","NL_NAME_1":"NA","county":"Udi","VARNAME_2":"NA","NL_NAME_2":"NA","TYPE_2":"LocalAuthority","ENGTYPE_2":"LocalAuthority","CC_2":"NA","HASC_2":"NA","name":"Udi.county"},
"geometry":{"type": "MultiPolygon","coordinates": [[[[7.4242,6.3288,364.8141],[7.412,6.3718,443.0099],[7.4222,6.4018,450.6981],[7.4246,6.4041,402.2081],[7.427,6.4004,420.7479],[7.4262,6.4041,383.6933],[7.4305,6.4137,358.3887],[7.4299,6.4224,418.9857],[7.4327,6.4256,393.9556],[7.4331,6.4477,354.8679],[7.4362,6.4546,368.9274],[7.4375,6.4633,338.4586],[7.4367,6.4719,303.5987],[7.4397,6.4859,385.8513],[7.4366,6.4901,422.9069],[7.4366,6.4947,442.2542],[7.442,6.5264,305.5103],[7.4412,6.5372,320.9529],[7.4429,6.5552,397.3347],[7.4411,6.572,356.9735],[7.4444,6.5888,309.8398],[7.4409,6.6024,383.0544],[7.427,6.5992,389.455],[7.4095,6.5979,462.125],[7.3938,6.5984,460.2549],[7.3876,6.601,434.2875],[7.3777,6.6017,436.082],[7.3715,6.6052,396.1169],[7.3609,6.6174,355.3097],[7.349,6.6259,348.1895],[7.3391,6.6286,335.8788],[7.3274,6.6276,363.3266],[7.31,6.6388,344.6577],[7.2963,6.6452,281.7705],[7.2806,6.6628,265.6207],[7.2634,6.6717,213.3833],[7.2611,6.6677,213.0121],[7.2544,6.6664,219.4094],[7.2224,6.6718,216.8717],[7.2074,6.6709,123.7466],[7.187,6.6611,114.0059],[7.1655,6.6465,123.3466],[7.1396,6.6119,71.8081],[7.1397,6.6055,67.5499],[7.1325,6.5759,103.3724],[7.1313,6.5563,75.7416],[7.1283,6.5492,67.6474],[7.1324,6.5388,77.07],[7.1291,6.5331,81.6872],[7.1354,6.5233,56.2926],[7.1661,6.5122,52.7494],[7.1727,6.5065,67.9142],[7.1947,6.4981,100.7789],[7.2032,6.4968,125.5521],[7.215,6.4991,151.9095],[7.2334,6.4949,190.2643],[7.253,6.4828,151.6279],[7.2641,6.4805,227.3976],[7.2771,6.4716,254.7796],[7.3054,6.4418,277.1581],[7.3132,6.4369,309.6422],[7.3263,6.4217,257.8343],[7.3355,6.4194,280.62],[7.3422,6.4154,218.1887],[7.3539,6.4,288.0484],[7.3608,6.3837,303.9093],[7.3625,6.3759,314.4931],[7.3596,6.3557,308.1226],[7.3521,6.3438,315.0285],[7.3472,6.3282,290.2675],[7.3282,6.3216,253.8422],[7.3029,6.3163,204.9313],[7.2911,6.3098,159.0151],[7.2783,6.3061,127.0608],[7.2552,6.2894,62.4521],[7.248,6.2831,61.3998],[7.2407,6.2733,50.198],[7.2382,6.263,71.5019],[7.2514,6.2547,70.0778],[7.258,6.2477,82.3965],[7.2631,6.246,75.8193],[7.2735,6.2331,96.1386],[7.2818,6.2187,100.2052],[7.289,6.1935,116.0174],[7.2925,6.1863,148.9818],[7.3013,6.1864,177.6242],[7.313,6.1945,135.6077],[7.3199,6.1971,121.1751],[7.3309,6.1921,125.9552],[7.3382,6.1968,125.2189],[7.3505,6.1892,199.2979],[7.3718,6.2366,304.1215],[7.3809,6.2419,340.019],[7.3849,6.249,341.5741],[7.4113,6.3103,467.1463],[7.4143,6.3146,452.6694],[7.422,6.3198,408.4358],[7.4242,6.3288,364.8141]]]]}}