{"type": "Feature","bbox": [7.2624,6.5984,7.5287,6.7604],"geometry": {"type": "MultiPolygon","coordinates": [[[[7.5282,6.6336,193.5825],[7.5224,6.6347,201.4228],[7.5177,6.6442,211.8291],[7.5138,6.6604,234.4547],[7.5169,6.682,205.6346],[7.5094,6.7128,236.4885],[7.4955,6.7278,263.7976],[7.4672,6.7421,340.8435],[7.456,6.7499,441.5106],[7.4464,6.7602,467.7834],[7.4222,6.7604,478.5993],[7.4162,6.7588,463.8372],[7.4094,6.7525,459.1119],[7.3989,6.746,481.9541],[7.3727,6.7349,448.7261],[7.3643,6.727,412.1071],[7.3275,6.7189,427.2162],[7.3079,6.7193,261.1731],[7.3055,6.7167,269.3412],[7.2969,6.7129,310.879],[7.2726,6.7053,243.2613],[7.2663,6.7019,233.5692],[7.2671,6.6973,264.0713],[7.2652,6.6904,217.323],[7.2653,6.684,207.3069],[7.2624,6.6769,212.5836],[7.2634,6.6717,213.3833],[7.2806,6.6628,265.6207],[7.2963,6.6452,281.7705],[7.31,6.6388,344.6577],[7.3274,6.6276,363.3266],[7.3391,6.6286,335.8788],[7.349,6.6259,348.1895],[7.3609,6.6174,355.3097],[7.3715,6.6052,396.1169],[7.3777,6.6017,436.082],[7.3876,6.601,434.2875],[7.3938,6.5984,460.2549],[7.427,6.5992,389.455],[7.449,6.6046,360.6702],[7.4602,6.612,290.0407],[7.4723,6.6162,242.6483],[7.4803,6.6128,209.6018],[7.4909,6.6122,190.6494],[7.5097,6.6183,177.1572],[7.5216,6.6163,188.1102],[7.5268,6.6201,192.2223],[7.5287,6.6263,215.2301],[7.5282,6.6336,193.5825]]]]}
,"properties": {"GID_2": "NGA.14.7_1","GID_0": "NGA","country": "Nigeria","GID_1": "NGA.14_1","province": "Enugu","NL_NAME_1": "NA","county": "Igbo-Etiti","VARNAME_2": "NA","NL_NAME_2": "NA","TYPE_2": "LocalAuthority","ENGTYPE_2": "LocalAuthority","CC_2": "NA","HASC_2": "NA","name": "Igbo-Etiti.county","area_km2": 348.0756,"hist_schema_id": "Elevation0-9000","hist_area_km2": {"175": 1.2847,"200": 16.4055,"225": 31.6094,"250": 32.4511,"275": 28.0075,"300": 24.4488,"325": 20.532,"350": 20.5109,"375": 21.6485,"400": 25.9655,"425": 32.0935,"450": 36.2626,"475": 31.8814,"500": 19.2045,"525": 4.8854,"550": 0.5475,"575": 0.337}}}