{"type": "Feature","bbox": [7.52,12.1238,7.7856,12.3581],"geometry": {"type": "MultiPolygon","coordinates": [[[[7.5447,12.131,545.2183],[7.5495,12.1308,540.2738],[7.5688,12.1238,544.1824],[7.5863,12.1279,563.6165],[7.5951,12.1384,570.6508],[7.6065,12.1434,561.5634],[7.6217,12.1449,552.6298],[7.6335,12.1494,550.7357],[7.6696,12.1556,557.6287],[7.6807,12.159,559.0329],[7.6854,12.1569,560.837],[7.6954,12.157,563.6802],[7.7035,12.1647,562.3782],[7.7313,12.1821,560.9886],[7.7314,12.1911,558.5109],[7.7362,12.2071,556.1805],[7.7502,12.2262,542.8193],[7.755,12.2378,537.0159],[7.7856,12.2723,511.9867],[7.7823,12.2757,517.5225],[7.7668,12.2839,512.149],[7.7328,12.2945,512.4766],[7.7217,12.2961,508.3661],[7.6975,12.3254,510.2664],[7.6913,12.3292,511.0654],[7.6797,12.3483,506.9415],[7.6704,12.3537,501.0341],[7.6413,12.3554,498.6583],[7.6248,12.3488,495.3347],[7.6103,12.3459,494.5875],[7.6013,12.3398,505.9872],[7.5879,12.3392,498.2681],[7.5785,12.3435,494.3007],[7.5651,12.3463,492.1512],[7.5367,12.3581,490.5],[7.5247,12.3565,491.4309],[7.5235,12.3429,495.4888],[7.5287,12.3252,506.8851],[7.5293,12.3157,496.9518],[7.5289,12.3065,498.6082],[7.5238,12.3011,497.8953],[7.5202,12.2914,508.2965],[7.5206,12.2782,517.1437],[7.5247,12.255,514.3901],[7.52,12.2237,524.897],[7.5217,12.1836,530.9855],[7.5235,12.1686,533.3143],[7.5294,12.1504,528.9371],[7.5447,12.131,545.2183]]]]}
,"properties": {"GID_2": "NGA.21.28_1","GID_0": "NGA","country": "Nigeria","GID_1": "NGA.21_1","province": "Katsina","NL_NAME_1": "NA","county": "Matazu","VARNAME_2": "NA","NL_NAME_2": "NA","TYPE_2": "LocalAuthority","ENGTYPE_2": "LocalAuthority","CC_2": "NA","HASC_2": "NA","name": "Matazu.county","area_km2": 517.5188,"hist_schema_id": "Elevation0-9000","hist_area_km2": {"500": 93.422,"525": 221.7935,"550": 181.1836,"575": 21.0781,"600": 0.0414}}}