{"type":"Feature","properties":{"GID_2":"NGA.7.5_1","GID_0":"NGA","country":"Nigeria","GID_1":"NGA.7_1","province":"Benue","NL_NAME_1":"NA","county":"Gboko","VARNAME_2":"NA","NL_NAME_2":"NA","TYPE_2":"LocalAuthority","ENGTYPE_2":"LocalAuthority","CC_2":"NA","HASC_2":"NA","name":"Gboko.county"},
"geometry":{"type": "MultiPolygon","coordinates": [[[[8.9084,7.4565,192.6154],[8.8901,7.4606,184.8537],[8.8762,7.4579,175.4122],[8.8681,7.4527,171.3464],[8.8538,7.4518,161.2672],[8.8245,7.456,158.8723],[8.8171,7.4688,136.5266],[8.8056,7.4982,131.8542],[8.7894,7.5206,120.2103],[8.7945,7.539,112.7993],[8.79,7.5596,119.798],[8.7743,7.5741,146.2951],[8.7673,7.5742,143.6331],[8.7687,7.5691,134.5822],[8.7635,7.5639,123.4866],[8.6946,7.5119,152.7527],[8.6641,7.4647,152.0148],[8.6384,7.4147,176.1657],[8.6246,7.3921,180.3257],[8.6155,7.3708,152.9364],[8.6164,7.365,154.4286],[8.6136,7.3629,157.2068],[8.6132,7.3549,141.6477],[8.6209,7.3345,136.6882],[8.6211,7.3172,120.6055],[8.6246,7.305,117.8006],[8.6233,7.2916,119.9738],[8.629,7.2759,107.6093],[8.6277,7.2687,116.0191],[8.6296,7.2593,127.9991],[8.6276,7.2441,116.3068],[8.6457,7.2226,121.5776],[8.6516,7.1872,122.6784],[8.6596,7.1684,101.5618],[8.6904,7.1479,89.9925],[8.7021,7.1315,80.2453],[8.7132,7.106,91.0464],[8.7274,7.0982,108.1967],[8.752,7.092,135.3388],[8.7676,7.0901,129.4849],[8.7839,7.0972,110.9245],[8.7928,7.104,101.7832],[8.8223,7.1339,100.7398],[8.8487,7.1664,106.7201],[8.8644,7.1825,115.2833],[8.8969,7.2073,124.0549],[8.9264,7.2197,136.1856],[8.9402,7.2211,146.3717],[8.9844,7.218,185.6697],[9.0237,7.1895,193.7043],[9.0335,7.121,179.0571],[9.0407,7.1197,168.4562],[9.0404,7.1259,172.3258],[9.0432,7.1329,176.4157],[9.0542,7.1457,177.8921],[9.0608,7.1566,174.7174],[9.0667,7.1617,188.3523],[9.0815,7.1827,200.9666],[9.0998,7.2019,202.5482],[9.1055,7.2136,201.595],[9.1175,7.2229,179.9137],[9.1212,7.2324,170.787],[9.1351,7.2503,169.9291],[9.144,7.2678,186.9451],[9.152,7.2766,166.6998],[9.1538,7.2836,172.4103],[9.16,7.2908,139.9565],[9.1662,7.3018,138.8948],[9.1743,7.3262,156.8914],[9.176,7.3362,159.1503],[9.184,7.358,146.7617],[9.1843,7.368,115.8561],[9.1798,7.3716,94.78],[9.1581,7.3483,128.2281],[9.1468,7.3415,105.5455],[9.142,7.3341,124.3285],[9.1311,7.3452,204.7605],[9.1283,7.3588,140.2158],[9.1197,7.3679,159.2985],[9.1109,7.4039,141.3609],[9.1027,7.4163,153.9492],[9.1029,7.4316,190.3227],[9.0966,7.4488,197.1046],[9.0905,7.4507,205.7735],[9.0846,7.4641,188.526],[9.0775,7.4582,182.7364],[9.0673,7.4662,176.1602],[9.0456,7.468,167.5699],[9.035,7.4619,151.4566],[9.0131,7.4724,137.0349],[8.9992,7.4711,147.0105],[8.9785,7.4664,158.3215],[8.9785,7.461,151.274],[8.9572,7.4583,192.6791],[8.9084,7.4565,192.6154]]]]}}