{"type":"Feature","properties":{"GID_2":"NGA.29.4_1","GID_0":"NGA","country":"Nigeria","GID_1":"NGA.29_1","province":"Ondo","NL_NAME_1":"NA","county":"AkokoNorth-West","VARNAME_2":"NA","NL_NAME_2":"NA","TYPE_2":"LocalAuthority","ENGTYPE_2":"LocalAuthority","CC_2":"NA","HASC_2":"NA","name":"Akoko_North-West.county"},
"geometry":{"type": "MultiPolygon","coordinates": [[[[5.6638,7.6624,476.2766],[5.6424,7.6389,422.8264],[5.6317,7.63,442.3105],[5.6237,7.6198,425.0092],[5.6133,7.5955,407.1457],[5.6084,7.5644,370.5046],[5.6396,7.5514,424.1347],[5.6836,7.5483,417.9857],[5.7076,7.5489,452.7809],[5.7721,7.5579,404.2214],[5.7781,7.5562,412.2903],[5.8549,7.5821,348.7467],[5.8663,7.5881,401.6795],[5.875,7.5986,364.8141],[5.8825,7.6176,396.0338],[5.896,7.6429,377.4843],[5.9131,7.6578,377.8192],[5.9239,7.6712,390.001],[5.93,7.6764,398.4023],[5.9151,7.6967,371.1469],[5.9159,7.7179,370.0247],[5.9193,7.7255,372.2022],[5.9228,7.7563,424.8542],[5.9266,7.7634,433.9243],[5.9204,7.7672,453.3458],[5.9094,7.7695,415.2092],[5.8861,7.7704,417.0478],[5.8766,7.7689,416.5986],[5.8682,7.7651,438.0151],[5.8508,7.7633,498.9342],[5.817,7.7554,512.2026],[5.8114,7.7561,536.6599],[5.8032,7.7432,470.1556],[5.795,7.7352,502.5477],[5.7925,7.7256,513.4977],[5.7869,7.7176,479.0209],[5.7736,7.7128,498.6275],[5.7653,7.7249,501.7334],[5.7495,7.7328,546.6746],[5.7386,7.7313,531.447],[5.7377,7.7341,539.3077],[5.7193,7.7266,556.2855],[5.7057,7.6934,488.5482],[5.6935,7.6811,494.4911],[5.6848,7.6755,513.9133],[5.6704,7.67,513.4974],[5.6638,7.6624,476.2766]]]]}}