{"type":"Feature","properties":{"GID_2":"NGA.18.15_1","GID_0":"NGA","country":"Nigeria","GID_1":"NGA.18_1","province":"Jigawa","NL_NAME_1":"NA","county":"KafinHausa","VARNAME_2":"NA","NL_NAME_2":"NA","TYPE_2":"LocalAuthority","ENGTYPE_2":"LocalAuthority","CC_2":"NA","HASC_2":"NA","name":"Kafin_Hausa.county"},
"geometry":{"type": "MultiPolygon","coordinates": [[[[10.171,12.0371,369.4628],[10.1707,12.057,368.4332],[10.1615,12.0869,364.4225],[10.1767,12.1297,361.8163],[10.2003,12.2106,357.8583],[10.2165,12.248,356.1823],[10.2021,12.2592,356.4037],[10.1985,12.2643,355.1909],[10.187,12.2681,356.3235],[10.1828,12.2722,356.5093],[10.1746,12.2757,356.3167],[10.1508,12.3081,356.4782],[10.1334,12.3283,354.6801],[10.1253,12.3309,355.3813],[10.1077,12.343,356.9413],[10.0857,12.3486,357.3704],[10.0687,12.3496,356.9608],[10.0625,12.3521,356.6453],[10.0449,12.3489,355.9159],[10.0317,12.3439,356.7032],[10.0144,12.3326,358.1825],[10.0052,12.324,358.5117],[10.0011,12.3159,359.2343],[9.9861,12.3068,360.11],[9.9796,12.2976,359.6539],[9.9763,12.2861,358.0112],[9.9645,12.2759,359.6871],[9.9643,12.2683,358.079],[9.9692,12.2584,360.7278],[9.9554,12.2484,359.9242],[9.9449,12.2435,361.0644],[9.9132,12.2348,361.8862],[9.8897,12.2311,361.4104],[9.8685,12.2288,361.8792],[9.8408,12.2328,363.8067],[9.8509,12.2173,367.1775],[9.8475,12.2078,364.0399],[9.8444,12.201,363.1709],[9.8204,12.1749,363.3366],[9.8143,12.1629,365.5971],[9.825,12.1175,366.8618],[9.8251,12.1065,364.7518],[9.8169,12.0796,375.0046],[9.819,12.0387,370.9943],[9.8178,12.0232,370.5143],[9.8197,11.9971,372.0083],[9.8179,11.9901,372.5325],[9.8191,11.98,374.1334],[9.8267,11.967,372.2419],[9.8392,11.9676,372.2634],[9.8562,11.9652,372.7148],[9.8782,11.9644,372.8478],[9.9138,11.9431,374.2297],[9.9283,11.9282,379.9342],[9.9418,11.9336,375.2073],[10.0057,11.9515,376.5233],[10.0514,11.9663,371.4878],[10.132,12.0008,372.4831],[10.152,12.0063,370.3564],[10.1712,12.0212,370.335],[10.171,12.0371,369.4628]]]]}}