{"type":"Feature","properties":{"GID_2":"NGA.35.7_1","GID_0":"NGA","country":"Nigeria","GID_1":"NGA.35_1","province":"Taraba","NL_NAME_1":"NA","county":"Jalingo","VARNAME_2":"NA","NL_NAME_2":"NA","TYPE_2":"LocalAuthority","ENGTYPE_2":"LocalAuthority","CC_2":"NA","HASC_2":"NA","name":"Jalingo.county"},
"geometry":{"type": "MultiPolygon","coordinates": [[[[11.5518,8.7808,401.2611],[11.5392,8.8087,668.9478],[11.5309,8.8191,517.0709],[11.5175,8.8289,454.8079],[11.5117,8.8362,589.1672],[11.5021,8.8429,348.398],[11.4684,8.8797,261.4329],[11.4358,8.9112,240.6765],[11.4274,8.9255,244.8681],[11.412,8.9427,241.9104],[11.3875,8.9805,515.9833],[11.3761,8.9941,303.7532],[11.3531,9.0066,500.4516],[11.3092,9.0041,259.373],[11.3026,9.006,243.2569],[11.2825,9.0061,304.2619],[11.286,8.9969,300.0189],[11.2986,8.9744,222.0044],[11.3081,8.962,197.7],[11.318,8.9445,205.9831],[11.3297,8.9323,196.3441],[11.3409,8.9144,179.6597],[11.3932,8.8831,224.2234],[11.4559,8.8379,265.1496],[11.4803,8.8275,414.3222],[11.4933,8.8137,451.8677],[11.515,8.7963,314.0312],[11.5339,8.7847,525.4122],[11.5518,8.7808,401.2611]]]]}}