{"type": "Feature","bbox": [10.5338,9.5752,11.9456,11.3331],"geometry": {"type": "MultiPolygon","coordinates": [[[[11.0402,9.665,324.6527],[11.0529,9.6383,352.7971],[11.0802,9.6042,358.0956],[11.0781,9.589,354.4455],[11.0687,9.5864,346.0757],[11.1001,9.5765,403.3368],[11.1263,9.5752,517.6043],[11.1747,9.5814,462.4276],[11.2216,9.5847,624.8356],[11.2649,9.5858,385.1374],[11.3125,9.5835,292.0923],[11.4787,9.5864,199.824],[11.5673,9.5956,221.7214],[11.6261,9.6065,326.718],[11.6804,9.6295,757.7528],[11.7249,9.6586,452.2849],[11.8323,9.7201,455.2875],[11.889,9.7562,494.3636],[11.9252,9.7843,231.8551],[11.9429,9.8216,197.1899],[11.9345,9.8809,200.5198],[11.9359,9.9365,202.2342],[11.9456,10.0448,184.0226],[11.9138,10.0594,186.7143],[11.8824,10.08,216.9653],[11.8531,10.1056,258.5409],[11.8183,10.1833,198.1278],[11.8026,10.2043,243.8105],[11.7704,10.2208,216.5423],[11.7343,10.2305,213.2703],[11.7111,10.2417,252.8627],[11.6815,10.2708,320.9924],[11.6423,10.327,275.9074],[11.6293,10.3723,251.1609],[11.6798,10.4501,313.4049],[11.7128,10.4932,363.0893],[11.7229,10.5414,443.5499],[11.7112,10.5758,312.9384],[11.7011,10.5942,286.7485],[11.6868,10.5907,276.9235],[11.5916,10.5941,239.0],[11.5868,10.6022,251.3158],[11.5815,10.663,274.5652],[11.5743,10.7052,273.5991],[11.5761,10.7418,261.2148],[11.5913,10.8421,281.9542],[11.5937,10.8945,257.5024],[11.5888,10.9438,294.4725],[11.5828,10.9722,276.7317],[11.5555,10.9947,262.8398],[11.5234,11.0261,287.6566],[11.4979,11.01,261.1151],[11.514,11.0345,287.5576],[11.4974,11.0494,291.1573],[11.4589,11.0915,284.4503],[11.429,11.1288,262.6609],[11.4076,11.1604,286.5485],[11.382,11.1936,304.703],[11.3408,11.2271,314.2416],[11.3204,11.241,324.9174],[11.2878,11.2667,356.2201],[11.2097,11.3141,382.9979],[11.1616,11.3302,388.3785],[11.1316,11.3331,375.2677],[11.0963,11.333,454.45],[11.0626,11.3234,435.6957],[11.0289,11.3089,428.2676],[11.0133,11.2939,419.0629],[11.0052,11.2893,411.8997],[11.0013,11.291,404.2992],[10.9946,11.2786,405.4984],[10.9576,11.231,367.813],[10.86,11.1787,336.9515],[10.8358,11.1486,384.4482],[10.8184,11.1197,394.9207],[10.786,11.0918,397.2434],[10.762,11.0796,384.0085],[10.7292,11.0758,369.5369],[10.6987,11.0655,389.9365],[10.6754,11.0438,364.2661],[10.6533,11.0115,351.9802],[10.6419,10.9669,371.9066],[10.6375,10.9326,370.2099],[10.6062,10.8528,322.487],[10.5954,10.814,316.383],[10.5371,10.7331,322.355],[10.5338,10.711,356.1456],[10.6065,10.684,455.3233],[10.6531,10.6632,505.6162],[10.6714,10.636,481.5879],[10.6788,10.5976,439.382],[10.6789,10.5562,392.0496],[10.6855,10.5216,408.6954],[10.6998,10.5032,434.2995],[10.7287,10.4927,431.3003],[10.7795,10.4786,369.1582],[10.8161,10.4613,377.081],[10.8364,10.4178,397.9932],[10.8497,10.3824,389.2247],[10.8432,10.2871,415.0377],[10.8419,10.2443,427.2709],[10.8484,10.1985,462.9727],[10.8349,10.1703,405.8257],[10.772,10.1602,355.4208],[10.7398,10.1456,329.7871],[10.7187,10.115,299.6112],[10.724,10.0891,318.478],[10.7603,10.0467,374.8117],[10.7933,10.0189,420.794],[10.8337,9.9963,482.7613],[10.8742,9.9635,567.577],[10.9493,9.9094,413.9037],[10.9814,9.8829,381.6201],[10.9949,9.8531,327.8322],[11.0013,9.8221,318.8485],[11.0112,9.7229,303.0791],[11.0402,9.665,324.6527]]]]}
,"properties": {"GID_1": "NGA.16_1","GID_0": "NGA","country": "Nigeria","province": "Gombe","VARNAME_1": "NA","NL_NAME_1": "NA","TYPE_1": "State","ENGTYPE_1": "State","CC_1": "NA","HASC_1": "NG.GO","ISO_1": "NG-GO","name": "Gombe.province","area_km2": 18264.29,"hist_schema_id": "Elevation0-9000","hist_area_km2": {"175": 21.44,"200": 201.17,"225": 441.55,"250": 1299.21,"275": 1509.03,"300": 1423.96,"325": 1409.97,"350": 1398.83,"375": 1325.05,"400": 1288.49,"425": 1288.43,"450": 1275.57,"475": 1107.6,"500": 1050.36,"525": 922.11,"550": 791.06,"575": 549.51,"600": 304.46,"625": 174.49,"650": 132.04,"675": 97.62,"700": 72.73,"725": 49.43,"750": 38.4,"775": 28.2,"800": 24.67,"825": 20.97,"850": 11.68,"875": 2.78,"900": 1.17,"925": 0.96,"950": 0.65,"975": 0.29,"1000": 0.15,"1025": 0.17}}}