{"type": "Feature","id": "2859","bbox": [10.53861,9.57766,11.94556,11.33083],"geometry": {"type": "Polygon","coordinates": [[[11.6634,10.59023,267.0602],[11.59302,10.59721,239.0],[11.58423,10.62682,263.1643],[11.57741,10.69868,282.418],[11.59033,10.92817,276.1204],[11.58372,10.9623,290.1036],[11.56253,10.98884,276.6889],[11.45794,11.0931,285.1941],[11.40915,11.15798,284.5809],[11.35396,11.21588,306.1302],[11.29019,11.26479,352.7285],[11.15284,11.33083,354.1098],[11.01424,11.29471,421.8087],[10.99399,11.28022,404.1556],[10.97755,11.25758,391.8314],[10.95378,11.23216,359.3464],[10.85994,11.17865,336.9515],[10.81198,11.1141,396.6631],[10.77922,11.08948,399.4525],[10.70325,11.06659,390.5935],[10.6738,11.04137,361.4627],[10.6431,10.96711,374.5395],[10.609,10.84911,310.5648],[10.5938,10.81185,319.8326],[10.54151,10.7394,323.3318],[10.53861,10.71162,359.518],[10.64569,10.66635,493.7019],[10.677,10.59726,440.8752],[10.68765,10.51866,412.8626],[10.75896,10.4852,415.0928],[10.82335,10.44556,388.1371],[10.84402,10.38559,378.8398],[10.84195,10.24661,427.8149],[10.84588,10.21659,470.4575],[10.84319,10.18765,435.5708],[10.7293,10.13026,314.9758],[10.72361,10.09714,301.1634],[10.76506,10.03936,373.6863],[10.97135,9.88785,400.8507],[11.00132,9.82204,318.4376],[11.00804,9.7576,323.0558],[11.02427,9.69556,287.6301],[11.0529,9.63825,352.7971],[11.07501,9.61042,333.8475],[11.06861,9.58639,346.0757],[11.17485,9.57766,487.433],[11.52594,9.59197,200.5486],[11.61782,9.60665,299.0789],[11.70268,9.64396,557.1702],[11.88778,9.75382,642.6961],[11.92509,9.78421,231.8551],[11.94039,9.82573,199.1651],[11.93512,9.95764,207.8291],[11.94556,10.04471,184.0226],[11.87435,10.08897,233.97559999999999],[11.80706,10.1963,212.6343],[11.77037,10.22069,216.5423],[11.72717,10.237,232.1507],[11.68914,10.26322,291.6722],[11.65803,10.30097,301.9339],[11.63715,10.34477,316.8792],[11.63953,10.38882,259.5488],[11.71342,10.50706,375.7551],[11.70102,10.59419,286.7485],[11.6634,10.59023,267.0602]]]}
,"properties": {"ISO3166-1-Alpha-3": "NGA","country": "Nigeria","fill": "#F00","name": "Gombe","area_km2": 18245.41,"hist_schema_id": "Elevation0-9000","hist_area_km2": {"175": 22.28,"200": 200.4,"225": 440.96,"250": 1302.67,"275": 1509.59,"300": 1418.16,"325": 1401.72,"350": 1397.71,"375": 1319.69,"400": 1282.32,"425": 1282.36,"450": 1271.54,"475": 1111.86,"500": 1055.1,"525": 923.86,"550": 792.25,"575": 551.09,"600": 305.22,"625": 174.46,"650": 132.04,"675": 97.55,"700": 72.67,"725": 49.47,"750": 38.42,"775": 28.27,"800": 24.73,"825": 21.01,"850": 11.68,"875": 2.82,"900": 1.19,"925": 0.96,"950": 0.65,"975": 0.29,"1000": 0.15,"1025": 0.17}}}