{"type":"Feature","properties":{"GID_2":"NGA.29.9_1","GID_0":"NGA","country":"Nigeria","GID_1":"NGA.29_1","province":"Ondo","NL_NAME_1":"NA","county":"Ifedore","VARNAME_2":"NA","NL_NAME_2":"NA","TYPE_2":"LocalAuthority","ENGTYPE_2":"LocalAuthority","CC_2":"NA","HASC_2":"NA","name":"Ifedore.county"},
"geometry":{"type": "MultiPolygon","coordinates": [[[[4.9915,7.4149,343.6632],[4.9987,7.4011,329.856],[5.0136,7.3952,327.8317],[5.0185,7.3838,346.4272],[5.0267,7.3823,338.6349],[5.0382999999999996,7.3683,348.2755],[5.0382,7.3519,375.9804],[5.0419,7.3212,388.377],[5.0357,7.293,293.8134],[5.03,7.2533,280.8499],[5.0435,7.2513,274.5526],[5.0562,7.2518,289.7905],[5.0812,7.2482,287.3835],[5.0747,7.2674,291.887],[5.0763,7.2775,293.9381],[5.1042,7.3059,340.5707],[5.1597,7.3439,529.6273],[5.1669,7.35,465.9142],[5.1712,7.3584,390.7166],[5.174,7.3596,386.6743],[5.1733,7.3706,374.225],[5.1765,7.4166,403.0392],[5.1752,7.4319,369.91],[5.1603,7.4341,389.7466],[5.1411,7.434,410.7213],[5.1179,7.4379,414.5303],[5.0966,7.4352,410.7961],[5.065,7.4383,344.6763],[5.043,7.4336,336.8598],[5.0177,7.4227,334.6328],[4.9915,7.4149,343.6632]]]]}}