{"type": "Feature","bbox": [8.9242,6.4382,9.1688,6.6785],"geometry": {"type": "MultiPolygon","coordinates": [[[[9.1307,6.6686,176.0085],[9.1219,6.6676,178.6133],[9.109,6.6629,167.3232],[9.0878,6.6611,152.5782],[9.0616,6.6542,157.2606],[9.0266,6.6543,136.148],[8.9908,6.6613,113.2111],[8.9713,6.6757,126.9488],[8.9702,6.6632,119.4856],[8.9629,6.6525,103.2623],[8.964,6.6391,104.2708],[8.9612,6.623,112.5896],[8.9761,6.6126,123.9886],[8.9815,6.607,128.6757],[8.9846,6.6007,115.665],[8.987,6.5751,108.446],[8.9862,6.5571,113.7318],[8.9797,6.5413,124.3632],[8.9682,6.5252,133.2406],[8.9647,6.5225,135.4577],[8.9578,6.5106,148.5394],[8.939,6.4867,126.1394],[8.9301,6.4823,119.6927],[8.9242,6.4724,116.9853],[8.9357,6.4568,120.4326],[8.9617,6.441,745.9808],[8.9697,6.4382,906.2526],[8.9973,6.441,152.3333],[9.0264,6.4534,184.3712],[9.1084,6.4639,216.2931],[9.1138,6.4688,191.0603],[9.1118,6.4762,204.9874],[9.1019,6.4936,605.8481],[9.1023,6.4978,533.1941],[9.0915,6.5127,827.4921],[9.0882,6.5217,750.3594],[9.0866,6.5382,252.423],[9.0768,6.5582,178.679],[9.0832,6.5638,199.5538],[9.0855,6.5734,279.2939],[9.0887,6.5758,220.9675],[9.0816,6.5852,186.499],[9.1014,6.5915,187.1648],[9.1229,6.6012,192.4564],[9.1279,6.6063,185.4356],[9.1308,6.6127,183.6408],[9.1509,6.6248,216.4831],[9.154,6.6306,209.98],[9.16,6.6359,200.7892],[9.1594,6.6446,197.8575],[9.1616,6.6467,201.4726],[9.1613,6.6522,178.7735],[9.166,6.6551,184.9702],[9.1673,6.6584,190.9497],[9.166,6.6665,224.7808],[9.1685,6.6703,228.013],[9.1688,6.6785,220.1167],[9.1307,6.6686,176.0085]]]]}
,"properties": {"GID_2": "NGA.9.14_1","GID_0": "NGA","country": "Nigeria","GID_1": "NGA.9_1","province": "CrossRiver","NL_NAME_1": "NA","county": "Obudu","VARNAME_2": "NA","NL_NAME_2": "NA","TYPE_2": "LocalAuthority","ENGTYPE_2": "LocalAuthority","CC_2": "NA","HASC_2": "NA","name": "Obudu.county","area_km2": 381.1635,"hist_schema_id": "Elevation0-9000","hist_area_km2": {"100": 7.3078,"125": 66.4741,"150": 93.3339,"175": 87.1576,"200": 38.1857,"225": 14.2176,"250": 7.6886,"275": 6.7196,"300": 5.7506,"325": 4.6131,"350": 4.6763,"375": 4.4869,"400": 3.9813,"425": 3.244,"450": 3.8128,"475": 2.8649,"500": 3.1598,"525": 2.9913,"550": 2.6332,"575": 2.1908,"600": 2.233,"625": 1.6853,"650": 1.4115,"675": 1.4957,"700": 1.5379,"725": 1.1376,"750": 1.0323,"775": 0.8216,"800": 0.9691,"825": 0.7584,"850": 0.5899,"875": 0.4845,"900": 0.3581,"925": 0.316,"950": 0.2107,"975": 0.1685,"1000": 0.2107,"1025": 0.0632,"1050": 0.0632,"1075": 0.1053,"1100": 0.0211}}}