{"type": "Feature","bbox": [5.3765,4.7226,5.9915,5.1689],"geometry": {"type": "MultiPolygon","coordinates": [[[[5.6099,4.7368,5.3028],[5.6158,4.7368,1.5761],[5.6223,4.7394,1.3746],[5.6303,4.7476,1.4075],[5.631,4.7533,1.1026],[5.639,4.7601,4.3543],[5.6409,4.7647,3.3542],[5.6542,4.7746,8.772],[5.6593,4.7754,1.2122],[5.6736,4.7724,1.2202],[5.6782,4.776,1.3393],[5.6792,4.7787,5.0985],[5.6762,4.7804,16.1925],[5.6649,4.7787,5.5882],[5.6599,4.7815,3.4208],[5.6601,4.7865,0.6555],[5.669,4.7954,4.4941],[5.6571,4.7982,9.8398],[5.6299,4.8101,7.0054],[5.6257,4.8074,0.0],[5.6218,4.8018,1.6352],[5.6121,4.799,1.3628],[5.6079,4.8046,3.2513],[5.6082,4.8174,0.0],[5.5921,4.8099,1.8171],[5.5774,4.8079,2.4679],[5.5679,4.8118,6.124],[5.5524,4.8249,6.7536],[5.5399,4.8182,6.9142],[5.5246,4.8179,2.6712],[5.5168,4.8213,0.8222],[5.4999,4.834,0.0],[5.4887,4.8476,5.1875],[5.4763,4.8749,9.3325],[5.4712,4.8807,0.0],[5.469,4.8879,0.2865],[5.4649,4.8913,0.8815],[5.4563,4.9057,0.0],[5.4546,4.9182,0.0],[5.4518,4.9118,0.243],[5.461,4.8874,8.296],[5.4829,4.8465,1.3992],[5.5265,4.7776,8.2203],[5.5321,4.7626,0.8531],[5.5296,4.7543,0.0],[5.5332,4.754,0.0],[5.5396,4.7474,0.0],[5.5457,4.7454,0.0],[5.5549,4.7379,2.0627],[5.5624,4.7351,2.0017],[5.5643,4.724,0.0],[5.5668,4.7226,1.5715],[5.5721,4.7232,0.0],[5.5851,4.729,0.0],[5.5779,4.7343,6.9756],[5.5815,4.7438,1.2487],[5.5749,4.7418,15.5172],[5.5662,4.7521,6.9205],[5.5665,4.756,7.1851],[5.5718,4.7582,0.0],[5.5726,4.7574,0.0],[5.5671,4.7557,7.1851],[5.5668,4.7524,6.9205],[5.5729,4.7465,2.8922],[5.5751,4.7424,3.9486],[5.5774,4.7426,4.3705],[5.5785,4.7446,3.5983],[5.5821,4.744,1.3685],[5.5815,4.7393,4.015],[5.5785,4.7349,6.9756],[5.5804,4.7329,4.0306],[5.5865,4.7301,0.0],[5.5932,4.7315,2.2007],[5.5943,4.7413,5.6244],[5.5985,4.7429,1.1253],[5.6021,4.741,8.0043],[5.6038,4.7365,3.5045],[5.6099,4.7368,5.3028]]],
[[[5.4376,4.9471,0.0],[5.4362,4.9474,0.0],[5.4357,4.9454,0.0],[5.439,4.944,0.0],[5.4393,4.9451,0.0],[5.4376,4.9454,0.0],[5.4376,4.9471,0.0]]],
[[[5.9842,4.9112,18.1426],[5.9878,4.9183,15.11],[5.9915,4.9348,18.0224],[5.9915,4.959,19.6746],[5.9896,4.9733,17.3965],[5.9848,4.9768,20.5211],[5.9829,4.987,16.7317],[5.9741,4.9998,15.3],[5.9732,5.0109,12.4072],[5.9663,5.0272,18.1604],[5.9595,5.0496,15.9847],[5.9563,5.0649,20.0029],[5.9556,5.0794,7.8422],[5.9525,5.088,20.6847],[5.9618,5.1238,14.1582],[5.9596,5.1291,19.5465],[5.9625,5.1378,11.9902],[5.963,5.15,2.0],[5.9596,5.1547,1.5],[5.961,5.1609,8.7908],[5.956,5.1625,3.8989],[5.9474,5.1689,5.5789],[5.9392,5.166,0.0],[5.9352,5.1608,5.763],[5.9337,5.1543,14.2197],[5.9235,5.1358,1.0884],[5.9201,5.1243,9.6753],[5.9113,5.1111,15.7096],[5.896,5.1042,6.405],[5.8879,5.103,5.8727],[5.8655,5.087,16.1374],[5.858,5.0846,16.2677],[5.8523,5.0842,8.9337],[5.8438,5.0862,11.8797],[5.8394,5.0906,6.2471],[5.8242,5.0932,6.2492],[5.8157,5.0913,8.3149],[5.7958,5.0764,8.1008],[5.7835,5.0729,5.3247],[5.7722,5.0717,7.2678],[5.7645,5.0677,6.9943],[5.7545,5.061,8.0939],[5.746,5.0507,5.0324],[5.7333,5.0484,7.8255],[5.7157,5.0355,11.8555],[5.6948,5.0248,2.7468],[5.6858,5.0296,2.8227],[5.6796,5.0309,2.8268],[5.662,5.0233,1.9529],[5.6421,5.0243,12.6477],[5.6321,5.0328,7.0965],[5.626,5.0421,6.162],[5.6122,5.0458,7.1479],[5.5919,5.0593,2.0718],[5.5826,5.068,12.6313],[5.5709,5.0712,12.359],[5.5621,5.0702,4.3736],[5.5508,5.0764,11.4876],[5.5334,5.0795,18.876],[5.5258,5.0863,5.8177],[5.4865,5.1064,3.0168],[5.476,5.1153,6.2737],[5.4606,5.1338,8.6192],[5.4526,5.1404,8.4767],[5.4499,5.1396,0.0],[5.4493,5.1338,0.7939],[5.4407,5.1271,0.0],[5.4404,5.1282,0.0],[5.441,5.1315,2.4106],[5.4407,5.1318,2.4106],[5.4388,5.129,3.7122],[5.436,5.1315,0.0],[5.4332,5.131,10.6727],[5.4326,5.1368,8.6654],[5.429,5.1379,3.3909],[5.4174,5.1338,0.0],[5.4137,5.1307,0.9754],[5.4113,5.131,0.0],[5.4101,5.1293,1.4217],[5.4021,5.1318,3.3015],[5.4032,5.1368,0.0],[5.4015,5.1374,0.0],[5.3982,5.1351,0.0],[5.3965,5.1315,5.5985],[5.3888,5.1307,0.0],[5.3765,5.126,3.9877],[5.3793,5.1151,0.0],[5.4146,5.049,3.4797],[5.4326,5.0049,0.0],[5.4421,4.9729,0.0],[5.4451,4.9715,5.1193],[5.4454,4.9549,0.9395],[5.4504,4.9546,1.8398],[5.4504,4.9499,3.5481],[5.4493,4.9468,3.172],[5.4465,4.9476,2.4085],[5.4476,4.9524,3.4324],[5.4457,4.9529,0.6915],[5.4421,4.9451,0.0],[5.4399,4.9449,0.0],[5.4399,4.9421,0.0],[5.444,4.9407,0.0],[5.4507,4.9296,0.0],[5.4565,4.9238,11.0458],[5.4593,4.9176,0.0],[5.4621,4.9165,8.7523],[5.4665,4.906,5.4108],[5.4818,4.8826,8.828],[5.486,4.8713,0.0],[5.4915,4.8629,2.703],[5.4951,4.8621,8.2461],[5.4951,4.8576,8.1748],[5.5007,4.8463,0.0],[5.5074,4.8393,12.058],[5.5151,4.8274,9.8813],[5.526,4.8221,9.451],[5.5304,4.8218,0.0],[5.5426,4.831,0.0],[5.5465,4.8382,0.9481],[5.5488,4.8515,0.0],[5.5554,4.8543,1.2655],[5.5571,4.8576,15.0929],[5.5576,4.8682,2.0263],[5.5513,4.8765,1.1209],[5.5496,4.8818,1.8989],[5.5501,4.886,2.9441],[5.5576,4.8924,4.5874],[5.5579,4.8974,3.5365],[5.5551,4.901,2.0114],[5.549,4.9038,1.3242],[5.5554,4.9015,2.0114],[5.5588,4.8971,3.5365],[5.5582,4.8921,4.5874],[5.5526,4.8876,2.0523],[5.5504,4.8804,0.7938],[5.5593,4.8674,1.0398],[5.5601,4.8701,1.3371],[5.5593,4.8715,6.1603],[5.5604,4.871,6.1603],[5.5607,4.8671,1.0398],[5.5596,4.8665,6.2522],[5.5601,4.8615,13.5084],[5.5565,4.8551,1.2655],[5.5557,4.8499,2.2242],[5.5513,4.851,0.0],[5.5488,4.8499,9.595],[5.5457,4.8318,0.0],[5.5496,4.8324,2.4353],[5.5496,4.8351,5.0573],[5.5518,4.8318,0.0],[5.5585,4.8349,8.3586],[5.5588,4.8304,0.0],[5.5674,4.8246,12.4584],[5.5751,4.8124,0.0],[5.579,4.811,7.9934],[5.586,4.8149,0.0],[5.5918,4.821,14.6466],[5.6032,4.8265,0.0],[5.6176,4.8368,0.0],[5.6193,4.8396,0.0],[5.6265,4.8415,2.1296],[5.6243,4.8474,1.1468],[5.6243,4.8546,4.6041],[5.6204,4.8585,4.1384],[5.6176,4.8643,0.9234],[5.619,4.8643,1.2191],[5.621,4.8587,2.2162],[5.6249,4.8549,1.4816],[5.6249,4.8485,2.9205],[5.6288,4.8426,1.2704],[5.6363,4.8407,2.4038],[5.6432,4.8418,3.0202],[5.6424,4.8468,4.9898],[5.6365,4.8526,2.7991],[5.6365,4.8576,1.2613],[5.644,4.8663,3.1906],[5.6585,4.8771,0.0],[5.6576,4.884,1.0043],[5.6535,4.8865,4.1329],[5.654,4.8926,1.107],[5.6485,4.8976,0.0],[5.6476,4.9004,3.4249],[5.6607,4.9057,0.9731],[5.666,4.906,2.1819],[5.6657,4.9085,3.2741],[5.6618,4.9121,2.4501],[5.6615,4.9149,2.9596],[5.6732,4.9165,1.8404],[5.6726,4.9151,2.1306],[5.6629,4.9143,0.0],[5.6624,4.9126,0.0],[5.6671,4.9079,1.5281],[5.6663,4.9054,1.4998],[5.6613,4.9051,2.6186],[5.6574,4.9026,2.3191],[5.6499,4.9013,2.2792],[5.6482,4.8993,3.4249],[5.6568,4.8907,7.1045],[5.6543,4.8868,0.0],[5.6582,4.8851,2.5737],[5.6596,4.8787,0.0],[5.6682,4.8826,1.4396],[5.676,4.8818,0.0],[5.6749,4.8904,0.0],[5.6787,4.8951,4.7232],[5.6762,4.8882,0.405],[5.6785,4.8851,1.0725],[5.679,4.8776,0.5861],[5.6879,4.8726,0.3731],[5.6913,4.876,5.2787],[5.6893,4.8729,2.0672],[5.6904,4.8696,0.5857],[5.6746,4.8796,0.8865],[5.6663,4.8801,5.5884],[5.6613,4.8771,0.0],[5.6579,4.8713,5.5117],[5.6454,4.8635,0.0],[5.6382,4.8551,7.4291],[5.6388,4.8526,2.2679],[5.6449,4.8482,0.0],[5.646,4.8424,1.1768],[5.6413,4.8382,3.2845],[5.6251,4.8371,0.0],[5.6149,4.8271,0.9296],[5.6113,4.8193,3.4138],[5.6124,4.8113,1.7352],[5.6101,4.8032,0.5763],[5.6115,4.8012,3.2826],[5.6157,4.8004,1.2604],[5.6265,4.8104,0.7575],[5.6324,4.8113,1.5512],[5.639,4.8099,2.074],[5.6696,4.7974,0.0],[5.6688,4.7901,4.5287],[5.6607,4.7849,0.0],[5.6626,4.7818,0.0],[5.676,4.7824,1.9574],[5.6868,4.776,2.8741],[5.6899,4.7779,0.0],[5.6926,4.7863,5.6984],[5.6938,4.8074,0.683],[5.696,4.8113,0.7186],[5.7004,4.8113,1.1657],[5.7079,4.8068,0.0],[5.7165,4.8079,0.773],[5.7199,4.8062,1.1526],[5.7232,4.8007,0.0],[5.7276,4.7985,0.4781],[5.7549,4.7954,0.5855],[5.7615,4.7968,0.1994],[5.7646,4.7999,11.0265],[5.7657,4.8093,3.5273],[5.7685,4.8126,5.0861],[5.7732,4.8124,1.9596],[5.7787,4.8068,0.0],[5.7835,4.8076,0.0],[5.7796,4.8165,0.0],[5.779,4.824,0.5219],[5.781,4.8299,3.6938],[5.7721,4.8326,0.2317],[5.7688,4.839,0.9601],[5.7751,4.8324,3.572],[5.7815,4.831,1.6981],[5.781,4.8151,0.1812],[5.7818,4.8121,2.9658],[5.7843,4.8101,0.0],[5.7843,4.8065,0.3408],[5.7799,4.8054,0.5898],[5.7799,4.8035,0.0],[5.7882,4.8024,5.1038],[5.7929,4.8087,0.9022],[5.7982,4.8113,1.9088],[5.7993,4.8135,6.4184],[5.8032,4.8127,4.4847],[5.8236,4.8201,2.0111],[5.834,4.8218,2.5289],[5.8565,4.8329,12.9238],[5.8797,4.8406,19.1843],[5.8884,4.8462,20.1031],[5.9479,4.8742,17.5037],[5.9617,4.8865,20.0871],[5.9733,4.8939,19.0435],[5.9842,4.9112,18.1426]]]]}
,"properties": {"GID_2": "NGA.6.2_1","GID_0": "NGA","country": "Nigeria","GID_1": "NGA.6_1","province": "Bayelsa","NL_NAME_1": "NA","county": "Ekeremor","VARNAME_2": "NA","NL_NAME_2": "NA","TYPE_2": "LocalAuthority","ENGTYPE_2": "LocalAuthority","CC_2": "NA","HASC_2": "NA","name": "Ekeremor.county","area_km2": 1803.601,"hist_schema_id": "Elevation0-9000","hist_area_km2": {"0": 922.296,"25": 881.305}}}