{"type": "Feature","bbox": [7.2826,4.9587,7.4109,5.0739],"geometry": {"type": "MultiPolygon","coordinates": [[[[7.3781,5.057,53.9988],[7.3752,5.0519,53.4394],[7.3657,5.0465,49.8069],[7.3443,5.0395,52.0604],[7.3309,5.0372,54.6239],[7.3174,5.0393,52.7527],[7.307,5.0432,51.5181],[7.3005,5.0525,55.5774],[7.2999,5.0739,55.7363],[7.2964,5.0694,54.8426],[7.285,5.0625,56.1396],[7.2887,5.0361,53.1708],[7.2875,5.0324,53.4899],[7.29,5.0197,48.2424],[7.2857,4.9958,46.9348],[7.2826,4.9903,44.3948],[7.283,4.9855,43.2953],[7.2843,4.9788,44.4065],[7.2868,4.9741,42.9347],[7.2938,4.9676,47.0353],[7.2966,4.9588,40.9412],[7.2992,4.9606,39.6639],[7.3015,4.9587,44.3282],[7.3094,4.9602,42.7456],[7.3458,4.9697,42.9227],[7.3631,4.9724,48.3961],[7.3693,4.9718,47.3081],[7.4052,4.9795,44.4591],[7.4109,4.9928,44.389],[7.4073,4.9968,44.7692],[7.406,5.0019,47.9835],[7.3985,5.0105,48.7279],[7.3947,5.0173,52.7992],[7.3948,5.0205,49.1611],[7.3881,5.0187,52.5571],[7.3912,5.0247,49.1837],[7.3884,5.0243,50.9291],[7.3878,5.028,49.7359],[7.3836,5.028,49.4928],[7.3844,5.0354,50.406],[7.3818,5.0562,54.8826],[7.3796,5.0597,53.3497],[7.3781,5.057,53.9988]]]]}
,"properties": {"GID_2": "NGA.1.12_1","GID_0": "NGA","country": "Nigeria","GID_1": "NGA.1_1","province": "Abia","NL_NAME_1": "NA","county": "Ugwunagbo","VARNAME_2": "NA","NL_NAME_2": "NA","TYPE_2": "LocalAuthority","ENGTYPE_2": "LocalAuthority","CC_2": "NA","HASC_2": "NA","name": "Ugwunagbo.county","area_km2": 106.28248,"hist_schema_id": "Elevation0-9000","hist_area_km2": {"25": 0.06337,"50": 106.21911}}}