{"type":"Feature","properties":{"GID_2":"NGA.31.2_1","GID_0":"NGA","country":"Nigeria","GID_1":"NGA.31_1","province":"Oyo","NL_NAME_1":"NA","county":"Akinyele","VARNAME_2":"NA","NL_NAME_2":"NA","TYPE_2":"LocalAuthority","ENGTYPE_2":"LocalAuthority","CC_2":"NA","HASC_2":"NA","name":"Akinyele.county"},
"geometry":{"type": "MultiPolygon","coordinates": [[[[4.0523,7.6795,242.5269],[4.0473,7.6719,239.7838],[4.0324,7.659,281.3378],[4.0014,7.657,294.8992],[3.9861,7.6543,319.5259],[3.9768,7.6468,290.5394],[3.9689,7.6438,296.5027],[3.953,7.6436,311.1414],[3.9065,7.6543,285.8288],[3.8714,7.6657,257.9668],[3.8444,7.6627,233.9829],[3.8408,7.6542,254.1472],[3.8422,7.6436,234.1061],[3.8349,7.6343,241.5882],[3.8016,7.6148,226.0016],[3.7909,7.6046,220.4773],[3.7827,7.5875,236.5393],[3.7908,7.5749,214.047],[3.8077,7.5594,232.2037],[3.8133,7.5494,262.0413],[3.8228,7.5375,278.6313],[3.827,7.527,309.081],[3.8454,7.4986,239.8116],[3.8563,7.4742,232.2363],[3.8614,7.4576,210.2836],[3.8617,7.4497,200.9633],[3.8616,7.4446,188.0412],[3.8551,7.4231,176.0848],[3.8545,7.4171,169.2664],[3.856,7.4121,191.071],[3.8591,7.4184,193.2603],[3.8569,7.4215,183.6487],[3.8579,7.4251,175.4611],[3.8719,7.4392,177.8929],[3.8831,7.4311,185.4018],[3.8934,7.4411,206.6001],[3.8999,7.4408,201.0268],[3.9096,7.4431,211.8707],[3.912,7.438,209.7099],[3.924,7.4268,221.9897],[3.9253,7.4288,219.7123],[3.9436,7.434,247.5011],[3.9499,7.4397,257.1688],[3.9702,7.4663,240.9181],[3.9759,7.4775,250.0675],[3.9791,7.4906,222.2858],[3.9883,7.4904,233.1594],[3.9857,7.5004,236.0703],[3.9859,7.5098,251.2155],[3.9994,7.5465,269.58],[4.0053,7.5556,280.515],[4.0396,7.582,267.9759],[4.0516,7.5949,252.4182],[4.0594,7.6002,247.2979],[4.0353,7.6213,263.1344],[4.0286,7.6504,272.7099],[4.0471,7.6681,243.4439],[4.0523,7.6795,242.5269]]]]}}