{"type":"Feature","properties":{"GID_2":"NGA.21.25_1","GID_0":"NGA","country":"Nigeria","GID_1":"NGA.21_1","province":"Katsina","NL_NAME_1":"NA","county":"Malumfashi","VARNAME_2":"NA","NL_NAME_2":"NA","TYPE_2":"LocalAuthority","ENGTYPE_2":"LocalAuthority","CC_2":"NA","HASC_2":"NA","name":"Malumfashi.county"},
"geometry":{"type": "MultiPolygon","coordinates": [[[[7.8309,11.9345,585.806],[7.8106,11.9332,596.7209],[7.7751,11.9406,612.1989],[7.7663,11.9378,617.5063],[7.7501,11.9427,628.5331],[7.7496,11.9708,634.7513],[7.7425,11.98,622.4747],[7.7215,11.9832,622.0656],[7.7119,11.9836,616.7171],[7.6994,11.9784,611.4865],[7.6706,11.9718,610.9144],[7.6403,11.971,593.0889],[7.6262,11.9771,586.1539],[7.6099,11.9776,576.1274],[7.5797,11.9688,579.5817],[7.573,11.9553,562.6758],[7.5729,11.9486,569.8191],[7.5772,11.9344,565.3311],[7.5835,11.9297,573.78],[7.5889,11.9301,565.6131],[7.6017,11.9346,567.6614],[7.6144,11.926,574.764],[7.6174,11.9258,576.0027],[7.6238,11.9166,575.0143],[7.6223,11.9081,586.0948],[7.6168,11.8965,592.5563],[7.6009,11.8753,581.5015],[7.5966,11.863,586.4984],[7.5754,11.8413,596.0392],[7.5529,11.8113,624.5436],[7.5337,11.7917,615.83],[7.5229,11.7765,619.7438],[7.5084,11.76,610.2513],[7.4891,11.688,632.1655],[7.4887,11.6713,637.8407],[7.4987,11.6618,652.7368],[7.5191,11.6505,646.5001],[7.5294,11.6501,640.7028],[7.5411,11.6555,632.7034],[7.5416,11.6618,638.3605],[7.5444,11.6683,642.8376],[7.5545,11.6802,649.5608],[7.5597,11.6929,641.6176],[7.5692,11.7043,640.2897],[7.578,11.7049,633.6381],[7.5834,11.7017,626.9059],[7.5944,11.7027,626.8291],[7.6148,11.7129,640.7535],[7.6219,11.7204,647.3648],[7.6307,11.7255,653.9958],[7.6426,11.7282,641.7145],[7.6558,11.7334,638.6232],[7.6725,11.7433,611.3123],[7.6888,11.7629,614.5247],[7.6925,11.7724,617.2341],[7.6964,11.7763,618.7689],[7.7002,11.7895,621.4332],[7.7055,11.7949,628.9087],[7.7113,11.7977,632.1069],[7.734,11.8155,631.4565],[7.7528,11.8273,610.9791],[7.7677,11.8321,597.3561],[7.7847,11.8403,585.1048],[7.7959,11.8423,584.2894],[7.8064,11.8473,586.0944],[7.822,11.8507,588.2709],[7.8295,11.8549,585.574],[7.8533,11.862,567.8975],[7.8343,11.9099,575.265],[7.8282,11.9147,582.326],[7.8278,11.9246,581.528],[7.8309,11.9345,585.806]]]]}}