{"type":"Feature","properties":{"GID_2":"NGA.9.5_1","GID_0":"NGA","country":"Nigeria","GID_1":"NGA.9_1","province":"CrossRiver","NL_NAME_1":"NA","county":"Bekwarra","VARNAME_2":"NA","NL_NAME_2":"NA","TYPE_2":"LocalAuthority","ENGTYPE_2":"LocalAuthority","CC_2":"NA","HASC_2":"NA","name":"Bekwarra.county"},
"geometry":{"type": "MultiPolygon","coordinates": [[[[8.9229,6.8111,98.013],[8.9224,6.8052,99.2232],[8.8959,6.7633,109.1288],[8.8716,6.7439,109.9591],[8.8367,6.7092,82.1916],[8.8212,6.6992,70.6748],[8.8211,6.6876,72.9159],[8.8232,6.6866,71.3013],[8.8231,6.6834,69.9368],[8.819,6.6738,63.3186],[8.822,6.6696,68.2216],[8.8268,6.6677,82.2618],[8.8315,6.6611,85.2674],[8.8289,6.657,65.6668],[8.8224,6.6521,66.4737],[8.8166,6.6374,59.0493],[8.8203,6.6367,62.4428],[8.8321,6.6146,63.2342],[8.825,6.602,84.8622],[8.8291,6.5824,105.7157],[8.8378,6.5652,121.871],[8.8825,6.5773,87.2206],[8.9027,6.586,99.9706],[8.9179,6.5979,109.2938],[8.9351,6.6059,103.5423],[8.9533,6.6169,120.0024],[8.9623,6.6202,119.1121],[8.9605,6.6196,119.1121],[8.964,6.6391,104.2708],[8.9629,6.6525,103.2623],[8.9702,6.6632,119.4856],[8.9725,6.6919,130.1534],[8.9776,6.694,139.2034],[8.976,6.7038,144.6908],[8.9819,6.7528,179.4753],[8.9794,6.769,159.2496],[8.9729,6.7793,130.6201],[8.9383,6.7999,102.222],[8.9229,6.8111,98.013]]]]}}