{"type": "Feature","bbox": [11.8138,10.0293,12.3524,10.3439],"geometry": {"type": "MultiPolygon","coordinates": [[[[12.0485,10.0293,206.3748],[12.0916,10.0322,268.0556],[12.1313,10.041,499.2338],[12.1653,10.0534,571.0099],[12.1935,10.0705,691.9568],[12.2209,10.1009,657.9507],[12.2428,10.1396,610.6771],[12.2812,10.1897,538.3025],[12.3147,10.2281,502.2739],[12.3428,10.2645,481.8907],[12.3524,10.2741,445.0066],[12.3357,10.2833,479.0377],[12.2999,10.288,469.2761],[12.2582,10.2753,454.9098],[12.2311,10.2633,402.5134],[12.2083,10.2577,291.5998],[12.1822,10.2659,271.282],[12.1578,10.2767,236.3136],[12.1188,10.31,415.5685],[12.0986,10.3345,541.2504],[12.0874,10.3354,636.7087],[12.0698,10.3439,561.2034],[12.0519,10.329,448.7689],[12.0184,10.3077,404.5453],[11.9948,10.2889,350.8907],[11.9756,10.2694,335.6883],[11.9578,10.2568,413.407],[11.9374,10.2449,349.3641],[11.9253,10.2404,342.9444],[11.8934,10.2345,310.1751],[11.8819,10.2379,291.3425],[11.8721,10.2447,278.6],[11.8628,10.2414,274.2323],[11.8247,10.2088,204.3817],[11.822,10.1939,202.5516],[11.8138,10.1893,199.2125],[11.8183,10.1833,198.1278],[11.8531,10.1056,258.5409],[11.8824,10.08,216.9653],[11.9138,10.0594,186.7143],[11.9438,10.0451,184.0801],[11.9866,10.0357,179.9955],[12.0485,10.0293,206.3748]]]]}
,"properties": {"GID_2": "NGA.8.28_1","GID_0": "NGA","country": "Nigeria","GID_1": "NGA.8_1","province": "Borno","NL_NAME_1": "NA","county": "Shani","VARNAME_2": "NA","NL_NAME_2": "NA","TYPE_2": "LocalAuthority","ENGTYPE_2": "LocalAuthority","CC_2": "NA","HASC_2": "NA","name": "Shani.county","area_km2": 1197.6808,"hist_schema_id": "Elevation0-9000","hist_area_km2": {"175": 31.0643,"200": 119.4145,"225": 158.3607,"250": 123.7947,"275": 104.3219,"300": 89.7317,"325": 79.4201,"350": 55.4008,"375": 37.1842,"400": 30.8615,"425": 29.4839,"450": 35.889,"475": 44.7986,"500": 51.3508,"525": 48.8279,"550": 36.6857,"575": 28.2969,"600": 24.0833,"625": 21.0164,"650": 18.6179,"675": 13.3585,"700": 9.0796,"725": 4.5504,"750": 1.6073,"775": 0.4592,"800": 0.0209}}}