{"type": "Feature","bbox": [3.4157,6.6501,3.7063,6.9597],"geometry": {"type": "MultiPolygon","coordinates": [[[[3.6787,6.6892,46.7794],[3.6855,6.7227,63.9075],[3.683,6.7382,42.7494],[3.6856,6.7419,23.3724],[3.6814,6.7585,16.0442],[3.6833,6.761,16.5174],[3.6866,6.7782,15.1665],[3.6917,6.7931,17.7428],[3.6964,6.8009,27.1737],[3.6986,6.808,32.2596],[3.7063,6.8168,24.5489],[3.7027,6.8178,24.7441],[3.6934,6.8265,38.9762],[3.6853,6.84,60.7082],[3.6824,6.8481,32.1853],[3.6725,6.861,76.8707],[3.6582,6.8734,63.8767],[3.6474,6.8782,42.0777],[3.6368,6.8913,62.0384],[3.6171,6.928,82.0228],[3.6056,6.9597,50.4691],[3.5911,6.949,105.9643],[3.5791,6.9349,98.1444],[3.5807,6.9176,102.5127],[3.5792,6.9098,121.0462],[3.5702,6.9109,121.0826],[3.5622,6.914,97.0935],[3.5545,6.9141,110.211],[3.546,6.8977,93.258],[3.5359,6.8889,83.3208],[3.5224,6.8833,50.3049],[3.5119,6.8764,59.0458],[3.5077,6.8716,55.5713],[3.5077,6.8675,56.8518],[3.5046,6.8645,46.3945],[3.5011,6.8627,38.2573],[3.4894,6.8689,35.1561],[3.4794,6.8636,30.0316],[3.4735,6.8528,20.0005],[3.4746,6.8477,18.9087],[3.4682,6.84,15.2529],[3.4693,6.8352,13.8814],[3.4674,6.8301,14.6052],[3.4569,6.8218,13.4696],[3.4476,6.7934,15.1115],[3.4354,6.782,11.7459],[3.4307,6.775,16.4938],[3.429,6.7692,11.6331],[3.432,6.7565,7.5588],[3.4242,6.7421,17.3096],[3.4157,6.7174,7.4246],[3.4178,6.6913,8.4034],[3.4159,6.6838,2.9914],[3.4185,6.6736,6.1749],[3.4216,6.6668,6.9507],[3.4297,6.657,3.4593],[3.4409,6.6501,3.6059],[3.4436,6.6511,4.7412],[3.4397,6.6537,7.2901],[3.4366,6.6593,7.1105],[3.4342,6.6695,9.0819],[3.4354,6.6745,6.8371],[3.4493,6.6872,5.1479],[3.4562,6.691,12.5113],[3.6787,6.6892,46.7794]]]]}
,"properties": {"GID_2": "NGA.28.20_1","GID_0": "NGA","country": "Nigeria","GID_1": "NGA.28_1","province": "Ogun","NL_NAME_1": "NA","county": "Shagamu","VARNAME_2": "NA","NL_NAME_2": "NA","TYPE_2": "LocalAuthority","ENGTYPE_2": "LocalAuthority","CC_2": "NA","HASC_2": "NA","name": "Shagamu.county","area_km2": 617.2271,"hist_schema_id": "Elevation0-9000","hist_area_km2": {"0": 41.9017,"25": 189.3997,"50": 187.2344,"75": 142.6333,"100": 52.8375,"125": 3.2205}}}