{"type":"Feature","properties":{"GID_2":"NGA.30.12_1","GID_0":"NGA","country":"Nigeria","GID_1":"NGA.30_1","province":"Osun","NL_NAME_1":"NA","county":"IfeNorth","VARNAME_2":"NA","NL_NAME_2":"NA","TYPE_2":"LocalAuthority","ENGTYPE_2":"LocalAuthority","CC_2":"NA","HASC_2":"NA","name":"Ife_North.county"},
"geometry":{"type": "MultiPolygon","coordinates": [[[[4.5611,6.9883,89.7505],[4.5733,6.9973,152.8793],[4.5826,6.9987,117.9929],[4.5953,7.0055,139.5985],[4.5518,7.0417,162.366],[4.5471,7.0531,184.9228],[4.5432,7.0704,186.5524],[4.5432,7.081,193.1459],[4.5389,7.0866,165.22],[4.5214,7.0867,133.1976],[4.5117,7.0905,117.4459],[4.4987,7.0841,133.7404],[4.4846,7.0816,142.6505],[4.4783,7.0906,166.4408],[4.4752,7.099,171.5114],[4.4681,7.1051,159.0401],[4.4595,7.1099,169.8484],[4.4544,7.1095,186.1101],[4.451,7.1121,178.2383],[4.4492,7.1167,182.0512],[4.4538,7.1279,192.5062],[4.4643,7.14,175.6793],[4.4688,7.1583,158.6178],[4.4752,7.1734,172.0848],[4.4756,7.1838,180.3971],[4.4784,7.1946,176.1102],[4.4819,7.201,191.0677],[4.4985,7.2129,207.9698],[4.5021,7.2193,209.0943],[4.5007,7.2239,196.8283],[4.5049,7.2261,188.4905],[4.5064,7.2478,187.534],[4.5122,7.2753,211.7575],[4.5094,7.2862,226.0031],[4.542,7.323,247.7883],[4.5483,7.3381,241.854],[4.5494,7.3477,301.7729],[4.5571,7.3575,250.3421],[4.5661,7.3728,243.7683],[4.5717,7.416,254.5006],[4.5676,7.4336,266.6252],[4.5675,7.444,258.2985],[4.5855,7.4702,298.3513],[4.5893,7.4904,274.0657],[4.5868,7.5102,282.3071],[4.5725,7.5522,288.1777],[4.5719,7.5603,288.007],[4.5648,7.5751,294.5017],[4.5546,7.5873,405.042],[4.5461,7.589,399.248],[4.5385,7.5885,294.0096],[4.5314,7.586,296.7134],[4.527,7.576,267.2255],[4.5195,7.5681,254.764],[4.5111,7.5636,256.8905],[4.5054,7.5549,272.565],[4.4893,7.5439,281.3571],[4.4438,7.5249,244.6238],[4.4324,7.5172,232.5422],[4.4269,7.5097,228.2713],[4.424,7.4978,221.7105],[4.4185,7.4868,218.4011],[4.3978,7.4791,212.6759],[4.3899,7.4712,193.2575],[4.3881,7.4622,202.5763],[4.3893,7.4491,191.4191],[4.3903,7.4391,193.4229],[4.394,7.4273,206.8642],[4.381,7.3948,176.8433],[4.3758,7.3869,188.7852],[4.3745,7.3751,190.6247],[4.3821,7.3614,168.4239],[4.3992,7.3468,166.7676],[4.4097,7.3411,164.0606],[4.413,7.3295,184.5705],[4.4029,7.3083,176.5233],[4.3959,7.3031,170.9526],[4.4039,7.2686,150.7653],[4.4061,7.2504,152.6613],[4.4053,7.2285,155.8036],[4.4037,7.226,144.1936],[4.3931,7.2271,139.783],[4.392,7.2168,134.697],[4.3916,7.2071,129.9115],[4.3941,7.1895,124.5864],[4.3919,7.1423,121.4074],[4.3902,7.1345,116.1498],[4.3946,7.1202,142.7751],[4.3859,7.1139,145.4011],[4.3864,7.097,122.9321],[4.3803,7.0912,115.2007],[4.3696,7.0731,124.9776],[4.3654,7.0596,109.9198],[4.3595,7.0512,111.7799],[4.3582,7.042,110.5766],[4.3655,7.0204,109.054],[4.3631,7.0129,106.3678],[4.3628,6.9963,88.8131],[4.3611,6.9909,96.8469],[4.3641,6.9805,75.3855],[4.3738,6.9668,69.1666],[4.3801,6.9703,76.6504],[4.3871,6.9781,74.1345],[4.4018,6.9859,93.3545],[4.4072,6.9925,91.0474],[4.4233,6.9984,81.3311],[4.441,6.9988,88.2451],[4.4506,6.9888,106.6065],[4.4596,6.9877,131.4914],[4.4728,6.9921,132.7783],[4.4779,6.9964,172.2246],[4.4937,7.0026,133.9638],[4.5164,7.0047,131.8324],[4.5288,7.0003,149.8911],[4.546,7.007,181.9097],[4.561,7.0067,94.5851],[4.566,7.0046,106.0705],[4.5611,6.9883,89.7505]]]]}}