{"type":"Feature","properties":{"GID_2":"NGA.37.11_1","GID_0":"NGA","country":"Nigeria","GID_1":"NGA.37_1","province":"Zamfara","NL_NAME_1":"NA","county":"Shinkafi","VARNAME_2":"NA","NL_NAME_2":"NA","TYPE_2":"LocalAuthority","ENGTYPE_2":"LocalAuthority","CC_2":"NA","HASC_2":"NA","name":"Shinkafi.county"},
"geometry":{"type": "MultiPolygon","coordinates": [[[[6.2603,13.0464,360.2948],[6.2759,13.0285,366.0424],[6.2832,13.018,361.5431],[6.2873,13.0085,356.4986],[6.2976,12.9942,342.574],[6.327,12.9654,370.8947],[6.3454,12.9528,373.3966],[6.3585,12.9481,374.9576],[6.3925,12.9488,354.1757],[6.4194,12.958,328.4519],[6.4551,12.9653,329.6435],[6.4743,12.9582,334.7811],[6.4743,12.9479,342.8],[6.4705,12.9369,342.4603],[6.4508,12.9198,339.3784],[6.4452,12.9122,341.0869],[6.4461,12.9079,341.3458],[6.444,12.8993,343.6694],[6.4615,12.886,337.3324],[6.4664,12.8768,339.1255],[6.4704,12.8746,342.6932],[6.4932,12.879,361.0364],[6.501,12.8852,373.3274],[6.5089,12.8879,376.1865],[6.5248,12.8873,377.2206],[6.5378,12.8931,388.9864],[6.5489,12.8923,394.273],[6.5581,12.8867,403.1152],[6.5808,12.8619,425.3433],[6.5889,12.8588,429.9135],[6.6098,12.8624,428.8906],[6.6341,12.8613,411.3291],[6.6483,12.8693,433.923],[6.6583,12.877,426.6171],[6.6678,12.8873,403.3795],[6.6732,12.9009,388.4695],[6.6716,12.9351,358.8329],[6.6746,12.9492,360.728],[6.6669,12.9686,367.2708],[6.6503,12.98,340.6162],[6.637,12.9953,338.4521],[6.6358,13.0058,344.8322],[6.638,13.0164,340.9534],[6.6366,13.0415,356.119],[6.6389,13.062,394.2203],[6.6356,13.0874,398.0551],[6.6331,13.0956,410.5199],[6.6108,13.0862,386.3178],[6.5969,13.0889,360.7296],[6.5673,13.0908,332.8809],[6.5186,13.0997,323.1273],[6.4939,13.0991,322.3789],[6.4715,13.1052,322.9053],[6.4572,13.1065,322.4295],[6.4445,13.112,324.3632],[6.4265,13.1169,323.0343],[6.3989,13.1495,321.697],[6.386,13.1529,321.9881],[6.3806,13.1526,323.7554],[6.3755,13.156,322.271],[6.3624,13.1602,323.8514],[6.3341,13.1638,331.1041],[6.2984,13.1613,328.9348],[6.282,13.1632,339.5737],[6.2755,13.1389,337.0719],[6.2776,13.1235,344.5045],[6.2733,13.0989,349.0587],[6.2724,13.0765,354.4652],[6.2626,13.0616,358.5686],[6.2603,13.0464,360.2948]]]]}}