{"type": "Feature","bbox": [4.6147,8.1706,5.449,9.0585],"geometry": {"type": "MultiPolygon","coordinates": [[[[5.449,8.4702,293.8897],[5.4462,8.4872,257.0525],[5.4458,8.504,250.8592],[5.4411,8.5262,233.6221],[5.4411,8.5407,237.7073],[5.419,8.6865,157.6427],[5.4071,8.6936,166.8732],[5.3917,8.7068,177.3418],[5.382,8.7115,149.3018],[5.3689,8.7122,114.4837],[5.3363,8.6911,145.8072],[5.3038,8.655,152.1072],[5.2904,8.6375,181.1245],[5.2757,8.6276,153.8518],[5.2673,8.6347,159.5006],[5.2419,8.6496,181.808],[5.2204,8.6587,196.2935],[5.1937,8.6737,239.5484],[5.1712,8.6803,266.3727],[5.1355,8.6982,204.7315],[5.1003,8.7375,173.8051],[5.0691,8.7869,136.6776],[5.0634,8.7927,153.3642],[5.0339,8.8096,212.8316],[4.9987,8.8266,237.9303],[4.9709,8.8351,343.9925],[4.962,8.8401,309.1922],[4.9498,8.8419,329.8819],[4.9277,8.8579,358.4947],[4.9177,8.8669,357.9695],[4.9097,8.8774,356.0056],[4.904,8.895,297.2547],[4.8998,8.9188,265.331],[4.906,8.9576,195.7637],[4.912,8.9713,178.7155],[4.9135,8.9803,155.4797],[4.9221,8.9998,148.4393],[4.9136,9.006,136.935],[4.9019,9.0249,109.4035],[4.8968,9.0392,99.2983],[4.8966,9.0585,91.9714],[4.8854,9.0501,92.2991],[4.882,9.0448,93.2814],[4.8768,9.0295,96.6931],[4.8771,9.0246,92.852],[4.873,9.0137,109.0179],[4.8733,9.0091,118.246],[4.867,8.9949,157.7344],[4.8588,8.9925,134.6889],[4.855,8.9861,149.9986],[4.8365,8.9699,140.1162],[4.8322,8.9589,153.3755],[4.8247,8.9516,186.2716],[4.812,8.8952,220.9727],[4.8158,8.8767,209.4574],[4.8149,8.8624,188.2543],[4.8161,8.8472,179.4652],[4.8273,8.8117,177.5666],[4.834,8.7989,211.2685],[4.8432,8.7859,189.8553],[4.8659,8.7601,221.3526],[4.8756,8.7367,254.347],[4.8758,8.7206,320.4585],[4.8816,8.7073,316.6372],[4.8893,8.6971,342.153],[4.897,8.6891,332.6842],[4.9155,8.6777,259.0309],[4.9191,8.683,233.7961],[4.923,8.6834,229.2771],[4.9569,8.6683,214.0686],[4.9601,8.6703,210.2008],[4.9657,8.6702,201.4461],[4.9748,8.6657,191.9856],[4.9808,8.6653,184.5178],[4.9852,8.6671,181.9301],[4.9944,8.6658,192.8452],[5.0017,8.6599,176.1596],[5.003,8.6546,173.0669],[5.002,8.6461,194.8586],[4.9827,8.6254,213.1056],[4.9699,8.6155,254.7298],[4.9215,8.5912,259.0924],[4.8877,8.5718,249.3439],[4.8389,8.5627,302.5417],[4.8196,8.5554,301.3066],[4.7577,8.5468,338.8541],[4.731,8.5357,336.8675],[4.7176,8.5244,401.8587],[4.7122,8.5164,390.7459],[4.7052,8.5126,371.3572],[4.6923,8.4983,328.3992],[4.6929,8.4919,338.0304],[4.7067,8.4746,406.6346],[4.7144,8.4692,409.2727],[4.7252,8.466,386.2199],[4.7355,8.4582,386.249],[4.7513,8.4517,359.9913],[4.7583,8.4442,348.64],[4.7667,8.4314,328.6927],[4.7732,8.411,333.3461],[4.7719,8.4007,350.401],[4.7612,8.3769,352.8435],[4.7539,8.3694,364.3444],[4.7402,8.3662,393.8923],[4.7023,8.3765,376.3663],[4.6894,8.3871,365.0727],[4.6745,8.3949,336.5879],[4.6645,8.3928,307.229],[4.6147,8.4065,367.1926],[4.6149,8.404,364.0697],[4.6251,8.3956,363.2826],[4.6299,8.3881,341.5421],[4.6417,8.3794,333.0983],[4.6503,8.3689,330.072],[4.6696,8.351,332.0673],[4.6936,8.323,399.6425],[4.7441,8.2219,401.0277],[4.7454,8.2041,395.3697],[4.7545,8.1913,393.6649],[4.7552,8.1814,381.2223],[4.7624,8.1706,391.8682],[4.7703,8.1862,388.8685],[4.7759,8.1923,391.9743],[4.7984,8.2097,401.5989],[4.8082,8.2215,412.8438],[4.8192,8.2446,373.0282],[4.8195,8.2586,393.6451],[4.8164,8.2709,379.3106],[4.8084,8.2878,364.0354],[4.8142,8.3313,372.8443],[4.8207,8.3473,367.8718],[4.8293,8.3559,366.5356],[4.8447,8.3522,370.8012],[4.8592,8.3603,373.0539],[4.8869,8.363,360.1079],[4.9213,8.3504,382.4401],[4.9436,8.3455,361.9132],[4.9661,8.3382,435.1993],[5.0199,8.3264,427.6366],[5.0416,8.3284,457.3098],[5.0595,8.3359,535.066],[5.0721,8.3465,391.3137],[5.0895,8.3557,413.997],[5.1235,8.3597,538.5992],[5.138,8.3578,443.9028],[5.158,8.3513,321.8433],[5.17,8.3391,318.9363],[5.1858,8.3174,278.5469],[5.1902,8.3026,277.9854],[5.1832,8.2688,398.5711],[5.1823,8.2557,412.9573],[5.1899,8.2288,414.4052],[5.1986,8.2243,413.7075],[5.2083,8.2274,385.1795],[5.2383,8.228,313.6839],[5.2472,8.2313,298.1374],[5.2693,8.2312,438.4053],[5.286,8.2383,310.5013],[5.2942,8.2437,322.9594],[5.2984,8.2496,306.7608],[5.2993,8.2599,284.6783],[5.3049,8.2656,360.0175],[5.3229,8.2916,266.0004],[5.342,8.3041,298.9837],[5.3527,8.3093,295.8625],[5.3457,8.3215,259.8011],[5.3485,8.3374,224.8376],[5.383,8.3764,294.3573],[5.4201,8.4395,291.3031],[5.449,8.4702,293.8897]]]]}
,"properties": {"GID_2": "NGA.24.5_1","GID_0": "NGA","country": "Nigeria","GID_1": "NGA.24_1","province": "Kwara","NL_NAME_1": "NA","county": "Ifelodun","VARNAME_2": "NA","NL_NAME_2": "NA","TYPE_2": "LocalAuthority","ENGTYPE_2": "LocalAuthority","CC_2": "NA","HASC_2": "NA","name": "Ifelodun.county","area_km2": 3477.385,"hist_schema_id": "Elevation0-9000","hist_area_km2": {"100": 7.643,"125": 12.358,"150": 80.552,"175": 201.525,"200": 317.961,"225": 408.724,"250": 475.648,"275": 449.947,"300": 319.285,"325": 254.611,"350": 259.796,"375": 273.139,"400": 249.655,"425": 78.932,"450": 37.04,"475": 15.919,"500": 8.977,"525": 8.138,"550": 9.124,"575": 6.104,"600": 2.223,"625": 0.084}}}