{"type":"Feature","properties":{"GID_2":"NGA.11.4_1","GID_0":"NGA","country":"Nigeria","GID_1":"NGA.11_1","province":"Ebonyi","NL_NAME_1":"NA","county":"Ebonyi","VARNAME_2":"NA","NL_NAME_2":"NA","TYPE_2":"LocalAuthority","ENGTYPE_2":"LocalAuthority","CC_2":"NA","HASC_2":"NA","name":"Ebonyi.county"},
"geometry":{"type": "MultiPolygon","coordinates": [[[[8.0691,6.6993,105.1535],[8.0757,6.6857,111.5132],[8.0811,6.6605,138.045],[8.086,6.6222,107.4934],[8.0913,6.6055,90.2861],[8.094,6.5455,83.6188],[8.0901,6.5329,74.3017],[8.0877,6.5141,66.8652],[8.0804,6.5043,61.7889],[8.0627,6.4484,62.1623],[8.0624,6.4306,78.1272],[8.0538,6.4255,79.28],[8.0437,6.4056,70.5476],[8.0358,6.3848,68.351],[8.0311,6.3671,65.3766],[8.0225,6.35,67.2797],[8.0236,6.329,80.4412],[8.021,6.3253,79.0643],[8.0207,6.3196,73.8584],[8.0321,6.3129,80.6477],[8.0394,6.3054,71.6307],[8.0419,6.3046,71.5533],[8.0501,6.3133,79.0517],[8.0568,6.3162,73.7272],[8.0679,6.3172,57.8038],[8.0857,6.318,65.1392],[8.1227,6.3098,36.0681],[8.1283,6.3134,46.896],[8.1305,6.3191,40.1771],[8.1384,6.327,35.4669],[8.1464,6.3322,43.6928],[8.1542,6.3351,40.2883],[8.1627,6.3326,50.255],[8.1636,6.3294,48.1104],[8.1627,6.343,52.8682],[8.1653,6.3498,46.4389],[8.1656,6.3653,48.832],[8.1675,6.3722,53.5213],[8.1536,6.4238,42.456],[8.1565,6.4433,65.6341],[8.1539,6.4678,59.8801],[8.1546,6.4878,72.6835],[8.1569,6.4972,72.6286],[8.1563,6.5074,85.8215],[8.1633,6.5241,91.9558],[8.1658,6.5349,100.2949],[8.1663,6.5793,99.1877],[8.1736,6.6184,106.1643],[8.1654,6.6531,86.3699],[8.1667,6.6636,85.5009],[8.1594,6.6986,74.8596],[8.143,6.7244,99.2117],[8.1381,6.7389,92.8086],[8.1224,6.7123,102.0352],[8.0914,6.6974,119.5584],[8.0691,6.6993,105.1535]]]]}}