{"type":"Feature","properties":{"GID_2":"NGA.20.17_1","GID_0":"NGA","country":"Nigeria","GID_1":"NGA.20_1","province":"Kano","NL_NAME_1":"NA","county":"Gezawa","VARNAME_2":"NA","NL_NAME_2":"NA","TYPE_2":"LocalAuthority","ENGTYPE_2":"LocalAuthority","CC_2":"NA","HASC_2":"NA","name":"Gezawa.county"},
"geometry":{"type": "MultiPolygon","coordinates": [[[[8.5776,11.9663,486.3893],[8.5814,11.9665,487.5997],[8.5859,11.9623,486.9805],[8.5945,11.9587,483.7896],[8.6202,11.951,490.4403],[8.6337,11.9545,481.0805],[8.6365,11.9601,475.4636],[8.6449,11.9657,470.847],[8.6625,11.9723,458.9017],[8.6795,11.9775,450.8142],[8.6951,11.9769,446.1258],[8.7055,11.9725,438.7056],[8.7202,11.9623,428.1971],[8.7238,11.9538,437.181],[8.7353,11.9456,431.5199],[8.7509,11.9432,419.9146],[8.7588,11.9467,418.1152],[8.7642,11.9532,419.5916],[8.783,11.9638,437.6435],[8.7921,11.9662,429.796],[8.8129,11.9666,418.0107],[8.8069,11.9749,425.8776],[8.8035,11.9836,421.1601],[8.8017,11.9921,422.4531],[8.8025,11.9995,419.9908],[8.8048,12.0028,424.1884],[8.8118,12.0049,426.1801],[8.8245,11.9986,422.1437],[8.8157,12.0151,425.705],[8.8042,12.0522,420.246],[8.796,12.066,429.2762],[8.7837,12.0677,437.3824],[8.7764,12.0813,447.3428],[8.7607,12.1019,441.8072],[8.7615,12.1188,431.5092],[8.7591,12.1293,438.0075],[8.7514,12.1367,447.4053],[8.7299,12.1425,423.8887],[8.7154,12.1388,414.7284],[8.7078,12.1401,411.6251],[8.7023,12.1424,411.1091],[8.7004,12.1461,414.696],[8.6888,12.1328,422.0],[8.6651,12.1109,422.0],[8.6472,12.1,427.1451],[8.6395,12.093,424.2619],[8.6347,12.0853,436.3734],[8.6339,12.0776,437.881],[8.6316,12.075,439.4514],[8.6316,12.0607,432.9114],[8.6296,12.0529,436.9397],[8.6312,12.0434,451.0982],[8.6217,12.0343,455.099],[8.6001,12.0261,460.0262],[8.5936,12.0216,461.3159],[8.5737,12.0127,478.3468],[8.5661,12.0114,477.2757],[8.5698,12.0064,476.9862],[8.5777,12.0009,474.7596],[8.5781,11.9921,472.6656],[8.5808,11.9882,476.1639],[8.5814,11.9785,481.7539],[8.5779,11.9752,485.7995],[8.5776,11.9663,486.3893]]]]}}