{"type":"Feature","properties":{"GID_2":"NGA.10.21_1","GID_0":"NGA","country":"Nigeria","GID_1":"NGA.10_1","province":"Delta","NL_NAME_1":"NA","county":"Ukwuani","VARNAME_2":"NA","NL_NAME_2":"NA","TYPE_2":"LocalAuthority","ENGTYPE_2":"LocalAuthority","CC_2":"NA","HASC_2":"NA","name":"Ukwuani.county"},
"geometry":{"type": "MultiPolygon","coordinates": [[[[6.1549,5.7403,16.866],[6.1605,5.7263,17.3371],[6.1752,5.7379,19.4477],[6.1884,5.7529,21.2531],[6.1904,5.7614,18.0293],[6.1853,5.7781,27.52],[6.1879,5.7806,30.3322],[6.1923,5.7796,17.9085],[6.1982,5.7726,18.7822],[6.2124,5.7656,17.9209],[6.2242,5.7705,23.702],[6.2372,5.7726,20.5772],[6.2465,5.7768,30.0262],[6.2541,5.7781,31.5209],[6.2684,5.7672,31.8748],[6.2841,5.7628,20.4787],[6.2924,5.7668,20.1307],[6.309,5.7804,20.4837],[6.316,5.7835,21.2113],[6.3278,5.7856,26.0325],[6.3547,5.7957,19.2987],[6.3582,5.7984,21.4734],[6.3609,5.8083,21.0161],[6.36,5.8366,28.0529],[6.354,5.8506,25.1124],[6.3422,5.8653,20.4069],[6.3344,5.8813,31.1024],[6.3177,5.9056,43.2871],[6.3064,5.9161,57.2125],[6.2985,5.9264,39.096],[6.2981,5.9301,40.8732],[6.2894,5.9344,39.7229],[6.2694,5.9543,38.6101],[6.2616,5.9572,39.2097],[6.2567,5.9568,39.9676],[6.2342,5.9613,64.921],[6.2203,5.9676,54.3313],[6.2107,5.9368,38.4659],[6.2146,5.9378,38.0704],[6.1916,5.9129,35.1874],[6.1897,5.9069,33.6707],[6.1717,5.8924,32.6669],[6.1634,5.8801,35.4298],[6.1345,5.8642,33.1067],[6.1137,5.8473,29.9509],[6.1097,5.8421,28.972],[6.114,5.8318,15.6734],[6.1137,5.8291,16.6274],[6.1227,5.8119,28.7538],[6.1286,5.7952,28.2372],[6.1284,5.7919,29.3344],[6.1331,5.7833,29.1223],[6.1348,5.7764,27.7401],[6.1549,5.7403,16.866]]]]}}