{"type": "Feature","bbox": [5.1742,13.4828,5.5841,13.892],"geometry": {"type": "MultiPolygon","coordinates": [[[[5.1909,13.744,275.3738],[5.1864,13.7206,283.3337],[5.1749,13.6803,282.6575],[5.1742,13.6637,298.124],[5.1772,13.6508,320.4499],[5.1813,13.6001,291.5797],[5.1903,13.5748,271.5261],[5.1911,13.5515,278.7872],[5.1933,13.5438,278.8924],[5.2036,13.5323,270.1793],[5.2171,13.5209,257.7872],[5.2436,13.5041,254.8232],[5.2518,13.5024,258.0835],[5.2703,13.5031,258.127],[5.2899,13.5067,264.1701],[5.3233,13.5272,278.7429],[5.3328,13.5479,278.399],[5.335,13.5576,277.6132],[5.3477,13.5797,280.1895],[5.3534,13.5929,287.789],[5.3582,13.598,289.8677],[5.3847,13.6131,299.4548],[5.3928,13.6157,299.0142],[5.4076,13.6136,303.8582],[5.4225,13.6011,303.6094],[5.4278,13.5921,313.8985],[5.4307,13.5756,314.7272],[5.4248,13.5462,307.4062],[5.4221,13.5228,301.1399],[5.4183,13.5138,300.1612],[5.4188,13.5092,303.939],[5.4243,13.5005,307.3879],[5.4357,13.4898,310.9043],[5.4428,13.4855,308.6218],[5.4534,13.4828,284.8395],[5.4618,13.4838,279.2369],[5.4853,13.4957,321.6676],[5.5262,13.5252,339.0868],[5.5502,13.5463,342.548],[5.5604,13.5519,342.7672],[5.569,13.5599,305.3676],[5.5824,13.5672,293.2774],[5.5841,13.57,296.637],[5.5777,13.5729,292.7328],[5.5599,13.5889,300.3101],[5.531,13.6568,328.4702],[5.5294,13.667,328.504],[5.5127,13.7173,323.9684],[5.5128,13.7268,323.5632],[5.5085,13.75,322.0187],[5.5066,13.7825,322.5634],[5.5118,13.8045,317.9232],[5.5157,13.8113,316.9458],[5.5162,13.8399,316.0664],[5.5242,13.8695,317.3843],[5.5363,13.8879,296.9239],[5.5265,13.892,291.4597],[5.4593,13.8739,298.3442],[5.4491,13.8733,281.6543],[5.4444,13.8699,281.7085],[5.3553,13.8449,290.9894],[5.2705,13.7461,262.307],[5.1909,13.744,275.3738]]]]}
,"properties": {"GID_2": "NGA.34.4_1","GID_0": "NGA","country": "Nigeria","GID_1": "NGA.34_1","province": "Sokoto","NL_NAME_1": "NA","county": "Gada","VARNAME_2": "NA","NL_NAME_2": "NA","TYPE_2": "LocalAuthority","ENGTYPE_2": "LocalAuthority","CC_2": "NA","HASC_2": "NA","name": "Gada.county","area_km2": 1192.2996,"hist_schema_id": "Elevation0-9000","hist_area_km2": {"250": 75.3656,"275": 351.3975,"300": 346.5282,"325": 385.1897,"350": 33.3862,"375": 0.4324}}}