{"type": "Feature","bbox": [9.4171,9.5353,9.8113,9.7307],"geometry": {"type": "MultiPolygon","coordinates": [[[[9.8113,9.6586,565.9308],[9.7965,9.682,556.184],[9.7013,9.7218,572.5253],[9.6609,9.7248,590.1808],[9.6345,9.7307,598.7812],[9.5957,9.7226,628.9634],[9.5671,9.719,639.9609],[9.5198,9.7234,715.0905],[9.5014,9.7119,714.5566],[9.4935,9.7015,700.1478],[9.4806,9.6784,743.2043],[9.4735,9.6559,809.6593],[9.4596,9.6302,810.6319],[9.4273,9.5865,1205.2643],[9.4238,9.5673,996.6508],[9.4171,9.5576,1039.5933],[9.4371,9.5487,746.7788],[9.4525,9.5473,729.3737],[9.5023,9.5353,718.7886],[9.5775,9.5389,691.0037],[9.6239,9.5439,657.8456],[9.6645,9.5447,663.845],[9.6893,9.5538,656.8218],[9.7354,9.5673,607.8102],[9.7527,9.6009,621.1125],[9.7633,9.6261,590.4197],[9.782,9.6508,566.8652],[9.8113,9.6586,565.9308]]]]}
,"properties": {"GID_2": "NGA.5.3_1","GID_0": "NGA","country": "Nigeria","GID_1": "NGA.5_1","province": "Bauchi","NL_NAME_1": "NA","county": "Bogoro","VARNAME_2": "NA","NL_NAME_2": "NA","TYPE_2": "LocalAuthority","ENGTYPE_2": "LocalAuthority","CC_2": "NA","HASC_2": "NA","name": "Bogoro.county","area_km2": 653.9,"hist_schema_id": "Elevation0-9000","hist_area_km2": {"550": 6.2494,"575": 38.6454,"600": 62.3477,"625": 83.5469,"650": 92.0976,"675": 80.7723,"700": 70.5728,"725": 65.5793,"750": 67.1483,"775": 36.8753,"800": 25.293,"825": 11.5595,"850": 2.8848,"875": 1.4007,"900": 1.0453,"925": 0.3554,"950": 0.4809,"975": 0.2509,"1000": 0.3345,"1025": 0.4181,"1050": 0.3972,"1075": 0.5854,"1100": 0.4181,"1125": 0.1673,"1150": 0.4809,"1175": 0.5854,"1200": 0.6481,"1225": 0.3763,"1250": 0.23,"1275": 0.4599,"1300": 0.3763,"1325": 0.1882,"1350": 0.2509,"1375": 0.5227,"1400": 0.1882,"1425": 0.0836,"1450": 0.0836}}}