{"type": "Feature","bbox": [7.2895,11.4089,7.5852,11.7934],"geometry": {"type": "MultiPolygon","coordinates": [[[[7.3476,11.5768,710.0851],[7.3579,11.5485,691.512],[7.3614,11.5324,693.0544],[7.3583,11.5137,683.4311],[7.3592,11.4957,692.8253],[7.3673,11.4766,699.7368],[7.3756,11.4638,707.3342],[7.3892,11.46,699.5208],[7.4005,11.467,686.4046],[7.4322,11.4962,680.5427],[7.4542,11.5075,657.7551],[7.469,11.513,639.735],[7.486,11.5155,625.9521],[7.4957,11.5084,651.627],[7.5014,11.4979,660.1536],[7.5036,11.4875,680.7688],[7.5021,11.4778,680.8038],[7.5026,11.4663,671.255],[7.5007,11.4559,680.4873],[7.5037,11.4374,723.0268],[7.5097,11.4267,709.5051],[7.5325,11.4198,706.4617],[7.5798,11.4089,657.9434],[7.5795,11.4122,655.108],[7.5719,11.4237,657.25],[7.5667,11.4375,643.7507],[7.5652,11.4492,649.6646],[7.5603,11.4616,666.0949],[7.5654,11.4808,641.2296],[7.5718,11.4918,626.4486],[7.5818,11.5004,614.8894],[7.5852,11.5076,619.293],[7.5814,11.5131,633.4647],[7.5634,11.5279,629.8458],[7.5645,11.5348,641.0333],[7.5552,11.5479,619.455],[7.5389,11.5662,609.9156],[7.5367,11.5751,610.142],[7.5386,11.5927,618.9459],[7.5354,11.6072,615.8207],[7.5432,11.6422,631.8546],[7.5411,11.6555,632.7034],[7.5294,11.6501,640.7028],[7.5191,11.6505,646.5001],[7.4987,11.6618,652.7368],[7.4926,11.6689,675.3687],[7.4872,11.6723,635.4516],[7.46,11.7059,610.3179],[7.4323,11.725,595.9744],[7.4287,11.7321,599.3544],[7.4239,11.7506,582.4368],[7.4115,11.7786,570.1091],[7.407,11.785,568.8263],[7.3892,11.7934,586.4917],[7.3654,11.7885,576.0434],[7.3418,11.7878,591.5771],[7.3299,11.7844,594.1566],[7.3055,11.7821,570.4808],[7.2906,11.748,586.7819],[7.2895,11.742,582.7219],[7.2914,11.7383,583.8],[7.297,11.7397,594.3065],[7.3147,11.7316,610.9687],[7.3258,11.7225,618.1687],[7.3331,11.6937,624.1212],[7.3347,11.651,646.0967],[7.3322,11.624,664.9524],[7.3366,11.6069,690.9072],[7.3476,11.5768,710.0851]]]]}
,"properties": {"GID_2": "NGA.21.1_1","GID_0": "NGA","country": "Nigeria","GID_1": "NGA.21_1","province": "Katsina","NL_NAME_1": "NA","county": "Bakori","VARNAME_2": "NA","NL_NAME_2": "NA","TYPE_2": "LocalAuthority","ENGTYPE_2": "LocalAuthority","CC_2": "NA","HASC_2": "NA","name": "Bakori.county","area_km2": 668.645,"hist_schema_id": "Elevation0-9000","hist_area_km2": {"575": 16.3766,"600": 82.6627,"625": 171.8957,"650": 196.1319,"675": 148.9786,"700": 50.7708,"725": 1.8287}}}