{"type": "Feature","bbox": [5.5382,12.2919,6.1681,12.7911],"geometry": {"type": "MultiPolygon","coordinates": [[[[5.7069,12.706,309.74],[5.6711,12.6477,308.2819],[5.6438,12.6133,294.042],[5.6221,12.5804,302.0561],[5.5916,12.5508,281.1492],[5.58,12.546,284.3855],[5.5421,12.5204,294.6147],[5.5382,12.5125,292.5406],[5.5427,12.492,305.5037],[5.5429,12.4747,303.3437],[5.5508,12.4603,310.6335],[5.5661,12.4011,319.7317],[5.5676,12.3748,326.8295],[5.5766,12.3336,321.6405],[5.5666,12.2919,309.3308],[5.6056,12.2986,315.1412],[5.6749,12.301,327.5159],[5.6946,12.2992,334.1063],[5.7137,12.2996,358.6283],[5.7827,12.3047,339.5829],[5.8235,12.3168,339.4435],[5.8696,12.3208,344.2939],[5.8908,12.3248,343.0536],[5.911,12.3321,336.7068],[5.929,12.3311,348.0581],[5.9805,12.346,383.7978],[5.9731,12.3577,378.307],[5.972,12.4129,352.5427],[5.975,12.4213,349.0066],[5.9815,12.4322,349.7442],[5.9897,12.4409,357.8414],[6.0366,12.4766,358.413],[6.063,12.4999,354.9931],[6.0874,12.5412,329.1399],[6.1018,12.5592,310.2392],[6.1318,12.59,328.5559],[6.1681,12.6191,337.5071],[6.1594,12.6308,328.7224],[6.1441,12.6593,311.4246],[6.1103,12.6987,323.9366],[6.0905,12.7401,349.603],[6.0817,12.767,353.0011],[6.0653,12.7911,332.8926],[6.0634,12.786,337.0169],[6.0417,12.7702,341.0864],[5.9901,12.7482,325.5546],[5.9764,12.7441,324.5045],[5.9242,12.7396,306.2527],[5.8999,12.739,289.9066],[5.8437,12.7315,282.3552],[5.8145,12.7316,301.1696],[5.7516,12.7235,313.8743],[5.729,12.7202,315.6573],[5.7162,12.7166,314.5397],[5.7069,12.706,309.74]]]]}
,"properties": {"GID_2": "NGA.37.2_1","GID_0": "NGA","country": "Nigeria","GID_1": "NGA.37_1","province": "Zamfara","NL_NAME_1": "NA","county": "Bakura","VARNAME_2": "NA","NL_NAME_2": "NA","TYPE_2": "LocalAuthority","ENGTYPE_2": "LocalAuthority","CC_2": "NA","HASC_2": "NA","name": "Bakura.county","area_km2": 2366.6,"hist_schema_id": "Elevation0-9000","hist_area_km2": {"275": 94.368,"300": 891.484,"325": 992.438,"350": 366.296,"375": 19.757,"400": 1.491,"425": 0.766}}}