{"type":"Feature","properties":{"GID_2":"NGA.18.6_1","GID_0":"NGA","country":"Nigeria","GID_1":"NGA.18_1","province":"Jigawa","NL_NAME_1":"NA","county":"Dutse","VARNAME_2":"NA","NL_NAME_2":"NA","TYPE_2":"LocalAuthority","ENGTYPE_2":"LocalAuthority","CC_2":"NA","HASC_2":"NA","name":"Dutse.county"},
"geometry":{"type": "MultiPolygon","coordinates": [[[[9.4496,11.5796,413.5595],[9.4441,11.587,413.563],[9.4419,11.6156,402.8519],[9.4351,11.6271,403.8629],[9.4261,11.6381,417.9765],[9.4133,11.6502,419.4645],[9.4049,11.6555,432.3938],[9.395,11.6564,433.5136],[9.3881,11.6606,439.6237],[9.3853,11.6739,439.5157],[9.3904,11.689,437.2701],[9.3851,11.7014,442.8763],[9.382,11.7145,441.2598],[9.379,11.7377,481.919],[9.3839,11.7688,442.8527],[9.3901,11.7862,424.9769],[9.3963,11.8183,406.2559],[9.4031,11.8271,401.6326],[9.4081,11.8418,397.9826],[9.4201,11.891,390.8138],[9.4049,11.8878,390.9971],[9.3971,11.8902,390.1936],[9.3783,11.9081,387.8951],[9.3681,11.9385,389.1411],[9.3653,11.9412,388.9785],[9.3655,11.9536,386.9636],[9.352,11.972,385.8506],[9.3418,11.9907,385.5058],[9.337,11.9951,383.3112],[9.2769,12.0238,387.0285],[9.2675,12.0123,386.7835],[9.2182,11.9619,392.5241],[9.2051,11.9508,396.1326],[9.2069,11.9449,396.111],[9.2101,11.9059,404.2061],[9.193,11.8765,413.2154],[9.1898,11.844,425.4728],[9.1646,11.8057,423.4167],[9.1355,11.7693,426.0182],[9.1276,11.736,429.635],[9.1307,11.7049,429.9846],[9.1325,11.7029,430.3801],[9.1795,11.704,426.0718],[9.2124,11.7072,413.8413],[9.2301,11.6914,426.1313],[9.2382,11.6597,442.3786],[9.262,11.6159,451.4936],[9.289,11.5885,441.8185],[9.3077,11.5738,421.6888],[9.3416,11.5654,423.0479],[9.3559,11.547,414.4825],[9.3339,11.5249,416.5488],[9.3373,11.5232,415.8346],[9.3488,11.5199,415.7607],[9.362,11.5189,426.9529],[9.3766,11.5226,427.6917],[9.3861,11.5271,423.9249],[9.3952,11.5335,424.9605],[9.417,11.5562,424.5527],[9.4496,11.5796,413.5595]]]]}}