{"type": "Feature","bbox": [7.0811,4.7644,7.493,4.9167],"geometry": {"type": "MultiPolygon","coordinates": [[[[7.3223,4.8796,5.6847],[7.3021,4.8765,11.5836],[7.2837,4.8801,11.4834],[7.2657,4.8698,9.3849],[7.2574,4.8674,9.2729],[7.2282,4.866,16.4702],[7.2152,4.8603,11.2982],[7.1989,4.8617,13.9478],[7.1862,4.8647,15.1889],[7.1628,4.8875,17.4992],[7.1532,4.9054,16.7585],[7.1548,4.9167,16.801],[7.1387,4.9165,13.5445],[7.1317,4.9146,23.2028],[7.1285,4.9003,25.0252],[7.1209,4.9,23.4044],[7.0811,4.8912,17.9501],[7.0972,4.8771,18.4652],[7.1007,4.8688,21.7714],[7.1161,4.845,18.2994],[7.124,4.8384,17.9751],[7.1367,4.8352,22.7735],[7.162,4.8221,23.7744],[7.1754,4.8177,19.795],[7.1897,4.8074,20.3372],[7.2171,4.8011,19.031],[7.2404,4.7874,14.7032],[7.2507,4.7835,21.8549],[7.2739,4.7804,20.6648],[7.2808,4.777,23.3715],[7.2931,4.7644,16.7916],[7.3134,4.7684,22.6618],[7.3191,4.7768,24.0716],[7.3289,4.7833,24.6549],[7.3414,4.7889,20.1611],[7.3571,4.7985,21.0655],[7.3768,4.8056,32.6554],[7.403,4.8033,22.3695],[7.4111,4.8006,25.126],[7.4195,4.7913,23.2194],[7.4335,4.7873,22.2191],[7.4485,4.7875,22.1237],[7.4645,4.7937,24.9806],[7.493,4.8154,12.0062],[7.4583,4.8464,13.2215],[7.4295,4.8621,13.1624],[7.4109,4.8692,12.6468],[7.3817,4.8623,11.1757],[7.3574,4.8694,9.2233],[7.3287,4.8821,11.5306],[7.3223,4.8796,5.6847]]]]}
,"properties": {"GID_2": "NGA.33.21_1","GID_0": "NGA","country": "Nigeria","GID_1": "NGA.33_1","province": "Rivers","NL_NAME_1": "NA","county": "Oyigbo","VARNAME_2": "NA","NL_NAME_2": "NA","TYPE_2": "LocalAuthority","ENGTYPE_2": "LocalAuthority","CC_2": "NA","HASC_2": "NA","name": "Oyigbo.county","area_km2": 343.0981,"hist_schema_id": "Elevation0-9000","hist_area_km2": {"0": 43.1601,"25": 298.1634,"50": 1.7746}}}