{"type":"Feature","properties":{"GID_2":"NGA.3.18_1","GID_0":"NGA","country":"Nigeria","GID_1":"NGA.3_1","province":"AkwaIbom","NL_NAME_1":"NA","county":"MkpatEnin","VARNAME_2":"NA","NL_NAME_2":"NA","TYPE_2":"LocalAuthority","ENGTYPE_2":"LocalAuthority","CC_2":"NA","HASC_2":"NA","name":"Mkpat_Enin.county"},
"geometry":{"type": "MultiPolygon","coordinates": [[[[7.6807,4.5229,3.6084],[7.6843,4.5285,4.4136],[7.691,4.529,2.2055],[7.7026,4.5382,1.905],[7.7046,4.5376,1.3067],[7.6915,4.5282,7.9968],[7.6849,4.5279,2.466],[7.6801,4.5193,0.0],[7.6857,4.519,4.9047],[7.6893,4.5165,4.7243],[7.6974,4.516,4.6674],[7.7004,4.5199,14.2215],[7.7172,4.5309,13.1295],[7.7339,4.5366,16.3088],[7.7405,4.5425,13.8431],[7.7518,4.5464,10.2173],[7.7699,4.5489,11.9219],[7.8161,4.5494,15.882],[7.8125,4.5602,12.2762],[7.8042,4.5762,13.6251],[7.803,4.5861,14.8937],[7.7979,4.5987,15.3902],[7.7975,4.6035,14.5558],[7.8012,4.6196,11.7597],[7.822,4.6476,19.9561],[7.8239,4.6544,26.0285],[7.8229,4.6611,11.9478],[7.8081,4.6748,7.4379],[7.8031,4.6813,9.8194],[7.8042,4.6903,23.5675],[7.8117,4.7093,42.4596],[7.8074,4.7169,31.7652],[7.8085,4.7291,29.5695],[7.8002,4.7385,31.0484],[7.7989,4.7486,36.4563],[7.7969,4.751,41.8985],[7.7935,4.7665,30.3408],[7.7882999999999996,4.7765,43.613],[7.7913,4.793,38.6324],[7.7958,4.7985,40.9728],[7.8026,4.802,39.7129],[7.8045,4.8085,44.1987],[7.8072,4.8298,45.4471],[7.8062,4.84,45.449],[7.8024,4.8507,47.623],[7.7999,4.8509,46.4024],[7.7963,4.8581,43.2174],[7.7986,4.8685,27.0246],[7.8058,4.8732,16.3856],[7.8083,4.8772,22.583],[7.7941,4.8757,43.4951],[7.7905,4.8815,43.4029],[7.7867,4.8754,49.7766],[7.784,4.8655,46.9026],[7.7644,4.8386,43.5546],[7.7548,4.8282,45.6699],[7.7441,4.8118,35.8948],[7.7296,4.7984,30.5665],[7.7216,4.7866,32.1929],[7.7059,4.7571,31.4334],[7.6872,4.7321,25.8979],[7.6787,4.7175,29.7393],[7.6712,4.7112,18.2867],[7.6621,4.6999,26.5028],[7.6768,4.6993,16.2871],[7.6816,4.6976,22.1871],[7.6852,4.692,24.5131],[7.6851,4.6863,22.2711],[7.6913,4.6832,22.3979],[7.7002,4.6906,25.464],[7.706,4.6799,21.0209],[7.7088,4.6813,23.638],[7.7135,4.6893,22.2143],[7.7179,4.6848,23.0685],[7.7186,4.6749,25.8697],[7.7172,4.6708,24.2871],[7.7136,4.6635,17.0426],[7.7006,4.648,15.8293],[7.6996,4.6411,16.4415],[7.7019,4.6399,15.3533],[7.7023,4.6358,14.8624],[7.7097,4.6361,22.2481],[7.7247,4.6223,26.313],[7.7354,4.6149,19.058],[7.7394,4.6043,14.5039],[7.734,4.5859,14.6075],[7.73,4.5775,14.0976],[7.717,4.562,12.9954],[7.7086,4.5555,12.5631],[7.6919,4.5378,10.2577],[7.6847,4.5329,9.3078],[7.6804,4.5246,6.3489],[7.6807,4.5229,3.6084]]]]}}