{"type":"Feature","properties":{"GID_2":"NGA.4.20_1","GID_0":"NGA","country":"Nigeria","GID_1":"NGA.4_1","province":"Anambra","NL_NAME_1":"NA","county":"OrumbaSouth","VARNAME_2":"NA","NL_NAME_2":"NA","TYPE_2":"LocalAuthority","ENGTYPE_2":"LocalAuthority","CC_2":"NA","HASC_2":"NA","name":"Orumba_South.county"},
"geometry":{"type": "MultiPolygon","coordinates": [[[[7.3637,6.0207,285.8017],[7.3503,6.0235,263.5298],[7.3509,6.0322,256.371],[7.342,6.0397,200.1796],[7.3329,6.0441,177.0121],[7.3153,6.0455,125.4703],[7.2885,6.03,140.2181],[7.2768,6.0328,149.1143],[7.2689,6.0389,134.6492],[7.261,6.0327,145.1111],[7.24,6.0314,106.5251],[7.2269,6.0332,134.6832],[7.2084,6.0299,119.9827],[7.1885,6.0295,72.3348],[7.1772,6.0322,65.1575],[7.1632999999999996,6.0288,88.1129],[7.1461,6.0176,181.5744],[7.1371,6.002,138.3551],[7.1358,5.9968,163.0982],[7.1369,5.9795,160.781],[7.1349,5.968,183.1434],[7.1313,5.9597,224.6047],[7.1319,5.9369,260.1905],[7.1236,5.9153,321.2295],[7.1641,5.9034,164.9181],[7.1862,5.9081,132.4686],[7.2314,5.9247,129.9641],[7.2501,5.9263,145.3077],[7.2706,5.9623,125.1196],[7.2823,5.972,159.4679],[7.2926,5.9834,174.8298],[7.3088,5.9951,194.5677],[7.3348,6.0094,218.9465],[7.3637,6.0207,285.8017]]]]}}