{"type":"Feature","properties":{"GID_2":"NGA.24.4_1","GID_0":"NGA","country":"Nigeria","GID_1":"NGA.24_1","province":"Kwara","NL_NAME_1":"NA","county":"Ekiti","VARNAME_2":"NA","NL_NAME_2":"NA","TYPE_2":"LocalAuthority","ENGTYPE_2":"LocalAuthority","CC_2":"NA","HASC_2":"NA","name":"Ekiti.county"},
"geometry":{"type": "MultiPolygon","coordinates": [[[[5.536,8.0696,325.3622],[5.5447,8.077,329.9335],[5.5482,8.0929,320.1072],[5.5415,8.1223,306.4865],[5.5349,8.1316,339.7289],[5.5168,8.1391,377.8388],[5.497,8.1542,357.3682],[5.4726,8.1634,348.1442],[5.458,8.1731,331.5836],[5.4562,8.1812,356.2205],[5.4482,8.1809,342.3775],[5.416,8.1736,309.5248],[5.3967,8.1652,320.4941],[5.3811,8.1678,305.6782],[5.3404,8.1484,314.6929],[5.3248,8.1385,335.8266],[5.3065,8.1331,496.3229],[5.2767,8.1336,413.372],[5.2645,8.1313,515.3795],[5.2314,8.1134,517.6594],[5.2013,8.0932,469.8966],[5.1852,8.0794,497.1665],[5.176,8.068,486.1026],[5.1766,8.0595,508.9038],[5.1834,8.0382,512.8958],[5.1926,8.0249,488.5814],[5.1919,8.0224,492.0448],[5.1968,8.0144,494.4456],[5.1944,8.0016,498.7159],[5.2088,7.9796,530.2708],[5.2241,7.9717,536.6349],[5.2618,7.9755,545.8466],[5.2825,7.9675,584.7613],[5.2988,7.9654,553.5846],[5.3139,7.9681,560.1305],[5.3304,7.9748,489.615],[5.3456,7.9722,433.0206],[5.3513,7.9659,426.6873],[5.3564,7.9815,407.0407],[5.368,8.0007,409.34],[5.3633,8.0109,385.9177],[5.3719,8.0297,368.3574],[5.3719,8.0405,350.5208],[5.3766,8.0467,350.6927],[5.3931,8.0556,360.1093],[5.4096,8.062,390.7786],[5.4429,8.0681,427.6239],[5.4681,8.0642,410.9929],[5.5169,8.0715,342.4473],[5.5215,8.0689,332.8891],[5.536,8.0696,325.3622]]]]}}