{"type":"Feature","properties":{"GID_2":"NGA.5.4_1","GID_0":"NGA","country":"Nigeria","GID_1":"NGA.5_1","province":"Bauchi","NL_NAME_1":"NA","county":"Damban","VARNAME_2":"NA","NL_NAME_2":"NA","TYPE_2":"LocalAuthority","ENGTYPE_2":"LocalAuthority","CC_2":"NA","HASC_2":"NA","name":"Damban.county"},
"geometry":{"type": "MultiPolygon","coordinates": [[[[10.9459,11.3772,460.2303],[10.9528,11.4025,494.8522],[10.9547,11.4331,500.3884],[10.9718,11.4766,494.2723],[10.9767,11.5078,487.2835],[10.9754,11.5548,471.8423],[10.9589,11.6062,447.5438],[10.932,11.669,425.3504],[10.9089,11.7304,409.7936],[10.8956,11.7601,401.1808],[10.8872,11.7733,399.9207],[10.8337,11.7487,396.1579],[10.7843,11.7375,396.2716],[10.7116,11.7065,382.3485],[10.6514,11.6712,395.9177],[10.6424,11.6619,393.5794],[10.633,11.6482,396.1053],[10.6328,11.6351,398.4927],[10.6356,11.6192,399.8963],[10.6449,11.6073,404.2279],[10.6835,11.5448,433.7339],[10.6815,11.5367,436.597],[10.6847,11.536,437.2295],[10.6919,11.5281,441.7591],[10.6989,11.5231,444.1105],[10.7046,11.5217,444.6882],[10.7133,11.5123,446.9839],[10.7295,11.4999,451.7234],[10.7451,11.4934,452.1273],[10.7674,11.4961,453.2007],[10.7741,11.493,456.3347],[10.7783,11.4791,459.6752],[10.786,11.4387,427.0505],[10.7981,11.4429,435.1555],[10.8293,11.4409,438.5533],[10.8476,11.4438,449.4694],[10.86,11.4404,450.0215],[10.8822,11.4126,445.59],[10.9228,11.3869,468.0101],[10.9357,11.3798,475.6223],[10.9459,11.3772,460.2303]]]]}}