{"type": "Feature","bbox": [5.5091,6.7115,5.9664,7.407],"geometry": {"type": "MultiPolygon","coordinates": [[[[5.9664,7.3399,260.6986],[5.9596,7.3391,274.377],[5.9472,7.3418,297.8024],[5.9251,7.3426,276.1534],[5.9095,7.3498,283.1162],[5.9009,7.3571,315.6172],[5.8837,7.3664,324.6751],[5.8513,7.3884,356.4758],[5.8368,7.3932,377.4503],[5.8282,7.398,367.3181],[5.8202,7.407,334.9327],[5.8053,7.3947,451.2772],[5.8001,7.3876,330.5302],[5.7832,7.3713,295.4205],[5.7415,7.3464,283.7731],[5.7294,7.3377,252.5025],[5.7274,7.3287,235.3556],[5.7159,7.3201,219.0445],[5.692,7.309,235.8658],[5.6622,7.3063,211.7201],[5.646,7.3077,228.1782],[5.6457,7.3018,226.0148],[5.6573,7.2887,202.515],[5.6594,7.2734,285.6555],[5.6673,7.2624,261.6386],[5.6737,7.2589,262.9677],[5.6786,7.2355,262.972],[5.7012,7.2338,275.1512],[5.6989,7.2214,248.6296],[5.7036,7.1978,223.1015],[5.7148,7.1911,218.852],[5.7298,7.1925,205.2407],[5.7366,7.1885,207.524],[5.7315,7.1819,226.0216],[5.7205,7.1763,228.6797],[5.7102,7.1682,261.3259],[5.7004,7.157,277.2767],[5.6925,7.1528,295.2573],[5.6807,7.141,258.328],[5.6778,7.1325,293.5947],[5.6731,7.1271,274.256],[5.6756,7.1199,272.8636],[5.6882,7.1059,223.2125],[5.6831,7.1,206.9655],[5.6747,7.0962,208.2709],[5.659,7.0946,233.3813],[5.6565,7.0963,232.1133],[5.6472,7.0943,238.725],[5.6381,7.0871,262.1953],[5.6306,7.0783,238.0022],[5.6246,7.0671,216.3356],[5.6255,7.0636,218.1637],[5.6208,7.0568,222.8761],[5.6174,7.0472,212.1567],[5.6212,7.0224,190.814],[5.6143,7.0131,203.7451],[5.6014,7.011,182.3828],[5.5752,7.0025,164.2435],[5.57,6.9853,169.302],[5.5692,6.9643,155.6382],[5.5709,6.9396,104.2817],[5.5531,6.8826,48.318],[5.5533,6.8784,46.2701],[5.5578,6.8682,107.273],[5.5614,6.8649,51.896],[5.562,6.858,96.2222],[5.5568,6.8505,64.9391],[5.5379,6.842,94.5777],[5.5416,6.8361,48.478],[5.5396,6.8304,45.0662],[5.5337,6.8217,41.0283],[5.514,6.8057,85.5584],[5.5091,6.7998,101.7918],[5.5163,6.7761,112.9523],[5.5256,6.763,105.827],[5.5307,6.736,42.5606],[5.539,6.7227,41.3836],[5.543,6.7115,33.2786],[5.555,6.712,37.7101],[5.5731,6.7325,26.1285],[5.5798,6.7333,30.2359],[5.5887,6.74,31.6579],[5.6005,6.7541,35.6075],[5.6159,6.7631,36.8626],[5.6375,6.7611,36.7141],[5.6448,6.7545,39.1114],[5.6568,6.7373,51.3435],[5.6698,6.7315,57.027],[5.6794,6.7378,55.8431],[5.7131,6.7481,38.4995],[5.7212,6.7675,38.1695],[5.7329,6.7895,50.1745],[5.7375,6.8028,52.7234],[5.7476,6.8686,118.8519],[5.7529,6.8828,130.088],[5.7569,6.8869,138.6002],[5.7711,6.8832,123.3533],[5.7761,6.8787,106.2862],[5.7785,6.8861,122.551],[5.7761,6.8937,144.5997],[5.7763,6.905,139.5467],[5.781,6.9079,125.4056],[5.7851,6.9083,149.063],[5.7905,6.9132999999999996,156.0377],[5.7906,6.9191,79.9303],[5.788,6.9265,72.7712],[5.7689,6.9471,136.5425],[5.774,6.9653,151.883],[5.7697,6.9686,134.5832],[5.7696,6.9783,138.8487],[5.7754,7.0038,151.7119],[5.7787,7.0111,160.7934],[5.7789,7.0219,157.9053],[5.7845,7.0276,141.1321],[5.7872,7.035,121.2446],[5.7989,7.0488,161.1149],[5.8174,7.0617,112.0355],[5.8234,7.0606,133.6308],[5.8294,7.0744,124.9989],[5.8281,7.0806,133.2505],[5.8244,7.0821,128.1484],[5.8243,7.0878,137.159],[5.8269,7.0952,179.7741],[5.8323,7.1002,142.9103],[5.8396,7.1245,146.1454],[5.8599,7.1631,153.6629],[5.865,7.1827,242.6774],[5.8764,7.1991,183.2961],[5.8783,7.2048,199.4788],[5.874,7.2086,223.3526],[5.874,7.2215,186.5492],[5.8816,7.2382,240.405],[5.8967,7.2562,212.6053],[5.9035,7.2604,203.6672],[5.9101,7.2677,191.591],[5.92,7.2717,215.2951],[5.935,7.2816,234.2344],[5.9447,7.2847,220.1909],[5.9528,7.299,264.7319],[5.9607,7.3321,260.4541],[5.9664,7.3399,260.6986]]]]}
,"properties": {"GID_2": "NGA.29.17_1","GID_0": "NGA","country": "Nigeria","GID_1": "NGA.29_1","province": "Ondo","NL_NAME_1": "NA","county": "Ose","VARNAME_2": "NA","NL_NAME_2": "NA","TYPE_2": "LocalAuthority","ENGTYPE_2": "LocalAuthority","CC_2": "NA","HASC_2": "NA","name": "Ose.county","area_km2": 1543.488,"hist_schema_id": "Elevation0-9000","hist_area_km2": {"25": 49.099,"50": 95.521,"75": 72.333,"100": 93.022,"125": 153.169,"150": 199.28,"175": 177.798,"200": 194.021,"225": 177.537,"250": 123.109,"275": 78.237,"300": 48.832,"325": 38.652,"350": 24.372,"375": 10.682,"400": 4.058,"425": 1.682,"450": 0.862,"475": 0.61,"500": 0.252,"525": 0.21,"550": 0.126,"575": 0.021}}}