{"type":"Feature","properties":{"GID_2":"NGA.2.12_1","GID_0":"NGA","country":"Nigeria","GID_1":"NGA.2_1","province":"Adamawa","NL_NAME_1":"NA","county":"Mayo-Belwa","VARNAME_2":"NA","NL_NAME_2":"NA","TYPE_2":"LocalAuthority","ENGTYPE_2":"LocalAuthority","CC_2":"NA","HASC_2":"NA","name":"Mayo-Belwa.county"},
"geometry":{"type": "MultiPolygon","coordinates": [[[[11.8274,9.1847,321.0319],[11.8237,9.1675,360.6824],[11.826,9.1239,563.5444],[11.8292,9.1058,580.8784],[11.8478,9.0812,472.1426],[11.8722,9.0586,421.7709],[11.8968,9.0455,377.1469],[11.939,9.0349,343.8909],[11.9717,8.9734,314.729],[11.9759,8.9443,350.0315],[11.9711,8.9161,365.9589],[11.9598,8.8861,378.1523],[11.9307,8.8365,481.9717],[11.9174,8.8068,506.0302],[11.8973,8.7674,518.8955],[11.8872,8.7551,580.6581],[11.8728,8.73,556.1023],[11.8629,8.7022,532.4988],[11.8622,8.6706,850.0503],[11.8868,8.6607,522.9764],[11.9057,8.6597,493.7054],[11.9272,8.661,483.8367],[11.9455,8.6602,487.0119],[11.9638,8.663,487.2324],[11.9833,8.6692,489.8018],[11.9931,8.6685,491.3481],[12.0333,8.6554,474.0828],[12.0454,8.646,456.4872],[12.0539,8.6349,433.614],[12.064,8.6146,450.0112],[12.0635,8.6017,470.7927],[12.0596,8.5903,435.9258],[12.0578,8.5739,442.4981],[12.0498,8.5355,487.9684],[12.037,8.5317,474.9697],[12.0272,8.5256,467.5543],[12.0219,8.5106,499.0027],[12.0245,8.508,503.1773],[12.0348,8.4868,536.3687],[12.0471,8.4804,519.3136],[12.0591,8.4562,507.8261],[12.0816,8.4501,472.6394],[12.098,8.4481,476.7096],[12.1284,8.4474,440.4492],[12.1471,8.4487,433.7029],[12.1497,8.4526,432.0041],[12.1467,8.4665,464.9081],[12.1519,8.4838,468.9654],[12.1547,8.4871,470.3292],[12.1524,8.4961,460.363],[12.1561,8.5012,445.3622],[12.1573,8.5061,446.647],[12.1588,8.5246,515.8439],[12.1607,8.532,542.5826],[12.1655,8.5297,566.5063],[12.1588,8.5437,512.0912],[12.164,8.5544,509.1419],[12.169,8.5745,508.506],[12.1652,8.5854,469.9641],[12.1714,8.5949,451.0189],[12.1684,8.6081,442.3171],[12.177,8.6153,423.9523],[12.1785,8.6259,403.6175],[12.1744,8.6439,381.7558],[12.1752,8.6592,383.6194],[12.1693,8.6784,384.7932],[12.1719,8.6846,391.1154],[12.1716,8.7001,414.8282],[12.1779,8.7036,414.308],[12.1732,8.7056,412.1477],[12.1796,8.7128,416.4349],[12.1812,8.7299,439.7601],[12.1898,8.7463,415.0188],[12.1894,8.7535,416.6884],[12.2028,8.7695,400.9808],[12.2031,8.7743,395.4194],[12.2131,8.791,373.725],[12.223,8.7917,394.936],[12.2267,8.7989,411.1085],[12.238,8.8098,418.3244],[12.2735,8.8268,374.073],[12.277,8.8294,360.2074],[12.2764,8.8356,352.0869],[12.2889,8.8463,317.0624],[12.2959,8.8477,321.8663],[12.3044,8.8439,325.2223],[12.2899,8.8608,299.8298],[12.2838,8.8802,303.1592],[12.2802,8.8797,313.2204],[12.2728,8.8907,322.1316],[12.263,8.8893,313.1971],[12.2631,8.8962,295.54],[12.2537,8.9003,279.126],[12.2495,8.916,282.5018],[12.2416,8.9243,253.226],[12.2385,8.9467,293.186],[12.2322,8.9651,281.1946],[12.2203,8.984,272.7239],[12.2209,8.9914,278.8188],[12.218,8.9957,290.6395],[12.2158,9.0096,258.8651],[12.2122,9.0197,244.0207],[12.2128,9.0239,238.3102],[12.2094,9.027,241.1151],[12.1588,9.0271,275.4739],[12.1528,9.0259,272.0424],[12.149,9.027,278.6259],[12.1412,9.0205,290.357],[12.1361,9.0214,289.1235],[12.1279,9.0196,305.2531],[12.1223,9.0207,317.455],[12.117,9.0161,332.9611],[12.1054,9.0141,329.8869],[12.091,9.0166,308.5747],[12.0875,9.0288,317.321],[12.089,9.0392,311.7811],[12.1247,9.0392,323.275],[12.1252,9.0469,307.6276],[12.1368,9.0844,282.183],[12.1426,9.0991,240.7029],[12.1651,9.1385,221.1419],[12.1698,9.1583,234.6873],[12.1746,9.1654,218.2937],[12.1637,9.1692,219.2372],[12.1451,9.1816,243.7515],[12.1138,9.1893,272.7368],[12.0781,9.1832,277.9441],[12.0269,9.1783,236.2611],[11.9944,9.1731,257.1727],[11.961,9.1716,294.4613],[11.9265,9.1802,297.1345],[11.8654,9.1784,309.2439],[11.8274,9.1847,321.0319]]]]}}