{"type": "Feature","bbox": [5.846,4.2707,6.721,4.7545],"geometry": {"type": "MultiPolygon","coordinates": [[[[6.441,4.3057,0.0],[6.4404,4.3088,0.0],[6.4399,4.3088,0.0],[6.4393,4.3057,0.0],[6.441,4.3057,0.0]]],
[[[6.0963,4.3551,6.1562],[6.0951,4.3568,10.6425],[6.0907,4.3543,0.0],[6.0832,4.3426,0.0],[6.0801,4.3329,0.9257],[6.086,4.2979,12.3637],[6.0835,4.2771,0.0],[6.0863,4.2707,0.963],[6.0915,4.2718,0.0],[6.0988,4.2707,1.7761],[6.1046,4.2729,8.1391],[6.131,4.2754,2.0064],[6.1749,4.2774,5.4509],[6.181,4.279,9.1362],[6.2149,4.2796,3.8674],[6.221,4.2821,12.9732],[6.2213,4.2924,2.1948],[6.2171,4.3029,0.0],[6.2151,4.3043,6.8117],[6.2126,4.3179,2.083],[6.2107,4.321,0.0],[6.2065,4.3179,0.0],[6.2029,4.3068,2.2673],[6.1996,4.3046,6.3057],[6.1963,4.3049,4.0866],[6.1929,4.3063,0.6957],[6.191,4.3096,0.0],[6.1907,4.3199,3.7392],[6.1887,4.3265,0.0],[6.1857,4.3265,4.5144],[6.1721,4.3187,9.6267],[6.169,4.3187,7.3993],[6.1665,4.3224,0.9866],[6.1582,4.3207,1.8629],[6.1549,4.3232,4.4841],[6.1538,4.3274,0.0],[6.1515,4.3282,5.6603],[6.139,4.3251,4.9013],[6.1337,4.3254,6.9376],[6.1254,4.3285,5.3494],[6.1215,4.334,1.807],[6.1121,4.3301,5.2067],[6.0999,4.339,15.4686],[6.0988,4.3424,3.5561],[6.1013,4.3482,10.3267],[6.0963,4.3551,6.1562]]],
[[[6.2638,4.354,5.1715],[6.2618,4.3565,1.5982],[6.259,4.3479,0.7202],[6.2643,4.3479,0.9079],[6.2638,4.354,5.1715]]],
[[[6.3235,4.426,1.5433],[6.3171,4.4262,1.5303],[6.3104,4.4221,0.0],[6.309,4.4163,0.9287],[6.3035,4.4076,0.0],[6.304,4.3985,7.0593],[6.3051,4.3957,4.3565],[6.3079,4.3943,2.9794],[6.3068,4.3926,2.1479],[6.3079,4.3904,4.3952],[6.3124,4.3885,7.3502],[6.314,4.3782,1.9299],[6.3121,4.3721,0.0],[6.3068,4.3729,1.0365],[6.3043,4.3638,8.8025],[6.2988,4.3635,2.6014],[6.2968,4.3596,3.1751],[6.2979,4.3499,2.917],[6.2926,4.3446,0.0],[6.2943,4.3404,1.7131],[6.2937,4.3368,3.0754],[6.2982,4.3315,1.2954],[6.2965,4.3326,1.8553],[6.2918,4.3318,3.3123],[6.2901,4.334,4.5131],[6.2882,4.3335,4.7115],[6.2904,4.3349,4.5131],[6.2918,4.3326,2.0216],[6.2946,4.3332,0.0],[6.2924,4.3357,0.7365],[6.2918,4.3429,0.0],[6.2904,4.344,0.0],[6.2896,4.3426,2.0094],[6.286,4.3424,0.0],[6.286,4.3449,0.7422],[6.2832,4.3454,3.1574],[6.2849,4.3476,3.5548],[6.2874,4.3435,0.0],[6.2893,4.3435,0.0],[6.2965,4.3504,0.4408],[6.2946,4.3579,0.0],[6.2815,4.3615,7.2347],[6.2765,4.3574,0.0],[6.271,4.3554,9.3476],[6.2704,4.3457,0.776],[6.2665,4.3449,3.7099],[6.2643,4.3465,2.6334],[6.2601,4.3465,1.3511],[6.2624,4.3396,2.2561],[6.2613,4.3326,4.7371],[6.2635,4.3304,2.7654],[6.271,4.3307,6.1869],[6.2729,4.329,0.0],[6.2724,4.3235,4.8683],[6.2693,4.321,9.9823],[6.269,4.3182,0.0],[6.2782,4.3179,3.9409],[6.2732,4.3168,2.4206],[6.2679,4.3179,8.4842],[6.2682,4.3204,6.265],[6.2721,4.3251,0.7058],[6.2721,4.3288,0.0],[6.2649,4.3296,2.8911],[6.2613,4.3315,1.4147],[6.261,4.341,4.1205],[6.2576,4.3462,0.0],[6.2529,4.3354,6.8412],[6.2479,4.3293,0.0],[6.2443,4.3212,2.7684],[6.2415,4.319,0.0],[6.2374,4.3101,0.0],[6.2387,4.3076,2.2915],[6.2368,4.3076,0.0],[6.2357,4.3054,1.0124],[6.2351,4.2974,1.5834],[6.2393,4.294,0.0],[6.2496,4.291,1.6662],[6.2846,4.2924,8.6569],[6.321,4.2976,6.0654],[6.4099,4.3054,0.0],[6.4174,4.3085,0.0],[6.3987,4.3271,0.0],[6.391,4.3371,0.0],[6.3854,4.3479,0.0],[6.3832,4.3471,2.1877],[6.3826,4.3407,8.7205],[6.3799,4.3363,1.9634],[6.3704,4.3385,4.8595],[6.3654,4.3251,15.6886],[6.3549,4.3279,4.3625],[6.3401,4.3224,0.0],[6.3379,4.3246,13.3966],[6.3374,4.3282,5.6585],[6.3332,4.3282,5.7218],[6.3288,4.326,11.5367],[6.3279,4.3204,0.6606],[6.326,4.3185,2.4728],[6.3274,4.326,1.4881],[6.3329,4.329,1.213],[6.3385,4.3288,1.4188],[6.3413,4.3229,1.8244],[6.3479,4.3274,0.6504],[6.3563,4.3293,7.7237],[6.3596,4.3293,17.5492],[6.3649,4.326,0.8182],[6.3693,4.3388,14.0087],[6.3737,4.3396,0.0],[6.3799,4.3382,0.2366],[6.3829,4.3504,0.0],[6.3785,4.3638,0.0],[6.3704,4.369,0.0],[6.356,4.371,0.0],[6.3485,4.3757,0.0],[6.3451,4.3813,0.0],[6.3496,4.3979,0.0],[6.3451,4.4046,0.6765],[6.3438,4.4163,0.6228],[6.3399,4.4221,0.0],[6.3315,4.4229,1.0989],[6.3235,4.426,1.5433]]],
[[[5.9818,4.3521,0.0],[5.9804,4.3535,0.0],[5.9796,4.3493,0.0],[5.981,4.3501,0.0],[5.9818,4.3521,0.0]]],
[[[5.9838,4.3643,1.5717],[5.9813,4.3657,0.0],[5.9796,4.3643,4.3803],[5.9763,4.3596,0.0],[5.9765,4.3565,0.0],[5.9776,4.3565,0.0],[5.9771,4.3599,2.0481],[5.9818,4.3563,1.1899],[5.9851,4.3576,3.1912],[5.9865,4.3618,8.4637],[5.9838,4.3643,1.5717]]],
[[[5.9782,4.3679,0.0],[5.9788,4.3682,0.0],[5.979,4.3701,0.0],[5.9774,4.3682,0.0],[5.9782,4.3679,0.0]]],
[[[5.8632,4.4006,15.5658],[5.8548,4.4018,14.5549],[5.8534,4.4072,11.2156],[5.8512,4.4072,6.9646],[5.8491,4.4104,5.6478],[5.846,4.4096,0.0],[5.8465,4.4029,0.757],[5.8493,4.3987,0.7506],[5.8846,4.3737,0.0],[5.9318,4.3521,6.4859],[5.9607,4.336,0.0],[5.9668,4.3357,0.0],[5.9679,4.3415,0.0],[5.9668,4.3465,0.6541],[5.9696,4.3651,1.4082],[5.9696,4.3679,3.0428],[5.9676,4.3701,4.02],[5.9616,4.3727,0.0],[5.9606,4.3695,9.3045],[5.9583,4.3687,12.1546],[5.9337,4.3678,20.6035],[5.9014,4.3815,26.2102],[5.8813,4.3945,14.7833],[5.8689,4.3998,16.5261],[5.8652,4.3982,12.9067],[5.8632,4.4006,15.5658]]],
[[[6.0363,4.4679,8.4664],[6.0357,4.4696,4.472],[6.0142,4.4669,4.2721],[6.0056,4.4631,8.9592],[5.9936,4.4626,7.2646],[5.988,4.4572,4.0208],[5.9807,4.4532,3.6604],[5.9763,4.4355,4.6334],[5.9697,4.4255,2.7459],[5.962,4.4049,12.9735],[5.9595,4.3943,12.4758],[5.9603,4.3844,6.331],[5.9639,4.3797,9.1706],[5.9632,4.376,2.5581],[5.971,4.3765,0.0],[5.969,4.3879,3.4557],[5.9746,4.3888,0.0],[5.9779,4.3871,1.6195],[5.9776,4.391,3.1863],[5.9804,4.3962,3.2286],[5.9857,4.4004,4.789],[5.9879,4.4043,3.2141],[5.9862,4.4001,4.789],[5.9829,4.3979,4.7239],[5.9785,4.3913,3.1863],[5.9793,4.3838,2.5188],[5.9818,4.3796,0.9084],[5.9774,4.3813,0.0],[5.9754,4.3754,0.0],[5.9774,4.3715,0.0],[5.9807,4.3715,0.0],[5.9826,4.3754,0.0],[5.986,4.3638,0.0],[5.9879,4.3607,2.4289],[5.9904,4.361,2.5529],[5.9932,4.3582,5.4812],[5.9901,4.3601,5.2092],[5.9876,4.3593,3.084],[5.9874,4.3549,2.9127],[5.9829,4.344,2.0998],[5.9779,4.3415,0.0],[5.9821,4.3371,1.7696],[5.9793,4.3224,14.8508],[5.9765,4.3171,0.0],[5.9782,4.311,0.0],[5.9829,4.3088,0.749],[5.9874,4.309,5.6912],[6.0065,4.3043,5.5309],[6.0221,4.299,5.9646],[6.0449,4.2946,11.1732],[6.059,4.2882,0.0],[6.0657,4.2868,0.0],[6.0668,4.2937,4.8317],[6.0646,4.3038,3.4103],[6.0674,4.3088,0.0],[6.0696,4.3235,0.0],[6.0537,4.3399,2.4796],[6.0435,4.3549,3.2875],[6.0435,4.3643,1.8942],[6.0482,4.3715,9.3523],[6.049,4.3757,0.0],[6.046,4.3788,0.0],[6.0396,4.3801,9.5571],[6.0374,4.3824,2.7844],[6.0365,4.3865,0.0],[6.0399,4.3913,15.5458],[6.0399,4.3954,7.6485],[6.0349,4.4065,0.0],[6.0262,4.4074,0.0],[6.0237,4.4107,1.8729],[6.0237,4.4115,1.8729],[6.0254,4.414,5.2315],[6.029,4.4165,0.6407],[6.0243,4.4118,6.9228],[6.0257,4.4085,3.0058],[6.0354,4.4079,0.0],[6.0371,4.4124,2.172],[6.0385,4.4126,4.3088],[6.0415,4.4065,0.0],[6.0449,4.4063,2.8166],[6.0457,4.4188,5.6024],[6.054,4.4301,1.1482],[6.0532,4.4365,3.3733],[6.0563,4.444,5.1485],[6.0554,4.4524,0.0],[6.0476,4.4638,0.0],[6.0363,4.4679,8.4664]]],
[[[6.0479,4.4157,2.3725],[6.0465,4.4176,3.1288],[6.0474,4.4157,2.3725],[6.0457,4.4113,0.9477],[6.0474,4.4093,3.9377],[6.0463,4.406,2.8166],[6.0415,4.4054,6.1051],[6.039,4.4107,1.6735],[6.0368,4.4076,0.5902],[6.0429,4.3951,5.5807],[6.0413,4.3888,4.3082],[6.0388,4.3874,0.0],[6.0388,4.3838,4.8062],[6.0424,4.3815,0.0],[6.0468,4.3813,5.9296],[6.051,4.3779,6.662],[6.0515,4.3732,5.9582],[6.0496,4.366,6.6066],[6.0524,4.3632,0.0],[6.0549,4.3696,4.1459],[6.0574,4.3699,0.0],[6.0543,4.3779,0.8927],[6.056,4.3813,1.0322],[6.056,4.3782,0.0],[6.0607,4.3685,1.5401],[6.0576,4.3621,6.2925],[6.0579,4.3574,3.7653],[6.0615,4.3565,7.6819],[6.0679,4.3507,4.6904],[6.0699,4.3524,0.0],[6.0685,4.3751,0.0],[6.0701,4.389,0.0],[6.0596,4.399,0.0],[6.0537,4.4021,0.0],[6.0479,4.4157,2.3725]]],
[[[6.1321,4.4207,2.6699],[6.1249,4.421,1.1476],[6.1146,4.4126,5.6885],[6.1021,4.4101,0.0],[6.0963,4.4043,4.3263],[6.0874,4.4004,1.0823],[6.081,4.394,0.0],[6.0771,4.3865,1.3896],[6.0765,4.3793,2.6561],[6.079,4.3699,0.0],[6.0843,4.3657,9.919],[6.0868,4.3621,7.84],[6.0865,4.3599,0.0],[6.0899,4.3601,0.0],[6.0951,4.3674,3.6605],[6.1015,4.3707,7.1652],[6.1107,4.3707,10.4306],[6.1249,4.3654,0.0],[6.1312,4.3665,0.0],[6.1396,4.3735,0.0],[6.1413,4.3951,6.0606],[6.1362,4.4143,3.9524],[6.1321,4.4207,2.6699]]],
[[[6.1318,4.4313,1.9152],[6.1296,4.4321,0.0],[6.1271,4.4301,5.3467],[6.1257,4.4237,0.0],[6.1315,4.4243,0.0],[6.1332,4.4293,0.0],[6.1318,4.4313,1.9152]]],
[[[6.1482,4.3904,0.0],[6.1457,4.391,0.0],[6.1438,4.3874,0.9329],[6.1432,4.3826,0.0],[6.1446,4.379,1.321],[6.1468,4.3796,0.0],[6.1488,4.3835,0.0],[6.1482,4.3904,0.0]]],
[[[6.2479,4.3879,4.311],[6.2471,4.3915,2.6725],[6.2437,4.3874,0.0],[6.244,4.3843,0.0],[6.2465,4.3846,0.0],[6.2479,4.3879,4.311]]],
[[[6.1702,4.5308,6.5937],[6.1657,4.5369,3.3413],[6.1633,4.545,7.9297],[6.1579,4.5518,2.1519],[6.1541,4.567,2.9157],[6.1515,4.5549,5.1067],[6.1543,4.5535,5.6204],[6.1543,4.5507,5.3534],[6.1524,4.5499,2.3161],[6.1507,4.544,1.1924],[6.1457,4.5424,5.1124],[6.1465,4.534,6.5949],[6.1426,4.5274,0.964],[6.1418,4.5154,6.6304],[6.1324,4.5021,0.0],[6.1254,4.4843,2.1862],[6.1265,4.4754,1.0251],[6.1354,4.4654,1.3706],[6.1429,4.4515,0.0],[6.1424,4.4468,3.5729],[6.1382,4.4421,1.2679],[6.1388,4.4379,1.9233],[6.1496,4.4374,0.9964],[6.1546,4.4404,0.0],[6.1579,4.4451,0.0],[6.1482,4.4557,0.0],[6.1429,4.4924,3.7252],[6.146,4.5001,2.8461],[6.1454,4.5096,3.0315],[6.1587,4.5201,1.71],[6.1587,4.5251,2.2872],[6.1562,4.5301,4.0713],[6.1568,4.5335,2.9992],[6.1596,4.536,8.0685],[6.1571,4.5326,2.9992],[6.1574,4.5282,2.415],[6.1593,4.5254,2.2872],[6.1593,4.5199,1.71],[6.1463,4.509,1.4101],[6.1468,4.4999,2.8461],[6.1446,4.489,0.0],[6.1493,4.471,0.6006],[6.1499,4.4568,2.9139],[6.1596,4.4485,0.0],[6.1599,4.444,2.9035],[6.1529,4.4368,1.223],[6.1385,4.4335,3.8713],[6.1365,4.4279,0.0],[6.1385,4.4154,0.8393],[6.1496,4.3954,1.757],[6.1521,4.3938,6.1078],[6.1551,4.3946,0.5169],[6.1562,4.3965,4.4821],[6.1574,4.3938,2.5231],[6.1518,4.3921,1.5774],[6.151,4.3826,2.1273],[6.1376,4.3663,5.9652],[6.1246,4.3626,0.0],[6.1082,4.3671,0.0],[6.0999,4.3668,0.0],[6.0968,4.3574,7.3355],[6.1029,4.3485,5.4892],[6.0999,4.3413,3.4973],[6.1118,4.3313,4.9884],[6.121,4.3354,1.807],[6.1279,4.3304,0.0],[6.1337,4.3299,0.8736],[6.136,4.3265,0.0],[6.1474,4.3293,3.806],[6.1499,4.3349,0.0],[6.1432,4.3413,5.0571],[6.1429,4.3432,6.208],[6.1504,4.3376,5.0371],[6.1526,4.3399,7.6418],[6.1515,4.3424,6.0925],[6.1529,4.3424,4.6227],[6.1538,4.3382,6.2415],[6.1521,4.3321,2.4461],[6.1538,4.3296,9.4578],[6.1585,4.3288,6.0832],[6.1574,4.3229,0.0],[6.1604,4.3215,2.1153],[6.1674,4.3232,0.9866],[6.1704,4.3199,1.9321],[6.1846,4.3274,2.1385],[6.1857,4.3296,5.5296],[6.1829,4.336,0.748],[6.1701,4.3338,10.2723],[6.1735,4.3354,3.2068],[6.1776,4.3351,4.0809],[6.1782,4.3365,4.7922],[6.1849,4.3363,0.8156],[6.1874,4.3388,4.1377],[6.1974,4.3357,0.0],[6.2049,4.3415,5.6923],[6.199,4.3499,1.2708],[6.1949,4.3515,4.4731],[6.1901,4.3504,7.351],[6.1932,4.3521,5.4028],[6.1993,4.3507,0.0],[6.2018,4.3535,1.276],[6.2018,4.356,1.3964],[6.196,4.3565,4.6736],[6.196,4.3588,4.7495],[6.1996,4.3629,2.6854],[6.1982,4.3679,0.0],[6.1999,4.3701,0.0],[6.1904,4.3757,1.0335],[6.1949,4.3746,2.3258],[6.201,4.3707,0.0],[6.2007,4.369,0.0],[6.1988,4.3676,0.0],[6.2001,4.3626,2.6854],[6.1971,4.359,4.0905],[6.1971,4.3568,0.0],[6.2024,4.3563,1.3964],[6.2026,4.3526,1.276],[6.2007,4.3493,1.2708],[6.2046,4.3468,0.0],[6.2063,4.3429,0.0],[6.204,4.3382,5.5672],[6.199,4.3349,6.5583],[6.1954,4.3343,2.0589],[6.1865,4.3365,0.8156],[6.1907,4.3274,1.5335],[6.1946,4.3229,0.0],[6.1943,4.3126,0.0],[6.1974,4.3082,0.0],[6.2001,4.3193,3.2674],[6.2032,4.3235,0.0],[6.209,4.3249,0.6212],[6.214,4.3238,1.6559],[6.2137,4.3338,1.7498],[6.2154,4.3399,19.1577],[6.2274,4.3704,0.9381],[6.2271,4.3721,0.0],[6.2224,4.374,0.0],[6.2132,4.3721,1.0151],[6.2096,4.3746,0.0],[6.2093,4.3774,1.4423],[6.2165,4.3821,2.641],[6.2151,4.3871,3.7026],[6.2126,4.3879,2.6702],[6.2107,4.3865,0.0],[6.2101,4.3804,10.2487],[6.2074,4.3779,5.383],[6.2015,4.3815,1.2538],[6.2013,4.3846,1.6959],[6.2024,4.3863,1.5062],[6.2049,4.3863,1.4685],[6.2049,4.3851,4.4235],[6.2026,4.3854,1.6959],[6.2024,4.3821,2.0087],[6.2082,4.379,0.0],[6.2101,4.3871,3.9014],[6.2143,4.3885,3.7026],[6.2174,4.386,3.6621],[6.2174,4.3824,2.641],[6.2157,4.3799,16.7488],[6.2104,4.3771,1.4423],[6.2107,4.3749,0.0],[6.2135,4.3732,0.0],[6.2196,4.3751,0.0],[6.2271,4.374,2.2391],[6.2379,4.3882,5.9415],[6.2374,4.4021,2.1876],[6.234,4.4096,0.0],[6.2266,4.4064,6.9656],[6.2215,4.406,2.897],[6.2158,4.4096,5.2986],[6.2138,4.414,7.9878],[6.2018,4.416,3.9099],[6.1939,4.4221,6.0435],[6.1853,4.4345,5.5818],[6.1807,4.4482,5.6229],[6.1775,4.4524,0.9728],[6.1697,4.4573,0.7295],[6.1662,4.4662,0.5262],[6.1661,4.4731,2.7726],[6.1674,4.483,5.2646],[6.172,4.4963,6.6231],[6.1704,4.5152,6.613],[6.172,4.5239,11.5764],[6.1702,4.5308,6.5937]]],
[[[6.0571,4.4626,0.0],[6.0535,4.4629,2.1967],[6.0565,4.4551,0.0],[6.0599,4.4604,3.3064],[6.0571,4.4626,0.0]]],
[[[6.1193,4.5435,1.7262],[6.1193,4.5447,3.2375],[6.1051,4.5409,3.8817],[6.0986,4.5378,8.927],[6.0741,4.5177,10.064],[6.0566,4.4922,1.9912],[6.0374,4.4707,3.6007],[6.0424,4.4671,9.4784],[6.0585,4.4638,8.7005],[6.061,4.4615,0.0],[6.0576,4.4551,6.6466],[6.0585,4.4435,4.3924],[6.0565,4.4313,0.0],[6.0504,4.4193,3.4275],[6.0535,4.4149,6.2079],[6.051,4.4115,5.2991],[6.0526,4.4071,1.0217],[6.0568,4.4054,0.0],[6.069,4.3918,0.0],[6.0715,4.3924,0.0],[6.0768,4.4021,0.0],[6.0757,4.4051,0.0],[6.0729,4.406,6.0881],[6.0807,4.4046,0.0],[6.086,4.4093,1.2178],[6.0949,4.4107,2.3329],[6.0979,4.4135,1.2918],[6.0929,4.4243,0.0],[6.0865,4.4321,0.0],[6.086,4.4368,0.0],[6.091,4.4432,2.298],[6.1029,4.446,0.0],[6.104,4.4488,3.1887],[6.1029,4.4493,3.1887],[6.1046,4.4496,0.4907],[6.1057,4.4524,2.8309],[6.1062,4.461,3.2584],[6.1143,4.4688,5.1823],[6.1146,4.4768,0.0],[6.1118,4.4871,0.0],[6.0996,4.491,3.4619],[6.0954,4.4968,4.0882],[6.0899,4.4988,0.0],[6.0888,4.5029,1.9269],[6.0924,4.5101,4.2172],[6.0918,4.5196,7.4294],[6.0971,4.5301,2.7777],[6.0957,4.526,1.1227],[6.0996,4.5274,5.5689],[6.0963,4.5254,6.8678],[6.0932,4.5196,2.7184],[6.0935,4.5093,4.2172],[6.0904,4.5037,4.0152],[6.0904,4.5004,0.0],[6.0957,4.4974,4.7281],[6.0993,4.5004,1.8868],[6.1057,4.5001,0.0],[6.1093,4.4982,0.8662],[6.111,4.499,0.0],[6.1118,4.5012,0.0],[6.1093,4.5121,4.1808],[6.1126,4.5179,0.0],[6.1199,4.5254,0.0],[6.1179,4.5332,4.431],[6.1193,4.5435,1.7262]]],
[[[6.1369,4.5524,3.4622],[6.1204,4.5451,3.2375],[6.1196,4.5321,6.2541],[6.1213,4.5232,4.2758],[6.1165,4.5196,0.0],[6.1118,4.5121,1.2971],[6.1115,4.5071,5.9188],[6.1135,4.5026,5.1266],[6.1126,4.4976,6.8725],[6.1021,4.4988,0.0],[6.0985,4.4968,3.6978],[6.1024,4.4932,3.5086],[6.1124,4.4904,0.0],[6.116,4.4874,4.4409],[6.119,4.4726,8.2465],[6.1165,4.466,0.9476],[6.1121,4.4632,1.7517],[6.1096,4.459,0.0],[6.1101,4.4526,0.0],[6.1082,4.4454,4.0107],[6.1054,4.4432,4.0489],[6.0929,4.4393,2.2254],[6.0901,4.4338,4.5978],[6.0929,4.4296,1.1398],[6.1018,4.4237,0.0],[6.1043,4.4182,0.6795],[6.1079,4.4185,0.0],[6.111,4.4165,0.0],[6.1143,4.4163,0.0],[6.1215,4.421,0.0],[6.129,4.4368,0.0],[6.1399,4.4479,0.0],[6.1296,4.4682,0.0],[6.1238,4.4763,3.9342],[6.1221,4.4832,2.937],[6.1296,4.5024,1.3711],[6.1399,4.5174,0.8569],[6.1407,4.5249,2.2698],[6.1443,4.5332,3.1756],[6.1449,4.5426,5.6268],[6.1496,4.5449,1.1924],[6.1501,4.5485,2.7861],[6.1532,4.551,5.5091],[6.1532,4.5529,5.644],[6.1496,4.5557,1.6509],[6.1515,4.5579,3.675],[6.1532,4.5657,5.442],[6.1369,4.5524,3.4622]]],
[[[6.4246,4.3835,3.4436],[6.4095,4.3754,4.6376],[6.4054,4.3789,3.4982],[6.4001,4.3766,7.3733],[6.4035,4.3663,5.909],[6.4076,4.3593,0.0],[6.4032,4.3479,2.957],[6.3979,4.3426,0.0],[6.4024,4.3346,0.0],[6.4126,4.3351,0.0],[6.4238,4.3393,12.4545],[6.4307,4.3396,0.0],[6.4349,4.3413,4.6108],[6.4374,4.3449,3.6179],[6.4376,4.3471,4.5273],[6.4262,4.3676,0.0],[6.4243,4.3765,3.6913],[6.4246,4.3835,3.4436]]],
[[[6.3926,4.375,3.017],[6.364,4.3759,3.1527],[6.3544,4.3791,6.8565],[6.3499,4.3863,4.526],[6.3515,4.3782,0.0],[6.354,4.3754,0.0],[6.3679,4.3743,2.7616],[6.3785,4.3693,4.9887],[6.3888,4.3515,0.0],[6.3965,4.3454,0.0],[6.4024,4.3493,5.2866],[6.4054,4.3551,0.0],[6.406,4.3599,17.9163],[6.4007,4.3676,0.0],[6.3987,4.3763,7.3733],[6.3926,4.375,3.017]]],
[[[6.2518,4.3757,0.0],[6.2501,4.3774,0.0],[6.2418,4.3663,0.0],[6.2412,4.3621,0.0],[6.2429,4.3599,0.922],[6.2471,4.3593,2.1748],[6.2507,4.3629,0.0],[6.2518,4.3757,0.0]]],
[[[6.2901,4.3915,6.3185],[6.2851,4.3815,0.0],[6.2696,4.3671,4.3909],[6.266,4.3576,0.0],[6.2674,4.3457,0.7643],[6.269,4.3462,0.776],[6.269,4.3532,1.7279],[6.2715,4.3574,2.4522],[6.2821,4.3629,3.1619],[6.2924,4.3599,0.0],[6.2951,4.3604,0.0],[6.2985,4.3649,0.7455],[6.3026,4.3646,0.0],[6.3065,4.374,8.2795],[6.3113,4.374,6.218],[6.3126,4.3801,0.0],[6.3113,4.3885,4.9198],[6.306,4.3904,4.3952],[6.3021,4.4024,0.0],[6.2965,4.3993,3.3018],[6.2901,4.3915,6.3185]]],
[[[6.4401,4.3946,2.4002],[6.4315,4.389,0.0],[6.4274,4.3818,16.1086],[6.4279,4.3754,10.8673],[6.4326,4.3635,0.0],[6.4401,4.3521,1.8976],[6.4388,4.3421,0.3688],[6.4396,4.3376,0.0],[6.436,4.3376,1.0895],[6.4299,4.3318,2.3949],[6.4287,4.3285,0.0],[6.4443,4.316,2.154],[6.4651,4.3146,1.1996],[6.4765,4.3185,0.2225],[6.4924,4.3212,0.0],[6.5574,4.3265,2.8155],[6.5832,4.3263,4.1648],[6.591,4.329,7.792],[6.5949,4.3326,6.3819],[6.5912,4.3368,8.1628],[6.5885,4.3371,0.0],[6.5821,4.3338,0.0],[6.5743,4.3321,0.0],[6.5626,4.3335,2.0551],[6.5438,4.3318,14.0854],[6.5371,4.3332,9.3046],[6.5246,4.3296,1.5033],[6.5182,4.3293,0.0],[6.501,4.3363,1.5613],[6.4935,4.3432,1.0656],[6.4932,4.3443,2.7445],[6.4949,4.3443,0.0],[6.4982,4.3393,10.2423],[6.5188,4.331,10.031],[6.5224,4.331,0.0],[6.5324,4.3354,0.0],[6.5568,4.3346,4.2878],[6.5765,4.3363,2.8009],[6.5835,4.3385,0.7031],[6.5849,4.3565,0.0],[6.5804,4.3579,0.7143],[6.5685,4.3576,0.4786],[6.5637,4.361,0.9912],[6.5637,4.3699,1.1059],[6.5682,4.3793,0.0],[6.5665,4.3854,4.9201],[6.561,4.3926,7.3722],[6.5538,4.3901,2.1702],[6.5468,4.3921,4.1769],[6.5471,4.3974,12.8988],[6.5513,4.4018,0.0],[6.5507,4.4201,14.8841],[6.549,4.4232,0.0],[6.541,4.426,0.0],[6.5315,4.4365,0.9638],[6.5273,4.4308,1.5527],[6.5213,4.426,9.7989],[6.5207,4.4221,2.0143],[6.5126,4.4211,1.3653],[6.5052,4.416,2.5294],[6.4959,4.4147,1.1534],[6.4718,4.4174,10.3056],[6.4571,4.4113,2.3704],[6.4535,4.4082,2.1519],[6.449,4.4171,4.6025],[6.4476,4.4174,0.0],[6.4468,4.4024,2.9425],[6.4401,4.3946,2.4002]]],
[[[6.4545,4.4101,2.2379],[6.4549,4.4101,2.2379],[6.4549,4.4103,2.2379],[6.4545,4.4101,2.2379]]],
[[[6.5813,4.4871,3.5385],[6.5779,4.4876,12.8395],[6.5768,4.4846,11.2497],[6.5799,4.4715,8.0801],[6.5735,4.4696,6.9202],[6.564,4.4707,0.0],[6.5607,4.4613,2.3784],[6.5568,4.4615,2.9826],[6.5454,4.4768,10.473],[6.5421,4.4779,3.2623],[6.5426,4.4707,2.3388],[6.5399,4.4676,0.0],[6.534,4.4668,0.3788],[6.5349,4.4543,1.9842],[6.5296,4.4424,0.0],[6.5318,4.4379,5.3789],[6.541,4.4351,2.1586],[6.5529,4.4213,3.1351],[6.5563,4.4043,0.0],[6.5518,4.3932,0.0],[6.5574,4.3949,0.7492],[6.5615,4.3943,2.2105],[6.5696,4.3857,2.1613],[6.5699,4.3785,1.4773],[6.5665,4.3649,11.3578],[6.5674,4.3607,5.0311],[6.5754,4.3638,3.9641],[6.5779,4.3624,5.1568],[6.5821,4.3632,0.0],[6.5918,4.3726,6.772],[6.5929,4.3771,0.0],[6.5918,4.4232,20.0081],[6.5976,4.4576,11.5613],[6.5924,4.4699,0.0],[6.5813,4.4871,3.5385]]],
[[[6.6768,4.431,0.7821],[6.6751,4.4321,0.0],[6.6735,4.4299,1.7966],[6.6729,4.4224,8.2728],[6.6749,4.4168,0.0],[6.6796,4.4168,0.0],[6.6813,4.4193,0.0],[6.681,4.4226,0.0],[6.6768,4.431,0.7821]]],
[[[6.5346,4.5097,15.0705],[6.5453,4.4782,0.8772],[6.5532,4.4707,4.0766],[6.5585,4.4626,14.4399],[6.5604,4.4632,5.1288],[6.5618,4.4699,1.5462],[6.5637,4.4718,0.0],[6.5768,4.471,8.5008],[6.5793,4.4721,13.1915],[6.5751,4.481,9.8242],[6.576,4.4901,0.0],[6.556,4.5026,4.2254],[6.544,4.5079,10.713],[6.5399,4.5121,14.5078],[6.5376,4.5232,4.39],[6.5404,4.531,4.2032],[6.5329,4.531,0.0],[6.5249,4.5332,15.306],[6.5235,4.5303,1.0145],[6.5346,4.5097,15.0705]]],
[[[6.7115,4.6063,1.2278],[6.7118,4.6073,4.3979],[6.6973,4.6128,4.7527],[6.6824,4.6206,3.457],[6.6532,4.6405,3.2725],[6.6428,4.652,1.4627],[6.6335,4.6796,1.587],[6.6291,4.6958,4.8495],[6.6271,4.7125,10.1654],[6.6234,4.7229,12.4403],[6.6149,4.7408,13.7268],[6.601,4.7533,14.0165],[6.5871,4.7545,14.0902],[6.5689,4.7536,10.1618],[6.4632,4.7125,9.6751],[6.4544,4.7147,14.2888],[6.4427,4.6896,14.4459],[6.4376,4.6851,12.8271],[6.4349,4.6777,14.5514],[6.4371,4.6597,14.7696],[6.4495,4.651,14.5977],[6.4593,4.6474,14.0775],[6.4629,4.6395,8.8478],[6.4634,4.632,3.9707],[6.4693,4.6253,14.0076],[6.4859,4.5803,1.2432],[6.4882,4.5766,6.4985],[6.4927,4.5735,3.1444],[6.4979,4.5654,4.4452],[6.5025,4.5619,1.5573],[6.5066,4.5604,3.0591],[6.5085,4.5615,3.5145],[6.5229,4.5314,10.5097],[6.5229,4.5329,3.8472],[6.5271,4.5337,12.4322],[6.5257,4.5385,1.6812],[6.5232,4.541,0.0],[6.5235,4.5429,3.2981],[6.5246,4.5432,1.504],[6.5243,4.5407,1.0944],[6.5257,4.541,1.0944],[6.531,4.5449,1.9178],[6.5307,4.5468,3.5134],[6.5257,4.5482,4.802],[6.524,4.5496,1.2856],[6.5235,4.5526,3.5428],[6.5301,4.5532,7.8632],[6.5337,4.559,0.0],[6.5285,4.5646,4.8284],[6.5218,4.5649,9.0237],[6.5213,4.5676,5.7681],[6.5232,4.5696,0.7097],[6.5238,4.569,0.7097],[6.5218,4.5674,5.7681],[6.5224,4.5654,2.1184],[6.5288,4.5651,4.8284],[6.5343,4.5599,0.0],[6.5315,4.5535,2.8395],[6.5293,4.5521,7.8632],[6.524,4.5521,3.5428],[6.526,4.5488,12.2223],[6.5313,4.5476,3.7694],[6.5313,4.5432,3.6147],[6.5271,4.5407,2.5709],[6.5268,4.5382,2.5196],[6.5318,4.5324,3.9123],[6.5379,4.5349,1.8855],[6.5507,4.5349,4.0658],[6.5632,4.549,0.0],[6.5613,4.5513,0.0],[6.5543,4.5518,4.5133],[6.5499,4.554,0.0],[6.5385,4.5663,3.1589],[6.5362,4.5732,6.4179],[6.5374,4.5754,0.8605],[6.5424,4.5771,28.4701],[6.5454,4.5818,9.6323],[6.5385,4.5879,0.8773],[6.536,4.5943,0.687],[6.5315,4.5985,2.9401],[6.5321,4.599,0.9956],[6.5346,4.5974,0.0],[6.5362,4.6001,8.7413],[6.5365,4.6049,0.0],[6.5343,4.6104,2.9016],[6.5357,4.6165,2.323],[6.5393,4.619,11.3896],[6.5454,4.6196,4.4649],[6.5501,4.6251,1.4942],[6.5504,4.6279,3.9362],[6.5468,4.6318,2.9614],[6.5465,4.6343,4.7211],[6.5479,4.6357,1.9068],[6.5535,4.636,4.7326],[6.5546,4.6379,14.3201],[6.5479,4.6432,1.5522],[6.5488,4.6457,7.0671],[6.5546,4.646,12.3488],[6.5549,4.6488,3.1707],[6.5526,4.6529,2.2667],[6.5532,4.6568,3.1345],[6.5554,4.649,1.021],[6.5551,4.6457,1.4084],[6.554,4.6449,2.399],[6.549,4.6451,2.6334],[6.5485,4.6435,1.5522],[6.5538,4.6404,3.3197],[6.5551,4.6376,3.7173],[6.5538,4.6354,2.2416],[6.5471,4.634,1.136],[6.551,4.6285,4.3247],[6.5507,4.6246,1.4942],[6.546,4.6187,2.0524],[6.5399,4.6185,1.9815],[6.5351,4.6137,11.2047],[6.5387,4.6021,3.4012],[6.5368,4.5949,1.6516],[6.5421,4.5871,15.5207],[6.5457,4.5857,6.6974],[6.5468,4.5818,1.2314],[6.5454,4.5776,1.2011],[6.5387,4.5726,8.6936],[6.5382,4.5704,1.9266],[6.5482,4.559,0.0],[6.5557,4.5538,10.6172],[6.5635,4.5521,4.6146],[6.5649,4.5482,0.0],[6.5604,4.5385,6.0948],[6.5451,4.5288,0.7754],[6.544,4.514,0.0],[6.5454,4.5118,0.0],[6.5499,4.5099,0.0],[6.5637,4.506,5.6791],[6.5796,4.4965,2.1673],[6.5971,4.4776,9.0337],[6.604,4.4635,3.4665],[6.6046,4.4415,2.5222],[6.6004,4.4012,0.0],[6.6026,4.3865,3.8801],[6.5943,4.3535,2.1358],[6.5996,4.3504,0.0],[6.6015,4.3582,7.5962],[6.6046,4.3571,2.804],[6.6054,4.354,1.0392],[6.6132,4.3574,2.5295],[6.6113,4.3557,3.5798],[6.6099,4.349,6.5754],[6.6182,4.3487,10.3814],[6.621,4.3471,8.1752],[6.6224,4.3496,4.174],[6.6293,4.3499,4.3488],[6.6365,4.3443,2.2569],[6.6388,4.3474,3.9456],[6.6454,4.346,1.3198],[6.6488,4.354,5.3919],[6.6524,4.354,2.8199],[6.6543,4.3574,2.0579],[6.6613,4.3588,5.0514],[6.6621,4.3649,0.0],[6.6646,4.3646,6.6467],[6.6629,4.3596,5.4568],[6.6646,4.3585,2.9891],[6.6624,4.3563,5.9052],[6.6574,4.3543,1.024],[6.6551,4.3507,2.9595],[6.651,4.3507,0.0],[6.6482,4.3482,0.8757],[6.6476,4.3454,2.6816],[6.6446,4.3446,0.4266],[6.6415,4.346,0.0],[6.6363,4.3424,0.0],[6.6268,4.3429,11.3548],[6.629,4.346,7.4813],[6.6285,4.3493,0.0],[6.6229,4.349,1.6746],[6.6215,4.3465,14.4695],[6.6196,4.3465,3.8888],[6.6179,4.3482,10.3814],[6.6101,4.3482,8.1423],[6.609,4.3493,6.5754],[6.609,4.3518,2.0441],[6.6107,4.3554,2.8783],[6.6051,4.3535,3.0758],[6.604,4.3549,1.432],[6.604,4.3568,1.7253],[6.6015,4.3574,7.5962],[6.6024,4.3513,6.0568],[6.5979,4.3471,0.0],[6.611,4.3382,0.7642],[6.6307,4.3185,0.0],[6.636,4.3204,1.2295],[6.6376,4.3257,1.4847],[6.6418,4.3279,0.0],[6.6454,4.334,8.9989],[6.6701,4.3385,5.2997],[6.7001,4.3393,0.0],[6.7038,4.3415,0.0],[6.7043,4.3485,5.8619],[6.7015,4.3585,0.0],[6.6979,4.3643,0.0],[6.6951,4.3804,0.7263],[6.6835,4.381,0.0],[6.6937,4.3865,0.0],[6.6913,4.3985,0.0],[6.6893,4.3999,0.0],[6.6876,4.4049,1.2522],[6.6824,4.4096,0.4775],[6.6743,4.4126,0.0],[6.669,4.4171,3.2071],[6.6665,4.4243,0.8244],[6.6674,4.4304,6.7241],[6.666,4.4332,12.1441],[6.6576,4.434,0.0],[6.6571,4.4276,1.921],[6.654,4.4254,3.3997],[6.6563,4.4276,1.921],[6.6546,4.4321,0.0],[6.6457,4.4321,3.0104],[6.6443,4.4399,9.5634],[6.6404,4.4399,8.9104],[6.6368,4.4371,9.0563],[6.6376,4.4396,0.0],[6.6432,4.4413,5.9852],[6.6454,4.4396,9.5634],[6.6454,4.4338,7.0428],[6.6468,4.4324,3.0104],[6.6579,4.436,0.876],[6.6662,4.4363,0.0],[6.671,4.4535,11.5313],[6.666,4.4718,27.9438],[6.6654,4.4829,3.411],[6.6621,4.4904,0.0],[6.654,4.5012,0.0],[6.6446,4.5026,1.8262],[6.634,4.5087,2.4242],[6.6207,4.5324,4.4291],[6.616,4.5362,25.1527],[6.6124,4.5421,0.0],[6.6065,4.5432,4.0394],[6.6013,4.5407,0.9458],[6.5951,4.5418,13.8651],[6.5943,4.546,0.0],[6.5974,4.5565,3.2712],[6.5976,4.5637,15.5139],[6.5954,4.5626,0.0],[6.5937,4.5579,0.7833],[6.5901,4.556,1.7327],[6.5826,4.5574,0.5614],[6.5774,4.5593,4.0873],[6.5765,4.5604,4.0873],[6.5768,4.5651,0.0],[6.5796,4.5704,25.1395],[6.5699,4.5771,5.3425],[6.5721,4.5871,11.9211],[6.5726,4.5851,0.0],[6.5704,4.5776,5.3425],[6.5804,4.5704,1.1691],[6.5774,4.5649,0.0],[6.5776,4.5599,6.177],[6.5918,4.5571,17.5542],[6.5946,4.5626,0.0],[6.5993,4.5679,9.1616],[6.5985,4.5729,0.0],[6.5918,4.5801,4.2566],[6.5904,4.5832,1.1999],[6.591,4.5868,3.5979],[6.5965,4.5929,1.3621],[6.5946,4.5943,0.0],[6.5896,4.594,3.2401],[6.5887,4.5957,2.3413],[6.5899,4.6071,3.4771],[6.5874,4.6185,3.2764],[6.5935,4.6268,0.4796],[6.586,4.6324,1.6347],[6.5851,4.6418,1.2138],[6.589,4.6429,1.4138],[6.5949,4.6418,0.5406],[6.6001,4.6471,4.2356],[6.6032,4.6535,0.0],[6.5951,4.6557,0.0],[6.5882,4.6649,1.4919],[6.5776,4.6701,1.2843],[6.5721,4.6754,3.4758],[6.571,4.6818,2.4065],[6.564,4.6829,2.2214],[6.5632,4.6865,0.0],[6.5668,4.6876,1.6513],[6.5682,4.6838,1.5182],[6.5724,4.6818,0.9185],[6.5743,4.6754,0.9801],[6.5779,4.6732,0.0],[6.584,4.6724,5.5559],[6.5924,4.6635,6.2972],[6.5954,4.6579,1.0834],[6.6021,4.6557,0.9784],[6.6063,4.6593,0.863],[6.6113,4.6735,2.2765],[6.6104,4.6768,1.7004],[6.6051,4.6804,2.3238],[6.6085,4.6793,3.7255],[6.611,4.6771,3.4637],[6.6118,4.6746,1.0783],[6.6115,4.6715,7.107],[6.6026,4.6454,0.4264],[6.604,4.6412,0.0],[6.6085,4.6363,0.8258],[6.6215,4.6363,0.381],[6.6243,4.6321,1.5349],[6.6238,4.6265,1.1077],[6.6168,4.6162,0.3786],[6.6157,4.609,0.0],[6.6185,4.6046,0.0],[6.6279,4.5971,3.1258],[6.6324,4.5988,3.0408],[6.6399,4.5982,0.0],[6.6407,4.6029,2.3791],[6.6393,4.6096,1.6667],[6.641,4.6124,4.0761],[6.644,4.6126,2.3288],[6.6485,4.6082,1.0388],[6.6504,4.6088,4.9781],[6.6513,4.6135,3.0289],[6.6482,4.6265,0.0],[6.646,4.6285,0.2993],[6.6496,4.6279,4.1178],[6.6485,4.6265,0.0],[6.651,4.6238,2.0834],[6.6532,4.616,0.0],[6.6529,4.6104,0.0],[6.6518,4.6082,1.0581],[6.6474,4.6076,1.8624],[6.6424,4.6115,2.3144],[6.6404,4.6104,0.2891],[6.6401,4.6076,0.5702],[6.6426,4.6032,0.6105],[6.6421,4.5938,1.7345],[6.6457,4.5901,2.6749],[6.6485,4.5829,1.4872],[6.6513,4.5663,0.0],[6.6563,4.5565,2.6899],[6.6635,4.5471,0.535],[6.6735,4.5429,2.439],[6.6779,4.539,1.6976],[6.6801,4.5399,1.9161],[6.6782,4.5385,0.0],[6.6796,4.5326,0.0],[6.6785,4.5276,4.1657],[6.6718,4.5229,0.0],[6.6654,4.5149,8.4803],[6.6599,4.5115,1.6409],[6.6601,4.5062,2.3045],[6.6682,4.4993,4.3559],[6.6746,4.4882,3.8091],[6.6762,4.4812,0.0],[6.6762,4.4685,0.0],[6.6826,4.4463,5.0213],[6.694,4.4221,1.3557],[6.6996,4.4237,0.0],[6.7001,4.4315,0.0],[6.6957,4.4615,1.1984],[6.6913,4.4721,0.0],[6.6907,4.4824,6.2214],[6.6924,4.4929,2.0268],[6.689,4.5121,0.0],[6.6974,4.5379,0.0],[6.7012,4.5429,0.0],[6.7043,4.5507,14.5976],[6.7126,4.5593,0.4134],[6.7129,4.5624,1.7028],[6.709,4.564,3.3979],[6.7135,4.5651,0.0],[6.7188,4.5768,0.0],[6.721,4.6015,1.3224],[6.7176,4.6115,0.0],[6.7157,4.6112,2.6644],[6.7146,4.6079,0.8266],[6.7115,4.6063,1.2278]]],
[[[6.6035,4.5565,1.2242],[6.6004,4.5574,0.0],[6.5985,4.5535,1.9952],[6.5968,4.5485,4.5543],[6.5979,4.5421,3.151],[6.6007,4.5426,6.8476],[6.6129,4.5529,1.8437],[6.6126,4.5551,1.8539],[6.6035,4.5565,1.2242]]],
[[[6.6201,4.5532,5.0159],[6.6201,4.556,0.8598],[6.6143,4.5563,1.0318],[6.6129,4.5515,3.7299],[6.6076,4.5482,3.1746],[6.6071,4.546,5.9599],[6.6137,4.5454,0.0],[6.6201,4.5532,5.0159]]],
[[[6.6368,4.5965,7.3143],[6.6246,4.5971,0.0],[6.6224,4.5932,1.2353],[6.6165,4.5901,0.6441],[6.6171,4.5868,1.0073],[6.6204,4.5829,1.6992],[6.6185,4.5804,2.1799],[6.6126,4.5785,10.1382],[6.6126,4.5665,8.5652],[6.6079,4.5588,4.0448],[6.6213,4.5565,3.5596],[6.6215,4.5524,2.9839],[6.6154,4.5454,9.365],[6.6154,4.5432,0.0],[6.6271,4.5329,1.9453],[6.6388,4.5112,1.7975],[6.6449,4.5074,14.516],[6.6535,4.5099,4.0773],[6.6618,4.5218,4.6588],[6.6671,4.5257,9.5358],[6.6746,4.5276,0.0],[6.6762,4.5321,5.416],[6.6712,4.5382,5.6291],[6.6574,4.5468,8.5954],[6.6476,4.5618,1.6999],[6.6476,4.5682,0.0],[6.6443,4.5818,4.7955],[6.6404,4.5885,1.5199],[6.6388,4.596,0.0],[6.6368,4.5965,7.3143]]],
[[[6.6015,4.6412,2.0686],[6.6001,4.6435,0.2797],[6.5951,4.641,0.5406],[6.5874,4.6421,1.3271],[6.5857,4.6396,1.9982],[6.5874,4.6321,1.6347],[6.5921,4.6307,4.1685],[6.5943,4.6274,4.5374],[6.5887,4.6187,4.8444],[6.5887,4.614,3.5836],[6.5918,4.6018,0.0],[6.5907,4.5957,2.1946],[6.5963,4.5954,3.7588],[6.5974,4.5921,1.3621],[6.5921,4.5865,4.4905],[6.5915,4.5826,1.1999],[6.6001,4.5724,0.0],[6.6004,4.5601,0.0],[6.6046,4.5568,1.5633],[6.6121,4.5668,0.0],[6.6115,4.5765,3.7138],[6.6121,4.5788,2.4537],[6.6196,4.5826,1.6992],[6.6162,4.5871,3.3846],[6.616,4.5904,0.6441],[6.6221,4.5938,3.0573],[6.6224,4.5963,7.7542],[6.6149,4.6057,1.0453],[6.6124,4.6129,3.0297],[6.6146,4.6187,1.7655],[6.6221,4.626,2.4224],[6.6229,4.6299,0.0],[6.6179,4.6349,1.9931],[6.6068,4.6354,0.6607],[6.6032,4.6379,0.1778],[6.6015,4.6412,2.0686]]],
[[[6.5846,4.671,3.2286],[6.5826,4.6721,0.9142],[6.5813,4.6718,0.0],[6.5857,4.6687,0.0],[6.5846,4.671,3.2286]]]]}
,"properties": {"GID_2": "NGA.6.1_1","GID_0": "NGA","country": "Nigeria","GID_1": "NGA.6_1","province": "Bayelsa","NL_NAME_1": "NA","county": "Brass","VARNAME_2": "NA","NL_NAME_2": "NA","TYPE_2": "LocalAuthority","ENGTYPE_2": "LocalAuthority","CC_2": "NA","HASC_2": "NA","name": "Brass.county","area_km2": 1708.258,"hist_schema_id": "Elevation0-9000","hist_area_km2": {"0": 1388.4,"25": 319.858}}}