{"type": "Feature","bbox": [8.6889,5.9112,9.3329,6.5593],"geometry": {"type": "MultiPolygon","coordinates": [[[[9.3329,6.2929,227.75],[9.2965,6.3177,270.5515],[9.2881,6.3282,569.9765],[9.2846,6.3391,336.3464],[9.2772,6.3514,245.9939],[9.2762,6.364,256.8124],[9.2678,6.381,510.0309],[9.2737,6.3839,662.2871],[9.2816,6.396,336.6822],[9.2769,6.4316,504.9248],[9.2523,6.4777,296.0453],[9.2414,6.4878,227.4416],[9.2293,6.4958,467.0067],[9.211,6.5015,351.9027],[9.1926,6.5044,752.3046],[9.1713,6.4986,237.8761],[9.1578,6.4923,161.4075],[9.1142,6.4672,187.7876],[9.1138,6.4688,191.0603],[9.1084,6.4639,216.2931],[9.0264,6.4534,184.3712],[8.9973,6.441,152.3333],[8.9678,6.4382,830.9929],[8.9357,6.4568,120.4326],[8.9222,6.4748,114.6],[8.8873,6.4733,115.8209],[8.8729,6.4703,109.812],[8.8609,6.4699,104.7855],[8.8513,6.4749,117.7214],[8.8394,6.4917,101.3241],[8.834,6.5028,105.792],[8.8298,6.5416,108.3721],[8.8199,6.5593,95.5059],[8.8056,6.5556,94.7345],[8.8016,6.5508,80.8778],[8.7927,6.5454,76.0644],[8.7819,6.5334,77.2773],[8.7747,6.5287,81.5562],[8.7652,6.5097,104.2429],[8.7649,6.5051,107.0992],[8.7613,6.5003,100.801],[8.7602,6.4863,91.3234],[8.7619,6.4817,88.72],[8.7579,6.4757,101.2628],[8.7558,6.4603,116.9902],[8.7422,6.4465,107.6421],[8.7439,6.4393,109.4467],[8.7419,6.4292,107.5938],[8.7237,6.4127,129.8663],[8.7151,6.409,117.1382],[8.7061,6.3953,87.1121],[8.699,6.3726,100.6929],[8.6938,6.3642,128.9688],[8.6889,6.3608,110.8835],[8.6938,6.3506,116.6788],[8.7106,6.3289,101.0514],[8.7225,6.3081,124.2012],[8.7334,6.2725,125.4494],[8.7383,6.2335,100.1225],[8.7353,6.2188,120.4748],[8.7263,6.2037,121.8762],[8.7224,6.1784,88.7281],[8.7105,6.1671,84.4052],[8.7115,6.1463,80.2762],[8.7096,6.1422,71.0153],[8.718,6.1338,67.3049],[8.7233,6.1319,56.5426],[8.7353,6.1215,72.8842],[8.7546,6.114,69.3254],[8.7771,6.0957,75.9914],[8.784,6.0933,83.8959],[8.7914,6.0786,88.1911],[8.8022,6.0632,73.9708],[8.8041,6.0538,101.0917],[8.8111,6.0419,101.9634],[8.8348,6.0394,95.9685],[8.844,6.0351,106.3425],[8.8663,6.0287,90.5206],[8.8806,6.0195,91.1547],[8.9018,6.0019,101.0644],[8.9302,5.9855,98.9162],[8.9429,5.9735,96.3559],[8.9607,5.9554,99.5585],[8.9586,5.9533,103.7669],[8.9608,5.9553,99.5585],[8.9624,5.9536,105.3633],[8.9677,5.9404,103.554],[8.9722,5.9351,104.8809],[8.9427,5.9118,48.8859],[8.9451,5.9112,70.9288],[9.0536,5.9992,101.6021],[9.1075,6.0504,123.9863],[9.1526,6.0906,137.6958],[9.1675,6.1307,118.9333],[9.2117,6.1673,125.3066],[9.2657,6.1842,709.7798],[9.3082,6.2628,219.5026],[9.3217,6.275,194.9371],[9.324,6.2814,209.0582],[9.3209,6.2845,204.2524],[9.3204,6.2877,225.8818],[9.3227,6.2897,210.8401],[9.327,6.2872,225.2319],[9.3301,6.2874,221.3005],[9.3306,6.2925,233.5383],[9.3329,6.2929,227.75]]]]}
,"properties": {"GID_2": "NGA.9.7_1","GID_0": "NGA","country": "Nigeria","GID_1": "NGA.9_1","province": "CrossRiver","NL_NAME_1": "NA","county": "Boki","VARNAME_2": "NA","NL_NAME_2": "NA","TYPE_2": "LocalAuthority","ENGTYPE_2": "LocalAuthority","CC_2": "NA","HASC_2": "NA","name": "Boki.county","area_km2": 2921.125,"hist_schema_id": "Elevation0-9000","hist_area_km2": {"50": 7.526,"75": 70.934,"100": 364.161,"125": 915.018,"150": 589.449,"175": 282.741,"200": 143.024,"225": 88.949,"250": 63.114,"275": 48.742,"300": 41.724,"325": 35.487,"350": 29.881,"375": 25.056,"400": 25.73,"425": 21.81,"450": 19.556,"475": 17.554,"500": 15.215,"525": 12.833,"550": 11.4,"575": 10.789,"600": 8.64,"625": 7.101,"650": 6.427,"675": 6.511,"700": 6.09,"725": 4.425,"750": 4.341,"775": 4.13,"800": 3.962,"825": 3.498,"850": 3.224,"875": 3.35,"900": 2.318,"925": 2.381,"950": 1.833,"975": 1.412,"1000": 1.328,"1025": 1.243,"1050": 1.391,"1075": 0.843,"1100": 1.496,"1125": 0.969,"1150": 0.843,"1175": 0.674,"1200": 0.695,"1225": 0.421,"1250": 0.464,"1275": 0.253,"1300": 0.126}}}