{"type":"Feature","properties":{"GID_2":"NGA.12.2_1","GID_0":"NGA","country":"Nigeria","GID_1":"NGA.12_1","province":"Edo","NL_NAME_1":"NA","county":"Egor","VARNAME_2":"NA","NL_NAME_2":"NA","TYPE_2":"LocalAuthority","ENGTYPE_2":"LocalAuthority","CC_2":"NA","HASC_2":"NA","name":"Egor.county"},
"geometry":{"type": "MultiPolygon","coordinates": [[[[5.6255,6.4062,96.5538],[5.6137,6.4053,111.8583],[5.6046,6.3997,108.8169],[5.5685,6.4047,108.8882],[5.5473,6.3912,99.5684],[5.5353,6.3776,96.1966],[5.5188,6.3548,49.2048],[5.5033,6.3399,75.8273],[5.491,6.3189,75.3238],[5.4902,6.3129,70.914],[5.4918,6.3016,65.7579],[5.4959,6.2937,59.6184],[5.5007,6.2712,47.2281],[5.5136,6.2793,50.7221],[5.5277,6.2954,56.0111],[5.5418,6.3067,64.6466],[5.5811,6.3305,73.4458],[5.6054,6.3487,88.2133],[5.6183,6.3533,91.394],[5.6255,6.4062,96.5538]]]]}}