{"type":"Feature","properties":{"GID_2":"NGA.25.14_1","GID_0":"NGA","country":"Nigeria","GID_1":"NGA.25_1","province":"Lagos","NL_NAME_1":"NA","county":"LagosIsland","VARNAME_2":"NA","NL_NAME_2":"NA","TYPE_2":"LocalAuthority","ENGTYPE_2":"LocalAuthority","CC_2":"NA","HASC_2":"NA","name":"Lagos_Island.county"},
"geometry":{"type": "MultiPolygon","coordinates": [[[[3.4049,6.4471,6.325],[3.4131,6.4529,5.327],[3.4157,6.4579,4.5169],[3.4158,6.4651,0.0],[3.4203,6.4758,0.0],[3.4307,6.4743,0.0],[3.4481,6.4544,4.725],[3.4546,6.4561,0.0],[3.4615,6.4678,0.0],[3.4655,6.4691,0.0],[3.4753,6.4636,0.0],[3.4866,6.4618,0.0],[3.4944,6.4633,0.0],[3.4982,6.4713,0.0],[3.5017,6.4733,0.0],[3.5197,6.4719,0.0],[3.528,6.4687,0.0],[3.562,6.49,0.0],[3.5676,6.4962,0.0],[3.5751,6.5186,0.0],[3.5786,6.5218,0.0],[3.6022,6.5253,0.0],[3.61,6.5215,0.0],[3.6169,6.5336,0.0],[3.621,6.5455,0.0],[3.6295,6.5584,6.2542],[3.6197,6.5649,7.533],[3.5957,6.5759,19.1147],[3.586,6.5744,23.2749],[3.5682,6.5618,8.4114],[3.5565,6.5491,2.6318],[3.5488,6.5474,2.5891],[3.537,6.5411,4.8469],[3.5189,6.5391,4.6117],[3.5137,6.5411,4.2688],[3.5055,6.5378,3.1483],[3.493,6.5437,4.6799],[3.4867,6.5422,4.6734],[3.4812,6.543,0.5968],[3.4744,6.551,1.4703],[3.4671,6.5543,0.0],[3.4628,6.5604,0.0],[3.4613,6.5662,0.0],[3.4618,6.5728,0.0],[3.47,6.5941,0.0],[3.472,6.6061,0.6255],[3.4707,6.6082,0.7078],[3.4626,6.6095,3.8342],[3.4469,6.5929,2.3922],[3.4298,6.5867,2.0397],[3.4285,6.5785,2.3966],[3.4247,6.5718,2.1718],[3.4212,6.5698,1.6708],[3.4161,6.569,1.1266],[3.406,6.5719,1.2614],[3.4007,6.5762,2.4753],[3.3897,6.5718,7.4888],[3.3951,6.5689,5.3669],[3.4014,6.5607,0.7631],[3.4025,6.5533,1.7483],[3.3917,6.5354,9.5711],[3.3967,6.5279,4.2869],[3.3954,6.518,8.3336],[3.385,6.5039,3.6602],[3.3833,6.4977,2.6913],[3.3841,6.4877,6.6026],[3.3876,6.475,0.0],[3.3785,6.471,3.2664],[3.3718,6.4709,1.6476],[3.3682,6.4726,2.7326],[3.3638,6.4704,4.4663],[3.3723,6.4578,0.3313],[3.3819,6.4518,0.0],[3.3922,6.4475,4.6872],[3.4014,6.4485,6.4729],[3.4049,6.4471,6.325]]]]}}