{"type":"Feature","properties":{"GID_2":"NGA.24.15_1","GID_0":"NGA","country":"Nigeria","GID_1":"NGA.24_1","province":"Kwara","NL_NAME_1":"NA","county":"Oyun","VARNAME_2":"NA","NL_NAME_2":"NA","TYPE_2":"LocalAuthority","ENGTYPE_2":"LocalAuthority","CC_2":"NA","HASC_2":"NA","name":"Oyun.county"},
"geometry":{"type": "MultiPolygon","coordinates": [[[[4.5005,8.097,378.861],[4.5109,8.0656,386.9393],[4.5203,8.0499,386.9421],[4.5244,8.046,369.7255],[4.529,8.0475,367.6315],[4.5373,8.0453,345.1991],[4.5477,8.0449,372.0308],[4.5556,8.0342,389.2986],[4.5737,8.0377,384.7527],[4.5969,8.0336,396.0934],[4.62,8.0362,364.4627],[4.6514,8.0355,381.5944],[4.6645,8.0309,388.5514],[4.6892,8.0307,375.0534],[4.708,8.0329,389.7104],[4.7313,8.0357,399.6947],[4.7525,8.0437,441.0201],[4.7658,8.0536,404.4072],[4.7944,8.063,436.0123],[4.7944,8.0673,447.8757],[4.7893,8.0787,435.5168],[4.7823,8.1014,446.1638],[4.7807,8.1189,425.954],[4.762,8.1718,391.8682],[4.7552,8.1814,381.2223],[4.7545,8.1913,393.6649],[4.7454,8.2041,395.3697],[4.7441,8.2219,401.0277],[4.7278,8.2563,383.7063],[4.711,8.286,391.4363],[4.7001,8.3109,401.1146],[4.6936,8.323,399.6425],[4.6832,8.3357,366.7321],[4.679,8.3329,365.2659],[4.6726,8.3182,334.6706],[4.6573,8.3026,346.8021],[4.6441,8.2966,343.1359],[4.6395,8.2856,351.4919],[4.6196,8.2514,392.89],[4.6166,8.239,397.0012],[4.5976,8.2324,451.4941],[4.593,8.2203,458.0283],[4.5919,8.2122,451.0732],[4.5872,8.2033,448.8998],[4.5914,8.1908,447.2689],[4.5954,8.1843,456.7743],[4.6172,8.163,411.3022],[4.6191,8.1507,394.5092],[4.6139,8.143,404.7684],[4.6046,8.1397,404.8345],[4.5678,8.117,382.9427],[4.5339,8.1056,369.4932],[4.514,8.1018,371.6105],[4.5005,8.097,378.861]],
[[4.7471,8.1347,433.6087],[4.7501,8.1331,428.1398],[4.7496,8.1351,430.5471],[4.7553,8.1293,425.7627],[4.7602,8.1165,423.5396],[4.7594,8.1119,414.6544],[4.7566,8.1069,414.5772],[4.7484,8.102,404.5984],[4.7371,8.0996,418.1926],[4.7278,8.0954,410.1719],[4.6934,8.0949,406.2639],[4.6843,8.1008,430.2385],[4.6582,8.1007,403.4352],[4.6446,8.1026,378.0593],[4.642,8.1098,401.024],[4.6311,8.1206,414.9191],[4.6307,8.1252,425.6917],[4.6326,8.1274,409.0933],[4.6514,8.135,425.1945],[4.6637,8.153,422.7568],[4.6747,8.1652,451.9046],[4.6861,8.1853,434.0887],[4.699,8.1987,401.0147],[4.7159,8.2032,388.7459],[4.723,8.2006,379.061],[4.7254,8.1938,389.5077],[4.7265,8.1745,402.7351],[4.7294,8.17,395.3694],[4.7307,8.1597,392.3314],[4.7371,8.1462,409.6508],[4.7412,8.1438,419.0404],[4.7471,8.1347,433.6087]]]]}}