{"type": "Feature","bbox": [7.8161,4.5225,8.3224,4.5964],"geometry": {"type": "MultiPolygon","coordinates": [[[[7.8283,4.5225,14.6909],[7.9246,4.534,2.6166],[7.926,4.5354,0.7957],[7.924,4.539,1.5828],[7.9265,4.5362,0.0],[7.9349,4.5382,0.913],[7.9326,4.536,0.3656],[7.9465,4.5354,0.0],[7.9807,4.5382,0.0],[7.9854,4.5424,0.0],[8.0015,4.5404,1.5593],[8.0118,4.5429,3.5531],[8.1007,4.546,4.1499],[8.1351,4.5443,0.0],[8.1657,4.5465,3.3554],[8.1935,4.5449,3.1353],[8.2265,4.541,4.9901],[8.2515,4.5351,0.0],[8.2738,4.5337,0.0],[8.2832,4.5376,3.0606],[8.2821,4.539,2.3825],[8.2799,4.5376,3.4626],[8.2818,4.5449,0.0],[8.2824,4.5554,0.6822],[8.2812,4.5576,3.3227],[8.2832,4.5574,0.6041],[8.2901,4.5635,0.0],[8.2949,4.5707,0.6299],[8.2949,4.5732,0.7923],[8.291,4.5726,3.1076],[8.2846,4.5751,3.6364],[8.2801,4.5801,3.465],[8.2774,4.5804,9.6248],[8.2704,4.5785,2.484],[8.2699,4.574,4.824],[8.2671,4.5707,3.7593],[8.256,4.5682,2.3838],[8.2579,4.5696,2.2591],[8.2576,4.5738,2.3227],[8.2549,4.5765,2.2711],[8.2563,4.5765,2.2711],[8.2579,4.5749,2.3227],[8.2585,4.5699,2.2591],[8.2615,4.5699,0.0],[8.2679,4.5726,0.0],[8.2696,4.5788,1.0492],[8.276,4.5821,3.7504],[8.2749,4.5871,7.8567],[8.271,4.5924,0.0],[8.2626,4.589,1.2283],[8.2582,4.5909,5.6456],[8.2416,4.5905,4.3127],[8.2358,4.5883,3.9457],[8.2242,4.5871,2.907],[8.1916,4.5925,13.3295],[8.1846,4.59,14.6998],[8.1611,4.5907,14.5413],[8.134,4.5964,14.5936],[8.1212,4.5948,13.6328],[8.0963,4.5955,13.7935],[8.0905,4.5921,15.2131],[8.0702,4.5892,13.8199],[8.0613,4.585,16.5216],[8.0164,4.5846,7.1973],[7.9805,4.5774,7.6607],[7.967,4.573,7.4578],[7.9593,4.5669,2.8441],[7.9438,4.5602,2.4937],[7.9363,4.553,5.5227],[7.9053,4.5376,2.6908],[7.8941,4.5443,7.5184],[7.8828,4.5456,12.5363],[7.8475,4.5441,6.905],[7.8246,4.5376,7.1549],[7.8217,4.5464,14.7548],[7.8188,4.5495,14.188],[7.8161,4.5494,15.882],[7.8283,4.5225,14.6909]]],
[[[8.3204,4.5582,0.0],[8.3224,4.5624,0.0],[8.3199,4.5621,0.0],[8.3179,4.5596,0.0],[8.3204,4.5582,0.0]]],
[[[8.2626,4.5899,1.2283],[8.2626,4.5899,1.2283],[8.2621,4.59,1.2283],[8.2621,4.5899,1.2283],[8.2626,4.5899,1.2283]]]]}
,"properties": {"GID_2": "NGA.3.8_1","GID_0": "NGA","country": "Nigeria","GID_1": "NGA.3_1","province": "AkwaIbom","NL_NAME_1": "NA","county": "Ibeno","VARNAME_2": "NA","NL_NAME_2": "NA","TYPE_2": "LocalAuthority","ENGTYPE_2": "LocalAuthority","CC_2": "NA","HASC_2": "NA","name": "Ibeno.county","area_km2": 210.674,"hist_schema_id": "Elevation0-9000","hist_area_km2": {"0": 134.8635,"25": 75.8106}}}