{"type":"Feature","properties":{"GID_2":"NGA.3.14_1","GID_0":"NGA","country":"Nigeria","GID_1":"NGA.3_1","province":"AkwaIbom","NL_NAME_1":"NA","county":"IkotEkpene","VARNAME_2":"NA","NL_NAME_2":"NA","TYPE_2":"LocalAuthority","ENGTYPE_2":"LocalAuthority","CC_2":"NA","HASC_2":"NA","name":"Ikot_Ekpene.county"},
"geometry":{"type": "MultiPolygon","coordinates": [[[[7.7528,5.1394,91.8576],[7.7436,5.1519,92.1747],[7.741,5.1602,86.1959],[7.742,5.1651,88.6287],[7.7335,5.179,79.9199],[7.732,5.1899,96.7572],[7.7269,5.2038,100.8535],[7.7171,5.2229,103.2708],[7.7107,5.2262,94.5864],[7.7115,5.2359,99.2824],[7.7094,5.2469,102.5168],[7.7054,5.2535,101.1597],[7.6959,5.2589,103.329],[7.6845,5.258,112.4926],[7.681,5.2564,115.973],[7.6781,5.2491,102.4428],[7.6677,5.2488,89.143],[7.6644,5.247,90.3399],[7.663,5.2411,95.3255],[7.6613,5.2399,85.3441],[7.6507,5.2396,73.2849],[7.6421,5.2354,96.0424],[7.64,5.2318,93.114],[7.6351,5.203,48.3771],[7.6277,5.1838,91.3232],[7.6138,5.1672,79.292],[7.6011,5.1587,78.6505],[7.624,5.1567,80.6554],[7.635,5.154,83.0928],[7.6408,5.1546,75.0486],[7.6504,5.147,83.2572],[7.665,5.1408,74.6993],[7.6722,5.1404,35.9827],[7.6774,5.1383,37.1063],[7.7065,5.1373,84.6819],[7.722,5.126,80.5048],[7.7273,5.1268,80.9192],[7.7304,5.13,84.2673],[7.7377,5.1294,85.1504],[7.744,5.1321,83.3589],[7.7528,5.1394,91.8576]]]]}}