{"type":"Feature","properties":{"GID_2":"NGA.16.2_1","GID_0":"NGA","country":"Nigeria","GID_1":"NGA.16_1","province":"Gombe","NL_NAME_1":"NA","county":"Balanga","VARNAME_2":"NA","NL_NAME_2":"NA","TYPE_2":"LocalAuthority","ENGTYPE_2":"LocalAuthority","CC_2":"NA","HASC_2":"NA","name":"Balanga.county"},
"geometry":{"type": "MultiPolygon","coordinates": [[[[11.9456,10.0448,184.0226],[11.9138,10.0594,186.7143],[11.8824,10.08,216.9653],[11.8531,10.1056,258.5409],[11.8512,10.1095,264.6738],[11.8438,10.106,244.3385],[11.833,10.1075,229.4019],[11.8244,10.1065,266.5896],[11.8001,10.1122,202.7948],[11.79,10.113,202.9165],[11.7465,10.1121,224.668],[11.7167,10.1038,216.9332],[11.6922,10.0924,218.7874],[11.6544,10.0849,226.5649],[11.6195,10.0682,234.9343],[11.6139,10.0641,234.6357],[11.6147,10.0487,249.8191],[11.6186,10.0302,275.9171],[11.6192,10.0092,274.8766],[11.6151,9.9961,285.0228],[11.6164,9.9818,300.5016],[11.6255,9.9565,336.5674],[11.6454,9.9294,429.1522],[11.6759,9.8946,381.8934],[11.6824,9.889,507.506],[11.723,9.868,595.8231],[11.718,9.8499,542.1848],[11.7078,9.8291,537.3632],[11.692,9.8048,654.8911],[11.667,9.7764,645.722],[11.6551,9.7666,628.0022],[11.6138,9.752,486.2769],[11.5714,9.7407,462.0021],[11.554,9.7396,478.1025],[11.5287,9.7439,566.271],[11.5064,9.7502,635.3202],[11.4887,9.7512,555.0932],[11.4728,9.7461,636.7597],[11.4529,9.7358,493.5111],[11.4451,9.7287,478.4628],[11.4118,9.6868,361.7452],[11.4112,9.6799,347.961],[11.4035,9.6583,306.2094],[11.3961,9.616,666.3777],[11.3949,9.5844,264.5753],[11.4787,9.5864,199.824],[11.5673,9.5956,221.7214],[11.6261,9.6065,326.718],[11.6804,9.6295,757.7528],[11.7249,9.6586,452.2849],[11.8323,9.7201,455.2875],[11.889,9.7562,494.3636],[11.9252,9.7843,231.8551],[11.9429,9.8216,197.1899],[11.9345,9.8809,200.5198],[11.9359,9.9365,202.2342],[11.9456,10.0448,184.0226]]]]}}