{"type":"Feature","properties":{"GID_2":"NGA.19.15_1","GID_0":"NGA","country":"Nigeria","GID_1":"NGA.19_1","province":"Kaduna","NL_NAME_1":"NA","county":"Kubau","VARNAME_2":"NA","NL_NAME_2":"NA","TYPE_2":"LocalAuthority","ENGTYPE_2":"LocalAuthority","CC_2":"NA","HASC_2":"NA","name":"Kubau.county"},
"geometry":{"type": "MultiPolygon","coordinates": [[[[8.1756,11.1053,647.053],[8.1595,11.0904,643.2951],[8.1599,11.0689,651.145],[8.1628,11.0412,655.3992],[8.1767,11.0154,639.7972],[8.1951,10.9869,643.762],[8.203,10.9805,642.3959],[8.2467,10.9629,663.6245],[8.2588,10.9538,660.342],[8.2657,10.9296,664.9231],[8.2574,10.9087,652.046],[8.2127,10.8678,694.3747],[8.1908,10.8452,685.8829],[8.0788,10.7744,644.6624],[8.0444,10.733,665.1677],[8.0371,10.7262,648.5652],[8.0197,10.6828,677.4561],[8.0176,10.6671,681.0156],[8.0566,10.6705,683.8557],[8.0744,10.6755,695.1295],[8.1365,10.6568,654.8243],[8.1696,10.6497,666.6785],[8.2301,10.6258,682.7429],[8.2614,10.5861,663.4059],[8.2833,10.5683,667.342],[8.3106,10.5501,662.4449],[8.3495,10.5341,666.0083],[8.3844,10.5307,675.5477],[8.4055,10.5229,800.0827],[8.412,10.5321,756.1144],[8.4168,10.5492,735.0286],[8.411,10.588,935.458],[8.415,10.601,880.259],[8.4173,10.6232,877.2356],[8.4247,10.6401,792.8255],[8.4539,10.6589,834.8298],[8.4817,10.6677,730.3782],[8.4777,10.6813,727.1125],[8.4867,10.6938,701.1868],[8.4972,10.6997,690.254],[8.5243,10.7014,703.603],[8.544,10.7092,720.2819],[8.5557,10.7268,732.8064],[8.559,10.7544,737.3525],[8.5395,10.851,785.9366],[8.5407,10.8746,887.8555],[8.5558,10.9295,653.45],[8.5721,10.9685,611.619],[8.5698,11.0123,620.1235],[8.566,11.0303,606.5038],[8.5499,11.0572,605.8008],[8.5379,11.0848,608.6572],[8.5227,11.1138,616.7712],[8.5118,11.1279,609.4263],[8.4797,11.1224,632.2247],[8.4621,11.1222,643.2226],[8.4436,11.1237,648.6873],[8.421,11.1309,656.0771],[8.396,11.1579,629.1092],[8.3816,11.1705,627.8935],[8.3734,11.1859,621.7151],[8.3666,11.1882,612.4193],[8.3586,11.1768,620.4465],[8.3626,11.1597,616.4997],[8.3799,11.1353,648.9429],[8.387,11.1218,660.6754],[8.3884,11.1095,671.3603],[8.3856,11.0966,673.7875],[8.3738,11.087,676.4023],[8.3528,11.0861,684.8854],[8.3305,11.0965,676.7227],[8.3053,11.0998,648.7501],[8.2402,11.1142,667.2584],[8.217,11.1143,665.7475],[8.1925,11.1115,661.0824],[8.1756,11.1053,647.053]]]]}}