{"type":"Feature","properties":{"GID_2":"NGA.20.3_1","GID_0":"NGA","country":"Nigeria","GID_1":"NGA.20_1","province":"Kano","NL_NAME_1":"NA","county":"Bagwai","VARNAME_2":"NA","NL_NAME_2":"NA","TYPE_2":"LocalAuthority","ENGTYPE_2":"LocalAuthority","CC_2":"NA","HASC_2":"NA","name":"Bagwai.county"},
"geometry":{"type": "MultiPolygon","coordinates": [[[[8.1048,12.1896,511.5991],[8.1051,12.1864,507.673],[8.1028,12.1839,505.1588],[8.0968,12.1806,502.26],[8.089,12.1798,505.0807],[8.088,12.1715,512.9872],[8.0839,12.1608,520.2422],[8.0747,12.1522,531.3745],[8.0607,12.1462,512.7416],[8.0437,12.1511,512.6843],[8.0331,12.1561,534.1439],[8.0243,12.149,528.6452],[8.0121,12.1327,536.0618],[8.0061,12.1278,533.9288],[7.9999,12.1335,538.7892],[7.9981,12.1334,539.1996],[7.9944,12.0963,538.3804],[7.9969,12.0519,578.148],[8.0011,12.0484,570.6387],[8.0135,12.0479,567.172],[8.065,12.0534,560.1719],[8.0749,12.0526,553.4206],[8.0912,12.0401,541.9142],[8.0928,12.0288,549.5739],[8.0974,12.0157,550.0311],[8.0993,12.0001,545.4794],[8.0985,11.9878,548.1343],[8.1017,11.9819,540.609],[8.1067,11.9755,533.2379],[8.1107,11.9735,528.0293],[8.1229,11.9731,525.4748],[8.1357,11.9651,518.0],[8.1424,11.9708,523.0784],[8.151,11.9723,533.649],[8.1805,11.9835,533.1014],[8.2053,11.9975,525.2228],[8.2174,12.0098,513.7286],[8.2262,12.0279,509.2423],[8.2285,12.0349,504.9269],[8.2265,12.0503,506.9275],[8.2219,12.0643,509.3573],[8.2202,12.0887,491.4062],[8.2142,12.0974,498.9081],[8.2085,12.0973,502.7287],[8.1985,12.1108,489.1233],[8.1921,12.1162,498.5086],[8.1863,12.1162,505.887],[8.1805,12.1389,493.3229],[8.1738,12.1497,491.3598],[8.1689,12.1667,485.4189],[8.1472,12.1777,502.0],[8.1262,12.1853,503.1442],[8.1048,12.1896,511.5991]]]]}}