{"type":"Feature","properties":{"GID_2":"NGA.9.12_1","GID_0":"NGA","country":"Nigeria","GID_1":"NGA.9_1","province":"CrossRiver","NL_NAME_1":"NA","county":"Obanliku","VARNAME_2":"NA","NL_NAME_2":"NA","TYPE_2":"LocalAuthority","ENGTYPE_2":"LocalAuthority","CC_2":"NA","HASC_2":"NA","name":"Obanliku.county"},
"geometry":{"type": "MultiPolygon","coordinates": [[[[9.4674,6.456,367.1427],[9.4583,6.4755,389.9515],[9.4475,6.488,460.2781],[9.4219,6.5254,389.8239],[9.4013,6.5478,293.071],[9.3795,6.5827,401.3596],[9.3601,6.5975,852.0262],[9.351,6.6097,495.6937],[9.3306,6.6306,267.1254],[9.3119,6.6544,347.6763],[9.3024,6.6612,296.1285],[9.2902,6.6753,246.7494],[9.2791,6.6773,231.5573],[9.266,6.6869,249.9357],[9.2422,6.6892,271.7142],[9.2378,6.6875,287.8406],[9.224,6.6904,245.9626],[9.2161,6.6905,221.0641],[9.1934,6.6877,224.458],[9.1688,6.6785,220.1167],[9.1685,6.6703,228.013],[9.166,6.6665,224.7808],[9.1673,6.6584,190.9497],[9.166,6.6551,184.9702],[9.1613,6.6522,178.7735],[9.1616,6.6467,201.4726],[9.1594,6.6446,197.8575],[9.16,6.6359,200.7892],[9.154,6.6306,209.98],[9.1509,6.6248,216.4831],[9.1308,6.6127,183.6408],[9.1279,6.6063,185.4356],[9.1229,6.6012,192.4564],[9.1014,6.5915,187.1648],[9.0816,6.5852,186.499],[9.0887,6.5758,220.9675],[9.0855,6.5734,279.2939],[9.0832,6.5638,199.5538],[9.0768,6.5582,178.679],[9.0866,6.5382,252.423],[9.0882,6.5217,750.3594],[9.0915,6.5127,827.4921],[9.1023,6.4978,533.1941],[9.1019,6.4936,605.8481],[9.1118,6.4762,204.9874],[9.1142,6.4672,187.7876],[9.1578,6.4923,161.4075],[9.1713,6.4986,237.8761],[9.1926,6.5044,752.3046],[9.211,6.5015,351.9027],[9.2293,6.4958,467.0067],[9.2414,6.4878,227.4416],[9.2523,6.4777,296.0453],[9.2769,6.4316,504.9248],[9.2816,6.396,336.6822],[9.2737,6.3839,662.2871],[9.2678,6.381,510.0309],[9.2762,6.364,256.8124],[9.2772,6.3514,245.9939],[9.2846,6.3391,336.3464],[9.2881,6.3282,569.9765],[9.2965,6.3177,270.5515],[9.3329,6.2929,227.75],[9.3364,6.3033,249.3944],[9.3372,6.3153,248.2535],[9.3339,6.3197,310.8996],[9.3348,6.3221,281.4404],[9.3435,6.3289,301.7623],[9.3435,6.3365,347.6766],[9.3421,6.3386,421.5043],[9.3434,6.3511,437.8288],[9.3483,6.3539,529.235],[9.3868,6.3385,1133.5381],[9.3932,6.3336,1196.0198],[9.4089,6.327,1170.9807],[9.4157,6.3217,1069.4102],[9.4313,6.3172,882.5608],[9.4336,6.3285,812.2534],[9.442,6.3486,607.1143],[9.4408,6.3537,549.6489],[9.4437,6.3561,522.8907],[9.4426,6.3659,497.1268],[9.4459,6.3736,470.0304],[9.4445,6.3761,466.1967],[9.4451,6.3817,450.5097],[9.4506,6.3865,433.95],[9.4516,6.3982,443.4899],[9.4568,6.4096,405.5129],[9.4579,6.4176,403.6465],[9.4556,6.4216,395.9096],[9.4585,6.4231,397.3293],[9.4584,6.4261,395.1375],[9.4601,6.4261,391.3249],[9.4605,6.4285,389.7415],[9.4576,6.4329,383.8754],[9.4601,6.4349,376.2886],[9.4606,6.4395,377.9244],[9.4635,6.4449,370.6206],[9.4645,6.4544,376.0642],[9.4674,6.456,367.1427]]]]}}