{"type":"Feature","properties":{"GID_2":"NGA.34.19_1","GID_0":"NGA","country":"Nigeria","GID_1":"NGA.34_1","province":"Sokoto","NL_NAME_1":"NA","county":"Tangaza","VARNAME_2":"NA","NL_NAME_2":"NA","TYPE_2":"LocalAuthority","ENGTYPE_2":"LocalAuthority","CC_2":"NA","HASC_2":"NA","name":"Tangaza.county"},
"geometry":{"type": "MultiPolygon","coordinates": [[[[4.8618,13.7806,291.536],[4.8555,13.7672,283.3968],[4.8533,13.7564,278.8135],[4.8478,13.7482,275.0149],[4.8363,13.7375,282.4696],[4.8324,13.7294,279.488],[4.8354,13.6897,276.135],[4.8287,13.6682,272.1073],[4.808,13.6261,272.3293],[4.8025,13.5938,269.1414],[4.7991,13.5381,265.8269],[4.7989,13.524,237.7376],[4.8011,13.5021,234.3761],[4.7995,13.4816,246.8971],[4.8035,13.4639,248.3148],[4.7981,13.4493,248.35],[4.7908,13.409,259.5168],[4.7717,13.3587,266.0851],[4.7679,13.3277,262.1132],[4.7628,13.3134,267.9504],[4.7598,13.2963,263.7372],[4.7608,13.287,260.9706],[4.7858,13.2802,257.4088],[4.8046,13.27,254.6793],[4.83,13.2671,253.1944],[4.844,13.2682,248.5563],[4.8774,13.275,252.8928],[4.9081,13.2853,257.7736],[4.9209,13.288,261.6354],[4.9338,13.2882,264.0975],[4.9397,13.2827,268.3744],[4.9498,13.265,271.0524],[4.9504,13.2549,261.8574],[4.9546,13.2411,267.4633],[4.9787,13.2162,247.89],[4.9861,13.2064,254.0571],[5.0073,13.1986,278.0627],[5.042,13.1745,285.761],[5.071,13.1601,287.8562],[5.0802,13.1572,292.5983],[5.0925,13.1506,295.5839],[5.1112,13.1509,301.8846],[5.1385,13.1696,310.3393],[5.1378,13.1719,310.6095],[5.1514,13.1869,299.4597],[5.1555,13.2079,323.4991],[5.1632,13.2223,324.1922],[5.1643,13.2288,320.0912],[5.1723,13.2416,321.5948],[5.1806,13.2495,318.6241],[5.1901,13.2699,286.5737],[5.1885,13.2822,276.6725],[5.18,13.3058,284.8546],[5.1821,13.316,284.4648],[5.1792,13.3407,263.3381],[5.1831,13.3583,263.1396],[5.1858,13.3818,262.6054],[5.2046,13.4238,259.6406],[5.2074,13.44,263.9515],[5.2036,13.4554,264.3495],[5.2027,13.4856,275.727],[5.1962,13.5135,271.5602],[5.1944,13.5402,276.4333],[5.1911,13.5515,278.7872],[5.1903,13.5748,271.5261],[5.1813,13.6001,291.5797],[5.1772,13.6508,320.4499],[5.1742,13.6637,298.124],[5.1749,13.6803,282.6575],[5.1864,13.7206,283.3337],[5.1909,13.744,275.3738],[5.1717,13.7461,285.1332],[5.1646,13.7446,284.9097],[5.148,13.7465,297.1855],[5.1351,13.7506,270.4636],[5.1287,13.7495,284.156],[5.106,13.7525,304.176],[5.0019,13.7412,264.1682],[4.9095,13.7486,265.2577],[4.8983,13.7544,271.5053],[4.8761,13.7753,286.5213],[4.8707,13.7825,288.3731],[4.8618,13.7806,291.536]]]]}}