{"type": "Feature","bbox": [7.3598,5.4059,7.5261,5.5268],"geometry": {"type": "MultiPolygon","coordinates": [[[[7.5261,5.4722,121.2603],[7.5207,5.472,127.8886],[7.5104,5.4764,156.9887],[7.4893,5.4739,120.6659],[7.476,5.4753,153.2951],[7.4642,5.4774,155.6186],[7.448,5.4843,151.9931],[7.4435,5.4943,103.7902],[7.4447,5.4984,129.8082],[7.4428,5.5065,87.1426],[7.4452,5.5155,87.8041],[7.4415,5.5243,99.533],[7.4103,5.5241,73.2201],[7.4024,5.5268,56.3268],[7.3982,5.5144,69.4979],[7.3839,5.4999,57.7065],[7.3785,5.4824,62.9293],[7.3649,5.4506,62.3424],[7.3598,5.4451,55.5436],[7.3725,5.44,101.0135],[7.3784,5.4344,121.6892],[7.3867,5.4342,140.7711],[7.3927,5.4307,139.0423],[7.4007,5.4287,136.9363],[7.4212,5.4253,132.6157],[7.4569,5.4238,136.1617],[7.4767,5.42,124.0991],[7.4901,5.4094,139.3077],[7.4915,5.4064,138.9847],[7.4942,5.4059,134.6064],[7.5049,5.4117,122.6158],[7.5104,5.4211,129.2357],[7.5131,5.4341,118.1105],[7.518,5.4495,130.9796],[7.5208,5.4536,120.6918],[7.5261,5.4722,121.2603]]]]}
,"properties": {"GID_2": "NGA.1.17_1","GID_0": "NGA","country": "Nigeria","GID_1": "NGA.1_1","province": "Abia","NL_NAME_1": "NA","county": "UmuahiaSouth","VARNAME_2": "NA","NL_NAME_2": "NA","TYPE_2": "LocalAuthority","ENGTYPE_2": "LocalAuthority","CC_2": "NA","HASC_2": "NA","name": "Umuahia_South.county","area_km2": 131.0045,"hist_schema_id": "Elevation0-9000","hist_area_km2": {"50": 0.8442,"75": 13.3592,"100": 20.7254,"125": 43.2046,"150": 50.9505,"175": 1.9206}}}