{"type": "Feature","bbox": [9.9936,12.3858,10.0711,12.4629],"geometry": {"type": "MultiPolygon","coordinates": [[[[10.0477,12.3858,357.1559],[10.0474,12.3905,356.5327],[10.0498,12.3935,356.3747],[10.0505,12.4,356.272],[10.0605,12.4072,356.0641],[10.0698,12.4185,357.9441],[10.0711,12.4232,354.652],[10.069,12.4304,355.7214],[10.0562,12.4489,358.1578],[10.0486,12.4542,357.1868],[10.0375,12.4598,356.4183],[10.0243,12.4629,356.3495],[10.0144,12.46,355.813],[9.9961,12.4482,356.7839],[9.9989,12.4352,357.351],[9.9936,12.4264,357.3074],[9.9983,12.4165,358.0191],[9.9978,12.4102,357.3239],[10.0008,12.4019,356.6253],[10.0065,12.4039,356.4443],[10.0212,12.3999,356.705],[10.0323,12.395,356.8953],[10.0388,12.3876,355.9269],[10.0477,12.3858,357.1559]]]]}
,"properties": {"GID_2": "NGA.18.13_1","GID_0": "NGA","country": "Nigeria","GID_1": "NGA.18_1","province": "Jigawa","NL_NAME_1": "NA","county": "Hadejia","VARNAME_2": "NA","NL_NAME_2": "NA","TYPE_2": "LocalAuthority","ENGTYPE_2": "LocalAuthority","CC_2": "NA","HASC_2": "NA","name": "Hadejia.county","area_km2": 47.45691,"hist_schema_id": "Elevation0-9000","hist_area_km2": {"350": 47.22913,"375": 0.22778}}}