{"type":"Feature","properties":{"GID_2":"NGA.32.12_1","GID_0":"NGA","country":"Nigeria","GID_1":"NGA.32_1","province":"Plateau","NL_NAME_1":"NA","county":"Mikang","VARNAME_2":"NA","NL_NAME_2":"NA","TYPE_2":"LocalAuthority","ENGTYPE_2":"LocalAuthority","CC_2":"NA","HASC_2":"NA","name":"Mikang.county"},
"geometry":{"type": "MultiPolygon","coordinates": [[[[9.6376,9.1385,1178.2688],[9.6174,9.1268,1146.7961],[9.5997,9.1126,575.18],[9.5595,9.0894,981.2742],[9.5458,9.0798,383.7013],[9.5473,9.0834,589.1619],[9.539,9.0973,690.7696],[9.5256,9.0956,705.2256],[9.4966,9.0661,322.9143],[9.4927,9.0648,324.0327],[9.4841,9.0631,347.8756],[9.4717,9.0774,762.8154],[9.4598,9.0865,730.71],[9.4486,9.09,706.4399],[9.4359,9.0772,437.2722],[9.4257,9.0429,311.1183],[9.4181,9.0355,297.7754],[9.4125,9.0344,293.4417],[9.407,9.0412,311.2878],[9.4058,9.0473,310.4587],[9.3982,9.0589,309.0003],[9.3915,9.0649,301.8656],[9.3677,9.0777,332.4304],[9.3458,9.0978,350.8219],[9.3349,9.1041,356.0378],[9.3281,9.0789,329.0067],[9.3054,9.0422,315.0537],[9.2998,9.0251,307.546],[9.3007,9.0257,305.103],[9.3046,9.0184,293.9913],[9.3152,9.0091,280.9645],[9.329,9.0054,288.3831],[9.347,9.0034,262.8376],[9.3805,9.0069,279.8745],[9.3869,9.0009,276.755],[9.3896,8.9778,273.097],[9.4104,8.9421,265.0902],[9.4235,8.9273,240.0784],[9.44,8.9354,230.978],[9.459,8.9399,237.1025],[9.4805,8.952,232.8627],[9.504,8.9578,252.4084],[9.5278,8.9675,269.3009],[9.5474,8.9656,244.3627],[9.5905,8.9665,230.2175],[9.608,8.9589,261.1587],[9.6277,8.9575,245.5453],[9.6473,8.945,248.8477],[9.6918,8.8996,241.8168],[9.703,8.8913,233.9179],[9.719,8.8876,217.397],[9.7265,8.8814,211.9],[9.7368,8.8835,214.6779],[9.7756,8.9345,241.0787],[9.7868,8.9581,230.7177],[9.7884,8.9683,246.4906],[9.787,8.9768,255.5651],[9.7691,9.0175,308.75],[9.7696,9.0219,301.6945],[9.7638,9.0221,300.5217],[9.7541,9.0262,276.028],[9.7374,9.0286,286.8725],[9.7274,9.0391,289.8301],[9.7188,9.0456,290.8141],[9.7045,9.0617,312.2533],[9.6945,9.0807,334.102],[9.6941,9.0846,332.4974],[9.6834,9.0935,327.6422],[9.6829,9.0962,327.3644],[9.6634,9.1219,512.2358],[9.6552,9.1291,996.2501],[9.6376,9.1385,1178.2688]]]]}}