{"type":"Feature","properties":{"GID_2":"NGA.34.6_1","GID_0":"NGA","country":"Nigeria","GID_1":"NGA.34_1","province":"Sokoto","NL_NAME_1":"NA","county":"Gudu","VARNAME_2":"NA","NL_NAME_2":"NA","TYPE_2":"LocalAuthority","ENGTYPE_2":"LocalAuthority","CC_2":"NA","HASC_2":"NA","name":"Gudu.county"},
"geometry":{"type": "MultiPolygon","coordinates": [[[[4.1289,13.344,235.5477],[4.129,13.2126,220.786],[4.2189,13.2155,255.5757],[4.236,13.2147,280.3921],[4.2551,13.205,231.3061],[4.2661,13.2031,231.6492],[4.2906,13.2105,293.9131],[4.3077,13.2211,277.2263],[4.3224,13.2263,251.0104],[4.3409,13.2282,254.053],[4.3531,13.2232,258.7998],[4.3615,13.2092,257.3701],[4.3798,13.1896,256.6858],[4.4044,13.1739,236.756],[4.4313,13.1608,219.9906],[4.4484,13.1435,223.7635],[4.4596,13.1438,233.4926],[4.4879,13.1294,232.7408],[4.5117,13.12,229.0764],[4.5507,13.1105,257.7818],[4.6029,13.094,255.8527],[4.6504,13.0613,255.1279],[4.6688,13.055,241.1497],[4.7,13.0505,226.603],[4.7165,13.0526,226.9941],[4.7293,13.0573,228.2297],[4.7395,13.0662,227.9037],[4.7456,13.0792,227.6419],[4.7626,13.1004,228.3701],[4.769,13.113,227.8557],[4.7687,13.1157,227.3349],[4.7632,13.123,243.4814],[4.7594,13.1405,256.4352],[4.7614,13.1474,258.0649],[4.7599,13.1691,268.3707],[4.7652,13.1867,260.9811],[4.757,13.2166,266.7723],[4.7542,13.2207,272.0159],[4.7642,13.2679,261.3243],[4.7598,13.2963,263.7372],[4.7628,13.3134,267.9504],[4.7679,13.3277,262.1132],[4.7717,13.3587,266.0851],[4.7908,13.409,259.5168],[4.7981,13.4493,248.35],[4.8035,13.4639,248.3148],[4.7995,13.4816,246.8971],[4.8011,13.5021,234.3761],[4.7989,13.524,237.7376],[4.7991,13.5381,265.8269],[4.8025,13.5938,269.1414],[4.808,13.6261,272.3293],[4.8287,13.6682,272.1073],[4.8354,13.6897,276.135],[4.8324,13.7294,279.488],[4.8363,13.7375,282.4696],[4.8478,13.7482,275.0149],[4.8533,13.7564,278.8135],[4.8555,13.7672,283.3968],[4.8618,13.7806,291.536],[4.752,13.7601,273.0466],[4.7423,13.7571,264.5757],[4.626,13.7368,277.2248],[4.5894,13.7285,258.3725],[4.5548,13.7234,275.1462],[4.5502,13.7208,277.876],[4.4802,13.7078,274.4589],[4.4781,13.7048,276.9673],[4.4648,13.7033,273.7214],[4.3502,13.6053,243.3778],[4.3242,13.58,276.6494],[4.3207,13.5791,274.5556],[4.2134,13.4853,229.4263],[4.1974,13.473,225.9519],[4.1972,13.4743,228.3395],[4.182,13.4717,220.2228],[4.173,13.4733,220.6255],[4.1305,13.4726,233.8394],[4.1276,13.4503,218.2226],[4.1299,13.3754,232.592],[4.1289,13.344,235.5477]]]]}}