{"type":"Feature","properties":{"ISO3166-1-Alpha-3":"NGA","country":"Nigeria","fill":"#000","id":"2848","name":"Taraba"},
"geometry":{"type": "Polygon","coordinates": [[[10.99915,9.58631,311.8469],[10.93032,9.60264,448.0144],[10.86428,9.59169,409.9193],[10.74077,9.53446,227.0872],[10.61406,9.53061,221.7752],[10.56042,9.49666,192.3539],[10.58202,9.44836,199.84],[10.58884,9.39591,183.3391],[10.58109,9.33163,186.505],[10.59225,9.25703,167.3259],[10.60062,9.22734,164.4094],[10.61695,9.20006,163.3423],[10.646,9.10508,153.2266],[10.64589,9.07593,152.8534],[10.63897,9.045,168.1127],[10.65178,8.98322,143.618],[10.65302,8.94462,149.9739],[10.6185,8.88013,174.3754],[10.46027,8.80277,146.0015],[10.22886,8.74673,121.0578],[10.18029,8.68975,123.4534],[10.15765,8.65384,121.4403],[10.10536,8.59147,118.838],[10.07735,8.56656,122.3851],[10.00604,8.52798,107.8283],[9.9403,8.48085,126.6506],[9.88212,8.42233,112.5916],[9.81752,8.37313,118.3816],[9.74507,8.35285,99.696],[9.66983,8.34755,143.1807],[9.61547,8.35117,136.0799],[9.58828,8.30815,148.8004],[9.54746,8.282,139.1959],[9.51924,8.28074,148.1477],[9.49082,8.28487,131.8941],[9.46106,8.29342,100.6002],[9.43253,8.29836,109.012],[9.40928,8.31071,129.2681],[9.35998,8.32722,108.9724],[9.33517,8.31696,98.4296],[9.31864,8.29471,94.5931],[9.30809,8.26869,101.5692],[9.30386,8.23805,128.5927],[9.35729,8.17139,94.4009],[9.36039,8.12054,107.4251],[9.35863,8.10294,105.115],[9.36628,8.08436,105.9748],[9.36959,8.05785,93.8862],[9.34902,8.03985,92.4344],[9.20391,7.94368,120.2647],[9.16939,7.91445,72.7246],[9.1141,7.83298,98.357],[9.12609,7.81063,135.6321],[9.15772,7.81751,103.5158],[9.22541,7.84789,160.6889],[9.26479,7.85539,139.0868],[9.41837,7.85968,125.1739],[9.57123,7.84234,155.773],[9.68471,7.76438,128.287],[9.77422,7.6532,192.3749],[9.87664,7.56248,197.8401],[9.92098,7.44639,168.0188],[9.88139,7.32658,211.5597],[9.87467,7.20899,234.8741],[9.83065,7.16843,205.1143],[9.78031,7.13251,207.7027],[9.7397,7.08197,194.8682],[9.70962,7.02412,214.8186],[9.67665,6.84997,195.2504],[9.68037,6.78661,185.3571],[9.66838,6.61851,250.2913],[9.64502,6.5233,199.4137],[9.64482,6.52133,204.7549],[9.64481,6.52123,204.7549],[9.68052,6.52144,239.1952],[9.69303,6.53131,436.0855],[9.69398,6.5343,485.6437],[9.76982,6.77372,179.6775],[9.78853,6.79475,201.094],[9.8123,6.79305,201.9194],[9.83173,6.78357,192.4773],[9.85116,6.77788,205.3677],[9.87462,6.7877,390.0223],[10.11946,6.99441,263.6557],[10.14293,7.00769,230.3142],[10.15688,7.00474,271.0788],[10.16504,6.98852,217.6463],[10.17941,6.91493,302.9301],[10.18985,6.89545,287.489],[10.21083,6.87917,1019.1539],[10.23842,6.871,820.1689],[10.49598,6.87467,907.8451],[10.4966,6.89715,673.287],[10.50073,6.91281,580.4545],[10.5089,6.92635,407.3213],[10.5212,6.94278,385.8537],[10.5275,6.94748,352.2595],[10.53319,6.94883,302.0312],[10.53742,6.95213,292.9988],[10.54331,7.02872,297.4921],[10.55179,7.06634,254.4647],[10.56419,7.10267,218.5609],[10.57866,7.13083,233.4187],[10.59716,7.10727,231.1427],[10.60254,7.05807,226.5396],[10.62062,7.04376,238.6699],[10.64698,7.03508,237.3898],[10.71695,6.99813,248.8144],[10.79911,6.96733,263.5031],[10.83188,6.94521,265.4462],[10.84821,6.90532,325.8358],[10.8574,6.85979,283.9502],[10.87745,6.8161,710.571],[10.90939,6.78426,519.754],[11.00261,6.76726,1318.5542],[11.03672,6.74055,1358.9985],[11.05594,6.70037,1097.8199],[11.05905,6.65272,1343.4255],[11.05739,6.61301,1401.3593],[11.0606,6.57397,1323.6974],[11.07744,6.49674,1437.7668],[11.09708,6.44912,1228.3212],[11.11351,6.434,1271.1538],[11.14038,6.43028,825.4546],[11.20228,6.43674,776.8923],[11.23175,6.43981,755.1396],[11.23712,6.43806,761.7376],[11.24828,6.431,747.7115],[11.25552,6.42997,765.0842],[11.26151,6.43255,757.3311],[11.27216,6.44204,828.7995],[11.27588,6.44421,816.6729],[11.28684,6.44323,1058.9023],[11.30854,6.4379,893.9877],[11.31949,6.43728,787.7665],[11.3442,6.44312,794.9166],[11.36983,6.45576,836.5303],[11.38936,6.47392,978.949],[11.39567,6.49674,1079.2673],[11.40176,6.53818,1654.1917],[11.41675,6.572,1638.0533],[11.4431,6.59327,1469.8566],[11.48259,6.59717,1593.4749],[11.50977,6.61231,1636.4976],[11.53344,6.6451,1693.5634],[11.56237,6.71249,1447.1011],[11.56889,6.7391,1498.4174],[11.57147,6.76623,1706.4904],[11.56661,6.78419,1753.4468],[11.5446,6.80894,1513.457],[11.53809,6.8239,1506.4994],[11.54367,6.85069,1547.0713],[11.56175,6.87607,1577.1101],[11.62325,6.93229,1750.1683],[11.68113,6.96862,1272.6399],[11.68485,6.97384,1392.7078],[11.68846,6.98691,1351.2672],[11.6925,6.99162,1532.7625],[11.69725,6.99286,1639.2125],[11.70748,6.99182,1521.5856],[11.71864,6.99446,1375.5015],[11.73425,6.99508,1476.3391],[11.74107,6.99751,1376.1754],[11.74686,7.00536,1272.1578],[11.74862,7.01497,1524.3097],[11.75151,7.02397,1592.3926],[11.76639,7.03353,1884.7524],[11.80887,7.07192,1851.2869],[11.82034,7.07879,1930.2393],[11.83399,7.08298,1848.6089],[11.84515,7.08195,1813.2292],[11.85414,7.07781,1717.8298],[11.86261,7.07543,1829.0325],[11.87223,7.07936,1773.3158],[11.88132,7.10205,1895.3628],[11.86892,7.12711,1886.2911],[11.82995,7.16938,1424.6547],[11.78024,7.24106,1177.6588],[11.76619,7.25294,1227.325],[11.74241,7.25744,1243.3872],[11.73663,7.26328,1267.5969],[11.74459,7.27217,1254.5312],[11.76247,7.28555,1230.8812],[11.78272,7.30452,1205.46],[11.84473,7.3964,1219.2788],[11.90355,7.45356,1143.7756],[11.90318,7.45386,1082.17],[11.90256,7.45438,1080.4893],[11.89047,7.50484,1130.2354],[11.86566,7.55809,1085.1052],[11.85305,7.62468,370.6646],[11.85316,7.69157,390.8723],[11.805,7.80645,422.0178],[11.70784,7.89771,473.0628],[11.68304,7.92763,392.5701],[11.64769,7.94357,449.7582],[11.61576,7.92934,407.698],[11.59633,7.89859,276.2421],[11.57411,7.87179,336.8992],[11.54785,7.84898,297.1585],[11.51519,7.85221,271.0426],[11.48791,7.88027,310.884],[11.44781,7.9515,345.5023],[11.4043,8.05845,368.8612],[11.41349,8.08964,375.805],[11.46838,8.15361,657.7482],[11.5338,8.21146,766.1088],[11.79218,8.51935,1053.277],[11.85926,8.57387,650.2418],[11.86866,8.60689,750.3803],[11.86349,8.64345,554.8081],[11.87104,8.7127,532.3138],[11.9715,8.91899,377.4098],[11.9654,8.98824,316.7833],[11.92364,9.03932,356.6964],[11.8606,9.0696,429.787],[11.82577,9.12776,571.454],[11.82546,9.16288,368.1068],[11.83011,9.19766,308.6956],[11.82029,9.22864,311.1646],[11.80169,9.25788,294.5824],[11.76727,9.3301,215.2363],[11.7095,9.38147,157.8188],[11.67663,9.39137,140.9563],[11.64283,9.39744,136.0246],[11.61844,9.4202,133.4543],[11.52594,9.59197,200.5486],[11.17485,9.57766,487.433],[11.06861,9.58639,346.0757],[10.99915,9.58631,311.8469]]]}}