{"type": "Feature","bbox": [9.1082,6.5,12.0124,9.6044],"geometry": {"type": "MultiPolygon","coordinates": [[[[9.9111,6.8172,228.149],[9.9644,6.8693,980.5831],[9.9899,6.8916,493.0893],[10.0032,6.9011,702.9192],[10.0134,6.9031,829.8568],[10.0201,6.9205,765.2799],[10.0483,6.9395,384.9412],[10.0658,6.96,445.8708],[10.0795,6.9691,456.8419],[10.1177,7.0055,224.841],[10.1346,7.0189,217.6023],[10.1534,7.0385,198.6306],[10.1629,7.0361,201.8126],[10.1658,7.0339,199.8036],[10.1632,7.0213,208.574],[10.1779,7.0146,206.3692],[10.1795,7.0117,209.9141],[10.1686,7.0002,211.2982],[10.1711,6.9979,216.8161],[10.1715,6.9951,216.3812],[10.1742,6.9934,220.043],[10.1723,6.9907,217.077],[10.1769,6.986,210.6825],[10.1826,6.9848,211.3139],[10.1806,6.9773,220.6046],[10.1813,6.9722,218.6243],[10.1845,6.9666,213.4918],[10.1835,6.9591,223.7567],[10.1793,6.9495,237.1554],[10.1785,6.9421,229.398],[10.1733,6.9417,242.7091],[10.1741,6.9382,242.7452],[10.2171,6.8888,1094.3925],[10.4631,6.9148,882.9817],[10.4731,6.9127,878.019],[10.4774,6.9042,726.7391],[10.4866,6.8996,560.1802],[10.4904,6.8997,525.1777],[10.4935,6.9042,523.4477],[10.494,6.9121,480.5049],[10.4959,6.9148,490.9305],[10.5162,6.9239,308.1949],[10.5281,6.9266,295.8437],[10.5352,6.9397,276.4834],[10.541,6.9386,268.3606],[10.5397,6.947,267.5835],[10.5412,6.9682,279.5193],[10.551,6.9777,266.9316],[10.5521,6.9939,256.9362],[10.555,7.0009,269.7223],[10.5548,7.0126,267.844],[10.5603,7.0347,235.1578],[10.557,7.0494,250.7222],[10.5597,7.066,231.9746],[10.5593,7.0819,222.4421],[10.5638,7.1069,226.2021],[10.5663,7.1469,213.5277],[10.5686,7.1563,208.8795],[10.572,7.1623,207.3786],[10.5838,7.1564,208.4285],[10.5875,7.1477,206.8098],[10.5978,7.1454,210.5049],[10.6015,7.1364,219.4111],[10.6029,7.1266,223.6296],[10.6013,7.1177,220.4285],[10.607,7.1033,222.2832],[10.6049,7.091,230.9057],[10.5977,7.0779,224.9551],[10.6064,7.0709,222.466],[10.6129,7.0611,223.227],[10.6276,7.0494,218.4084],[10.6323,7.0501,225.1405],[10.6547,7.0431,228.8111],[10.6557,7.0493,225.6159],[10.6587,7.0516,222.6076],[10.678,7.0423,234.4905],[10.6836,7.036,237.8146],[10.6825,7.0232,232.8066],[10.6866,7.0191,236.7783],[10.6865,7.0156,230.1254],[10.6936,7.0167,235.3755],[10.704,7.0121,241.1678],[10.7111,6.9974,235.1416],[10.7208,6.9893,236.239],[10.7321,6.9903,237.1739],[10.7332,6.9919,235.0],[10.7384,6.9901,239.904],[10.7477,6.9788,260.3805],[10.7504,6.974,286.7298],[10.7501,6.9696,244.6712],[10.7608,6.9644,249.3231],[10.7655,6.9574,252.0598],[10.768,6.9567,248.4293],[10.7707,6.9626,245.6477],[10.7758,6.9668,243.0415],[10.7822,6.968,251.3636],[10.7919,6.9603,248.1268],[10.8007,6.9627,255.6451],[10.8148,6.9489,255.1581],[10.8412,6.9396,260.8192],[10.8446,6.9306,273.6688],[10.8433,6.9207,323.2964],[10.8279,6.8855,269.7543],[10.824,6.8712,270.4164],[10.826,6.8657,267.0264],[10.8197,6.8589,279.8977],[10.8177,6.8531,264.4337],[10.8229,6.8495,279.135],[10.8201,6.8438,275.0641],[10.8263,6.8329,277.8892],[10.8263,6.8286,268.1712],[10.8405,6.8118,264.528],[10.8492,6.8094,270.6701],[10.8507,6.8055,267.7904],[10.8524,6.8052,275.8739],[10.8556,6.811,271.334],[10.8635,6.8077,291.9135],[10.8674,6.8028,312.3174],[10.8744,6.7998,366.4078],[10.8759,6.7967,339.3253],[10.8804,6.7955,530.3485],[10.8894,6.7749,403.6499],[10.8983,6.7625,380.6786],[10.9007,6.7724,393.3372],[10.9042,6.7734,396.5377],[10.913,6.7656,452.4097],[10.9171,6.7552,551.2537],[10.9151,6.7295,614.1074],[10.9192,6.7085,613.0923],[10.9277,6.7037,623.8359],[10.9341,6.6973,634.8968],[10.9471,6.6883,613.381],[10.9481,6.6947,627.9934],[10.9707,6.6874,624.7625],[10.9788,6.6911,659.7837],[10.9833,6.6876,625.6399],[10.9943,6.687,663.7556],[11.0165,6.7035,685.05],[11.0231,6.7125,716.3694],[11.0323,6.716,707.509],[11.0402,6.7117,785.183],[11.0465,6.7122,879.5128],[11.0519,6.7094,906.1801],[11.0544,6.7097,920.6357],[11.0574,6.7159,868.7096],[11.0599,6.7162,915.6982],[11.0686,6.7109,967.7409],[11.078,6.7014,1018.1227],[11.0825,6.6941,1023.3617],[11.0966,6.6821,1001.1929],[11.1001,6.673,1011.9193],[11.096,6.6566,1030.7827],[11.0939,6.6119,1066.767],[11.097,6.6008,1082.6602],[11.0962,6.5938,1067.3325],[11.0979,6.5915,1061.2422],[11.0959,6.5765,1074.7509],[11.098,6.5398,1080.65],[11.0969,6.5275,1184.3406],[11.0991,6.5216,1087.2871],[11.1098,6.5189,1197.0028],[11.1137,6.5164,1180.0226],[11.1186,6.5177,1151.1902],[11.1285,6.5276,1217.8899],[11.1355,6.5295,1222.7444],[11.1424,6.5341,1294.6664],[11.1449,6.5338,1280.5114],[11.1475,6.5297,1315.791],[11.1601,6.5301,1309.0775],[11.1708,6.5241,1403.0032],[11.1843,6.5247,1429.162],[11.1881,6.5284,1529.6736],[11.1946,6.5294,1599.9895],[11.1917,6.5386,1633.8403],[11.208,6.5344,1632.9701],[11.2179,6.5396,1666.0542],[11.225,6.5389,1705.2522],[11.2356,6.5332,1702.4829],[11.241,6.5237,1567.8757],[11.2457,6.5232,1544.3397],[11.2523,6.5278,1537.1569],[11.2566,6.5275,1549.9012],[11.2668,6.537,1557.9055],[11.2802,6.5386,1523.3239],[11.2874,6.532,1544.2812],[11.2946,6.5305,1644.6438],[11.3088,6.5205,1628.1277],[11.3118,6.5169,1663.0148],[11.3117,6.5131,1652.5332],[11.3156,6.5088,1663.0325],[11.3225,6.5081,1648.8059],[11.329,6.5051,1642.0018],[11.3376,6.5079,1635.4006],[11.3418,6.5034,1627.5504],[11.3509,6.5,1646.9301],[11.354,6.5012,1611.7681],[11.3572,6.5052,1612.5305],[11.3567,6.5078,1607.5273],[11.3514,6.5125,1587.2018],[11.3508,6.515,1591.5769],[11.3565,6.5257,1605.2848],[11.3657,6.5277,1674.4392],[11.3798,6.5206,1613.5894],[11.3865,6.5278,1671.1123],[11.391,6.5271,1714.9486],[11.3957,6.5299,1764.7809],[11.4239,6.5302,1626.071],[11.426,6.5319,1663.8405],[11.4267,6.5331,1668.7688],[11.4199,6.5382,1625.5184],[11.4194,6.5417,1648.8398],[11.4321,6.5449,1654.5149],[11.4325,6.5546,1711.0176],[11.4298,6.5581,1695.0408],[11.4267,6.582,1664.8455],[11.4174,6.5887,1644.2144],[11.4189,6.5972,1655.9917],[11.4251,6.5967,1582.4902],[11.4271,6.5985,1608.2262],[11.4428,6.6026,1600.88],[11.4483,6.6007,1598.0565],[11.464,6.6113,1595.5164],[11.4731,6.6037,1623.4698],[11.4796,6.6031,1622.8505],[11.4843,6.5992,1596.3875],[11.4966,6.6007,1595.9242],[11.5087,6.6093,1575.2777],[11.5123,6.6163,1588.9507],[11.5192,6.6163,1584.7902],[11.522,6.619,1551.1267],[11.5199,6.6289,1579.6313],[11.5243,6.6335,1643.682],[11.5258,6.645,1724.6271],[11.5333,6.646,1722.3135],[11.5373,6.6493,1720.7578],[11.5337,6.6541,1635.0577],[11.5394,6.6597,1728.879],[11.5544,6.6647,1700.0072],[11.5556,6.6705,1537.9036],[11.5486,6.6772,1577.965],[11.5539,6.684,1586.5864],[11.5486,6.6942,1606.6283],[11.5488,6.7008,1578.5856],[11.5516,6.7082,1578.074],[11.5503,6.7113,1577.7632],[11.5515,6.7158,1544.5862],[11.5563,6.722,1545.0789],[11.56,6.7241,1529.2766],[11.576,6.7249,1524.3414],[11.5738,6.7294,1576.4299],[11.5838,6.7333,1590.2476],[11.5858,6.7406,1624.9799],[11.5846,6.7475,1459.6982],[11.5812,6.7546,1652.5128],[11.5763,6.7597,1718.47],[11.5773,6.7657,1684.8123],[11.5707,6.7723,1792.1256],[11.5716,6.7851,1814.9517],[11.5741,6.7894,1810.058],[11.5817,6.7949,1788.9471],[11.5875,6.7983,1662.311],[11.5949,6.7982,1637.0139],[11.5973,6.8018,1692.495],[11.5925,6.8043,1689.4758],[11.5934,6.8092,1651.0481],[11.5913,6.8143,1664.5969],[11.5876,6.8164,1658.9689],[11.5794,6.8175,1655.3611],[11.5816,6.831,1630.5822],[11.5809,6.8395,1595.4417],[11.5731,6.8437,1565.4841],[11.5682,6.8499,1562.1267],[11.5547,6.8513,1573.5476],[11.5534,6.8592,1573.2285],[11.5545,6.8641,1574.4631],[11.5647,6.8757,1586.5889],[11.563,6.8818,1581.7216],[11.5643,6.8879,1573.4052],[11.5833,6.9088,1739.9951],[11.5924,6.9071,1699.5901],[11.5932,6.9097,1670.5286],[11.6011,6.9075,1684.5879],[11.6066,6.9112,1641.9248],[11.609,6.9211,1627.016],[11.6058,6.9265,1731.9414],[11.6066,6.935,1735.5148],[11.6102,6.9391,1714.0337],[11.6103,6.9421,1734.3438],[11.6161,6.9434,1755.0083],[11.6231,6.9504,1785.5217],[11.6249,6.9691,1660.1808],[11.6192,6.9761,1565.6166],[11.6247,6.9787,1525.522],[11.6366,6.9885,1467.7578],[11.6525,6.99,1488.6544],[11.6582,6.9874,1468.7208],[11.6604,6.9886,1433.2542],[11.6562,6.9965,1440.8694],[11.6597,6.9989,1456.7756],[11.6692,6.9985,1490.8712],[11.6779,7.0065,1631.7908],[11.6791,7.0131,1840.9774],[11.6857,7.0213,1932.6375],[11.7032,7.0285,1941.5835],[11.7171,7.0316,2402.5891],[11.7103,7.0428,2313.604],[11.7078,7.0524,2266.3979],[11.7099,7.0553,2305.6646],[11.7166,7.0527,2331.9443],[11.7329,7.0577,1707.9878],[11.7473,7.056,1591.8463],[11.7678,7.0493,1709.0708],[11.7772,7.0484,2107.0283],[11.783,7.0509,2171.4253],[11.7923,7.0626,2047.8778],[11.7999,7.0763,2110.2627],[11.8069,7.0814,2166.1333],[11.8188,7.0791,1930.2393],[11.8269,7.073,1825.1157],[11.8365,7.0867,1847.5745],[11.8497,7.0895,1788.1993],[11.8711,7.0794,1798.9647],[11.8723,7.0889,1868.5608],[11.8713,7.0928,1845.8066],[11.874,7.1036,1874.9124],[11.8733,7.1084,1825.2833],[11.8695,7.1112,1861.8988],[11.8638,7.1206,1779.3256],[11.8536,7.1295,1668.0012],[11.853,7.1386,1569.0802],[11.8488,7.1417,1465.196],[11.8479,7.1466,1493.0275],[11.8429,7.1536,1572.108],[11.8449,7.1653,1538.5215],[11.8372,7.1711,1506.1407],[11.8358,7.1766,1499.7491],[11.8371,7.1862,1477.3456],[11.8348,7.1912,1507.2017],[11.8394,7.2005,1400.7343],[11.841,7.21,1273.5234],[11.8451,7.2152,1286.7534],[11.8531,7.2209,1173.6873],[11.8543,7.2268,1219.6572],[11.8507,7.229,1187.0239],[11.8401,7.2298,1149.6478],[11.8137,7.2281,1219.4213],[11.811,7.2296,1185.4379],[11.8113,7.2336,1184.5841],[11.8168,7.2454,1142.067],[11.8367,7.2523,1229.9115],[11.8464,7.2656,1300.2683],[11.8578,7.2751,1276.113],[11.8671,7.2904,1271.0708],[11.8807,7.3073,1211.5514],[11.884,7.3254,1088.1777],[11.8907,7.3353,1112.7009],[11.8923,7.3485,1156.8066],[11.8952,7.3499,1132.0728],[11.9017,7.3496,1173.0118],[11.9161,7.3727,1404.6941],[11.9232,7.3762,1429.8456],[11.9337,7.3776,1532.5505],[11.9358,7.3798,1504.2156],[11.9433,7.3944,1297.8062],[11.944,7.4016,1344.0322],[11.9403,7.4168,1480.573],[11.942,7.4212,1369.5059],[11.9491,7.4304,1333.4396],[11.9613,7.4319,965.4902],[11.9633,7.4357,887.5078],[11.9655,7.4468,1191.0897],[11.9653,7.474,994.1503],[11.9683,7.4798,1177.5448],[11.9809,7.4934,1401.9221],[12.0087,7.5044,969.0308],[12.0124,7.5076,832.9257],[12.0073,7.508,1054.1312],[11.9921,7.4993,957.6953],[11.9709,7.498,1452.679],[11.9604,7.495,1669.2583],[11.9507,7.4878,1515.8094],[11.9356,7.4701,1252.4004],[11.9244,7.4526,1341.6543],[11.916,7.4444,1282.2836],[11.8962,7.4584,1115.2913],[11.8971,7.4837,1431.1006],[11.8893,7.5088,1087.6917],[11.8657,7.5582,1085.1052],[11.8596,7.6152,373.4891],[11.8476,7.6431,534.1467],[11.857,7.7316,377.4048],[11.8401,7.7641,411.7031],[11.8055,7.8059,422.0178],[11.7679,7.8434,540.4083],[11.7357,7.8679,353.3913],[11.7078,7.8978,473.0628],[11.6954,7.9185,401.7239],[11.6707,7.9366,374.6051],[11.6477,7.9436,449.7582],[11.6213,7.9374,456.8365],[11.6011,7.9093,308.081],[11.5964,7.8986,276.2421],[11.5756,7.8728,335.2968],[11.5588,7.857,318.2306],[11.5441,7.8462,285.8339],[11.5316,7.8408,271.8466],[11.4879,7.8803,310.884],[11.4767,7.9027,313.041],[11.441,7.9559,323.1764],[11.4343,7.9746,382.5867],[11.4281,8.0007,340.3437],[11.4001,8.0644,361.2681],[11.4135,8.0897,375.805],[11.4429,8.1255,476.1888],[11.4802,8.1667,419.6682],[11.5417,8.2185,494.3321],[11.5874,8.2722,450.5695],[11.6237,8.3067,524.5786],[11.7002,8.4039,840.8039],[11.7222,8.4383,960.4207],[11.7632,8.4919,486.5229],[11.8226,8.5478,1034.3708],[11.8621,8.576,637.6823],[11.8691,8.6093,888.0116],[11.8635,8.6435,554.8081],[11.8621,8.6738,889.5886],[11.8629,8.7022,532.4988],[11.8728,8.73,556.1023],[11.8872,8.7551,580.6581],[11.8973,8.7674,518.8955],[11.9174,8.8068,506.0302],[11.9307,8.8365,481.9717],[11.9598,8.8861,378.1523],[11.9711,8.9161,365.9589],[11.9759,8.9443,350.0315],[11.9717,8.9734,314.729],[11.939,9.0349,343.8909],[11.8968,9.0455,377.1469],[11.8722,9.0586,421.7709],[11.8478,9.0812,472.1426],[11.8292,9.1058,580.8784],[11.826,9.1239,563.5444],[11.8237,9.1675,360.6824],[11.8311,9.2023,309.6631],[11.821,9.2251,316.235],[11.8053,9.2496,324.2751],[11.7905,9.2842,247.1661],[11.7686,9.3268,212.8408],[11.7463,9.36,183.1938],[11.7126,9.3806,160.5228],[11.6581,9.396,136.9178],[11.6374,9.3979,130.2103],[11.614,9.4288,132.8431],[11.5779,9.497,141.9453],[11.5363,9.567,292.2303],[11.5259,9.592,200.5486],[11.4787,9.5864,199.824],[11.423,9.5844,235.7336],[11.3125,9.5835,292.0923],[11.2649,9.5858,385.1374],[11.2216,9.5847,624.8356],[11.1747,9.5814,462.4276],[11.1263,9.5752,517.6043],[11.1117,9.5754,452.3761],[11.1001,9.5765,403.3368],[11.0687,9.5864,346.0757],[11.0603,9.5842,345.2178],[11.0423,9.584,325.0627],[11.0043,9.587,316.8868],[10.9277,9.6033,431.3687],[10.9002,9.6044,394.8648],[10.8715,9.5908,403.9499],[10.8341,9.5765,316.5246],[10.7291,9.5267,268.2117],[10.6948,9.5292,229.751],[10.6569,9.5391,224.8658],[10.6346,9.5392,227.5269],[10.5695,9.5051,208.3319],[10.5605,9.4967,192.3539],[10.579,9.4616,197.7033],[10.5857,9.4335,207.4927],[10.5891,9.399,179.4934],[10.5868,9.3577,176.5567],[10.5808,9.3335,189.6773],[10.5918,9.2675,168.8875],[10.5931,9.2379,169.6774],[10.6155,9.2029,162.4804],[10.6303,9.176,158.8074],[10.6339,9.1438,164.6996],[10.6433,9.1167,154.3949],[10.6473,9.0793,154.1104],[10.6383,9.0579,155.0444],[10.6433,9.0218,149.3475],[10.6501,9.0219,149.3883],[10.6499,9.0082,145.3198],[10.655,8.9638,143.4081],[10.6536,8.9329,138.4572],[10.6248,8.8834,171.3859],[10.4926,8.8164,118.0213],[10.4281,8.7892,146.633],[10.3974,8.791,138.9408],[10.2435,8.7573,137.4914],[10.2033,8.7341,149.645],[10.1905,8.7128,133.6727],[10.1701,8.6668,106.0705],[10.1274,8.6203,127.0999],[10.0934,8.5749,111.6601],[9.9787,8.5144,114.8473],[9.9386,8.4794,126.3372],[9.8821,8.4231,112.5916],[9.8547,8.3913,98.3556],[9.8153,8.3721,120.8981],[9.7441,8.3559,99.1551],[9.6776,8.3472,141.969],[9.6155,8.3512,136.0799],[9.5869,8.3044,144.2115],[9.5738,8.292,141.4433],[9.562,8.2845,125.2116],[9.5296,8.2788,135.7675],[9.5161,8.2826,148.8127],[9.4908,8.2849,131.8941],[9.4736,8.2914,110.1037],[9.4567,8.2942,97.9075],[9.4515,8.3008,103.0143],[9.4269,8.2971,108.1429],[9.4206,8.3055,126.6604],[9.4107,8.3143,130.1724],[9.3989,8.3177,132.5383],[9.3828,8.3288,119.4156],[9.3641,8.3279,112.0609],[9.3616,8.3299,110.6715],[9.3527,8.3287,108.374],[9.332,8.3148,97.3558],[9.3105,8.2805,94.4061],[9.305,8.2468,121.7656],[9.2987,8.2345,134.2262],[9.3264,8.2125,99.7085],[9.3591,8.1722,94.2432],[9.3648,8.1258,102.4441],[9.3561,8.1154,114.4202],[9.3593,8.1047,107.2737],[9.3581,8.1037,105.115],[9.3722,8.0722,93.7305],[9.3725,8.0622,91.7213],[9.3704,8.0531,85.676],[9.3599,8.0445,92.3276],[9.3491,8.0399,92.4344],[9.3419,8.0334,98.4002],[9.3175,8.02,100.0998],[9.2839,7.9942,97.3397],[9.2566,7.9784,81.2336],[9.2005,7.9415,120.4159],[9.1891,7.9369,122.0483],[9.1803,7.9297,101.6912],[9.1745,7.9159,71.7705],[9.1725,7.9141,75.5851],[9.1694,7.9145,72.7246],[9.1713,7.913,75.9902],[9.1573,7.9006,82.4526],[9.1484,7.8809,81.6853],[9.1419,7.8756,78.5119],[9.1373,7.8631,83.9264],[9.1283,7.8535,83.4357],[9.1121,7.8301,105.8588],[9.1082,7.8184,121.0175],[9.1216,7.8112,144.1178],[9.139,7.8091,119.1925],[9.1516,7.8176,95.2498],[9.1837,7.8304,161.332],[9.2018,7.8406,160.9057],[9.2378,7.8515,144.7798],[9.2875,7.8571,152.3241],[9.311,7.8623,156.4239],[9.3329,7.862,157.7328],[9.3585,7.8669,158.941],[9.418,7.8648,124.7955],[9.4444,7.86,139.9635],[9.4906,7.8591,147.7746],[9.5483,7.8458,181.9467],[9.5755,7.8418,144.2543],[9.6115,7.8307,155.6565],[9.6462,7.8037,153.4687],[9.6708,7.775,149.0031],[9.6945,7.7518,126.6304],[9.7038,7.7409,138.4669],[9.7103,7.7274,151.7255],[9.7251,7.7151,161.3879],[9.7404,7.6926,183.2434],[9.7538,7.6779,185.5898],[9.7662,7.6607,198.0998],[9.8154,7.6145,213.9892],[9.8444,7.5931,184.914],[9.9014,7.5386,188.9645],[9.8992,7.5281,179.7971],[9.9181,7.5062,158.6747],[9.9138,7.4895,157.1741],[9.9227,7.4762,185.1774],[9.9228,7.4607,186.8351],[9.9204,7.4414,167.3772],[9.9161,7.4311,175.4257],[9.9134,7.4087,178.171],[9.8972,7.3641,187.7827],[9.887,7.3472,227.5356],[9.8814,7.3266,211.5597],[9.875,7.3137,244.5383],[9.8754,7.2845,239.0777],[9.8821,7.2312,239.66],[9.8797,7.2183,244.3176],[9.873,7.2058,223.3493],[9.8647,7.1952,228.0286],[9.8481,7.1811,223.0547],[9.8148,7.1639,220.0087],[9.783,7.1354,205.5731],[9.7716,7.122,200.1664],[9.7592,7.1114,169.7172],[9.7397,7.0823,191.8783],[9.7199,7.0455,227.0878],[9.7097,7.0242,214.8186],[9.7058,7.0119,206.7827],[9.6874,6.9164,207.9229],[9.6789,6.8458,191.2989],[9.6717,6.8264,199.2813],[9.6816,6.8146,187.4108],[9.6763,6.7971,191.9691],[9.679,6.7828,183.994],[9.6777,6.7634,190.8513],[9.6794,6.6971,339.3586],[9.6758,6.6556,468.8126],[9.6727,6.6406,302.8261],[9.6683,6.6317,241.3969],[9.6685,6.6139,220.7213],[9.6581,6.5883,387.2485],[9.6515,6.5654,211.0887],[9.651,6.5495,215.2079],[9.6443,6.5297,207.7326],[9.6451,6.5236,199.4137],[9.65,6.5244,201.6644],[9.6509,6.5284,195.7664],[9.6529,6.529,198.6362],[9.6559,6.5265,203.3933],[9.6563,6.5223,232.8416],[9.6624,6.5195,235.4972],[9.6662,6.5127,208.4269],[9.6697,6.5106,211.6112],[9.6728,6.5112,201.5749],[9.6758,6.5143,203.0644],[9.6865,6.5126,205.1109],[9.6908,6.516,212.5727],[9.6936,6.5161,208.8159],[9.6959,6.515,217.0417],[9.6972,6.5117,221.0408],[9.7015,6.5107,217.3108],[9.7063,6.5156,217.6946],[9.7116,6.5344,258.3574],[9.7105,6.5401,268.5325],[9.7162,6.5538,339.1489],[9.7199,6.5583,395.7193],[9.7188,6.5657,363.3419],[9.7198,6.5707,336.9315],[9.7229,6.5767,335.2791],[9.731,6.611,272.5172],[9.7359,6.6161,239.5819],[9.7357,6.6183,240.6441],[9.7391,6.6246,236.0785],[9.7409,6.6349,230.1883],[9.7446,6.6406,232.4424],[9.7451,6.6499,230.3192],[9.7515,6.6557,211.5969],[9.7531,6.6741,207.8962],[9.7507,6.6783,208.1743],[9.7514,6.6795,211.6749],[9.7561,6.6788,207.1539],[9.7594,6.6809,208.819],[9.7644,6.6807,196.2324],[9.7639,6.6911,193.2631],[9.7589,6.6926,188.3362],[9.7561,6.6957,195.8073],[9.76,6.704,186.1037],[9.7617,6.7123,184.14],[9.7594,6.7171,188.2189],[9.7642,6.7246,186.0289],[9.7656,6.7298,182.0001],[9.7653,6.7401,182.2738],[9.7684,6.7491,180.8528],[9.7684,6.7551,179.5054],[9.7634,6.7573,182.7391],[9.7627,6.7593,199.5333],[9.7697,6.7662,178.5143],[9.7731,6.7819,182.4103],[9.7794,6.7945,178.8398],[9.7828,6.7947,190.4889],[9.7868,6.791,188.193],[9.7943,6.7902,192.4636],[9.7966,6.7867,185.7754],[9.8031,6.7867,186.5497],[9.8075,6.7916,190.4193],[9.8098,6.7908,196.9208],[9.8116,6.7873,187.5296],[9.821,6.7826,190.3879],[9.8264,6.7848,191.7683],[9.8452,6.7801,189.0901],[9.8561,6.7816,207.0509],[9.8639,6.7765,203.8549],[9.8884,6.7954,231.0449],[9.9111,6.8172,228.149]]]]}
,"properties": {"GID_1": "NGA.35_1","GID_0": "NGA","country": "Nigeria","province": "Taraba","VARNAME_1": "NA","NL_NAME_1": "NA","TYPE_1": "State","ENGTYPE_1": "State","CC_1": "NA","HASC_1": "NG.TA","ISO_1": "NG-TA","name": "Taraba.province","area_km2": 60551.4,"hist_schema_id": "Elevation0-9000","hist_area_km2": {"75": 392.27,"100": 3966.02,"125": 5770.75,"150": 5838.8,"175": 5856.54,"200": 5295.38,"225": 4360.39,"250": 3247.58,"275": 2043.88,"300": 1450.26,"325": 1213.56,"350": 1161.66,"375": 1120.58,"400": 1084.41,"425": 1015.51,"450": 926.31,"475": 833.03,"500": 768.91,"525": 696.67,"550": 642.34,"575": 604.09,"600": 556.06,"625": 517.37,"650": 499.93,"675": 472.16,"700": 441.43,"725": 406.98,"750": 385.79,"775": 363.08,"800": 352.9,"825": 385.56,"850": 401.4,"875": 361.51,"900": 322.6,"925": 280.74,"950": 255.8,"975": 223.65,"1000": 199.47,"1025": 183.73,"1050": 165.78,"1075": 153.02,"1100": 152.06,"1125": 148.19,"1150": 152.66,"1175": 159.22,"1200": 166.04,"1225": 183.99,"1250": 187.49,"1275": 200.16,"1300": 201.73,"1325": 188.2,"1350": 175.17,"1375": 174.04,"1400": 175.21,"1425": 183.94,"1450": 220.0,"1475": 278.1,"1500": 333.68,"1525": 374.48,"1550": 393.8,"1575": 333.13,"1600": 218.62,"1625": 165.85,"1650": 137.95,"1675": 108.37,"1700": 86.12,"1725": 73.53,"1750": 53.3,"1775": 31.75,"1800": 23.96,"1825": 15.59,"1850": 8.73,"1875": 5.41,"1900": 2.92,"1925": 2.71,"1950": 2.21,"1975": 1.26,"2000": 1.3,"2025": 1.28,"2050": 0.8,"2075": 1.35,"2100": 1.2,"2125": 1.47,"2150": 1.39,"2175": 0.97,"2200": 0.76,"2250": 0.78,"2275": 0.84,"2325": 0.53}}}