{"type": "Feature","bbox": [10.113,11.1991,10.378,11.5898],"geometry": {"type": "MultiPolygon","coordinates": [[[[10.113,11.2289,446.1699],[10.1417,11.2245,437.9688],[10.2341,11.2043,429.0885],[10.2896,11.1991,417.1021],[10.2925,11.2113,432.4186],[10.2942,11.2302,446.696],[10.306,11.2802,431.1125],[10.3234,11.3435,443.1763],[10.3357,11.371,433.407],[10.3437,11.408,451.0944],[10.3469,11.4367,450.397],[10.3464,11.4575,432.8681],[10.3397,11.4767,437.8599],[10.3256,11.4859,439.0089],[10.3234,11.497,432.3926],[10.3271,11.5123,426.9673],[10.3497,11.5265,410.2522],[10.3633,11.5245,419.9962],[10.3685,11.5214,426.7091],[10.3737,11.5146,424.4345],[10.3759,11.5243,428.5265],[10.378,11.5644,433.5333],[10.376,11.5764,425.3171],[10.36,11.5842,416.874],[10.3269,11.5856,411.52],[10.3042,11.5898,425.1605],[10.2494,11.5869,438.6972],[10.2285,11.5842,439.0142],[10.2225,11.5813,434.1189],[10.2155,11.5818,429.3801],[10.215,11.5653,421.4476],[10.2178,11.5503,411.0674],[10.2173,11.5319,416.9915],[10.2247,11.508,429.6123],[10.2261,11.4884,434.0673],[10.2319,11.4812,442.1155],[10.2439,11.4787,436.7296],[10.2544,11.4558,443.4363],[10.2477,11.4322,441.7517],[10.2388,11.421,452.0732],[10.2224,11.4067,467.0106],[10.1929,11.3919,461.0392],[10.1746,11.3751,471.4149],[10.113,11.2289,446.1699]]]]}
,"properties": {"GID_2": "NGA.5.9_1","GID_0": "NGA","country": "Nigeria","GID_1": "NGA.5_1","province": "Bauchi","NL_NAME_1": "NA","county": "Giade","VARNAME_2": "NA","NL_NAME_2": "NA","TYPE_2": "LocalAuthority","ENGTYPE_2": "LocalAuthority","CC_2": "NA","HASC_2": "NA","name": "Giade.county","area_km2": 655.721,"hist_schema_id": "Elevation0-9000","hist_area_km2": {"400": 27.088,"425": 255.8344,"450": 297.189,"475": 75.6095}}}