{"type": "Feature","bbox": [6.1221,7.4604,6.6938,7.8337],"geometry": {"type": "MultiPolygon","coordinates": [[[[6.6938,7.7578,262.7071],[6.6906,7.7622,187.9156],[6.6835,7.7835,107.5028],[6.6699,7.7969,96.0768],[6.6453,7.8159,123.0337],[6.6204,7.8145,151.1581],[6.6195,7.8164,158.4684],[6.6034,7.8201,133.7997],[6.5608,7.8268,149.2575],[6.5539,7.8337,128.8161],[6.5477,7.8296,125.8542],[6.5335,7.8079,184.6241],[6.5292,7.7944,177.0953],[6.5233,7.788,188.1349],[6.5126,7.7716,184.6266],[6.5016,7.7605,163.7615],[6.4966,7.7521,143.377],[6.4852,7.7445,151.736],[6.4645,7.7349,180.4047],[6.45,7.7204,151.2575],[6.4302,7.7087,124.9241],[6.4066,7.6882,143.6991],[6.3941,7.6736,158.2905],[6.3801,7.663,180.4386],[6.3714,7.6508,177.0427],[6.3619,7.623,157.3561],[6.3469,7.609,175.1108],[6.3216,7.5979,219.4435],[6.3122,7.5997,227.81],[6.2448,7.5727,420.3685],[6.2262,7.5779,342.9893],[6.2164,7.5845,255.2941],[6.2004,7.5799,401.1857],[6.1882,7.5792,433.4137],[6.1637,7.5598,411.8575],[6.1492,7.5527,392.6876],[6.1225,7.5464,379.5425],[6.1221,7.5428,378.1184],[6.1302,7.5341,374.792],[6.136,7.5317,377.9299],[6.1615,7.5384,386.7637],[6.1796,7.5337,414.2728],[6.196,7.5334,457.9348],[6.2318,7.5213,581.1738],[6.256,7.5045,266.7512],[6.2935,7.4714,223.2785],[6.3178,7.4636,220.4729],[6.3452,7.4604,194.0055],[6.363,7.4626,207.0893],[6.3797,7.4688,189.9395],[6.3853,7.4738,230.6456],[6.3898,7.4806,247.942],[6.3968,7.5123,252.0005],[6.4081,7.5402,249.5809],[6.4194,7.5569,213.2899],[6.4225,7.5732,168.8322],[6.4284,7.5841,179.1278],[6.4451,7.6009,156.2379],[6.479,7.6185,143.7233],[6.5031,7.6391,145.0812],[6.5528,7.6714,119.4318],[6.5613,7.6826,103.1281],[6.6113,7.7126,161.8621],[6.6242,7.7239,191.3818],[6.6697,7.7429,182.1399],[6.6823,7.7522,157.7762],[6.6938,7.7578,262.7071]]]]}
,"properties": {"GID_2": "NGA.23.1_1","GID_0": "NGA","country": "Nigeria","GID_1": "NGA.23_1","province": "Kogi","NL_NAME_1": "NA","county": "Adavi","VARNAME_2": "NA","NL_NAME_2": "NA","TYPE_2": "LocalAuthority","ENGTYPE_2": "LocalAuthority","CC_2": "NA","HASC_2": "NA","name": "Adavi.county","area_km2": 717.9815,"hist_schema_id": "Elevation0-9000","hist_area_km2": {"75": 0.6094,"100": 22.5664,"125": 85.5557,"150": 132.3888,"175": 108.3143,"200": 89.145,"225": 89.4062,"250": 56.9131,"275": 28.5403,"300": 19.3355,"325": 14.4389,"350": 13.0519,"375": 18.622,"400": 18.475,"425": 10.1939,"450": 4.8552,"475": 2.4381,"500": 1.4923,"525": 0.7146,"550": 0.4204,"575": 0.3363,"600": 0.1261,"650": 0.042}}}