{"type":"Feature","properties":{"GID_2":"NGA.10.17_1","GID_0":"NGA","country":"Nigeria","GID_1":"NGA.10_1","province":"Delta","NL_NAME_1":"NA","county":"Sapele","VARNAME_2":"NA","NL_NAME_2":"NA","TYPE_2":"LocalAuthority","ENGTYPE_2":"LocalAuthority","CC_2":"NA","HASC_2":"NA","name":"Sapele.county"},
"geometry":{"type": "MultiPolygon","coordinates": [[[[5.5462,5.9474,0.0],[5.5378,5.9351,0.0],[5.5332,5.9327,0.0],[5.508,5.9299,13.8179],[5.5002,5.9314,14.7765],[5.498,5.9289,11.3642],[5.5004,5.9194,13.6066],[5.5086,5.9112,7.3109],[5.5124,5.9044,1.8386],[5.5261,5.8927,11.1315],[5.5481,5.8866,5.3801],[5.5501,5.8824,6.7073],[5.5469,5.8698,6.5277],[5.5382999999999996,5.8625,2.9481],[5.5494,5.8557,11.6797],[5.546,5.844,1.3686],[5.5434,5.8406,2.8688],[5.5456,5.8334,2.622],[5.5525,5.8298,1.1801],[5.5556,5.8254,1.3336],[5.5668,5.7987,2.0852],[5.5708,5.7783,0.0],[5.5766,5.781,2.7186],[5.589,5.7794,2.7617],[5.5983,5.7811,2.0705],[5.6042,5.7732,1.3108],[5.6013,5.7663,4.5347],[5.6005,5.7573,3.43],[5.6014,5.7324,0.0],[5.6331,5.7065,10.0828],[5.6394,5.698,12.681],[5.6464,5.7022,14.4677],[5.6561,5.7041,12.9006],[5.664,5.7079,14.7003],[5.6786,5.7092,7.1096],[5.6881,5.7125,5.7216],[5.7188,5.7307,20.684],[5.7359,5.7571,15.0359],[5.7431,5.7775,14.5129],[5.7556,5.793,16.0207],[5.7568,5.7966,13.6964],[5.7675,5.8085,10.1516],[5.766,5.8096,11.0989],[5.7684,5.8303,9.1467],[5.7661,5.846,13.0983],[5.7529,5.843,9.0416],[5.7451,5.8436,12.0956],[5.742,5.8524,9.0742],[5.7377,5.8536,8.3088],[5.7307,5.8514,7.8329],[5.7262,5.8469,9.8017],[5.7205,5.8484,8.0892],[5.7148,5.8522,6.8206],[5.7114,5.87,9.0907],[5.7082,5.8703,8.1033],[5.7112,5.8847,10.3463],[5.7091,5.8873,8.0827],[5.7062,5.8903,7.9287],[5.6924,5.8917,7.0148],[5.6704,5.902,7.926],[5.6606,5.9091,8.9342],[5.6552,5.9165,3.5802],[5.6463,5.9248,3.2862],[5.6406,5.9269,6.3296],[5.6386,5.9336,9.2676],[5.6309,5.9412,3.6724],[5.6195,5.9374,11.685],[5.6139,5.9322,4.7597],[5.6104,5.9281,16.7237],[5.6017,5.9071,12.3982],[5.5955,5.9056,13.8144],[5.574,5.9184,7.3147],[5.5686,5.9254,14.5252],[5.5689,5.9311,11.4957],[5.558,5.9433,12.4211],[5.5516,5.9434,14.5404],[5.5462,5.9474,0.0]]]]}}