{"type": "Feature","bbox": [6.0515,6.0054,6.3494,6.3533],"geometry": {"type": "MultiPolygon","coordinates": [[[[6.3469,6.1203,179.8653],[6.3146,6.1084,170.7774],[6.3016,6.1058,165.7037],[6.2871,6.1054,166.8931],[6.2704,6.1001,162.9951],[6.2526,6.0855,159.2806],[6.2459,6.0853,149.6052],[6.2365,6.0885,148.1944],[6.2313,6.0923,136.4854],[6.205,6.1261,154.7911],[6.1995,6.1373,155.3353],[6.1762,6.1658,151.5119],[6.1676,6.1625,154.7711],[6.1597,6.1626,150.8315],[6.1539,6.1599,153.8124],[6.15,6.1616,152.7508],[6.1463,6.1612,151.4595],[6.1431,6.164,124.3519],[6.1416,6.1689,109.9475],[6.1457,6.1787,100.364],[6.1555,6.189,93.2098],[6.1685,6.2072,101.9824],[6.1767,6.2139,131.5597],[6.1877,6.2373,113.1697],[6.1907,6.2356,138.0328],[6.2045,6.2356,173.0757],[6.2119,6.2385,198.5134],[6.2138,6.2407,197.0774],[6.2303,6.2455,209.5644],[6.2346,6.2408,211.1458],[6.2447,6.2109,161.2031],[6.25,6.2104,162.4303],[6.258,6.2206,187.9295],[6.259,6.2264,203.8851],[6.2669,6.2433,222.1223],[6.2749,6.2501,197.2443],[6.2801,6.2576,188.099],[6.2811,6.2642,187.5525],[6.2784,6.2691,186.9418],[6.2639,6.2832,174.9451],[6.2579,6.2851,166.0362],[6.2547,6.2845,166.0272],[6.2439,6.2921,176.5075],[6.2339,6.3111,138.5668],[6.2304,6.3236,194.3404],[6.2241,6.313,168.3905],[6.2103,6.2992,184.815],[6.1926,6.2771,112.5539],[6.1822,6.2764,165.7202],[6.1405,6.3401,128.022],[6.1063,6.3533,74.7161],[6.0973,6.3519,110.4326],[6.0831,6.3429,141.9238],[6.0685,6.3263,73.1822],[6.0635,6.3183,51.1466],[6.0541,6.2935,101.4909],[6.0515,6.2705,147.9144],[6.0517,6.2553,141.6074],[6.0582,6.2432,145.0962],[6.0817,6.2301,150.0403],[6.0874,6.2095,149.1841],[6.089,6.191,134.0315],[6.088,6.1744,135.3408],[6.0904,6.1522,135.2272],[6.1232,6.0942,98.835],[6.1549,6.0551,131.9024],[6.1668,6.0515,138.3658],[6.1755,6.0437,139.0382],[6.1852,6.0315,138.8263],[6.1958,6.0272,140.6215],[6.2059,6.027,144.4126],[6.2212,6.0185,113.1166],[6.2237,6.0087,72.8472],[6.2364,6.0132,77.2153],[6.2625,6.0102,69.2144],[6.2745,6.0111,69.4716],[6.2794,6.0157,75.0278],[6.2891,6.0171,71.3786],[6.2944,6.0147,45.7662],[6.3004,6.0054,68.8416],[6.3055,6.0074,51.8623],[6.3175,6.0162,73.6909],[6.3236,6.0257,72.6673],[6.3279,6.0457,80.3183],[6.3319,6.0544,82.2571],[6.3297,6.0613,76.4278],[6.3307,6.0664,75.3895],[6.3293,6.08,139.645],[6.347,6.1009,179.0738],[6.3494,6.1089,181.5199],[6.3474,6.1129,180.2548],[6.3469,6.1203,179.8653]]]]}
,"properties": {"GID_2": "NGA.10.8_1","GID_0": "NGA","country": "Nigeria","GID_1": "NGA.10_1","province": "Delta","NL_NAME_1": "NA","county": "IkaSouth","VARNAME_2": "NA","NL_NAME_2": "NA","TYPE_2": "LocalAuthority","ENGTYPE_2": "LocalAuthority","CC_2": "NA","HASC_2": "NA","name": "Ika_South.county","area_km2": 544.0947,"hist_schema_id": "Elevation0-9000","hist_area_km2": {"25": 0.3374,"50": 7.8195,"75": 45.5171,"100": 39.2909,"125": 74.7501,"150": 232.2774,"175": 105.0495,"200": 33.826,"225": 5.227}}}