{"type": "Feature","bbox": [4.5548,11.2365,5.2173,11.6988],"geometry": {"type": "MultiPolygon","coordinates": [[[[5.0817,11.6815,277.9151],[5.0668,11.6884,270.0056],[5.0373,11.6883,294.412],[4.9973,11.6652,323.1188],[4.9821,11.6664,292.071],[4.9768,11.6765,268.5743],[4.9726,11.6905,259.9248],[4.9698,11.6942,266.5801],[4.9563,11.6915,272.4638],[4.9368,11.6827,260.9858],[4.9229,11.6872,247.0056],[4.9172,11.6924,250.2153],[4.9062,11.6964,245.8166],[4.8933,11.6988,283.4367],[4.8789,11.6945,251.5058],[4.8485,11.6768,268.454],[4.8266,11.6692,312.1046],[4.8048,11.6572,257.4842],[4.7752,11.6478,245.4973],[4.7522,11.6376,236.5327],[4.7236,11.6285,222.0531],[4.685,11.6078,228.3207],[4.6588,11.5807,215.2347],[4.6462,11.56,222.2796],[4.6308,11.5439,234.8649],[4.6187,11.5385,237.4568],[4.6021,11.5383,234.2937],[4.5737,11.543,228.5291],[4.5605,11.5521,212.08],[4.5548,11.5269,226.1353],[4.5563,11.5177,231.3912],[4.5595,11.5101,217.8636],[4.5712,11.507,212.6763],[4.5812,11.5085,218.8579],[4.6031,11.5173,241.6952],[4.6366,11.5179,242.9852],[4.6486,11.5129,256.619],[4.6569,11.5042,245.0331],[4.6592,11.507,241.5455],[4.6678,11.4977,239.78809999999999],[4.6781,11.4936,234.2752],[4.7445,11.4311,249.6602],[4.7798,11.4101,233.8337],[4.7878,11.4069,241.4457],[4.798,11.3962,230.3892],[4.8011,11.3923,232.0508],[4.8038,11.3836,245.1876],[4.8034,11.3776,238.5533],[4.8109,11.3726,289.3169],[4.8162,11.3639,233.3658],[4.8233,11.3561,220.8705],[4.8263,11.3416,210.6919],[4.8225,11.3258,219.0452],[4.8143,11.317,227.6163],[4.815,11.2932,251.2882],[4.8183,11.2745,242.2942],[4.8151,11.2549,265.2326],[4.802,11.2416,241.2675],[4.7997,11.2365,252.3277],[4.812,11.2412,249.6718],[4.8379,11.2579,252.427],[4.8544,11.2664,258.5125],[4.9474,11.2986,231.4453],[4.9847,11.3015,264.7168],[5.003,11.3098,272.4497],[5.053,11.3214,307.3528],[5.0792,11.3241,331.0808],[5.1012,11.3305,321.709],[5.1522,11.3384,296.7352],[5.1694,11.3425,335.6001],[5.1741,11.356,323.8157],[5.1744,11.3724,335.4795],[5.1823,11.4076,325.6705],[5.19,11.4331,421.5643],[5.1982,11.4481,441.6223],[5.1956,11.4571,444.776],[5.1996,11.4686,450.0563],[5.2074,11.4745,468.2349],[5.2149,11.4837,423.4013],[5.2173,11.4918,400.4427],[5.2144,11.5005,392.3463],[5.215,11.507,392.1772],[5.2052,11.515,399.9284],[5.1954,11.5168,425.9585],[5.1881,11.5162,421.2527],[5.1819,11.5126,461.9196],[5.1692,11.509,465.4386],[5.1625,11.5118,463.4427],[5.1602,11.5232,431.2931],[5.1601,11.531,371.1275],[5.1622,11.5341,349.5394],[5.1466,11.5383,366.7512],[5.1367,11.547,415.0911],[5.1034,11.605,311.3839],[5.1006,11.625,344.8696],[5.0828,11.6749,313.9351],[5.0817,11.6815,277.9151]]]]}
,"properties": {"GID_2": "NGA.22.10_1","GID_0": "NGA","country": "Nigeria","GID_1": "NGA.22_1","province": "Kebbi","NL_NAME_1": "NA","county": "Fakai","VARNAME_2": "NA","NL_NAME_2": "NA","TYPE_2": "LocalAuthority","ENGTYPE_2": "LocalAuthority","CC_2": "NA","HASC_2": "NA","name": "Fakai.county","area_km2": 1958.861,"hist_schema_id": "Elevation0-9000","hist_area_km2": {"200": 11.057,"225": 190.346,"250": 477.329,"275": 593.901,"300": 376.906,"325": 166.152,"350": 49.337,"375": 20.3,"400": 24.684,"425": 24.913,"450": 18.264,"475": 5.465,"500": 0.208}}}