{"type":"Feature","properties":{"GID_2":"NGA.24.2_1","GID_0":"NGA","country":"Nigeria","GID_1":"NGA.24_1","province":"Kwara","NL_NAME_1":"NA","county":"Baruten","VARNAME_2":"NA","NL_NAME_2":"NA","TYPE_2":"LocalAuthority","ENGTYPE_2":"LocalAuthority","CC_2":"NA","HASC_2":"NA","name":"Baruten.county"},
"geometry":{"type": "MultiPolygon","coordinates": [[[[3.6286,10.0926,322.8378],[3.6236,10.0879,311.4942],[3.6156,10.0756,299.5854],[3.6116,10.0624,276.3109],[3.6114,9.996,329.8734],[3.6023,9.9574,328.9894],[3.5958,9.9457,331.1273],[3.5711,9.9254,351.9359],[3.5642,9.916,347.5269],[3.5642,9.8996,332.5247],[3.5623,9.8951,325.7513],[3.551,9.882,311.7464],[3.548,9.8808,308.6304],[3.5387,9.8688,330.4532],[3.5296,9.8621,340.5625],[3.5111,9.8573,356.319],[3.4988,9.8583,365.4061],[3.4748,9.8632,378.9289],[3.4564,9.8612,377.7242],[3.3566,9.8257,406.1324],[3.3473,9.818,415.1149],[3.3295,9.7984,428.1669],[3.3234,9.7769,438.7696],[3.3243,9.7613,470.7429],[3.3286,9.7459,460.3444],[3.3401,9.7209,445.4236],[3.3504,9.705,418.6447],[3.3521,9.6974,413.1815],[3.3486,9.6854,396.9662],[3.3149,9.6577,420.5514],[3.3096,9.6575,400.1604],[3.2923,9.6621,416.4077],[3.2804,9.6617,437.536],[3.2716,9.659,452.7275],[3.2636,9.6523,472.4326],[3.2559,9.6397,458.053],[3.2534,9.6099,464.0864],[3.2498,9.6025,449.5354],[3.2323,9.5759,481.1673],[3.2266,9.5708,483.937],[3.2161,9.5538,478.8996],[3.2079,9.5445,468.7754],[3.1948,9.5151,442.5834],[3.1861,9.5069,431.0224],[3.1548,9.4931,406.3864],[3.1362,9.4629,428.3829],[3.131,9.4401,398.8649],[3.1334,9.4261,405.243],[3.1518,9.3757,392.9878],[3.1536,9.3647,371.9285],[3.1515,9.3394,405.5223],[3.1519,9.3214,385.1587],[3.1583,9.291,394.4283],[3.1572,9.2824,386.1726],[3.15,9.2726,395.9456],[3.1317,9.2591,430.4681],[3.1264,9.2522,404.7051],[3.1222,9.2384,412.0197],[3.1237,9.1922,419.2263],[3.1013,9.1522,390.2425],[3.0921,9.1298,425.7446],[3.0882,9.1016,419.9696],[3.0835,9.0979,417.4526],[3.0562,9.0897,392.9264],[3.0426,9.0835,407.4996],[3.0351,9.0828,401.7091],[3.0081,9.0739,392.0999],[2.9841,9.0723,392.0435],[2.9641,9.0795,383.7706],[2.9564,9.0924,375.9367],[2.9534,9.0926,387.6361],[2.9126,9.0874,340.3083],[2.8961,9.0837,362.0387],[2.8819,9.073,369.1682],[2.8792,9.0647,367.2742],[2.8676,9.0622,358.715],[2.8544,9.0645,344.9699],[2.7809,9.0651,286.9817],[2.7783,9.054,287.0342],[2.7862,9.0449,285.8593],[2.7828,9.0373,286.1865],[2.7824,9.0317,292.4008],[2.7743,9.0262,293.3085],[2.7755,9.0238,292.0493],[2.7832,9.0219,282.6137],[2.784,9.0194,280.091],[2.7826,9.016,284.2463],[2.7719,9.0107,286.4341],[2.7721,9.0074,285.407],[2.7811,9.0054,284.4893],[2.7824,9.0031,284.4013],[2.7778,8.9949,284.3354],[2.7798,8.9916,287.1931],[2.7868,8.9906,282.7393],[2.7886,8.9877,283.1022],[2.7874,8.9854,290.1974],[2.7821,8.9826,278.4101],[2.783,8.9783,290.8554],[2.7873,8.9742,277.8919],[2.7888,8.9703,277.8977],[2.7858,8.9641,283.7896],[2.7711,8.9529,286.9539],[2.7782,8.9506,278.3607],[2.7818,8.9452,277.935],[2.7706,8.9188,275.5325],[2.7623,8.9146,281.6324],[2.7581,8.9079,274.5611],[2.7583,8.9039,278.1005],[2.7617,8.9028,271.6528],[2.7704,8.9047,270.5884],[2.7736,8.8947,276.4872],[2.7682,8.8672,275.7582],[2.758,8.8649,266.2423],[2.757,8.8635,267.9051],[2.7569,8.8596,275.9383],[2.7611,8.8515,263.2462],[2.7581,8.8301,263.4091],[2.7588,8.8197,267.4312],[2.7634,8.8098,259.1042],[2.7611,8.8054,263.5542],[2.7557,8.8025,269.4356],[2.7449,8.7999,265.0247],[2.7393,8.7942,259.4467],[2.7376,8.7871,265.7442],[2.7303,8.7782,270.2158],[2.7284,8.7727,271.5376],[2.7339,8.7575,268.6081],[2.7441,8.744,262.9444],[2.7461,8.7352,253.9789],[2.7462,8.7098,253.5359],[2.7504,8.7003,259.5497],[2.7414,8.678,258.5671],[2.7462,8.6666,265.1609],[2.7394,8.6608,257.4157],[2.7376,8.6549,249.2537],[2.739,8.6506,257.2636],[2.7465,8.6461,259.2254],[2.7491,8.6404,247.0775],[2.7502,8.6181,242.6289],[2.7491,8.5834,251.2452],[2.75,8.5779,259.7618],[2.7587,8.5616,239.1396],[2.7543,8.5469,232.9129],[2.7497,8.538,237.5012],[2.7496,8.5331,241.0631],[2.7592,8.5384,244.8164],[2.7893,8.5725,258.6771],[2.8011,8.5778,265.3674],[2.8111,8.5781,286.914],[2.8171,8.5801,304.2238],[2.836,8.5756,276.1842],[2.8524,8.5781,314.0995],[2.8756,8.5867,317.6137],[2.8879,8.5874,314.0376],[2.9011,8.5904,308.6361],[2.9184,8.5896,325.7902],[2.9194,8.5947,308.5454],[2.9254,8.5939,324.3473],[2.9426,8.6024,321.6401],[2.9457,8.6099,330.8839],[2.9456,8.6182,305.6241],[2.9598,8.6261,308.5625],[2.9616,8.6327,323.8874],[3.0039,8.6668,332.8161],[3.0089,8.6734,319.1955],[3.0251,8.6787,334.6442],[3.0356,8.6841,368.1008],[3.0459,8.6929,363.2269],[3.0478,8.6991,369.5873],[3.0548,8.7031,355.2589],[3.0666,8.7064,320.0155],[3.0795,8.7163,305.8564],[3.0892,8.7304,334.7703],[3.1011,8.7372,334.3117],[3.1152,8.7515,320.6278],[3.1275,8.7584,338.6399],[3.1411,8.7697,335.6147],[3.1476,8.7731,355.3583],[3.1591,8.7717,354.2629],[3.1768,8.7802,362.0867],[3.189,8.7774,343.2943],[3.2003,8.7742,340.6274],[3.2057,8.7649,370.2253],[3.215,8.7562,398.4572],[3.2222,8.7579,379.8916],[3.2244,8.7528,393.6891],[3.2307,8.7458,391.2714],[3.2458,8.7483,359.4351],[3.2672,8.7576,388.6925],[3.2737,8.764,371.4463],[3.2914,8.7683,389.343],[3.3035,8.778,387.2075],[3.3438,8.7965,400.9452],[3.3588,8.8006,421.0192],[3.3689,8.8085,432.959],[3.3854,8.8168,440.8827],[3.4036,8.8294,440.4612],[3.4074,8.8362,432.7288],[3.412,8.8354,421.0251],[3.4257,8.8403,438.2976],[3.4465,8.854,419.8924],[3.466,8.8714,429.6058],[3.4776,8.8772,431.6769],[3.4963,8.8905,400.3968],[3.5149,8.8974,388.6104],[3.5258,8.9059,387.7961],[3.5493,8.9162,412.4515],[3.5594,8.9245,401.9595],[3.585,8.9354,406.2206],[3.5984,8.9389,401.4645],[3.6124,8.9492,402.2909],[3.6419,8.9593,405.0742],[3.6668,8.9714,382.1348],[3.692,8.9866,381.0092],[3.7154,9.0039,412.0218],[3.7144,9.0039,401.4929],[3.7292,9.0154,429.1234],[3.7381,9.0265,421.5589],[3.7455,9.0443,404.8593],[3.7458,9.0868,382.6388],[3.7534,9.1059,356.2045],[3.7596,9.1167,352.9968],[3.762,9.1326,311.1903],[3.773,9.1464,355.0453],[3.805,9.1633,370.4016],[3.8142,9.1707,337.6723],[3.8414,9.7505,289.4995],[3.8454,9.7808,264.5679],[3.8499,9.869,283.256],[3.8469,9.8882,256.5967],[3.8476,9.9706,287.6528],[3.8445,9.9927,293.191],[3.85,10.0348,267.819],[3.8461,10.0973,256.1708],[3.8475,10.1458,266.4384],[3.757,10.1446,316.6972],[3.7259,10.1421,291.6894],[3.677,10.1326,286.9247],[3.6701,10.1299,293.2979],[3.6628,10.1069,313.4262],[3.6583,10.1032,315.0841],[3.6465,10.1017,310.0603],[3.6286,10.0926,322.8378]]]]}}