{"type":"Feature","properties":{"GID_2":"NGA.23.12_1","GID_0":"NGA","country":"Nigeria","GID_1":"NGA.23_1","province":"Kogi","NL_NAME_1":"NA","county":"Lokoja","VARNAME_2":"NA","NL_NAME_2":"NA","TYPE_2":"LocalAuthority","ENGTYPE_2":"LocalAuthority","CC_2":"NA","HASC_2":"NA","name":"Lokoja.county"},
"geometry":{"type": "MultiPolygon","coordinates": [[[[6.6938,7.7578,262.7071],[6.7003,7.7491,164.4093],[6.7079,7.7345,94.3977],[6.7301,7.7099,95.4222],[6.7471,7.6937,34.5],[6.7591,7.686,34.5],[6.7573,7.7085,35.5],[6.7587,7.7493,37.0],[6.7729,7.787,41.6918],[6.779,7.822,38.6946],[6.7809,7.8549,38.0],[6.7746,7.9637,42.2264],[6.7755,7.9928,40.9795],[6.7593,8.0578,260.0116],[6.7514,8.0731,78.8907],[6.7388,8.0895,44.5909],[6.7254,8.1026,42.3192],[6.7175,8.1145,43.1813],[6.7023,8.1323,45.6611],[6.6967,8.1538,41.5],[6.687,8.168,48.8993],[6.6806,8.1981,49.3279],[6.6701,8.1983,49.8682],[6.6545,8.2076,52.3184],[6.6108,8.2577,125.3108],[6.5903,8.2903,46.8488],[6.5378,8.3563,51.3774],[6.513,8.3779,48.7386],[6.5017,8.3926,49.7288],[6.4939,8.3995,48.1093],[6.4557,8.4209,50.374],[6.434,8.4365,49.7918],[6.4315,8.4485,50.2191],[6.4153,8.4929,51.9931],[6.4044,8.5321,52.1296],[6.396,8.5537,51.4796],[6.3928,8.5692,50.8804],[6.389,8.578,51.9606],[6.3824,8.5843,52.0504],[6.3791,8.5945,50.5582],[6.3705,8.6046,54.2649],[6.3482,8.6387,53.3509],[6.3384,8.6492,53.9795],[6.3161,8.6687,57.3209],[6.3073,8.68,53.8748],[6.2913,8.6909,55.534],[6.2757,8.699,56.2051],[6.2613,8.7096,56.4499],[6.2464,8.7163,55.5643],[6.2239,8.7236,58.7049],[6.2109,8.7255,54.7411],[6.1942,8.6964,56.8293],[6.1843,8.686,64.078],[6.1759,8.6799,60.6712],[6.1712,8.6717,62.9287],[6.1621,8.6375,92.9538],[6.1417,8.5778,78.8084],[6.1338,8.5464,99.3558],[6.1317,8.5277,143.1196],[6.1328,8.5095,178.1113],[6.1278,8.4761,228.3113],[6.1216,8.4635,242.2594],[6.1236,8.442,263.7339],[6.1179,8.4336,267.0099],[6.1151,8.432,315.9684],[6.1092,8.4086,221.4633],[6.1271,8.4058,214.0069],[6.1345,8.4082,254.0218],[6.1547,8.4208,245.1605],[6.2049,8.4146,169.5091],[6.2211,8.4153,201.2258],[6.2543,8.3981,170.5169],[6.2788,8.3742,191.4102],[6.3245,8.3345,223.1634],[6.3397,8.3174,219.5154],[6.359,8.3,183.8874],[6.3708,8.2851,190.4553],[6.3903,8.2523,196.3825],[6.4066,8.2336,163.0642],[6.4268,8.1964,129.6038],[6.4521,8.1655,169.6168],[6.467,8.1413,268.2163],[6.4663,8.1141,227.7674],[6.45,8.0921,289.6109],[6.4452,8.0802,307.1781],[6.43,8.0555,204.3912],[6.4253,8.0351,377.8092],[6.4163,8.0207,360.6926],[6.4261,7.9853,284.4096],[6.4329,7.9746,301.0907],[6.4495,7.9317,166.2361],[6.4455,7.9154,185.9843],[6.429,7.903,215.9891],[6.412,7.9107,325.2232],[6.3915,7.9241,282.9945],[6.3573,7.9671,392.0015],[6.342,7.978,324.7281],[6.2799,8.029,386.63],[6.256,8.0506,410.4321],[6.2356,8.0604,439.9598],[6.2232,8.0634,419.7981],[6.2052,8.0584,435.1053],[6.1958,8.0489,482.4261],[6.1917,8.0372,468.295],[6.1941,8.0273,431.3008],[6.2025,8.0071,431.5868],[6.2197,7.9844,416.1165],[6.2219,7.9653,465.1852],[6.2247,7.9549,406.6167],[6.2244,7.9489,396.7345],[6.2272,7.9389,401.655],[6.2418,7.9295,406.0659],[6.2682,7.9209,431.7833],[6.2931,7.9016,430.4263],[6.2925,7.8954,401.0824],[6.306,7.8765,382.0102],[6.3006,7.8573,353.332],[6.3033,7.8501,306.5241],[6.2974,7.8274,244.0315],[6.3002,7.8174,246.9821],[6.2963,7.8011,225.8274],[6.2932,7.7956,277.4034],[6.2864,7.7893,340.6605],[6.2956,7.7864,258.8026],[6.3051,7.7881,275.3894],[6.332,7.7717,254.1572],[6.3384,7.7695,257.2717],[6.3516,7.77,185.3251],[6.3777,7.7848,171.3331],[6.4158,7.8035,189.6633],[6.4663,7.8323,173.3056],[6.5122,7.8451,155.0532],[6.524,7.847,164.8255],[6.5386,7.853,150.5524],[6.5487,7.8443,172.0851],[6.547,7.8427,174.6203],[6.5608,7.8268,149.2575],[6.6034,7.8201,133.7997],[6.6195,7.8164,158.4684],[6.6204,7.8145,151.1581],[6.6453,7.8159,123.0337],[6.6699,7.7969,96.0768],[6.6835,7.7835,107.5028],[6.6906,7.7622,187.9156],[6.6938,7.7578,262.7071]]]]}}