{"type": "Feature","bbox": [9.7535,12.5936,10.3281,12.9886],"geometry": {"type": "MultiPolygon","coordinates": [[[[10.3181,12.8012,345.4369],[10.2934,12.7953,346.1027],[10.2753,12.784,346.7005],[10.2517,12.824,346.6424],[10.2405,12.893,346.5109],[10.206,12.9688,347.1855],[10.1704,12.9886,347.1969],[10.1146,12.9727,347.8865],[10.0681,12.9575,350.1041],[10.0225,12.9358,349.6063],[9.9715,12.9259,349.8078],[9.8856,12.8847,351.8881],[9.8735,12.8534,356.0576],[9.8517,12.8215,351.7383],[9.8299,12.8043,353.8418],[9.801,12.7929,355.4899],[9.7544,12.7961,354.6009],[9.7535,12.7869,354.5208],[9.7566,12.7726,354.8503],[9.79,12.6973,356.163],[9.8052,12.6684,356.2461],[9.8201,12.6477,355.6922],[9.8358,12.6187,355.5704],[9.8374,12.612,355.7098],[9.8406,12.6113,355.7669],[9.8649,12.5952,358.0314],[9.9225,12.5936,354.0486],[9.9386,12.5981,354.8015],[9.9609,12.6076,353.2692],[9.9977,12.6159,353.3355],[10.0158,12.6285,353.8556],[10.0346,12.6383,351.9555],[10.0482,12.6536,352.9102],[10.0682,12.6656,352.9404],[10.0857,12.6585,352.5607],[10.0945,12.6495,350.4863],[10.106,12.645,350.9506],[10.1387,12.6555,350.2194],[10.1601,12.6742,349.203],[10.1689,12.6894,349.4511],[10.1759,12.6982,349.5711],[10.201,12.7003,349.6481],[10.2319,12.7143,348.1237],[10.2614,12.7322,347.531],[10.2763,12.7372,346.3029],[10.2932,12.7391,346.7095],[10.3184,12.7481,347.3269],[10.3281,12.7558,347.432],[10.3209,12.7833,345.5322],[10.3181,12.8012,345.4369]]]]}
,"properties": {"GID_2": "NGA.18.3_1","GID_0": "NGA","country": "Nigeria","GID_1": "NGA.18_1","province": "Jigawa","NL_NAME_1": "NA","county": "Biriniwa","VARNAME_2": "NA","NL_NAME_2": "NA","TYPE_2": "LocalAuthority","ENGTYPE_2": "LocalAuthority","CC_2": "NA","HASC_2": "NA","name": "Biriniwa.county","area_km2": 1587.537,"hist_schema_id": "Elevation0-9000","hist_area_km2": {"350": 1587.537}}}