{"type":"Feature","properties":{"GID_2":"NGA.8.8_1","GID_0":"NGA","country":"Nigeria","GID_1":"NGA.8_1","province":"Borno","NL_NAME_1":"NA","county":"Dikwa","VARNAME_2":"NA","NL_NAME_2":"NA","TYPE_2":"LocalAuthority","ENGTYPE_2":"LocalAuthority","CC_2":"NA","HASC_2":"NA","name":"Dikwa.county"},
"geometry":{"type": "MultiPolygon","coordinates": [[[[14.3952,11.8472,292.7001],[14.4021,11.8638,293.2954],[14.4009,11.8867,293.33],[14.402,11.9323,292.6478],[14.4115,12.0151,291.3263],[14.4086,12.0498,290.8983],[14.3979,12.0439,290.7514],[14.3812,12.043,290.6248],[14.3511,12.0456,291.573],[14.3133,12.0314,290.3844],[14.2966,12.0319,291.0322],[14.2529,11.9916,290.6944],[14.2212,11.9858,290.7691],[14.197,11.9934,292.6646],[14.1812,12.0077,290.2617],[14.1691,12.0254,290.1952],[14.1523,12.0842,289.4552],[14.1263,12.1081,289.3112],[14.0944,12.1513,288.7903],[14.0655,12.1714,288.606],[14.0629,12.1552,288.7548],[14.0541,12.1314,288.9396],[14.043,12.1214,289.5745],[14.0282,12.1175,289.7953],[14.0151,12.117,289.7286],[13.9905,12.1192,290.0485],[13.9726,12.1151,290.491],[13.9422,12.0755,291.7002],[13.9254,12.0636,292.9099],[13.9203,12.0524,291.6319],[13.9195,12.0284,295.3467],[13.9231,12.0023,295.0962],[13.9341,11.9486,294.1788],[13.9312,11.9275,294.4446],[13.9242,11.9059,295.0901],[13.9187,11.8548,297.0306],[13.9153,11.8374,297.361],[13.8896,11.811,298.4926],[13.8949,11.8034,298.4238],[13.8923,11.7958,298.1692],[13.8819,11.7835,299.1375],[13.8741,11.7795,299.7218],[13.8522,11.7724,299.8864],[13.8509,11.7697,299.9764],[13.8636,11.7515,300.5158],[13.8759,11.7439,300.2868],[13.9058,11.7306,301.6101],[13.9304,11.724,302.6663],[13.951,11.7232,300.3212],[13.9714,11.7261,299.781],[14.038,11.7237,298.0155],[14.0593,11.7173,296.9287],[14.0798,11.7142,297.05],[14.0859,11.7095,297.6075],[14.1116,11.7075,298.6371],[14.132,11.718,296.9185],[14.1533,11.7391,296.0984],[14.1671,11.767,297.9263],[14.1835,11.782,296.4117],[14.2086,11.7963,296.4525],[14.2569,11.8094,294.3894],[14.2903,11.8135,293.9075],[14.3491,11.8342,293.4134],[14.3872,11.8463,293.2194],[14.3952,11.8472,292.7001]]]]}}