{"type": "Feature","bbox": [4.761,7.2924,5.0015,7.7242],"geometry": {"type": "MultiPolygon","coordinates": [[[[4.9193,7.7147,484.7371],[4.9048,7.7166,414.7256],[4.8901,7.7212,399.3365],[4.8808,7.7186,388.5936],[4.8502,7.7224,376.6535],[4.812,7.7242,369.3849],[4.804,7.7188,368.3454],[4.7991,7.7106,350.8608],[4.7817,7.6915,379.8796],[4.7713,7.6767,370.2842],[4.7676,7.6655,366.3462],[4.7632,7.6603,366.8529],[4.761,7.6536,371.1548],[4.7642,7.6522,376.357],[4.7704,7.6523,370.2455],[4.7861,7.6543,389.768],[4.7891,7.6522,412.8192],[4.7934,7.6466,477.7108],[4.8061,7.6197,397.0854],[4.8089,7.6088,390.4856],[4.8141,7.599,442.5467],[4.8137,7.5898,441.9785],[4.8241,7.5613,373.0903],[4.8306,7.5377,345.8646],[4.827,7.5274,357.6434],[4.8492,7.4745,340.6065],[4.8531,7.4592,274.872],[4.8506,7.4466,248.9514],[4.838,7.4212,259.808],[4.8343,7.4084,250.7174],[4.8294,7.39,338.7222],[4.8304,7.3792,237.4539],[4.8437,7.3462,260.1395],[4.8502,7.3344,272.8118],[4.8693,7.3064,273.1919],[4.8722,7.299,272.3405],[4.8806,7.2924,284.2411],[4.8836,7.2993,266.3381],[4.8933,7.3413,277.4949],[4.9068,7.3506,348.8426],[4.9706,7.3693,330.6144],[4.9924,7.3717,324.2868],[5.0015,7.3762,308.9878],[4.9993,7.4,338.7295],[4.978,7.4423,348.2908],[4.9728,7.4618,389.6092],[4.9693,7.4902,436.4542],[4.9317,7.5758,423.1654],[4.9185,7.6021,664.7786],[4.9073,7.6791,473.0848],[4.9193,7.7147,484.7371]]]]}
,"properties": {"GID_2": "NGA.30.28_1","GID_0": "NGA","country": "Nigeria","GID_1": "NGA.30_1","province": "Osun","NL_NAME_1": "NA","county": "Oriade","VARNAME_2": "NA","NL_NAME_2": "NA","TYPE_2": "LocalAuthority","ENGTYPE_2": "LocalAuthority","CC_2": "NA","HASC_2": "NA","name": "Oriade.county","area_km2": 599.502,"hist_schema_id": "Elevation0-9000","hist_area_km2": {"225": 0.9672,"250": 18.7546,"275": 84.9165,"300": 68.8933,"325": 57.6027,"350": 73.5535,"375": 95.7268,"400": 74.3098,"425": 37.9547,"450": 17.1494,"475": 10.4666,"500": 8.7645,"525": 7.1251,"550": 6.4944,"575": 5.6957,"600": 5.2965,"625": 4.8341,"650": 7.8185,"675": 7.3141,"700": 4.729,"725": 0.9248,"750": 0.2102}}}