{"type": "Feature","bbox": [4.5521,9.7941,5.357,10.7614],"geometry": {"type": "MultiPolygon","coordinates": [[[[4.5531,10.1072,143.5775],[4.5521,10.1044,140.4121],[4.5545,10.0917,130.0],[4.57,10.0713,130.0],[4.575,10.0425,130.0],[4.5753,10.0275,130.0],[4.5711,10.0106,130.0],[4.5706,9.9888,130.0],[4.5773,9.9476,130.0],[4.5881,9.9116,130.0],[4.6033,9.8706,130.0],[4.6151,9.8174,129.2549],[4.6211,9.7994,118.1361],[4.6266,9.7941,115.8657],[4.6299,9.824,100.0],[4.6579,9.8873,138.3789],[4.6728,9.9092,150.7008],[4.7029,9.9365,187.6035],[4.7211,9.9561,194.3039],[4.7439,9.9736,255.5579],[4.7798,9.9962,283.8881],[4.7939,9.9989,269.368],[4.8205,9.9848,261.1092],[4.8399,9.9684,257.6383],[4.8642,9.9582,217.3634],[4.8899,9.9649,253.2045],[4.9039,9.9843,277.4848],[4.9062,10.0413,295.5444],[4.9126,10.1058,284.3634],[4.9169,10.1368,303.3878],[4.9222,10.1507,252.4631],[4.9237,10.1614,283.7122],[4.9689,10.1877,252.5037],[4.9958,10.1984,257.8483],[5.0365,10.2113,248.3967],[5.0796,10.2225,252.5909],[5.141,10.268,249.8743],[5.1771,10.3069,271.7281],[5.2,10.3457,261.1378],[5.2452,10.3619,248.5854],[5.2687,10.3573,275.6513],[5.3006,10.3544,298.4491],[5.3296,10.3685,289.5532],[5.3394,10.3949,273.5036],[5.3438,10.4283,288.0471],[5.3245,10.4629,300.3986],[5.3176,10.4973,308.4584],[5.3146,10.533,332.5117],[5.3176,10.5712,313.7765],[5.3374,10.5966,305.609],[5.3491,10.6158,277.5386],[5.3525,10.6429,290.536],[5.357,10.663,320.8681],[5.3561,10.6875,301.6426],[5.3523,10.7087,308.4021],[5.3466,10.7278,289.917],[5.3491,10.7614,262.7912],[5.3057,10.7475,250.8036],[5.2989,10.7329,264.408],[5.2896,10.7282,263.297],[5.2695,10.7412,233.9693],[5.2626,10.7346,242.8966],[5.2587,10.7254,245.4895],[5.2573,10.715,246.2273],[5.2471,10.707,242.3958],[5.2411,10.6998,236.5103],[5.2314,10.6995,258.9532],[5.2228,10.7033,238.4435],[5.2123,10.7004,262.5824],[5.1959,10.7054,265.3604],[5.1747,10.7195,251.1283],[5.1557,10.7285,226.7177],[5.1443,10.73,227.259],[5.1284,10.7232,230.4448],[5.1119,10.724,235.5288],[5.1002,10.7329,222.7484],[5.0807,10.7318,216.8259],[5.0504,10.7217,233.7054],[5.0211,10.7168,198.6656],[4.972,10.6949,207.6544],[4.9368,10.6747,189.4395],[4.9184,10.6722,181.5365],[4.8862,10.6836,193.8469],[4.856,10.6831,206.605],[4.8411,10.6808,211.222],[4.831,10.6762,205.5179],[4.8164,10.6643,172.6095],[4.8128,10.6433,167.3937],[4.8158,10.6147,187.7811],[4.8128,10.5912,193.7488],[4.8121,10.5638,180.9316],[4.8155,10.5355,176.7769],[4.8157,10.5111,187.2511],[4.8084,10.4892,191.061],[4.8144,10.4669,203.8342],[4.8287,10.444,213.4212],[4.8579,10.4124,256.2396],[4.888,10.3639,305.0652],[4.9001,10.325,268.8018],[4.8956,10.3004,272.6848],[4.867,10.2664,274.6277],[4.8447,10.2514,267.0781],[4.8244,10.2413,247.3327],[4.8065,10.2372,221.9713],[4.7881,10.2382,205.0503],[4.7698,10.2371,183.4266],[4.7281,10.2205,182.7115],[4.7028,10.2124,168.4688],[4.661,10.2053,155.1209],[4.6498,10.1971,148.9319],[4.6471,10.1784,178.3397],[4.6417,10.1034,162.8157],[4.6327,10.0957,170.0114],[4.563,10.1031,160.0538],[4.5531,10.1072,143.5775]]]]}
,"properties": {"GID_2": "NGA.27.14_1","GID_0": "NGA","country": "Nigeria","GID_1": "NGA.27_1","province": "Niger","NL_NAME_1": "NA","county": "Magama","VARNAME_2": "NA","NL_NAME_2": "NA","TYPE_2": "LocalAuthority","ENGTYPE_2": "LocalAuthority","CC_2": "NA","HASC_2": "NA","name": "Magama.county","area_km2": 3763.155,"hist_schema_id": "Elevation0-9000","hist_area_km2": {"100": 7.667,"125": 114.771,"150": 89.22,"175": 188.15,"200": 339.187,"225": 456.363,"250": 645.586,"275": 803.639,"300": 614.717,"325": 334.265,"350": 129.544,"375": 38.232,"400": 1.814}}}