{"type":"Feature","properties":{"GID_2":"NGA.25.15_1","GID_0":"NGA","country":"Nigeria","GID_1":"NGA.25_1","province":"Lagos","NL_NAME_1":"NA","county":"Mainland","VARNAME_2":"LagosMainland","NL_NAME_2":"NA","TYPE_2":"LocalAuthority","ENGTYPE_2":"LocalAuthority","CC_2":"NA","HASC_2":"NA","name":"Mainland.county"},
"geometry":{"type": "MultiPolygon","coordinates": [[[[3.3638,6.4704,4.4663],[3.3682,6.4726,2.7326],[3.3718,6.4709,1.6476],[3.3785,6.471,3.2664],[3.3876,6.475,0.0],[3.3841,6.4877,6.6026],[3.3833,6.4977,2.6913],[3.385,6.5039,3.6602],[3.3954,6.518,8.3336],[3.3969,6.5232,0.0],[3.395,6.5323,3.2605],[3.3917,6.5354,9.5711],[3.3848,6.5324,6.4766],[3.3708,6.5359,18.5417],[3.3573,6.5346,26.0463],[3.3639,6.5231,11.4089],[3.3638,6.518,8.789],[3.3623,6.5075,10.8062],[3.3511,6.4824,4.5941],[3.3583,6.4773,3.2888],[3.3638,6.4704,4.4663]]]]}}