{"type": "Feature","bbox": [14.3952,11.7573,14.6762,12.3611],"geometry": {"type": "MultiPolygon","coordinates": [[[[14.444,12.3578,286.9001],[14.4352,12.3611,289.1401],[14.4316,12.3607,288.3284],[14.4437,12.2997,288.8697],[14.4526,12.2708,289.3104],[14.4528,12.244,288.7038],[14.4495,12.2127,289.4565],[14.4443,12.1891,289.5073],[14.4396,12.1274,292.0789],[14.4175,12.0641,291.5898],[14.4083,12.0523,291.1988],[14.4115,12.0151,291.3263],[14.402,11.9323,292.6478],[14.4009,11.8867,293.33],[14.4021,11.8638,293.2954],[14.3952,11.8472,292.7001],[14.4104,11.8471,292.8178],[14.4615,11.8185,293.9036],[14.5164,11.7934,294.8121],[14.5353,11.7875,295.1224],[14.5592,11.7775,295.0633],[14.6013,11.766,294.5722],[14.5951,11.7573,294.9813],[14.5988,11.7597,295.0864],[14.6126,11.7806,294.4914],[14.608,11.7859,294.4556],[14.6046,11.7956,293.9525],[14.6055,11.8053,293.4325],[14.6089,11.8179,293.253],[14.6047,11.8331,292.7544],[14.6064,11.8411,292.667],[14.6124,11.8464,292.5489],[14.6143,11.8503,292.4694],[14.6135,11.8532,292.702],[14.6072,11.8576,292.9062],[14.6028,11.865,292.8568],[14.6034,11.8674,292.2254],[14.6104,11.8768,291.7969],[14.613,11.8767,292.2467],[14.6178,11.8807,292.4039],[14.6244,11.8909,291.6652],[14.6282,11.9013,291.3944],[14.642,11.9101,291.0755],[14.6335,11.9274,292.3748],[14.6337,11.9316,291.6916],[14.6433,11.94,291.8184],[14.648,11.9485,290.9379],[14.6525,11.9522,291.9071],[14.6537,11.957,291.2318],[14.6518,11.9631,292.0118],[14.6479,11.9643,292.0547],[14.6423,11.9689,292.1683],[14.6401,11.9774,291.6833],[14.6367,11.9809,291.4312],[14.6359,11.9866,291.8889],[14.6331,11.9895,292.0789],[14.6312,11.9964,291.9941],[14.6319,12.0082,291.5698],[14.6255,12.0229,291.522],[14.6209,12.0256,291.5032],[14.6197,12.0403,291.12],[14.6243,12.0493,290.7713],[14.6316,12.0581,290.4165],[14.6531,12.0623,290.9158],[14.6533,12.067,290.554],[14.6449,12.0702,290.9688],[14.639,12.0753,290.8469],[14.6335,12.0862,290.7471],[14.634,12.0918,290.32],[14.6465,12.1043,289.6915],[14.654,12.1175,290.5121],[14.6536,12.1282,290.3295],[14.6495,12.1358,289.6544],[14.6515,12.139,290.2589],[14.6557,12.138,289.4399],[14.6623,12.144,289.3359],[14.6635,12.1472,289.6539],[14.6669,12.1485,289.8461],[14.6674,12.1515,290.3645],[14.6762,12.1598,289.7889],[14.676,12.1662,290.2281],[14.6726,12.1741,289.7483],[14.6626,12.1782,288.9106],[14.6652,12.1889,289.3616],[14.6594,12.1971,288.1644],[14.6522,12.1964,290.4263],[14.6476,12.1905,290.0391],[14.6419,12.1941,290.4273],[14.6411,12.1896,288.8043],[14.6395,12.1886,289.2321],[14.632,12.1922,290.899],[14.6281,12.1874,288.6992],[14.6311,12.1826,289.2628],[14.6313,12.1803,289.4724],[14.629,12.1792,289.0004],[14.6193,12.1826,289.3917],[14.6135,12.183,289.9769],[14.613,12.1861,289.282],[14.6148,12.1865,287.8987],[14.6152,12.189,287.6589],[14.6104,12.1881,289.711],[14.6037,12.191,289.56],[14.5975,12.1903,289.2266],[14.5971,12.1951,288.8273],[14.6062,12.1953,288.9579],[14.6073,12.197,289.3233],[14.6006,12.2113,289.2399],[14.594,12.2123,289.5103],[14.5905,12.2159,288.4486],[14.5908,12.2178,287.7551],[14.594,12.2199,288.6945],[14.5921,12.2257,289.6538],[14.5815,12.2264,289.6005],[14.5719,12.2241,288.7676],[14.567,12.2299,289.1335],[14.5487,12.2353,289.4542],[14.548,12.241,288.175],[14.5536,12.2449,288.1525],[14.5546,12.2502,290.5127],[14.5597,12.2593,288.4196],[14.5574,12.2599,287.9334],[14.5527,12.2551,288.5894],[14.5481,12.2564,287.7904],[14.5414,12.2722,288.3962],[14.5455,12.277,287.6063],[14.545,12.2803,288.8793],[14.5397,12.2823,288.5688],[14.5338,12.2878,289.5657],[14.5291,12.2878,288.791],[14.525,12.2899,288.8443],[14.5204,12.2959,288.0376],[14.5147,12.295,288.7325],[14.511,12.2962,288.4395],[14.5144,12.3046,287.0811],[14.5101,12.311,288.6365],[14.5097,12.3149,288.1932],[14.514099999999999,12.3164,287.7853],[14.5191,12.3133,288.2689],[14.5207,12.314,288.0687],[14.5208,12.323,287.613],[14.5181,12.3277,287.3267],[14.5012,12.329,287.0801],[14.4942,12.3368,288.1044],[14.4871,12.3387,287.9203],[14.484,12.3411,286.9209],[14.4886,12.3477,288.5259],[14.4872,12.3515,288.3885],[14.4828,12.3518,287.4255],[14.4799,12.3446,289.6354],[14.476,12.3449,288.8071],[14.4729,12.3477,287.8076],[14.4677,12.3581,286.3701],[14.4635,12.3593,287.3032],[14.4558,12.3563,287.1854],[14.448,12.3468,287.7094],[14.444,12.3505,286.6964],[14.444,12.3578,286.9001]]]]}
,"properties": {"GID_2": "NGA.8.15_1","GID_0": "NGA","country": "Nigeria","GID_1": "NGA.8_1","province": "Borno","NL_NAME_1": "NA","county": "Kala/Balge","VARNAME_2": "NA","NL_NAME_2": "NA","TYPE_2": "LocalAuthority","ENGTYPE_2": "LocalAuthority","CC_2": "NA","HASC_2": "NA","name": "Kala_Balge.county","area_km2": 1227.2593,"hist_schema_id": "Elevation0-9000","hist_area_km2": {"275": 6.8562,"300": 1220.4031}}}