{"type":"Feature","properties":{"GID_2":"NGA.22.4_1","GID_0":"NGA","country":"Nigeria","GID_1":"NGA.22_1","province":"Kebbi","NL_NAME_1":"NA","county":"Augie","VARNAME_2":"NA","NL_NAME_2":"NA","TYPE_2":"LocalAuthority","ENGTYPE_2":"LocalAuthority","CC_2":"NA","HASC_2":"NA","name":"Augie.county"},
"geometry":{"type": "MultiPolygon","coordinates": [[[[4.381,12.8145,250.7488],[4.3969,12.7914,252.212],[4.4166,12.772,232.6103],[4.4357,12.7623,212.8102],[4.474,12.766,215.3057],[4.4929,12.7727,213.0515],[4.5324,12.7588,213.5824],[4.5482,12.75,227.9576],[4.5542,12.7397,228.7775],[4.5591,12.7266,224.9172],[4.5622,12.7113,238.4771],[4.5856,12.7116,242.7418],[4.6075,12.7153,244.7194],[4.6231,12.7072,247.8482],[4.6374,12.703,274.2615],[4.6471,12.6948,284.5363],[4.655,12.6831,274.5389],[4.6687,12.6791,279.3399],[4.6866,12.667,284.6428],[4.6998,12.6623,292.0107],[4.7687,12.6689,276.7816],[4.8074,12.6671,280.2896],[4.8093,12.6795,281.9971],[4.8241,12.7351,230.7802],[4.8223,12.7656,254.5114],[4.8271,12.7878,270.6636],[4.8166,12.8135,259.5644],[4.8109,12.8331,260.0001],[4.798,12.8556,256.6054],[4.7834,12.8713,258.285],[4.773,12.8793,261.9035],[4.7679,12.8896,255.1367],[4.7748,12.9484,243.0114],[4.7831,12.9565,241.2185],[4.7876,12.9841,238.6477],[4.7977,12.9955,237.5674],[4.7962,13.0336,237.5638],[4.8002,13.0459,243.406],[4.805,13.0519,241.9306],[4.8138,13.0712,232.4929],[4.816,13.0837,229.3923],[4.8224,13.0958,231.7786],[4.816,13.1156,231.0047],[4.8093,13.1261,236.2245],[4.7984,13.1295,238.776],[4.7868,13.1284,243.7056],[4.7798,13.1246,239.618],[4.7701,13.1148,227.8054],[4.7626,13.1004,228.3701],[4.7456,13.0792,227.6419],[4.7395,13.0662,227.9037],[4.7293,13.0573,228.2297],[4.7165,13.0526,226.9941],[4.7,13.0505,226.603],[4.6688,13.055,241.1497],[4.6504,13.0613,255.1279],[4.6029,13.094,255.8527],[4.5903,13.0981,254.5768],[4.5527,13.038,248.4295],[4.4882,12.9738,263.0974],[4.478,12.9519,255.3783],[4.4407,12.9083,240.3167],[4.4307,12.8907,236.892],[4.4083,12.8385,252.9473],[4.3933,12.8267,255.8891],[4.381,12.8145,250.7488]]]]}}