{"type":"Feature","properties":{"GID_2":"NGA.14.15_1","GID_0":"NGA","country":"Nigeria","GID_1":"NGA.14_1","province":"Enugu","NL_NAME_1":"NA","county":"Udenu","VARNAME_2":"NA","NL_NAME_2":"NA","TYPE_2":"LocalAuthority","ENGTYPE_2":"LocalAuthority","CC_2":"NA","HASC_2":"NA","name":"Udenu.county"},
"geometry":{"type": "MultiPolygon","coordinates": [[[[7.5375,6.9587,460.4995],[7.5023,6.932,463.2857],[7.4815,6.9118,459.1428],[7.4715,6.8932,420.8201],[7.4658,6.8884,414.4413],[7.4652,6.8894,419.4012],[7.4592,6.8779,404.0018],[7.4529,6.8737,416.007],[7.437,6.8562,498.9592],[7.4389,6.8476,479.6526],[7.4383,6.8387,481.886],[7.4405,6.8356,472.48],[7.4522,6.8308,495.6572],[7.4718,6.8319,474.8411],[7.4913,6.8239,484.1938],[7.5024,6.8242,435.4305],[7.5259,6.8197,303.8863],[7.5356,6.8101,275.8478],[7.5543,6.8079,245.533],[7.5745,6.7866,250.8163],[7.5904,6.7863,258.5065],[7.6114,6.7899,228.0317],[7.6311,6.7953,191.2946],[7.6411,6.8117,186.4946],[7.6459,6.8262,200.7537],[7.6534,6.8304,175.818],[7.6601,6.8519,218.2653],[7.6404,6.8622,229.1528],[7.5825,6.9068,270.326],[7.5571,6.9344,418.5411],[7.5375,6.9587,460.4995]]]]}}