{"type":"Feature","properties":{"GID_2":"NGA.21.30_1","GID_0":"NGA","country":"Nigeria","GID_1":"NGA.21_1","province":"Katsina","NL_NAME_1":"NA","county":"Rimi","VARNAME_2":"NA","NL_NAME_2":"NA","TYPE_2":"LocalAuthority","ENGTYPE_2":"LocalAuthority","CC_2":"NA","HASC_2":"NA","name":"Rimi.county"},
"geometry":{"type": "MultiPolygon","coordinates": [[[[7.5513,12.722,513.0353],[7.5717,12.7182,515.1517],[7.5821,12.7197,507.934],[7.5893,12.7226,516.8051],[7.5944,12.721,527.9125],[7.6021,12.7158,523.4919],[7.611,12.7134,526.3607],[7.6223,12.7156,533.0703],[7.6318,12.7205,545.3537],[7.6376,12.7217,540.6652],[7.6526,12.712,545.2],[7.6632999999999996,12.7096,552.173],[7.6689,12.7064,552.2177],[7.6877,12.7054,545.6565],[7.6956,12.7011,549.8821],[7.7078,12.6886,535.8016],[7.7206,12.6818,539.1319],[7.7334,12.6794,540.2906],[7.7374,12.6804,548.7003],[7.7449,12.6934,542.7378],[7.7574,12.7028,540.9302],[7.7595,12.7072,538.4995],[7.7673,12.7142,536.8436],[7.771,12.7198,534.3251],[7.7719,12.7255,525.8842],[7.7666,12.7774,507.5226],[7.7725,12.7895,501.2806],[7.7667,12.7915,506.9975],[7.7648,12.7951,505.2416],[7.7631,12.8083,504.0378],[7.7653,12.8168,495.7777],[7.7645,12.8341,488.9774],[7.7687,12.8882,467.3144],[7.7738,12.9124,486.0636],[7.7726,12.9263,473.0222],[7.7794,12.9704,472.397],[7.7798,12.982,472.7748],[7.7756,13.0297,460.1221],[7.7552,13.0313,458.8898],[7.7315,13.0382,456.9368],[7.7225,13.0365,467.1011],[7.715,13.0309,477.1141],[7.7075,13.0171,473.5201],[7.7062,13.0044,488.1945],[7.7044,13.001,498.7315],[7.7058,12.9975,497.6498],[7.7116,12.9932,486.3206],[7.7524,12.9865,459.2047],[7.757,12.9812,453.2254],[7.7585,12.973,453.1339],[7.7572,12.9667,461.5649],[7.7505,12.9532,459.4522],[7.7085,12.9186,475.0775],[7.6866,12.9052,488.1698],[7.6669,12.8896,503.0942],[7.6453,12.8718,513.1492],[7.6321,12.8573,524.6711],[7.6011,12.8185,552.5804],[7.591,12.8024,550.2975],[7.5649,12.7493,513.9958],[7.5611,12.7345,510.8217],[7.5577,12.7294,512.5353],[7.5549,12.7289,507.2354],[7.5513,12.722,513.0353]]]]}}