{"type":"Feature","properties":{"GID_2":"NGA.31.22_1","GID_0":"NGA","country":"Nigeria","GID_1":"NGA.31_1","province":"Oyo","NL_NAME_1":"NA","county":"OgbomoshoSouth","VARNAME_2":"NA","NL_NAME_2":"NA","TYPE_2":"LocalAuthority","ENGTYPE_2":"LocalAuthority","CC_2":"NA","HASC_2":"NA","name":"Ogbomosho_South.county"},
"geometry":{"type": "MultiPolygon","coordinates": [[[[4.1843,8.1246,300.2557],[4.1762,8.0822,308.4871],[4.1723,8.0707,313.0812],[4.1767,8.0707,318.7298],[4.1821,8.0729,313.5846],[4.1948,8.0639,284.9071],[4.2027,8.0633,297.8022],[4.2117,8.0675,309.7242],[4.2224,8.0542,302.1177],[4.2407,8.0458,376.1621],[4.2586,8.043,358.6929],[4.2884,8.0493,336.5933],[4.3109,8.0688,359.2934],[4.3013,8.0715,365.7166],[4.2803,8.0841,337.4991],[4.2701,8.0834,348.5813],[4.2575,8.0856,334.5932],[4.2326,8.1179,326.7414],[4.1994,8.117,321.5291],[4.1902,8.12,322.006],[4.1843,8.1246,300.2557]]]]}}