{"type":"Feature","properties":{"GID_2":"NGA.8.7_1","GID_0":"NGA","country":"Nigeria","GID_1":"NGA.8_1","province":"Borno","NL_NAME_1":"NA","county":"Damboa","VARNAME_2":"NA","NL_NAME_2":"NA","TYPE_2":"LocalAuthority","ENGTYPE_2":"LocalAuthority","CC_2":"NA","HASC_2":"NA","name":"Damboa.county"},
"geometry":{"type": "MultiPolygon","coordinates": [[[[13.4444,10.9334,426.61],[13.4356,10.9477,416.9101],[13.4255,10.9696,408.8768],[13.4217,10.9934,408.8647],[13.4323,11.0089,412.1826],[13.456,11.0572,391.0066],[13.46,11.0742,381.199],[13.4625,11.0949,374.6634],[13.4587,11.1111,370.3303],[13.4544,11.1448,365.5668],[13.4447,11.1828,363.9081],[13.4406,11.1928,363.2025],[13.4304,11.2395,358.0226],[13.4334,11.2717,353.8235],[13.4361,11.2829,352.3445],[13.4113,11.2942,353.3601],[13.3926,11.2963,353.6871],[13.3826,11.2949,354.4576],[13.3661,11.3069,353.9622],[13.3395,11.3191,353.4087],[13.299,11.3589,349.5265],[13.2923,11.368,348.8975],[13.263,11.391,346.177],[13.2564,11.3996,345.3327],[13.2447,11.4065,345.7627],[13.2159,11.4291,345.1526],[13.2013,11.4342,347.6516],[13.1667,11.4363,351.5962],[13.1519,11.4326,352.6369],[13.1369,11.4244,353.7214],[13.1294,11.3844,355.0925],[13.123,11.3591,354.7411],[13.116,11.3399,359.09],[13.1066,11.3296,360.4913],[13.0738,11.3094,363.8373],[13.0634,11.3054,365.0457],[13.0492,11.2941,365.9523],[13.0309,11.2824,368.8304],[13.0142,11.2836,369.4124],[12.9664,11.2645,373.7365],[12.9637,11.2535,373.861],[12.9373,11.2122,372.496],[12.9319,11.2012,374.0515],[12.923,11.191,378.554],[12.9125,11.187,382.5596],[12.9021,11.2022,379.6599],[12.8757,11.2263,379.3643],[12.8522,11.2398,379.4425],[12.8365,11.2534,376.9963],[12.8236,11.2617,376.4355],[12.8083,11.2649,374.7076],[12.8009,11.2824,372.2057],[12.7549,11.2545,393.3119],[12.7349,11.2513,398.4026],[12.7065,11.2587,396.1783],[12.6842,11.2729,392.8664],[12.6623,11.2942,384.4459],[12.6503,11.2976,384.936],[12.6303,11.3223,383.2669],[12.599,11.3393,387.5272],[12.5738,11.3585,383.2112],[12.5403,11.376,385.7873],[12.5168,11.3915,400.1959],[12.4728,11.4083,405.5482],[12.4543,11.4297,406.6305],[12.4485,11.4422,405.3564],[12.4304,11.4629,404.7202],[12.4137,11.4947,395.1491],[12.3986,11.5073,393.6049],[12.384,11.5151,391.8905],[12.3765,11.5171,396.7203],[12.3738,11.5114,395.4811],[12.3414,11.4748,409.7326],[12.3005,11.4408,415.5893],[12.2687,11.3872,435.4013],[12.2471,11.3468,451.5882],[12.2004,11.2934,473.3848],[12.186,11.2478,463.6531],[12.1866,11.2004,477.5175],[12.1988,11.1342,509.6944],[12.1944,11.0867,508.5856],[12.2516,11.0555,496.6306],[12.3277,11.0192,484.4586],[12.3597,10.9903,480.3629],[12.3962,10.9688,475.9649],[12.4195,10.953,473.7839],[12.4373,10.9354,458.8326],[12.4771,10.9053,461.9127],[12.4916,10.8914,458.1798],[12.503,10.8691,450.5585],[12.5377,10.826,432.5758],[12.5543,10.8139,429.0887],[12.5753,10.8136,428.6852],[12.6002,10.8083,425.8516],[12.6229,10.8285,445.5366],[12.647,10.8547,446.9526],[12.6651,10.879,468.9261],[12.6824,10.8961,465.1738],[12.7028,10.9096,466.2481],[12.7524,10.9376,462.7599],[12.7968,10.9602,469.7711],[12.826,10.9669,463.1786],[12.8465,10.9741,440.3498],[12.8798,10.9794,439.3947],[12.8948,10.9842,427.3284],[12.9215,10.9893,424.8435],[12.9542,10.9888,421.2498],[12.9905,10.9857,429.2505],[13.0084,10.9764,432.5738],[13.0419,10.942,427.09],[13.0617,10.9189,429.5385],[13.0927,10.8691,451.3121],[13.1204,10.8171,440.0618],[13.1517,10.8246,424.467],[13.2115,10.8278,432.2918],[13.3064,10.8193,422.2894],[13.3956,10.8081,431.7027],[13.4107,10.8116,437.172],[13.4141,10.8083,439.9003],[13.4169,10.847,428.2616],[13.4141,10.8923,422.1587],[13.4181,10.9298,426.8621],[13.4444,10.9334,426.61]]]]}}