{"type":"Feature","properties":{"GID_2":"NGA.19.23_1","GID_0":"NGA","country":"Nigeria","GID_1":"NGA.19_1","province":"Kaduna","NL_NAME_1":"NA","county":"Zaria","VARNAME_2":"NA","NL_NAME_2":"NA","TYPE_2":"LocalAuthority","ENGTYPE_2":"LocalAuthority","CC_2":"NA","HASC_2":"NA","name":"Zaria.county"},
"geometry":{"type": "MultiPolygon","coordinates": [[[[7.6224,11.0008,667.426],[7.626,10.9799,684.7954],[7.6323,10.9661,671.67],[7.6499,10.9548,691.0277],[7.672,10.9487,664.5446],[7.7045,10.9447,662.9065],[7.7606,10.945,623.4932],[7.7974,10.9521,632.5214],[7.8012,10.9549,631.3341],[7.7966,10.9653,645.8627],[7.7941,10.9777,637.8788],[7.7943,10.9906,624.8612],[7.8047,11.0168,654.8749],[7.8018,11.0504,652.709],[7.8021,11.0721,655.9011],[7.7913,11.098,650.6147],[7.7868,11.0981,651.6011],[7.7818,11.1059,648.9071],[7.7478,11.0891,611.8792],[7.7166,11.0686,646.8278],[7.7119,11.0713,656.6088],[7.6987,11.0933,648.2805],[7.688,11.101,649.7437],[7.6788,11.1106,645.9482],[7.6661,11.118,653.465],[7.6303,11.1304,666.6482],[7.6044,11.1315,690.7857],[7.6078,11.1288,692.2216],[7.6305,11.1261,670.2614],[7.6394,11.1218,649.3621],[7.6443,11.1,683.7829],[7.6429,11.0684,660.5491],[7.6259,11.0195,691.2908],[7.6224,11.0008,667.426]]]]}}