{"type":"Feature","properties":{"GID_2":"NGA.33.3_1","GID_0":"NGA","country":"Nigeria","GID_1":"NGA.33_1","province":"Rivers","NL_NAME_1":"NA","county":"AhoadaWest","VARNAME_2":"NA","NL_NAME_2":"NA","TYPE_2":"LocalAuthority","ENGTYPE_2":"LocalAuthority","CC_2":"NA","HASC_2":"NA","name":"Ahoada_West.county"},
"geometry":{"type": "MultiPolygon","coordinates": [[[[6.4205,4.9372,14.4226],[6.4538,4.933,17.4094],[6.4659,4.927,16.8616],[6.4871,4.9098,18.4698],[6.4998,4.8845,19.808],[6.5129,4.8767,18.4604],[6.5176,4.8681,21.4369],[6.5307,4.8681,19.4778],[6.5489,4.8811,16.0469],[6.5497,4.8977,18.5637],[6.541,4.9064,17.2275],[6.5252,4.9142,17.6126],[6.5249,4.9246,18.0402],[6.5345,4.9295,12.0033],[6.5368,4.9355,14.0633],[6.5299,4.9337,16.8416],[6.5122,4.9352,17.4878],[6.5002,4.9322,20.8065],[6.4957,4.9417,20.0153],[6.4907,4.9441,20.9508],[6.4887,4.9515,13.7318],[6.5095,4.9659,18.2566],[6.5236,4.9827,17.4921],[6.5287,5.0017,11.0404],[6.5389,5.0011,19.4476],[6.5449,5.0028,17.431],[6.5628,5.0136,12.7683],[6.573,5.0275,12.7954],[6.5757,5.0373,12.3575],[6.567,5.0568,11.5432],[6.5659,5.0629,9.0002],[6.5704,5.0658,8.2992],[6.5833,5.0658,10.568],[6.5915,5.0719,11.5322],[6.5858,5.0777,13.5902],[6.5866,5.0837,10.3378],[6.5835,5.1084,12.8073],[6.5856,5.125,13.1801],[6.5845,5.1819,21.4298],[6.5747,5.1927,16.547],[6.5753,5.2003,15.3402],[6.5805,5.2064,15.4207],[6.5527,5.2102,3.5],[6.5495,5.2006,18.6358],[6.5438,5.1903,17.7391],[6.5349,5.1821,20.015],[6.502,5.1859,18.7174],[6.4902,5.185,20.9367],[6.4882,5.1776,15.9542],[6.4715,5.1551,19.9607],[6.4177,5.058,20.5972],[6.4067,5.0309,10.2698],[6.396,4.9983,13.5063],[6.3963,4.9861,18.5936],[6.4007,4.978,20.2997],[6.4099,4.9734,17.9097],[6.4222,4.9778,17.7753],[6.4307,4.9761,9.7431],[6.4302,4.9555,17.3025],[6.4205,4.9372,14.4226]]]]}}