{"type":"Feature","properties":{"GID_2":"NGA.33.15_1","GID_0":"NGA","country":"Nigeria","GID_1":"NGA.33_1","province":"Rivers","NL_NAME_1":"NA","county":"Obio/Akpor","VARNAME_2":"NA","NL_NAME_2":"NA","TYPE_2":"LocalAuthority","ENGTYPE_2":"LocalAuthority","CC_2":"NA","HASC_2":"NA","name":"Obio_Akpor.county"},
"geometry":{"type": "MultiPolygon","coordinates": [[[[6.9228,4.7755,4.2827],[6.9268,4.7771,1.041],[6.9282,4.7832,1.5394],[6.9221,4.7787,1.069],[6.921,4.7753,0.0],[6.9228,4.7755,4.2827]]],
[[[6.9093,4.7727,5.0084],[6.9143,4.7749,0.753],[6.9157,4.7807,1.1156],[6.9118,4.7851,2.6723],[6.9118,4.7915,0.4611],[6.9038,4.7938,0.9786],[6.9018,4.792,3.0952],[6.9093,4.7727,5.0084]]],
[[[6.9243,4.7899,2.8289],[6.9238,4.7913,0.7482],[6.9196,4.7879,4.3043],[6.9215,4.7843,1.4679],[6.9229,4.7843,1.4679],[6.9243,4.7899,2.8289]]],
[[[6.9363,4.7935,0.996],[6.9296,4.794,0.0],[6.9257,4.7921,0.0],[6.9249,4.7885,0.0],[6.9263,4.7854,0.0],[6.9396,4.7901,0.7642],[6.9399,4.7924,0.0],[6.9363,4.7935,0.996]]],
[[[6.939,4.7785,1.6521],[6.9412,4.7772,5.1229],[6.9437,4.7816,4.5142],[6.9415,4.7888,0.0],[6.9387,4.786,0.5128],[6.9404,4.7818,2.5613],[6.939,4.7785,1.6521]]],
[[[6.9279,4.7774,2.471],[6.9344,4.7794,4.5872],[6.9385,4.779,2.0224],[6.9374,4.7888,1.4902],[6.9326,4.7868,0.0],[6.9279,4.7774,2.471]]],
[[[7.1377,4.8274,16.0719],[7.1429,4.8319,18.8922],[7.1367,4.8352,22.7735],[7.124,4.8384,17.9751],[7.1161,4.845,18.2994],[7.1007,4.8688,21.7714],[7.0972,4.8771,18.4652],[7.0895,4.8849,17.8702],[7.05,4.9134,22.6416],[7.0149,4.9239,22.0486],[7.0095,4.9295,22.374],[7.008,4.9389,21.5241],[6.9618,4.9157,19.5139],[6.97,4.8705,13.7735],[6.9331,4.8746,15.1397],[6.884,4.8746,9.4605],[6.884,4.8582,14.5694],[6.8805,4.8462,13.2428],[6.8832,4.8407,13.6282],[6.8829,4.8361,10.747],[6.887,4.8323,11.3458],[6.8973,4.8296,8.3865],[6.9028,4.8258,8.7137],[6.9004,4.821,3.3361],[6.9018,4.7949,0.3572],[6.9104,4.7943,4.5102],[6.916,4.7879,0.0],[6.9204,4.789,3.1349],[6.9251,4.7963,0.0],[6.9296,4.7949,0.0],[6.9365,4.7968,0.0],[6.941,4.7949,0.0],[6.9449,4.786,6.7109],[6.9529,4.7849,6.2476],[6.9589,4.7868,7.6507],[6.9707,4.7866,3.3404],[6.9732,4.7879,0.3555],[6.9715,4.7951,0.0],[6.9699,4.7954,7.9312],[6.9696,4.8012,0.5622],[6.9707,4.8001,3.7414],[6.9712,4.796,1.2325],[6.9738,4.7951,1.1741],[6.9721,4.7935,0.9891],[6.974,4.7915,0.0],[6.9738,4.7876,0.3555],[6.977,4.7886,1.6976],[6.9829,4.797,11.2036],[6.9847,4.8078,15.8957],[6.9946,4.8114,5.9031],[7.002,4.8112,15.3323],[7.0075,4.8084,14.4805],[7.0181,4.8077,8.1744],[7.0434,4.8027,5.1676],[7.0674,4.8035,2.6382],[7.0621,4.8051,0.6905],[7.0546,4.8129,0.4758],[7.0479,4.8118,11.8869],[7.046,4.8143,8.7724],[7.0474,4.8213,0.0],[7.0479,4.8132,2.4363],[7.0546,4.8137,0.4758],[7.0576,4.8126,8.2014],[7.0596,4.8087,0.0],[7.0654,4.8043,0.5854],[7.0743,4.804,1.1382],[7.0771,4.8137,0.0],[7.0735,4.8174,0.0],[7.0757,4.8176,1.5823],[7.0768,4.8151,0.0],[7.0788,4.8182,0.0],[7.0829,4.8179,0.9759],[7.084,4.8154,0.0],[7.0824,4.8146,0.0],[7.0807,4.8174,0.0],[7.0785,4.8171,0.0],[7.0751,4.8041,1.1382],[7.1013,4.8059,7.571],[7.1123,4.8101,9.2609],[7.1284,4.8243,18.596],[7.1377,4.8274,16.0719]]]]}}