{"type":"Feature","properties":{"GID_2":"NGA.5.19_1","GID_0":"NGA","country":"Nigeria","GID_1":"NGA.5_1","province":"Bauchi","NL_NAME_1":"NA","county":"Warji","VARNAME_2":"NA","NL_NAME_2":"NA","TYPE_2":"LocalAuthority","ENGTYPE_2":"LocalAuthority","CC_2":"NA","HASC_2":"NA","name":"Warji.county"},
"geometry":{"type": "MultiPolygon","coordinates": [[[[9.8675,11.0214,511.0625],[9.8681,11.0522,491.9681],[9.8788,11.0972,481.2881],[9.8807,11.1443,467.691],[9.8721,11.1785,458.0513],[9.849,11.2275,435.528],[9.829,11.2566,426.5311],[9.8105,11.2614,426.6003],[9.776,11.2516,425.8142],[9.7528,11.247,425.899],[9.6339,11.2397,440.0247],[9.6363,11.2224,450.0461],[9.6329,11.2021,461.1119],[9.6226,11.1731,466.655],[9.6098,11.1481,472.5754],[9.6052,11.1248,471.7819],[9.6243,11.0708,460.6378],[9.6279,11.0456,451.4909],[9.6803,11.03,462.3217],[9.7314,11.0313,471.2432],[9.7533,11.0292,477.1984],[9.7717,11.0309,486.6186],[9.8353,11.026,491.6796],[9.8477,11.0224,504.9528],[9.8675,11.0214,511.0625]]]]}}