{"type":"Feature","properties":{"GID_2":"NGA.28.15_1","GID_0":"NGA","country":"Nigeria","GID_1":"NGA.28_1","province":"Ogun","NL_NAME_1":"NA","county":"Obafemi-Owode","VARNAME_2":"NA","NL_NAME_2":"NA","TYPE_2":"LocalAuthority","ENGTYPE_2":"LocalAuthority","CC_2":"NA","HASC_2":"NA","name":"Obafemi-Owode.county"},
"geometry":{"type": "MultiPolygon","coordinates": [[[[3.2832,7.1066,50.8785],[3.2877,7.1021,36.0397],[3.2867,7.0705,86.0607],[3.2784,7.0409,54.7434],[3.2772,7.0273,31.0973],[3.2701,6.9982,69.7659],[3.269,6.9881,49.584],[3.2737,6.9629,67.0562],[3.2839,6.9401,53.4779],[3.2905,6.9202,41.2017],[3.3097,6.8962,28.6009],[3.3183,6.8824,27.3466],[3.3521,6.8473,16.9814],[3.3607,6.8416,15.1227],[3.3757,6.8271,11.5966],[3.3812,6.806,12.2174],[3.3789,6.7954,9.3425],[3.3792,6.7858,11.2886],[3.3701,6.7488,13.525],[3.3682,6.7297,7.6625],[3.3732,6.7158,4.1741],[3.3766,6.7107,4.1009],[3.3832,6.7062,8.6046],[3.39,6.6957,6.46],[3.3984,6.6907,5.7204],[3.4097,6.6894,7.3399],[3.4178,6.6913,8.4034],[3.4157,6.7174,7.4246],[3.4242,6.7421,17.3096],[3.432,6.7565,7.5588],[3.429,6.7692,11.6331],[3.4307,6.775,16.4938],[3.4354,6.782,11.7459],[3.4476,6.7934,15.1115],[3.4569,6.8218,13.4696],[3.4674,6.8301,14.6052],[3.4693,6.8352,13.8814],[3.4682,6.84,15.2529],[3.4746,6.8477,18.9087],[3.4735,6.8528,20.0005],[3.4794,6.8636,30.0316],[3.4894,6.8689,35.1561],[3.5011,6.8627,38.2573],[3.5046,6.8645,46.3945],[3.5077,6.8675,56.8518],[3.5077,6.8716,55.5713],[3.5119,6.8764,59.0458],[3.5224,6.8833,50.3049],[3.5359,6.8889,83.3208],[3.546,6.8977,93.258],[3.5545,6.9141,110.211],[3.5622,6.914,97.0935],[3.5702,6.9109,121.0826],[3.5792,6.9098,121.0462],[3.5807,6.9176,102.5127],[3.5791,6.9349,98.1444],[3.5911,6.949,105.9643],[3.6142,6.965,99.2449],[3.6164,6.9716,114.6161],[3.6323,6.9859,127.7819],[3.6336,6.9944,92.6454],[3.6298,7.0006,83.423],[3.6431,7.0122,109.913],[3.6445,7.0158,109.351],[3.6435,7.0207,119.2272],[3.6447,7.028,145.5347],[3.6622,7.0393,123.2504],[3.6852,7.049,94.586],[3.6973,7.0564,74.2501],[3.7048,7.0648,73.668],[3.7058,7.0682,85.3654],[3.7131,7.0739,78.3278],[3.7202,7.0744,68.5839],[3.7576,7.1106,94.8724],[3.7686,7.1173,90.7376],[3.7785,7.1324,104.2975],[3.7742,7.159,106.1022],[3.765,7.1599,112.8584],[3.7315,7.1563,136.4955],[3.7082,7.1574,140.9132],[3.702,7.1591,116.9494],[3.6858,7.1584,91.0726],[3.5851,7.15,141.7708],[3.569,7.1524,166.9476],[3.5461,7.1507,129.9177],[3.5355,7.1515,126.1083],[3.5234,7.1534,107.1651],[3.5167,7.1585,122.0877],[3.5082,7.1594,135.8285],[3.5003,7.1568,150.7056],[3.4847,7.1478,149.6879],[3.4672,7.1446,155.6994],[3.4648,7.1426,162.7571],[3.452,7.1488,162.9608],[3.4408,7.1571,143.3873],[3.4323,7.1568,160.7709],[3.4199,7.1632,161.5813],[3.4063,7.1643,161.5787],[3.4018,7.1561,159.004],[3.3918,7.1491,156.2805],[3.3869,7.1488,173.693],[3.3735,7.1432,93.3164],[3.3686,7.1435,82.2726],[3.34,7.1295,79.1917],[3.2952,7.1264,64.2854],[3.2832,7.1066,50.8785]]]]}}