{"type":"Feature","properties":{"GID_2":"NGA.21.23_1","GID_0":"NGA","country":"Nigeria","GID_1":"NGA.21_1","province":"Katsina","NL_NAME_1":"NA","county":"Kusada","VARNAME_2":"NA","NL_NAME_2":"NA","TYPE_2":"LocalAuthority","ENGTYPE_2":"LocalAuthority","CC_2":"NA","HASC_2":"NA","name":"Kusada.county"},
"geometry":{"type": "MultiPolygon","coordinates": [[[[8.0905,12.3813,542.4357],[8.0823,12.3927,536.2258],[8.0785,12.4045,537.2238],[8.0716,12.4169,533.1129],[8.0715,12.4259,529.6346],[8.0682,12.4298,530.761],[8.0637,12.4528,521.0397],[8.0597,12.4583,514.8715],[8.0606,12.4645,523.8705],[8.0587,12.4684,523.1793],[8.0509,12.473,505.6058],[8.0445,12.4831,512.9662],[8.0427,12.5008,512.3338],[8.0436,12.508,520.3269],[8.0408,12.5241,522.0894],[8.0317,12.5478,517.4363],[8.0263,12.5565,521.0494],[8.0232,12.5595,519.0806],[8.0127,12.5638,508.3],[8.0047,12.5701,504.5753],[7.9944,12.5707,515.7968],[7.9828,12.5692,519.7403],[7.9695,12.5658,521.367],[7.963,12.5614,523.9235],[7.9611,12.5631,523.7309],[7.9386,12.5678,521.3436],[7.9336,12.5598,522.3002],[7.9286,12.5436,539.0659],[7.9364,12.4918,540.5177],[7.9332,12.4832,537.4026],[7.9305,12.4792,535.3058],[7.9242,12.4764,539.8115],[7.8849,12.4633,564.9405],[7.8829,12.4612,568.589],[7.8787,12.4378,567.4547],[7.8815,12.4106,572.8389],[7.8911,12.3914,574.6715],[7.9038,12.3534,562.7563],[7.9078,12.3332,554.9523],[7.9094,12.3147,548.9302],[7.9482,12.3345,550.1978],[8.0625,12.3687,543.1235],[8.0905,12.3813,542.4357]]]]}}