{"type":"Feature","properties":{"GID_2":"NGA.4.18_1","GID_0":"NGA","country":"Nigeria","GID_1":"NGA.4_1","province":"Anambra","NL_NAME_1":"NA","county":"OnitshaSouth","VARNAME_2":"NA","NL_NAME_2":"NA","TYPE_2":"LocalAuthority","ENGTYPE_2":"LocalAuthority","CC_2":"NA","HASC_2":"NA","name":"Onitsha_South.county"},
"geometry":{"type": "MultiPolygon","coordinates": [[[[6.7789,6.0918,23.961],[6.7615,6.0999,22.4326],[6.7481,6.1006,18.4486],[6.7429,6.0988,18.2205],[6.74,6.0899,21.4617],[6.7377,6.0736,20.5719],[6.7376,6.0583,14.8603],[6.7419,6.0549,20.0232],[6.7644,6.0549,23.8639],[6.7691,6.0596,23.359],[6.7678,6.0807,23.7769],[6.7789,6.0918,23.961]]]]}}