{"type": "Feature","bbox": [8.4563,4.689,8.6298,4.8518],"geometry": {"type": "MultiPolygon","coordinates": [[[[8.6175,4.8518,4.5756],[8.6019,4.8456,18.1573],[8.5969,4.8391,15.3659],[8.5892,4.8194,8.2274],[8.5771,4.8115,3.239],[8.5715,4.8089,0.0],[8.5683,4.8155,0.0],[8.5618,4.818,5.3849],[8.5559,4.8159,7.0461],[8.5444,4.8033,0.0],[8.5234,4.8004,12.153],[8.5097,4.7954,17.3854],[8.4916,4.7853,4.5179],[8.4855,4.7794,3.6671],[8.476,4.7637,11.3874],[8.4664,4.7544,8.2066],[8.4664,4.7528,11.9633],[8.4616,4.7572,9.0835],[8.4613,4.7549,8.2829],[8.464,4.7524,6.2543],[8.4704,4.7396,1.4161],[8.4785,4.734,2.6869],[8.4818,4.7293,0.0],[8.4646,4.7274,1.7468],[8.4621,4.7221,0.7405],[8.4613,4.7135,9.1996],[8.4574,4.7076,0.0],[8.4563,4.6987,0.1166],[8.4715,4.696,8.149],[8.4801,4.689,3.5245],[8.4815,4.6907,8.1756],[8.4901,4.6896,0.0],[8.4932,4.6929,7.907],[8.5096,4.6943,7.4756],[8.5079,4.7046,0.0],[8.5035,4.7082,4.647],[8.5168,4.7035,0.0],[8.5318,4.7104,0.0],[8.5307,4.7188,0.0],[8.5224,4.7337,0.0],[8.5258,4.7346,0.0],[8.5249,4.7458,0.0],[8.5294,4.7698,0.0],[8.5401,4.7949,0.0],[8.5461,4.8008,0.0],[8.5578,4.7964,2.2095],[8.5631,4.7966,2.526],[8.5723,4.7999,1.4793],[8.5841,4.7987,0.0],[8.597,4.8012,0.0],[8.6265,4.8175,12.0068],[8.6287,4.8203,8.1997],[8.6298,4.8271,1.0],[8.6276,4.8389,1.5],[8.6234,4.8468,2.6782],[8.6175,4.8518,4.5756]]]]}
,"properties": {"GID_2": "NGA.9.4_1","GID_0": "NGA","country": "Nigeria","GID_1": "NGA.9_1","province": "CrossRiver","NL_NAME_1": "NA","county": "Bakassi","VARNAME_2": "NA","NL_NAME_2": "NA","TYPE_2": "LocalAuthority","ENGTYPE_2": "LocalAuthority","CC_2": "NA","HASC_2": "NA","name": "Bakassi.county","area_km2": 95.50297,"hist_schema_id": "Elevation0-9000","hist_area_km2": {"0": 85.9322,"25": 9.57077}}}