{"type": "Feature","bbox": [11.3868,8.6241,11.8667,9.1318],"geometry": {"type": "MultiPolygon","coordinates": [[[[11.8622,8.6706,850.0503],[11.8553,8.673,915.3744],[11.8289,8.6902,540.2444],[11.8224,8.693,535.9752],[11.8101,8.7132,499.9309],[11.8005,8.7169,522.7902],[11.7832,8.745,1133.8019],[11.7713,8.7683,1266.1371],[11.7669,8.7803,1119.0421],[11.7496,8.791,630.9783],[11.7435,8.8086,962.7175],[11.7332,8.8212,1062.5243],[11.7257,8.8561,481.4763],[11.7007,8.8878,538.4724],[11.6881,8.9093,535.5111],[11.6823,8.9333,499.019],[11.6505,8.9577,531.425],[11.6435,8.9793,541.6539],[11.6504,8.99,558.6117],[11.6785,9.0023,560.1752],[11.7487,9.0278,506.4423],[11.7947,9.028,439.3207],[11.8125,9.0446,413.2007],[11.8326,9.0514,505.1782],[11.8558,9.0737,432.9173],[11.8478,9.0812,472.1426],[11.8292,9.1058,580.8784],[11.8256,9.1318,565.3797],[11.7988,9.1227,810.72],[11.7775,9.1269,363.1299],[11.7664,9.1271,345.7206],[11.7321,9.1189,385.3824],[11.6829,9.0968,414.0089],[11.6608,9.0923,538.8723],[11.6451,9.0719,546.5344],[11.6399,9.0677,534.7173],[11.6313,9.0649,578.7241],[11.624,9.0652,521.4189],[11.6126,9.0702,443.227],[11.6017,9.0721,410.4053],[11.5742,9.0625,317.4714],[11.5183,9.0535,483.0338],[11.4879,9.037,638.7244],[11.4947,9.0371,418.1577],[11.4754,9.0242,572.0748],[11.3868,8.9814,515.9833],[11.412,8.9427,241.9104],[11.4274,8.9255,244.8681],[11.4358,8.9112,240.6765],[11.4684,8.8797,261.4329],[11.5021,8.8429,348.398],[11.5117,8.8362,589.1672],[11.5175,8.8289,454.8079],[11.5309,8.8191,517.0709],[11.5392,8.8087,668.9478],[11.5431,8.7977,453.5777],[11.5615,8.7608,307.1237],[11.5639,8.7481,452.6364],[11.5743,8.7273,1216.7712],[11.5779,8.716,1157.9626],[11.5897,8.6976,1225.0171],[11.6132,8.6668,979.6259],[11.6146,8.6557,903.3898],[11.6211,8.6469,1186.3723],[11.6369,8.6479,990.9515],[11.6548,8.6534,1271.9315],[11.6572,8.6596,1367.2638],[11.6698,8.6627,1264.0188],[11.6961,8.6652,1188.6508],[11.7253,8.6628,1380.0223],[11.7429,8.6634,1200.8787],[11.7705,8.658,731.3921],[11.7788,8.6518,661.9058],[11.7852,8.6507,735.658],[11.8267,8.6347,575.8099],[11.8564,8.6257,525.8166],[11.8667,8.6241,548.8041],[11.8635,8.6435,554.8081],[11.8622,8.6706,850.0503]]]]}
,"properties": {"GID_2": "NGA.35.15_1","GID_0": "NGA","country": "Nigeria","GID_1": "NGA.35_1","province": "Taraba","NL_NAME_1": "NA","county": "Yorro","VARNAME_2": "NA","NL_NAME_2": "NA","TYPE_2": "LocalAuthority","ENGTYPE_2": "LocalAuthority","CC_2": "NA","HASC_2": "NA","name": "Yorro.county","area_km2": 1336.983,"hist_schema_id": "Elevation0-9000","hist_area_km2": {"225": 1.55,"250": 14.494,"275": 23.667,"300": 21.592,"325": 28.377,"350": 36.564,"375": 42.428,"400": 58.26,"425": 77.925,"450": 90.658,"475": 100.754,"500": 115.547,"525": 107.156,"550": 78.614,"575": 56.75,"600": 47.515,"625": 39.325,"650": 36.394,"675": 30.256,"700": 23.593,"725": 19.633,"750": 18.858,"775": 16.994,"800": 16.407,"825": 16.324,"850": 14.333,"875": 13.517,"900": 13.098,"925": 13.475,"950": 11.673,"975": 12.05,"1000": 12.281,"1025": 11.17,"1050": 10.898,"1075": 10.185,"1100": 10.164,"1125": 10.269,"1150": 11.925,"1175": 13.874,"1200": 12.659,"1225": 11.213,"1250": 10.353,"1275": 7.859,"1300": 4.108,"1325": 1.551,"1350": 0.482,"1375": 0.168,"1400": 0.021,"1425": 0.021}}}