{"type": "Feature","bbox": [4.3614,7.5754,4.5833,7.6921],"geometry": {"type": "MultiPolygon","coordinates": [[[[4.5364,7.5986,278.4462],[4.5603,7.6116,282.1412],[4.5746,7.6231,300.6735],[4.5786,7.632,310.2238],[4.5833,7.649,278.5069],[4.5813,7.6714,322.2063],[4.5781,7.6762,333.049],[4.5678,7.6737,365.7475],[4.5519,7.6774,298.2158],[4.5468,7.6766,300.5558],[4.5312,7.6796,290.9901],[4.5153,7.6808,307.1407],[4.495,7.6795,319.9711],[4.476,7.6879,305.5619],[4.4624,7.6916,291.7191],[4.4467,7.6921,288.7856],[4.4405,7.6899,303.6592],[4.4361,7.6916,294.6845],[4.4374,7.686,300.4757],[4.4355,7.6829,315.0776],[4.4231,7.6743,279.1235],[4.4078,7.669,263.1033],[4.3852,7.6657,243.9783],[4.377,7.6597,241.8815],[4.3758,7.656,246.8169],[4.3697,7.6487,247.1273],[4.3614,7.6214,270.8016],[4.3679,7.6084,287.7977],[4.3715,7.5897,266.8804],[4.3755,7.5818,279.826],[4.3839,7.5754,252.2695],[4.4121,7.5775,239.2818],[4.4248,7.58,252.506],[4.4365,7.5847,240.4438],[4.4438,7.5848,242.3982],[4.4535,7.5814,256.6218],[4.4689,7.5807,270.9176],[4.4819,7.5853,286.2915],[4.5159,7.5898,254.6001],[4.5364,7.5986,278.4462]]]]}
,"properties": {"GID_2": "NGA.30.8_1","GID_0": "NGA","country": "Nigeria","GID_1": "NGA.30_1","province": "Osun","NL_NAME_1": "NA","county": "EdeSouth","VARNAME_2": "NA","NL_NAME_2": "NA","TYPE_2": "LocalAuthority","ENGTYPE_2": "LocalAuthority","CC_2": "NA","HASC_2": "NA","name": "Ede_South.county","area_km2": 230.9264,"hist_schema_id": "Elevation0-9000","hist_area_km2": {"225": 0.6936,"250": 31.9436,"275": 97.7189,"300": 80.9023,"325": 16.9784,"350": 1.4709,"375": 0.8405,"400": 0.2732,"425": 0.1051}}}