{"type": "Feature","bbox": [13.1575,9.5562,13.3053,10.1775],"geometry": {"type": "MultiPolygon","coordinates": [[[[13.275,10.0513,1123.4016],[13.2877,10.063,1072.2362],[13.2912,10.0753,1037.6962],[13.2907,10.0831,1006.8676],[13.2944,10.0887,1029.347],[13.2981,10.092,1044.551],[13.303,10.0938,1094.5322],[13.3053,10.0972,1130.5002],[13.2845,10.1129,1181.5812],[13.2738,10.1244,1070.8444],[13.27,10.1381,985.3139],[13.2542,10.1608,692.282],[13.2389,10.1775,709.2881],[13.2293,10.152,651.9807],[13.2203,10.1194,619.245],[13.2095,10.099,598.58],[13.1917,10.0727,621.3345],[13.1722,10.025,562.7418],[13.1678,10.0304,540.5801],[13.163,10.0226,578.6608],[13.1595,10.021,555.9491],[13.1642,10.0037,561.384],[13.1604,9.9924,545.4141],[13.1614,9.9802,558.6538],[13.1575,9.9664,563.7153],[13.1647,9.9096,604.9171],[13.1713,9.8709,516.9591],[13.1724,9.8386,508.6458],[13.1896,9.8018,433.9696],[13.2081,9.7501,379.4054],[13.205,9.6984,309.9932],[13.2,9.6673,287.8836],[13.1948,9.6159,298.4091],[13.1964,9.5872,359.0585],[13.1955,9.5596,239.6193],[13.2005,9.5562,242.1736],[13.2077,9.5578,243.3195],[13.21,9.5602,243.3961],[13.2219,9.5825,249.5325],[13.2247,9.5849,250.8804],[13.2237,9.6022,255.7724],[13.2358,9.619,259.5],[13.2353,9.6249,262.4575],[13.231,9.6279,262.5041],[13.2299,9.6392,267.4067],[13.2313,9.6455,268.9735],[13.229,9.6489,269.9735],[13.2289,9.6522,271.3058],[13.2339,9.6568,272.4064],[13.2367,9.6621,275.8141],[13.2351,9.6671,276.9188],[13.2298,9.6741,291.157],[13.2297,9.6791,289.9153],[13.2331,9.688,293.2864],[13.2468,9.6916,292.0003],[13.2478,9.6954,294.943],[13.2526,9.7003,299.0036],[13.2514,9.7052,301.7216],[13.2475,9.7096,305.0553],[13.2481,9.7129,314.0475],[13.2518,9.7168,311.2525],[13.2493,9.7212,317.7067],[13.2546,9.7298,322.4592],[13.2582,9.743,327.0417],[13.2549,9.7548,336.1619],[13.2558,9.7641,340.2973],[13.2591,9.7675,342.6243],[13.2579,9.7742,346.1047],[13.2589,9.7776,359.7835],[13.2719,9.793,383.4734],[13.2841,9.8017,400.6167],[13.2865,9.8052,410.1743],[13.288,9.814,420.7232],[13.2991,9.8277,433.1127],[13.2948,9.8358,433.6955],[13.2905,9.8373,429.1001],[13.2836,9.8442,434.3492],[13.2746,9.8481,439.8438],[13.2729,9.8512,441.0684],[13.2691,9.8528,442.1543],[13.2644,9.851,442.9562],[13.256,9.8583,446.9],[13.2489,9.8562,453.1702],[13.2471,9.8609,448.6293],[13.2421,9.864,454.8571],[13.2447,9.8755,459.1742],[13.2377,9.8849,462.4172],[13.2368,9.9197,491.2238],[13.2411,9.9253,492.6223],[13.254,9.932,505.8521],[13.2694,9.9332,496.2508],[13.2712,9.9392,503.3965],[13.2799,9.9415,510.4609],[13.2776,9.9481,518.0493],[13.281,9.9522,523.5099],[13.2818,9.9568,523.7145],[13.286,9.958,525.2166],[13.2843,9.9698,533.6995],[13.2878,9.9802,541.8483],[13.2859,9.9828,546.6494],[13.2776,9.9912,566.1844],[13.2722,9.9944,588.0157],[13.2534,9.9981,601.0969],[13.2476,10.0005,617.0527],[13.2471,10.0038,619.5386],[13.2497,10.015,652.8712],[13.2481,10.0185,722.484],[13.248,10.0263,730.9611],[13.25,10.0289,742.3038],[13.2464,10.031,818.0845],[13.2478,10.0358,757.4902],[13.2516,10.0357,788.6196],[13.2522,10.0422,878.9136],[13.275,10.0513,1123.4016]]]]}
,"properties": {"GID_2": "NGA.2.11_1","GID_0": "NGA","country": "Nigeria","GID_1": "NGA.2_1","province": "Adamawa","NL_NAME_1": "NA","county": "Maiha","VARNAME_2": "NA","NL_NAME_2": "NA","TYPE_2": "LocalAuthority","ENGTYPE_2": "LocalAuthority","CC_2": "NA","HASC_2": "NA","name": "Maiha.county","area_km2": 509.1619,"hist_schema_id": "Elevation0-9000","hist_area_km2": {"250": 8.2996,"275": 24.5406,"300": 17.3482,"325": 16.0293,"350": 14.1053,"375": 16.1312,"400": 15.9842,"425": 14.4999,"450": 15.6478,"475": 24.3368,"500": 34.0898,"525": 45.0517,"550": 42.9382,"575": 37.7139,"600": 23.3245,"625": 18.6663,"650": 15.6373,"675": 12.422,"700": 10.4387,"725": 9.9792,"750": 8.789,"775": 8.037,"800": 7.2022,"825": 7.2022,"850": 6.2627,"875": 5.4277,"900": 4.9475,"925": 5.3858,"950": 4.3212,"975": 4.7179,"1000": 3.3818,"1025": 3.2356,"1050": 3.9245,"1075": 4.1959,"1100": 4.0707,"1125": 4.1751,"1150": 3.0686,"1175": 2.5049,"1200": 1.002,"1225": 0.1253}}}