{"type":"Feature","properties":{"GID_2":"NGA.8.25_1","GID_0":"NGA","country":"Nigeria","GID_1":"NGA.8_1","province":"Borno","NL_NAME_1":"NA","county":"Monguno","VARNAME_2":"NA","NL_NAME_2":"NA","TYPE_2":"LocalAuthority","ENGTYPE_2":"LocalAuthority","CC_2":"NA","HASC_2":"NA","name":"Monguno.county"},
"geometry":{"type": "MultiPolygon","coordinates": [[[[13.4689,12.5799,288.5934],[13.4293,12.5633,290.6182],[13.3988,12.5361,290.9409],[13.3623,12.5147,290.4581],[13.3378,12.484,289.9603],[13.3138,12.4457,293.727],[13.304,12.415,292.2138],[13.3026,12.3868,292.897],[13.3066,12.3589,292.7406],[13.3058,12.3391,293.1743],[13.3175,12.3408,293.1213],[13.3453,12.3197,291.5973],[13.3734,12.2919,291.4337],[13.3884,12.2643,291.8947],[13.3971,12.255,292.6478],[13.435,12.2521,292.2192],[13.4688,12.2579,290.6121],[13.4968,12.268,291.2256],[13.5206,12.2721,290.1405],[13.5355,12.2657,292.5405],[13.5407,12.2665,291.932],[13.5436,12.2865,291.0109],[13.538,12.31,289.0926],[13.5391,12.3496,291.2336],[13.5519,12.3841,289.6188],[13.5639,12.4003,290.263],[13.5839,12.4085,287.7863],[13.6008,12.4071,287.7795],[13.6194,12.4087,287.7101],[13.6361,12.4066,287.7446],[13.6687,12.4103,287.8145],[13.7066,12.434,287.9363],[13.7439,12.4511,287.4372],[13.7572,12.4604,286.244],[13.7888,12.4765,286.022],[13.7826,12.4945,284.6959],[13.781,12.521,285.213],[13.7822,12.5523,284.757],[13.8045,12.6251,282.7587],[13.8291,12.6528,281.4438],[13.8249,12.6591,282.5878],[13.8182,12.6631,281.4721],[13.8092,12.6626,282.5437],[13.8086,12.6697,282.3591],[13.7946,12.6704,280.8282],[13.7827,12.6689,281.4241],[13.7755,12.6709,283.2168],[13.7807,12.6761,282.627],[13.8049,12.6824,282.2981],[13.8141,12.6942,281.1672],[13.787,12.693,281.5165],[13.7822,12.697,281.8665],[13.7955,12.7046,281.3623],[13.8055,12.7075,281.6809],[13.8106,12.7155,282.6176],[13.8047,12.719,282.6636],[13.7951,12.7188,281.7605],[13.7513,12.7156,283.7073],[13.7304,12.7102,283.8129],[13.698,12.7053,282.2896],[13.6794,12.7067,283.9293],[13.6434,12.6831,284.778],[13.633,12.6706,284.6223],[13.6302,12.6561,284.6668],[13.591,12.6171,287.6457],[13.5765,12.6067,288.436],[13.5651,12.6055,288.6034],[13.4946,12.5745,290.0153],[13.4689,12.5799,288.5934]]]]}}