{"type":"Feature","properties":{"ISO3166-1-Alpha-3":"NGA","country":"Nigeria","fill":"#000","id":"2856","name":"Oyo"},
"geometry":{"type": "Polygon","coordinates": [[[4.2374,8.96242,363.4924],[4.16401,8.97912,401.6796],[4.04547,9.02069,321.8454],[4.00123,9.04382,361.0805],[3.9631,9.0765999999999991,314.2879],[3.94036,9.12086,337.014],[3.91142,9.15699,338.2827],[3.86605,9.17753,297.466],[3.81799,9.1727,333.5905],[3.77303,9.14027,350.8162],[3.74771,9.09172,379.268],[3.7381,9.02648,421.5589],[3.71887,9.0057,413.611],[3.69562,8.98922,366.6157],[3.49005,8.88625,418.2927],[3.44664,8.85409,419.8924],[3.40644,8.83445,433.2498],[3.36148,8.80065,416.454],[3.24366,8.74766,365.7075],[3.23074,8.74575,391.2714],[3.2202,8.75742,379.6693],[3.20841,8.76306,376.6786],[3.20025,8.77419,340.6274],[3.18371,8.77778,347.269],[3.1679,8.77587,355.4042],[3.14496,8.76887,344.069],[3.12356,8.75616,335.342],[3.08243,8.72048,314.4088],[3.06269,8.70854,327.7248],[3.04687,8.69585,369.7293],[3.03943,8.68596,371.4169],[3.01628,8.67694,313.4211],[2.96202,8.63299,323.8874],[2.94321,8.61048,322.0206],[2.91934,8.59464,308.5454],[2.84017,8.57617,280.2701],[2.82084,8.578,305.7554],[2.8011,8.57775,265.3674],[2.74963,8.53302,241.0631],[2.74244,8.52748,258.0028],[2.74477,8.49829,231.9685],[2.73692,8.46452,242.0992],[2.72896,8.45274,250.1057],[2.70901,8.43039,205.7353],[2.70374,8.41789,229.9975],[2.70353,8.40902,224.8106],[2.70602,8.39055,228.267],[2.70602,8.38127,228.1163],[2.69837,8.33985,174.3034],[2.69713,8.32071,169.4663],[2.70074,8.29688,218.448],[2.7085,8.27482,193.657],[2.72813,8.23319,175.4501],[2.73495,8.2119,155.7],[2.73444,8.18997,168.6897],[2.72658,8.1716,167.8807],[2.71614,8.1549,155.0306],[2.70839,8.13798,187.6902],[2.70571,8.11969,158.1691],[2.70353,8.0599,146.6821],[2.69093,7.99657,152.8689],[2.6871,7.93352,138.8036],[2.68359,7.92463,141.9427],[2.67336,7.90557,131.5864],[2.67108,7.89792,125.5645],[2.67169,7.89343,124.2332],[2.67832,7.89732,127.3646],[2.76482,7.95796,186.1454],[2.86177,7.95473,208.0065],[2.88678,7.90781,244.8663],[2.89215,7.79622,223.742],[2.90921,7.74167,167.6277],[2.93742,7.73762,208.9587],[2.94745,7.78878,189.2473],[2.96161,7.83224,185.0701],[2.99943,7.83368,158.0721],[3.00574,7.74544,149.5627],[2.96895,7.644,151.0468],[2.96977,7.62313,121.1168],[2.98962,7.57124,133.0421],[3.03116,7.5368,137.5809],[3.06403,7.49494,131.5736],[3.10909,7.41329,69.3527],[3.17937,7.34978,95.4545],[3.23394,7.33152,114.8793],[3.29017,7.33338,88.9225],[3.32996,7.36777,93.7937],[3.37068,7.46693,115.4852],[3.41202,7.49479,128.6127],[3.44881,7.4675,138.9819],[3.46587,7.41867,84.9586],[3.49522,7.40208,86.2353],[3.52405,7.41838,111.9503],[3.55434,7.43117,117.7],[3.65428,7.42867,170.0668],[3.68828,7.37976,219.1016],[3.68787,7.32431,183.7014],[3.69056,7.30687,168.2875],[3.7196,7.28576,184.2664],[3.74885,7.26997,152.104],[3.75525,7.25263,134.1249],[3.75505,7.23354,155.7242],[3.75784,7.21809,158.4288],[3.76435,7.20354,142.9138],[3.77623,7.14367,121.5606],[3.73913,7.09334,92.7029],[3.71205,7.04709,67.0279],[3.77231,7.04463,87.3206],[3.89581,7.0597,73.531],[3.95741,7.07624,104.1954],[3.9849,7.09432,92.6594],[4.01725,7.1052,115.5709],[4.04712,7.10722,144.7995],[4.0771,7.11243,122.21],[4.14551,7.47435,167.3757],[4.13993,7.50213,212.3348],[4.1203,7.52592,210.8271],[4.10428,7.55755,206.2174],[4.08247,7.58545,245.0518],[4.05477,7.6023,262.5598],[4.0341,7.62512,249.9588],[4.03544,7.65431,274.4008],[4.05229,7.6794,242.5269],[4.06128,7.70759,259.5837],[4.06645,7.737,243.7016],[4.06996,7.80219,254.1744],[4.0864,7.84769,283.137],[4.15389,7.82986,268.8246],[4.20515,7.86655,295.6096],[4.20412,7.88895,326.7594],[4.21269,7.89755,340.2496],[4.22406,7.90577,350.2475],[4.24236,7.93189,381.3065],[4.26354,7.95404,442.3673],[4.29476,7.94202,376.1105],[4.32235,7.9176,368.981],[4.35904,7.85867,339.1374],[4.39987,7.85058,334.4664],[4.42054,7.87159,347.909],[4.44948,7.89246,428.2914],[4.45547,7.89846,393.2478],[4.46157,7.9075,388.0664],[4.46922,7.91471,381.4525],[4.47139,7.91156,389.4072],[4.48854,7.92497,357.3214],[4.50735,7.93657,358.6406],[4.52523,7.94352,379.0881],[4.54735,7.94722,341.6711],[4.55252,7.95336,327.0],[4.56099,7.96592,346.4138],[4.56306,8.00011,341.405],[4.55562,8.03411,389.2986],[4.53919,8.04452,349.7105],[4.52234,8.04788,379.2834],[4.51004,8.06829,383.9391],[4.48079,8.16273,380.9913],[4.44451,8.2211,327.4704],[4.41837,8.23766,352.8279],[4.39553,8.25872,354.7972],[4.35915,8.31102,382.7361],[4.32535,8.4447,328.9461],[4.28949,8.49793,343.5597],[4.20102,8.69342,331.043],[4.18768,8.75414,373.3986],[4.2004,8.81481,418.4098],[4.22272,8.83602,399.7026],[4.23884,8.86132,368.9766],[4.26396,8.88664,337.6807],[4.29693,8.90576,305.44],[4.33134,8.9541,291.6508],[4.31408,8.99258,323.2125],[4.26499,8.96286,381.4539],[4.2374,8.96242,363.4924]]]}}