{"type":"Feature","properties":{"GID_1":"NGA.31_1","GID_0":"NGA","country":"Nigeria","province":"Oyo","VARNAME_1":"NA","NL_NAME_1":"NA","TYPE_1":"State","ENGTYPE_1":"State","CC_1":"NA","HASC_1":"NG.OY","ISO_1":"NG-OY","name":"Oyo.province"},
"geometry":{"type": "MultiPolygon","coordinates": [[[[3.9451,7.071,110.0062],[3.9574,7.0763,104.1954],[3.9678,7.0881,68.4054],[3.9818,7.0983,75.6526],[4.0172,7.1053,115.5709],[4.0288,7.1035,121.7397],[4.0667,7.109,112.6225],[4.0771,7.1125,122.21],[4.0901,7.1864,114.6251],[4.0965,7.2121,113.9181],[4.1105,7.2502,127.1879],[4.1148,7.2713,155.8343],[4.1134,7.287,158.6237],[4.1156,7.3061,156.9183],[4.1207,7.3229,151.5559],[4.1217,7.3566,160.5442],[4.1278,7.3894,175.3441],[4.1387,7.4225,177.3968],[4.1487,7.4973,186.9284],[4.1347,7.5051,220.7763],[4.1174,7.5299,217.3032],[4.1112,7.5478,207.3771],[4.0854,7.5837,235.6778],[4.0582,7.601,244.0116],[4.0353,7.6213,263.1344],[4.0286,7.6504,272.7099],[4.0471,7.6681,243.4439],[4.0598,7.6965,272.5581],[4.0624,7.7182,266.0776],[4.0687,7.7476,228.8377],[4.0699,7.7658,236.7142],[4.0683,7.7787,251.0632],[4.0684,7.8302,242.1441],[4.0737,7.8458,244.7786],[4.0835,7.8502,267.5562],[4.0894,7.8453,282.367],[4.1101,7.838,264.6882],[4.1529,7.8287,269.7751],[4.1628,7.8295,273.9437],[4.1773,7.8385,275.9103],[4.1905,7.8408,276.0896],[4.1984,7.8469,294.9052],[4.203,7.8567,312.3763],[4.2052,7.8666,295.6096],[4.2032,7.8842,317.2913],[4.2052,7.8938,317.5536],[4.2173,7.8985,332.8784],[4.2222,7.903,334.9937],[4.2466,7.931,369.2259],[4.2594,7.9517,391.3011],[4.2676,7.9564,459.1498],[4.2779,7.9516,406.5856],[4.2902,7.942,365.7132],[4.3163,7.9268,370.848],[4.3384,7.895,366.2675],[4.3568,7.8636,333.834],[4.3653,7.845,330.6624],[4.3742,7.8372,330.48],[4.3842,7.8428,333.9914],[4.4086,7.8523,362.8657],[4.4191,7.8752,345.6893],[4.4413,7.8926,381.1615],[4.4428,7.8884,355.1323],[4.4522,7.894,518.4023],[4.4612,7.9086,388.0664],[4.4681,7.9163,394.6286],[4.4726,7.91,395.3888],[4.4885,7.9268,357.7903],[4.5023,7.9344,354.3714],[4.5132,7.9361,355.4974],[4.5391,7.9466,334.0916],[4.5432,7.9405,356.8112],[4.5485,7.948,341.6711],[4.55,7.9547,327.9924],[4.5593,7.9621,353.0155],[4.5642,7.9828,343.1016],[4.5558,8.0339,389.2986],[4.5477,8.0449,372.0308],[4.5373,8.0453,345.1991],[4.529,8.0475,367.6315],[4.5244,8.046,369.7255],[4.5203,8.0499,386.9421],[4.5109,8.0656,386.9393],[4.4981,8.1038,397.5369],[4.4822,8.1385,386.0443],[4.4764,8.1649,384.1881],[4.4758,8.1831,368.3441],[4.4633,8.1937,356.0583],[4.4628,8.2066,366.4291],[4.4395,8.2248,332.2001],[4.4136,8.2363,353.3514],[4.4068,8.2429,363.7836],[4.3887,8.2679,354.6991],[4.3819,8.2735,349.8131],[4.374,8.2857,366.4875],[4.3678,8.3003,369.7123],[4.3592,8.3111,382.7361],[4.3395,8.3663,370.4806],[4.3362,8.3899,355.1707],[4.338,8.4003,358.8276],[4.3353,8.4063,345.4558],[4.3342,8.4195,323.3284],[4.3253,8.4448,328.9461],[4.3078,8.4619,350.3194],[4.3021,8.4779,363.4367],[4.2935,8.4871,367.7952],[4.2762,8.5314,330.8524],[4.2551,8.5724,295.2067],[4.245,8.6014,334.2376],[4.2362,8.6135,325.3859],[4.2266,8.6199,323.5814],[4.2182,8.6321,310.6112],[4.2067,8.6629,313.0748],[4.197,8.7171,318.1536],[4.1838,8.7425,365.8222],[4.1875,8.7553,373.3986],[4.1863,8.7733,378.8396],[4.1961,8.8057,426.8414],[4.2004,8.8149,418.4098],[4.2201,8.8341,390.6587],[4.234,8.8397,394.9035],[4.2398,8.8654,356.5189],[4.2489,8.8749,347.261],[4.2576,8.8812,349.9476],[4.2881,8.8983,330.9475],[4.3,8.9084,312.3809],[4.3084,8.9247,423.9084],[4.3217,8.9369,310.4292],[4.3378,8.9592,288.1456],[4.3377,8.9689,287.8379],[4.3351,8.9801,302.2162],[4.3226,8.9927,329.7408],[4.3141,8.9926,323.2125],[4.3014,8.9832,336.7291],[4.2684,8.9637,377.7511],[4.2626,8.9624,387.1088],[4.2325,8.9624,370.3088],[4.1707,8.9799,403.8645],[4.1529,8.9776,366.4435],[4.1197,8.9941,391.4653],[4.1141,9.0024,414.4424],[4.0914,9.0063,357.7468],[4.0395,9.023,330.6952],[4.0309,9.0287,329.7577],[4.0221,9.0304,328.7294],[4.0153,9.0345,330.852],[3.9697,9.0692,323.5523],[3.9424,9.102,350.8055],[3.9413,9.1119,369.0701],[3.9336,9.1417,366.2134],[3.9192,9.1534,346.0925],[3.9094,9.1579,329.8353],[3.8894,9.172,349.564],[3.8677,9.1812,297.7303],[3.8604,9.1802,316.9117],[3.8521,9.1818,333.5738],[3.8348,9.1799,324.5288],[3.8201,9.1739,327.5414],[3.8122,9.1696,342.5779],[3.805,9.1633,370.4016],[3.773,9.1464,355.0453],[3.7666,9.1393,328.9514],[3.762,9.1326,311.1903],[3.7596,9.1167,352.9968],[3.7534,9.1059,356.2045],[3.7458,9.0868,382.6388],[3.7455,9.0443,404.8593],[3.7381,9.0265,421.5589],[3.7292,9.0154,429.1234],[3.7144,9.0039,401.4929],[3.7154,9.0039,412.0218],[3.692,8.9866,381.0092],[3.6668,8.9714,382.1348],[3.6419,8.9593,405.0742],[3.6124,8.9492,402.2909],[3.5984,8.9389,401.4645],[3.585,8.9354,406.2206],[3.5594,8.9245,401.9595],[3.5493,8.9162,412.4515],[3.5258,8.9059,387.7961],[3.5149,8.8974,388.6104],[3.4963,8.8905,400.3968],[3.4776,8.8772,431.6769],[3.466,8.8714,429.6058],[3.4465,8.854,419.8924],[3.4257,8.8403,438.2976],[3.412,8.8354,421.0251],[3.4074,8.8362,432.7288],[3.4036,8.8294,440.4612],[3.3854,8.8168,440.8827],[3.3689,8.8085,432.959],[3.3588,8.8006,421.0192],[3.3438,8.7965,400.9452],[3.3035,8.778,387.2075],[3.2914,8.7683,389.343],[3.2737,8.764,371.4463],[3.2672,8.7576,388.6925],[3.2458,8.7483,359.4351],[3.2307,8.7458,391.2714],[3.2244,8.7528,393.6891],[3.2222,8.7579,379.8916],[3.215,8.7562,398.4572],[3.2057,8.7649,370.2253],[3.2003,8.7742,340.6274],[3.189,8.7774,343.2943],[3.1768,8.7802,362.0867],[3.1591,8.7717,354.2629],[3.1476,8.7731,355.3583],[3.1411,8.7697,335.6147],[3.1275,8.7584,338.6399],[3.1152,8.7515,320.6278],[3.1011,8.7372,334.3117],[3.0892,8.7304,334.7703],[3.0795,8.7163,305.8564],[3.0666,8.7064,320.0155],[3.0548,8.7031,355.2589],[3.0478,8.6991,369.5873],[3.0459,8.6929,363.2269],[3.0356,8.6841,368.1008],[3.0251,8.6787,334.6442],[3.0089,8.6734,319.1955],[3.0039,8.6668,332.8161],[2.9616,8.6327,323.8874],[2.9598,8.6261,308.5625],[2.9456,8.6182,305.6241],[2.9457,8.6099,330.8839],[2.9426,8.6024,321.6401],[2.9254,8.5939,324.3473],[2.9194,8.5947,308.5454],[2.9184,8.5896,325.7902],[2.9011,8.5904,308.6361],[2.8879,8.5874,314.0376],[2.8756,8.5867,317.6137],[2.8524,8.5781,314.0995],[2.836,8.5756,276.1842],[2.8171,8.5801,304.2238],[2.8111,8.5781,286.914],[2.8011,8.5778,265.3674],[2.7893,8.5725,258.6771],[2.7592,8.5384,244.8164],[2.7496,8.5331,241.0631],[2.7619,8.5225,241.0582],[2.7618,8.5053,229.3225],[2.7507,8.4934,225.9163],[2.75,8.4897,239.5704],[2.7569,8.4826,226.8143],[2.7491,8.4728,231.8898],[2.7442,8.462,220.3053],[2.7407,8.445,213.5137],[2.7349,8.4363,203.0386],[2.7261,8.432,231.5332],[2.7146,8.4315,199.5732],[2.7069,8.4203,213.8816],[2.7113,8.4055,218.896],[2.714,8.3872,199.8394],[2.7087,8.3696,178.0171],[2.6971,8.3573,172.7059],[2.6957,8.3247,168.0685],[2.6982,8.3072,197.4327],[2.7112,8.2762,172.744],[2.7146,8.2605,178.2295],[2.7185,8.2536,160.7711],[2.7268,8.2465,168.7742],[2.7403,8.2247,178.9477],[2.7541,8.2113,142.1814],[2.7513,8.2076,145.7695],[2.7502,8.2008,151.1262],[2.751,8.19,154.8466],[2.7482,8.1647,140.1499],[2.744,8.156,137.4921],[2.7366,8.1476,136.1327],[2.7322,8.1389,141.2036],[2.7299,8.1283,132.5242],[2.7325,8.1168,134.2073],[2.7305,8.1049,143.1097],[2.725,8.0923,147.0158],[2.724,8.085,148.5814],[2.7291,8.0705,130.3078],[2.7288,8.0668,132.3936],[2.7233,8.0611,135.0178],[2.7073,8.0,138.456],[2.7045,7.9681,126.8342],[2.6995,7.9527,128.1931],[2.6955,7.9308,128.2806],[2.6909,7.9262,130.0215],[2.6878,7.9134,129.3176],[2.6783,7.8974,127.3646],[2.7008,7.9109,142.0499],[2.7088,7.92,143.0366],[2.739,7.9417,164.9414],[2.7581,7.9531,178.6881],[2.7747,7.9664,231.2864],[2.7999,7.9706,227.232],[2.8311,7.9698,235.8848],[2.8618,7.9548,208.0065],[2.8722,7.9426,226.3344],[2.8819,7.9261,265.9635],[2.8884,7.9029,244.3095],[2.8892,7.8535,229.0391],[2.8879,7.8263,214.7348],[2.8909,7.7986,220.5009],[2.9,7.7606,196.3128],[2.9109,7.7382,169.2509],[2.9211,7.7256,155.5151],[2.9347,7.7235,165.8056],[2.9436,7.7608,238.8729],[2.9498,7.813,178.3016],[2.9557,7.8231,167.7806],[2.9591,7.8332,184.0139],[2.9666,7.8404,199.3941],[2.9888,7.8405,170.7577],[2.9961,7.8369,160.4793],[3.0029,7.8306,156.8836],[3.0099,7.8203,160.2356],[3.0117,7.8025,150.259],[3.009,7.7527,157.9438],[3.0035,7.727,136.6035],[2.9955,7.7117,141.0639],[2.9883,7.6809,129.6175],[2.9817,7.6727,151.5244],[2.9809,7.6563,150.7005],[2.9743,7.6601,166.3652],[2.9661,7.651,162.0135],[2.9684,7.6388,142.0161],[2.9691,7.6111,139.2009],[2.9746,7.592,136.0411],[2.987,7.5734,144.3796],[3.0043,7.5599,111.0722],[3.0088,7.5516,119.1411],[3.039,7.5319,122.8207],[3.058,7.5117,118.1693],[3.0624,7.498,123.0363],[3.0727,7.4785,87.1313],[3.0746,7.4628,92.3399],[3.0873,7.4522,79.6194],[3.0883,7.4399,85.5205],[3.122,7.3978,87.7431],[3.1263,7.3899,71.1615],[3.1367,7.3787,77.0033],[3.1664,7.3592,71.7561],[3.1748,7.3519,87.2069],[3.2126,7.3338,75.1447],[3.2479,7.3306,98.4373],[3.262,7.3336,104.8234],[3.2781,7.3292,97.532],[3.2944,7.3349,100.1159],[3.3062,7.337,109.7886],[3.3139,7.3438,92.9137],[3.3279,7.3639,98.0718],[3.3394,7.3914,131.8969],[3.3511,7.4011,121.9777],[3.355,7.4289,115.1783],[3.3663,7.4573,118.3847],[3.3695,7.4695,118.3367],[3.3869,7.487,95.9343],[3.3957,7.4933,135.396],[3.4172,7.4952,133.2815],[3.4253,7.4942,119.4428],[3.4377,7.4886,126.4675],[3.4451,7.4765,151.6404],[3.4522,7.4605,109.8119],[3.4581,7.4389,111.5218],[3.4659,7.4187,84.9586],[3.4786,7.4051,85.9726],[3.4917,7.4005,79.7732],[3.5081,7.4046,82.5402],[3.5217,7.4143,186.3892],[3.5264,7.4225,100.6184],[3.541,7.4271,126.765],[3.5663,7.4322,142.8414],[3.6021,7.4321,198.1536],[3.6164,7.4342,169.2261],[3.652,7.4322,164.2122],[3.6664,7.4287,166.3176],[3.6798,7.4112,190.1618],[3.6853,7.3981,192.7108],[3.6917,7.362,192.9648],[3.6926,7.3468,203.8249],[3.6921,7.3177,168.9748],[3.6906,7.3069,172.7726],[3.6973,7.2955,182.8517],[3.7321,7.2776,149.5024],[3.7455,7.2758,147.915],[3.7558,7.2581,127.5757],[3.7541,7.2223,161.0151],[3.7635,7.2065,125.6442],[3.7719,7.1787,126.5443],[3.7785,7.1324,104.2975],[3.7686,7.1173,90.7376],[3.7576,7.1106,94.8724],[3.7144,7.0677,73.9138],[3.709,7.0494,72.3997],[3.715,7.0449,72.3574],[3.7349,7.048,82.2175],[3.751,7.0464,90.3647],[3.7695,7.0488,95.9214],[3.8134,7.049,84.4082],[3.8312,7.051,85.8626],[3.8331,7.0553,82.4918],[3.8395,7.0527,100.7656],[3.857,7.0584,121.4425],[3.8809,7.0568,102.4468],[3.8981,7.0586,80.9393],[3.9061,7.0562,70.9604],[3.9223,7.0614,86.7183],[3.9324,7.0684,78.9595],[3.9451,7.071,110.0062]]]]}}