{"type":"Feature","properties":{"featurecla":"River","scalerank":9,"rivernum":1038,"dissolve":"1038River","name":"Ogun","name_alt":null,"note":null,"min_zoom":7.1,"strokeweig":0.15,"name_en":"Ogun","min_label":8.1},
"geometry":{"type": "LineString","coordinates": [[3.4918457031250232,8.7690615906191169,386.3566],[3.4977050781250232,8.7650088562441084,415.957],[3.5030761718750232,8.76483795780662,409.1948],[3.5082031250000232,8.7654971374941084,381.9743],[3.5128417968750232,8.76398346561912,378.3757],[3.537353515625,8.74079010624412,370.82],[3.574951171875,8.68720123905662,367.6484],[3.5914550781250232,8.6709170593691169,330.495],[3.67333984375,8.6278018249941084,329.658],[3.69970703125,8.6045108093691169,320.9121],[3.7552734375000232,8.5264834656191084,333.0517]]}}