{"type": "Feature","bbox": [7.8361,4.792,7.9472,4.9893],"geometry": {"type": "MultiPolygon","coordinates": [[[[7.8683,4.792,22.0386],[7.8849,4.7986,20.7146],[7.9013,4.8013,28.3939],[7.9135,4.8009,40.429],[7.9292,4.8034,40.5027],[7.9405,4.8004,41.3627],[7.9437,4.8022,42.9972],[7.9472,4.8174,39.0731],[7.943,4.8163,37.7931],[7.938,4.8198,42.7493],[7.9365,4.8249,48.4716],[7.9297,4.8298,40.2281],[7.9226,4.8502,43.2323],[7.9123,4.8705,51.4269],[7.9125,4.8788,53.445],[7.9094,4.8871,54.4756],[7.9008,4.9006,57.8371],[7.8998,4.9078,54.6729],[7.8957,4.9124,47.4173],[7.8932,4.9302,51.3001],[7.8852,4.9359,46.3301],[7.8817,4.9429,32.0756],[7.8738,4.9439,53.2662],[7.8707,4.9504,55.2994],[7.8717,4.9564,47.4985],[7.8703,4.9682,43.3884],[7.8659,4.9786,47.3473],[7.8562,4.9879,60.9608],[7.848,4.9893,64.4931],[7.8429,4.9871,69.5589],[7.841,4.9825,66.3348],[7.8412,4.9774,63.7441],[7.8369,4.9706,57.9113],[7.8361,4.9621,58.3931],[7.8381,4.9593,53.1485],[7.8384,4.9489,51.648],[7.8419,4.9355,50.5794],[7.8404,4.9307,47.2517],[7.8432,4.9209,49.837],[7.8429,4.9156,53.6475],[7.8472,4.9071,48.14],[7.847,4.8992,48.4118],[7.8542,4.8837,49.7994],[7.861,4.878,39.8059],[7.8639,4.8685,19.0684],[7.8625,4.8416,43.2479],[7.865,4.8259,36.67],[7.866,4.8017,16.3781],[7.8683,4.792,22.0386]]]]}
,"properties": {"GID_2": "NGA.3.20_1","GID_0": "NGA","country": "Nigeria","GID_1": "NGA.3_1","province": "AkwaIbom","NL_NAME_1": "NA","county": "NsitIbom","VARNAME_2": "NA","NL_NAME_2": "NA","TYPE_2": "LocalAuthority","ENGTYPE_2": "LocalAuthority","CC_2": "NA","HASC_2": "NA","name": "Nsit_Ibom.county","area_km2": 119.9922,"hist_schema_id": "Elevation0-9000","hist_area_km2": {"0": 1.9437,"25": 37.24625,"50": 77.46491,"75": 3.33734}}}