{"type":"Feature","properties":{"GID_2":"NGA.4.3_1","GID_0":"NGA","country":"Nigeria","GID_1":"NGA.4_1","province":"Anambra","NL_NAME_1":"NA","county":"AnambraWest","VARNAME_2":"NA","NL_NAME_2":"NA","TYPE_2":"LocalAuthority","ENGTYPE_2":"LocalAuthority","CC_2":"NA","HASC_2":"NA","name":"Anambra_West.county"},
"geometry":{"type": "MultiPolygon","coordinates": [[[[6.8377,6.3688,21.2534],[6.8484,6.4079,20.5893],[6.8489,6.4254,24.545],[6.8678,6.4566,23.5827],[6.8693,6.4746,23.3462],[6.8766,6.4827,22.3655],[6.878,6.5,23.4786],[6.8851,6.5121,23.5153],[6.8851,6.5526,23.9016],[6.8974,6.5697,24.0932],[6.9024,6.5823,25.0239],[6.9118,6.6202,25.4693],[6.9116,6.6365,28.4071],[6.9091,6.6543,25.1669],[6.9119,6.6711,25.3313],[6.917,6.685,23.9822],[6.9125,6.6904,25.8599],[6.9074,6.7064,27.3423],[6.9152,6.711,24.4337],[6.913,6.7209,26.4512],[6.9143,6.7306,29.3785],[6.913,6.7696,27.6531],[6.9059,6.7762,33.988],[6.9003,6.7652,26.7984],[6.8843,6.7459,27.148],[6.8751,6.7389,28.672],[6.8593,6.732,27.4339],[6.8397,6.7155,28.146],[6.8366,6.7086,33.1638],[6.8232,6.6948,24.6228],[6.8112,6.6541,24.6734],[6.8057,6.6406,22.2094],[6.8032,6.6282,22.4692],[6.8046,6.6143,20.7684],[6.8022,6.5842,22.4349],[6.7966,6.5706,21.6125],[6.7789,6.5523,24.8271],[6.7725,6.5436,23.8276],[6.7631,6.5362,24.2298],[6.7494,6.5292,27.5659],[6.7116,6.5347,25.0194],[6.6914,6.5399,27.8582],[6.6644,6.5275,17.0],[6.6726,6.4883,16.5],[6.6788,6.4771,17.0973],[6.6798,6.4654,20.836],[6.6923,6.4232,15.0],[6.6944,6.4093,19.5584],[6.6949,6.3874,15.0],[6.6999,6.3681,21.2463],[6.7181,6.3498,21.2404],[6.7168,6.3277,14.5],[6.7245,6.3047,14.5],[6.7265,6.2832,19.8874],[6.7308,6.2603,14.5],[6.7351,6.246,19.6687],[6.7408,6.2099,14.0],[6.7487,6.186,45.2289],[6.7556,6.1922,14.0],[6.7582,6.2101,21.3056],[6.7578,6.2267,25.6968],[6.7641,6.245,23.3454],[6.785,6.284,24.5662],[6.797,6.3002,24.4219],[6.7972,6.3108,21.3576],[6.8013,6.3197,22.0621],[6.8335,6.3565,20.7606],[6.8377,6.3688,21.2534]]]]}}