{"type": "Feature","bbox": [3.9397,7.3175,4.144,7.4586],"geometry": {"type": "MultiPolygon","coordinates": [[[[4.144,7.4586,181.1907],[4.1201,7.4529,179.297],[4.1147,7.4477,189.6656],[4.104,7.4422,180.2184],[4.0821,7.44,181.8037],[4.0704,7.4416,193.5996],[4.0227,7.4336,182.3554],[3.9914,7.424,203.7688],[3.9841,7.4152,225.4136],[3.9716,7.4089,224.6001],[3.9617,7.4015,238.9809],[3.956,7.4,226.9193],[3.9543,7.3972,224.8573],[3.9518,7.3993,247.212],[3.9545,7.3931,220.6248],[3.9535,7.3896,218.4844],[3.9455,7.3803,231.4446],[3.9397,7.368,204.222],[3.9409,7.3534,196.5489],[3.9414,7.3525,196.5489],[3.9425,7.3546,199.4205],[3.9431,7.3624,196.6884],[3.9575,7.3681,197.9948],[3.9873,7.3704,216.151],[4.0,7.3679,178.5524],[4.0121,7.3617,156.3412],[4.0253,7.3522,183.9191],[4.0486,7.3401,200.6475],[4.0613,7.3369,185.8246],[4.0776,7.3352,165.9172],[4.106,7.3202,156.886],[4.1191,7.3175,132.6749],[4.1207,7.3229,151.5559],[4.1217,7.3566,160.5442],[4.1278,7.3894,175.3441],[4.1387,7.4225,177.3968],[4.144,7.4586,181.1907]]]]}
,"properties": {"GID_2": "NGA.31.5_1","GID_0": "NGA","country": "Nigeria","GID_1": "NGA.31_1","province": "Oyo","NL_NAME_1": "NA","county": "Egbeda","VARNAME_2": "NA","NL_NAME_2": "NA","TYPE_2": "LocalAuthority","ENGTYPE_2": "LocalAuthority","CC_2": "NA","HASC_2": "NA","name": "Egbeda.county","area_km2": 189.3606,"hist_schema_id": "Elevation0-9000","hist_area_km2": {"125": 0.3575,"150": 18.4617,"175": 80.6761,"200": 64.6552,"225": 23.0443,"250": 2.1026,"275": 0.0631}}}