{"type":"Feature","properties":{"GID_2":"NGA.30.19_1","GID_0":"NGA","country":"Nigeria","GID_1":"NGA.30_1","province":"Osun","NL_NAME_1":"NA","county":"IleshaWest","VARNAME_2":"NA","NL_NAME_2":"NA","TYPE_2":"LocalAuthority","ENGTYPE_2":"LocalAuthority","CC_2":"NA","HASC_2":"NA","name":"Ilesha_West.county"},
"geometry":{"type": "MultiPolygon","coordinates": [[[[4.7089,7.586,389.304],[4.729,7.6016,408.6061],[4.7348,7.6031,401.2028],[4.7395,7.6074,400.6192],[4.7488,7.6105,376.2726],[4.7558,7.6201,381.7941],[4.7715,7.632,402.0771],[4.7829,7.6369,403.4299],[4.7922,7.6482,504.891],[4.7891,7.6522,412.8192],[4.7861,7.6543,389.768],[4.7704,7.6523,370.2455],[4.7642,7.6522,376.357],[4.761,7.6536,371.1548],[4.7556,7.6502,367.0548],[4.7314,7.6493,369.2014],[4.7258,7.6473,376.3239],[4.7145,7.6479,357.0013],[4.7077,7.6506,366.182],[4.7,7.6498,371.0117],[4.6835,7.6533,359.7633],[4.6704,7.6572,353.1245],[4.669,7.6588,344.615],[4.6648,7.6555,326.5382],[4.6457,7.6558,320.2706],[4.6413,7.6536,316.0061],[4.6394,7.6499,308.8911],[4.6407,7.6462,294.5872],[4.6681,7.6314,338.7756],[4.6813,7.6183,506.6392],[4.6895,7.5984,372.1083],[4.7041,7.5864,378.8347],[4.7069,7.5872,392.057],[4.7089,7.586,389.304]]]]}}