{"type":"Feature","properties":{"GID_2":"NGA.21.19_1","GID_0":"NGA","country":"Nigeria","GID_1":"NGA.21_1","province":"Katsina","NL_NAME_1":"NA","county":"Kankara","VARNAME_2":"NA","NL_NAME_2":"NA","TYPE_2":"LocalAuthority","ENGTYPE_2":"LocalAuthority","CC_2":"NA","HASC_2":"NA","name":"Kankara.county"},
"geometry":{"type": "MultiPolygon","coordinates": [[[[7.4887,11.6713,637.8407],[7.4891,11.688,632.1655],[7.5084,11.76,610.2513],[7.5229,11.7765,619.7438],[7.5337,11.7917,615.83],[7.5529,11.8113,624.5436],[7.5754,11.8413,596.0392],[7.5966,11.863,586.4984],[7.6009,11.8753,581.5015],[7.6168,11.8965,592.5563],[7.6223,11.9081,586.0948],[7.6238,11.9166,575.0143],[7.6174,11.9258,576.0027],[7.6144,11.926,574.764],[7.6017,11.9346,567.6614],[7.5889,11.9301,565.6131],[7.5752,11.929,574.0952],[7.5608,11.9208,588.0309],[7.5434,11.9139,591.6166],[7.5299,11.9151,580.9797],[7.5205,11.9204,586.9349],[7.513,11.9214,585.9835],[7.5072,11.9241,586.3588],[7.4939,11.9233,570.6353],[7.489,11.9198,568.0937],[7.4818,11.9218,577.7374],[7.4783,11.9211,580.9429],[7.4705,11.9274,583.8358],[7.5306,11.9606,559.343],[7.5465,11.9724,573.4182],[7.556,11.9815,575.9915],[7.5643,12.0069,592.0988],[7.553,12.0202,597.238],[7.5518,12.0297,597.6835],[7.5409,12.0397,587.7435],[7.5366,12.0466,578.684],[7.5219,12.0577,587.6049],[7.5143,12.0657,595.597],[7.4988,12.072,587.569],[7.4717,12.0699,569.8748],[7.4623,12.0737,569.8405],[7.4577,12.0813,578.1562],[7.4574,12.0887,586.2936],[7.426,12.0881,574.5117],[7.416,12.0846,563.6038],[7.3909,12.0864,547.8146],[7.3814,12.083,552.1619],[7.3736,12.0857,553.8013],[7.3544,12.1028,530.8262],[7.3371,12.1147,527.2354],[7.3271,12.1171,519.0375],[7.3151,12.1126,528.8792],[7.3088,12.1173,525.2885],[7.2857,12.1194,531.1796],[7.2792,12.1221,530.1079],[7.2576,12.1244,536.3385],[7.2521,12.1179,523.2751],[7.2419,12.1164,510.2079],[7.2309,12.1214,528.2101],[7.2185,12.1307,517.7468],[7.211,12.1405,518.9882],[7.2051,12.1541,532.8362],[7.201,12.1688,533.4873],[7.1996,12.1815,523.5627],[7.1927,12.1902,515.7065],[7.1675,12.2126,525.4821],[7.1579,12.218,511.604],[7.143,12.2235,513.4634],[7.1422,12.2132,513.1689],[7.1576,12.1739,493.926],[7.1575,12.1541,491.9973],[7.1416,12.1026,499.8077],[7.1399,12.092,503.2846],[7.1321,12.0709,473.571],[7.1106,12.0342,470.138],[7.1309,12.015,497.7731],[7.1717,11.9965,504.9201],[7.1895,11.9799,512.0684],[7.215,11.96,498.964],[7.2337,11.9374,524.4182],[7.2419,11.9209,531.8834],[7.2419,11.91,539.7659],[7.2531,11.908,543.4799],[7.2666,11.8911,531.7367],[7.2873,11.8525,558.5025],[7.2962,11.8323,555.3895],[7.3041,11.8063,567.3593],[7.3047,11.7941,574.6585],[7.3069,11.7858,578.1609],[7.3055,11.7821,570.4808],[7.3299,11.7844,594.1566],[7.3418,11.7878,591.5771],[7.3654,11.7885,576.0434],[7.3892,11.7934,586.4917],[7.407,11.785,568.8263],[7.415,11.7717,569.5676],[7.4323,11.725,595.9744],[7.46,11.7059,610.3179],[7.4887,11.6713,637.8407]]]]}}