{"type": "Feature","bbox": [6.6521,5.5293,6.9669,5.7827],"geometry": {"type": "MultiPolygon","coordinates": [[[[6.773,5.781,16.5697],[6.751,5.7697,20.9108],[6.7193,5.7338,22.2216],[6.7025,5.7078,22.2558],[6.6913,5.6997,26.537],[6.6794,5.6958,30.3544],[6.6688,5.6943,30.2248],[6.6619,5.6831,28.811],[6.6609,5.6647,27.2995],[6.6521,5.6219,25.5888],[6.7088,5.6222,22.2667],[6.7234,5.616,24.4011],[6.7356,5.6141,17.7642],[6.7642,5.6141,25.0476],[6.813,5.6061,55.7173],[6.8261,5.6018,58.9793],[6.8427,5.5895,65.723],[6.8518,5.5806,64.3918],[6.8599,5.5678,62.8057],[6.8708,5.5547,64.6967],[6.8813,5.5372,61.6754],[6.8888,5.5293,60.5299],[6.9042,5.531,62.4395],[6.9416,5.5431,63.4048],[6.9494,5.5499,71.446],[6.9521,5.5602,75.1909],[6.9577,5.568,77.6304],[6.9592,5.5744,76.9587],[6.9584,5.5799,76.2751],[6.9618,5.5889,72.9612],[6.9655,5.59,73.7501],[6.9669,5.5943,75.4128],[6.9552,5.6266,88.0787],[6.9382,5.6291,76.1083],[6.9277,5.6344,75.1124],[6.9043,5.6571,40.918],[6.8912,5.676,52.8415],[6.8779,5.6836,61.2744],[6.8719,5.6934,71.0992],[6.8626,5.7187,67.2771],[6.862,5.7378,65.4428],[6.858,5.7482,69.1872],[6.8586,5.7498,67.4758],[6.842,5.7544,65.5163],[6.8154,5.7677,66.4436],[6.8015,5.7765,21.6755],[6.787,5.7814,16.4419],[6.7771,5.7827,15.7431],[6.773,5.781,16.5697]]]]}
,"properties": {"GID_2": "NGA.17.17_1","GID_0": "NGA","country": "Nigeria","GID_1": "NGA.17_1","province": "Imo","NL_NAME_1": "NA","county": "Oguta","VARNAME_2": "NA","NL_NAME_2": "NA","TYPE_2": "LocalAuthority","ENGTYPE_2": "LocalAuthority","CC_2": "NA","HASC_2": "NA","name": "Oguta.county","area_km2": 479.5991,"hist_schema_id": "Elevation0-9000","hist_area_km2": {"0": 6.2449,"25": 245.8971,"50": 60.9985,"75": 166.4374,"100": 0.0211}}}