{"type":"Feature","properties":{"GID_2":"NGA.28.17_1","GID_0":"NGA","country":"Nigeria","GID_1":"NGA.28_1","province":"Ogun","NL_NAME_1":"NA","county":"Odogbolu","VARNAME_2":"NA","NL_NAME_2":"NA","TYPE_2":"LocalAuthority","ENGTYPE_2":"LocalAuthority","CC_2":"NA","HASC_2":"NA","name":"Odogbolu.county"},
"geometry":{"type": "MultiPolygon","coordinates": [[[[3.9032,6.6871,10.9646],[3.9144,6.711,22.2903],[3.9221,6.721,9.0004],[3.9281,6.7341,10.4821],[3.933,6.751,29.4686],[3.9355,6.775,40.795],[3.9267,6.8009,29.6704],[3.9214,6.8042,39.0654],[3.9,6.809,60.9711],[3.8894,6.8075,58.8877],[3.8794,6.8008,51.3627],[3.8742,6.8099,57.685],[3.8739,6.817,61.5362],[3.876,6.8239,20.1893],[3.8937,6.8432,89.1026],[3.9015,6.8559,105.0048],[3.907,6.8856,45.9478],[3.9053,6.8923,48.4996],[3.8924,6.895,34.1837],[3.8651,6.8911,27.2528],[3.8536,6.8927,23.7459],[3.8368,6.8911,59.189],[3.8191,6.8958,24.4774],[3.7862,6.8998,95.8986],[3.7781,6.9034,88.8232],[3.7588,6.9197,113.8053],[3.7436,6.9244,95.2662],[3.7349,6.9111,107.8105],[3.7358,6.8972,88.0148],[3.7332,6.8934,88.4576],[3.7374,6.882,70.7116],[3.7369,6.8767,62.6252],[3.7303,6.8669,58.2046],[3.7207,6.835,55.8175],[3.6986,6.808,32.2596],[3.6866,6.7782,15.1665],[3.6833,6.761,16.5174],[3.6814,6.7585,16.0442],[3.6856,6.7419,23.3724],[3.683,6.7382,42.7494],[3.6855,6.7227,63.9075],[3.6787,6.6892,46.7794],[3.9032,6.6871,10.9646]]]]}}