{"type": "Feature","bbox": [3.7277,7.8674,4.0799,8.6023],"geometry": {"type": "MultiPolygon","coordinates": [[[[3.7635,8.192,265.0],[3.7618,8.1922,265.0],[3.7558,8.1868,265.0],[3.7487,8.1779,265.0],[3.7328,8.1514,270.125],[3.7277,8.1354,231.354],[3.7281,8.1222,230.6181],[3.7331,8.1249,250.223],[3.7437,8.1268,303.6786],[3.7588,8.1171,288.3657],[3.7612,8.1083,277.6407],[3.7734,8.0918,237.6254],[3.796,8.066,295.328],[3.8281,8.0404,260.9156],[3.8458,8.0343,288.9086],[3.8533,8.0259,304.1727],[3.881,8.0134,296.0756],[3.8925,8.0004,283.218],[3.8936,7.9923,287.5168],[3.8994,7.9823,285.0345],[3.9069,7.9757,307.4225],[3.9169,7.9635,290.8654],[3.9274,7.9316,249.6809],[3.9257,7.9111,263.4502],[3.9299,7.9029,265.0222],[3.9311,7.8912,278.4681],[3.944,7.8744,300.3296],[3.9449,7.8678,294.2006],[3.9476,7.8674,293.9758],[3.958,7.8709,288.2606],[3.9862,7.8845,327.7532],[3.9919,7.8975,323.1003],[4.0132,7.9135,290.5621],[4.0195,7.9201,303.7449],[4.0528,7.9414,288.977],[4.0695,7.9478,292.7319],[4.0731,7.9551,266.9648],[4.0799,7.9627,266.4309],[4.0738,7.9708,265.0534],[4.069,7.984,291.2463],[4.0525,8.0092,301.3344],[4.0428,8.0206,341.7326],[4.0335,8.0871,311.6515],[4.0268,8.1135,353.7533],[4.0177,8.124,363.647],[3.9843,8.1516,350.632],[3.9769,8.1819,359.4637],[3.9774,8.2109,364.8407],[3.9836,8.2398,347.8815],[4.003,8.2568,367.2911],[4.0228,8.2816,350.2684],[4.0293,8.2953,352.1682],[4.063,8.3265,393.2706],[4.0684,8.3354,398.8675],[4.0686,8.3441,402.9868],[4.0484,8.3797,398.6166],[4.04,8.3891,394.8835],[4.0346,8.3846,405.2503],[4.0274,8.3942,412.1526],[4.0207,8.3959,415.5594],[4.0151,8.4057,409.8622],[4.0164,8.4123,410.4675],[4.0001,8.4485,375.967],[3.9971,8.4631,369.6823],[3.9905,8.4805,386.5872],[3.9876,8.484,404.4731],[3.9694,8.4891,392.5068],[3.9607,8.5087,385.9822],[3.9606,8.543,403.2416],[3.9662,8.5579,462.5226],[3.9674,8.5797,401.9892],[3.974,8.5865,414.5979],[3.9916,8.5945,439.9679],[3.9678,8.6007,429.4209],[3.9408,8.6023,410.5302],[3.927,8.5913,433.0527],[3.9089,8.5812,411.3632],[3.8783,8.5769,377.0298],[3.8528,8.578,363.1943],[3.829,8.5763,372.603],[3.8209,8.5721,360.1526],[3.8178,8.5415,347.0308],[3.8203,8.5276,361.1439],[3.8213,8.5013,351.5446],[3.819,8.4744,315.0371],[3.8224,8.4568,336.7469],[3.8228,8.4391,336.3692],[3.8149,8.4328,337.3489],[3.8049,8.4283,319.8046],[3.7954,8.4262,321.2443],[3.7957,8.4156,302.5106],[3.8039,8.3823,302.8007],[3.8048,8.368,319.4677],[3.8131,8.3245,318.7718],[3.8137,8.3017,296.6675],[3.8003,8.26,302.7184],[3.7951,8.237,280.0434],[3.7865,8.2185,287.5609],[3.7776,8.1829,283.498],[3.7743,8.1789,271.404],[3.7676,8.1916,265.0],[3.7635,8.192,265.0]]]]}
,"properties": {"GID_2": "NGA.31.3_1","GID_0": "NGA","country": "Nigeria","GID_1": "NGA.31_1","province": "Oyo","NL_NAME_1": "NA","county": "Atiba","VARNAME_2": "NA","NL_NAME_2": "NA","TYPE_2": "LocalAuthority","ENGTYPE_2": "LocalAuthority","CC_2": "NA","HASC_2": "NA","name": "Atiba.county","area_km2": 1671.84,"hist_schema_id": "Elevation0-9000","hist_area_km2": {"225": 0.651,"250": 22.82,"275": 168.107,"300": 361.278,"325": 391.878,"350": 361.1,"375": 227.575,"400": 107.226,"425": 28.373,"450": 2.16,"475": 0.357,"500": 0.273,"525": 0.042}}}