{"type":"Feature","properties":{"GID_2":"NGA.22.17_1","GID_0":"NGA","country":"Nigeria","GID_1":"NGA.22_1","province":"Kebbi","NL_NAME_1":"NA","county":"Sakaba","VARNAME_2":"NA","NL_NAME_2":"NA","TYPE_2":"LocalAuthority","ENGTYPE_2":"LocalAuthority","CC_2":"NA","HASC_2":"NA","name":"Sakaba.county"},
"geometry":{"type": "MultiPolygon","coordinates": [[[[5.3877,11.4145,400.2527],[5.3616,11.3979,365.279],[5.3379,11.3788,352.9281],[5.3276,11.3669,343.0228],[5.298,11.3394,332.9708],[5.3171,11.3347,335.8336],[5.329,11.3286,339.1997],[5.3443,11.3094,347.5987],[5.352,11.281,341.1227],[5.3557,11.2491,336.155],[5.3558,11.2254,341.0939],[5.3601,11.2055,327.1625],[5.3732,11.1853,333.2729],[5.3938,11.171,321.0524],[5.4149,11.1613,325.1929],[5.4338,11.146,326.3986],[5.4415,11.1176,324.6624],[5.4405,11.082,313.6615],[5.4356,11.0408,304.4315],[5.4384,11.0039,291.3397],[5.4413,10.9767,320.8096],[5.4527,10.9629,331.1657],[5.4679,10.9568,322.4348],[5.4697,10.9596,318.7989],[5.5288,10.9574,336.7534],[5.6148,10.9636,420.3895],[5.6403,10.9678,427.272],[5.7113,10.9965,453.4904],[5.7473,11.016,420.7116],[5.7932,11.0322,447.0592],[5.821,11.0437,471.5412],[5.8083,11.0644,450.1372],[5.7961,11.0756,447.7917],[5.7783,11.0821,448.806],[5.763,11.0817,452.8945],[5.7374,11.1302,431.2649],[5.7256,11.1336,412.1678],[5.7041,11.144,421.4323],[5.7023,11.1557,437.3065],[5.7053,11.1779,431.5347],[5.6963,11.2261,456.2782],[5.6848,11.2362,447.4237],[5.6665,11.2427,447.8791],[5.6482,11.2418,453.3087],[5.6184,11.2436,433.4531],[5.5721,11.2727,428.7136],[5.5561,11.2851,429.5342],[5.5167,11.3016,382.8734],[5.4769,11.3215,359.3552],[5.444,11.3434,379.8423],[5.4285,11.3619,386.9138],[5.4054,11.3828,410.0432],[5.397,11.3869,406.035],[5.3903,11.4103,398.0759],[5.3877,11.4145,400.2527]]]]}}