{"type":"Feature","properties":{"GID_2":"NGA.27.22_1","GID_0":"NGA","country":"Nigeria","GID_1":"NGA.27_1","province":"Niger","NL_NAME_1":"NA","county":"Shiroro","VARNAME_2":"NA","NL_NAME_2":"NA","TYPE_2":"LocalAuthority","ENGTYPE_2":"LocalAuthority","CC_2":"NA","HASC_2":"NA","name":"Shiroro.county"},
"geometry":{"type": "MultiPolygon","coordinates": [[[[6.5345,10.5441,459.5045],[6.5239,10.5304,480.3712],[6.5108,10.4964,436.1337],[6.5189,10.4553,486.7119],[6.5182,10.4145,480.935],[6.523,10.3963,460.028],[6.5225,10.3797,453.7525],[6.4933,10.3369,391.1421],[6.4613,10.2959,405.4872],[6.4179,10.261,359.6377],[6.3901,10.2413,294.1874],[6.3733,10.2257,327.4106],[6.3634,10.209,285.8875],[6.3589,10.1897,252.1351],[6.3616,10.1558,272.7115],[6.3647,10.1482,294.3526],[6.3758,10.1389,287.0693],[6.4087,10.1349,357.851],[6.4378,10.1356,360.2587],[6.4608,10.1283,340.3628],[6.4824,10.1112,298.0212],[6.508,10.0741,258.9839],[6.5156,10.0589,245.2728],[6.5117,10.0487,287.3411],[6.5245,10.0334,259.0412],[6.5285,10.0115,252.9384],[6.5251,9.9985,241.0603],[6.5323,9.9815,235.8886],[6.5338,9.97,217.2361],[6.5166,9.9631,214.0794],[6.491,9.9559,222.8875],[6.4776,9.9477,255.6531],[6.4728,9.9335,242.5226],[6.4792,9.9078,219.1376],[6.4796,9.896,212.6981],[6.4672,9.8783,195.3199],[6.4477,9.8668,180.6186],[6.403,9.8582,196.5126],[6.3756,9.8725,202.7054],[6.3559,9.8847,180.6845],[6.3354,9.9011,217.2681],[6.3134,9.9117,201.4478],[6.2894,9.9076,196.8059],[6.274,9.9076,154.0316],[6.2278,9.9117,153.9268],[6.2163,9.9169,127.8214],[6.2042,9.9163,146.81],[6.1896,9.907,158.7476],[6.1753,9.8908,153.8458],[6.1789,9.8884,135.9723],[6.2004,9.8812,139.6268],[6.212,9.8601,159.148],[6.217,9.8322,176.3978],[6.2075,9.8044,178.0913],[6.1965,9.7639,182.1132],[6.1964,9.7569,169.9888],[6.2533,9.746,172.8081],[6.2731,9.7455,194.7119],[6.2869,9.7427,212.5552],[6.3281,9.7505,261.3005],[6.3391,9.7467,257.2921],[6.3706,9.7431,272.7353],[6.3826,9.7382,270.1072],[6.3928,9.7455,278.7316],[6.4031,9.7481,304.8134],[6.4219,9.764,313.0417],[6.4348,9.7803,266.6668],[6.464,9.7991,258.5612],[6.4761,9.7884,236.0321],[6.4863,9.7821,229.6578],[6.4935,9.7845,235.4785],[6.5085,9.7851,231.6082],[6.5511,9.7715,244.3892],[6.5625,9.7611,262.1487],[6.5724,9.7409,264.1112],[6.5788,9.7218,269.1602],[6.5902,9.7083,276.7188],[6.6169,9.6964,284.7372],[6.6394,9.6787,320.2381],[6.65,9.6592,335.3067],[6.6546,9.6297,304.8257],[6.6516,9.5746,251.8453],[6.642,9.5606,246.8349],[6.6315,9.5538,232.5412],[6.6267,9.5482,222.634],[6.627,9.5399,222.3835],[6.6351,9.5338,216.432],[6.6584,9.5292,244.8747],[6.6735,9.5244,247.2815],[6.682,9.5169,254.8217],[6.6932,9.5182,251.6752],[6.7223,9.5418,260.93],[6.7594,9.5451,275.7982],[6.7668,9.5475,273.5891],[6.7861,9.5461,306.1873],[6.7943,9.5421,314.3322],[6.8068,9.5328,305.7101],[6.8115,9.5322,311.7661],[6.8136,9.5334,318.2017],[6.812,9.5396,308.4751],[6.8129,9.5569,302.7495],[6.8072,9.6248,337.3414],[6.8025,9.6586,375.6941],[6.8053,9.6824,377.5705],[6.8126,9.7127,370.5124],[6.8193,9.7222,382.4646],[6.8308,9.7251,400.5224],[6.8412,9.7301,401.4492],[6.8358,9.7646,408.7047],[6.8266,9.7928,404.9873],[6.8272,9.8583,382.4127],[6.8232,9.891,383.7503],[6.8255,9.9093,389.7528],[6.8276,9.9097,390.0882],[6.8419,9.9406,363.063],[6.8423,9.9505,357.0],[6.8331,9.9539,436.505],[6.8186,9.9505,348.2428],[6.8084,9.957,336.678],[6.7952,9.9786,289.4641],[6.7963,9.9862,267.4308],[6.8357,10.0014,356.7419],[6.8348,10.0162,371.8158],[6.8425,10.0354,367.4293],[6.8485,10.0445,497.8218],[6.8644,10.0604,516.9695],[6.8768,10.0644,357.0],[6.889,10.0623,357.0],[6.918,10.0649,357.0],[6.9087,10.0736,357.0],[6.8921,10.1052,372.8246],[6.9069,10.125,389.0892],[6.9419,10.1469,405.8289],[6.968,10.1737,440.2102],[6.9818,10.1974,453.5421],[6.9978,10.2075,477.3095],[7.0258,10.2198,496.6806],[7.0503,10.2391,511.689],[7.0668,10.2676,504.0158],[7.0718,10.2993,513.2604],[7.0474,10.3142,497.2686],[7.0196,10.3273,493.3671],[6.9416,10.3538,489.1939],[6.9452,10.3703,549.6612],[6.9549,10.393,577.3381],[6.9634,10.4201,599.3611],[6.9643,10.4612,578.3519],[6.9471,10.4963,572.3654],[6.9323,10.5219,565.4935],[6.9061,10.529,601.4413],[6.8858,10.5274,587.1714],[6.8698,10.5182,534.3851],[6.8474,10.5205,495.9159],[6.8479,10.5392,506.0212],[6.8437,10.5664,535.4515],[6.8429,10.5925,556.8616],[6.8351,10.6231,588.821],[6.8253,10.6313,586.8413],[6.7489,10.6393,565.51],[6.7298,10.6201,564.4697],[6.7407,10.5819,505.1277],[6.7304,10.5661,476.3082],[6.6925,10.5754,578.5988],[6.6661,10.5751,674.8281],[6.6366,10.5656,541.2646],[6.6127,10.5559,504.8782],[6.574,10.5374,478.4852],[6.5428,10.5295,475.8831],[6.5345,10.5441,459.5045]]]]}}