{"type": "Feature","bbox": [4.2961,10.6861,4.9107,11.1933],"geometry": {"type": "MultiPolygon","coordinates": [[[[4.2961,11.0144,227.9914],[4.3014,11.013,222.8257],[4.3351,11.0134,196.6327],[4.3594,11.0171,206.3531],[4.3694,11.0207,199.0131],[4.3888,11.0244,189.5782],[4.4079,11.0269,188.3585],[4.4553,11.0281,184.0086],[4.512,11.0112,190.5106],[4.54,11.0012,176.8243],[4.5553,10.9914,161.1931],[4.5666,10.9814,163.2661],[4.584,10.9719,158.8768],[4.606,10.9562,157.9909],[4.625,10.9456,162.4759],[4.667,10.9177,152.3734],[4.6757,10.9102,162.4382],[4.691,10.913,150.3275],[4.7013,10.9118,138.0057],[4.727,10.9054,134.9482],[4.7478,10.8947,150.0202],[4.7561,10.883,159.5692],[4.7528,10.8182,181.2547],[4.7507,10.8042,182.769],[4.7375,10.7565,162.462],[4.7276,10.7043,164.5278],[4.7309,10.7029,164.608],[4.7423,10.6892,167.0329],[4.7516,10.6865,164.4898],[4.7608,10.6861,163.2606],[4.7752,10.6939,169.3022],[4.7821,10.7041,169.2109],[4.7827,10.7129,174.6905],[4.7865,10.7279,181.7574],[4.786,10.7501,203.1616],[4.7895,10.8007,195.0245],[4.7978,10.8312,200.5837],[4.8082,10.8427,210.0864],[4.8311,10.8584,194.5456],[4.8363,10.8679,180.4169],[4.839,10.885,208.8787],[4.8424,10.8924,195.1261],[4.846,10.9096,180.6879],[4.8506,10.9159,165.4678],[4.8789,10.9356,173.6381],[4.8927,10.9419,192.6557],[4.9081,10.9438,204.8417],[4.9107,10.9456,201.4107],[4.9026,10.9516,198.3581],[4.8405,10.9654,222.4277],[4.8148,10.9637,218.6],[4.8055,10.9781,180.9873],[4.7847,10.9919,161.4518],[4.7672,10.9863,158.1793],[4.7468,10.992,147.9806],[4.735,10.9977,144.4768],[4.7195,11.0074,142.813],[4.7036,11.0264,141.9028],[4.6737,11.0408,141.7487],[4.6669,11.0634,143.0135],[4.6559,11.0771,145.0384],[4.6385,11.0896,142.6597],[4.6242,11.1118,143.4386],[4.61,11.1193,144.3256],[4.5681,11.1285,143.1793],[4.5567,11.1427,144.0258],[4.544,11.1538,144.0367],[4.5327,11.1602,143.673],[4.5064,11.1707,144.6714],[4.4885,11.176,143.5542],[4.4566,11.1819,143.7668],[4.4408,11.1866,143.5776],[4.4309,11.1933,144.5441],[4.4305,11.1869,143.6595],[4.4128,11.1683,142.0],[4.3936,11.1533,166.5846],[4.3831,11.1234,218.2861],[4.3798,11.1062,223.3286],[4.3704,11.0971,228.8522],[4.342,11.082,194.8534],[4.3314,11.0736,182.877],[4.3169,11.0579,172.7918],[4.2961,11.0144,227.9914]]]]}
,"properties": {"GID_2": "NGA.22.20_1","GID_0": "NGA","country": "Nigeria","GID_1": "NGA.22_1","province": "Kebbi","NL_NAME_1": "NA","county": "Yauri","VARNAME_2": "NA","NL_NAME_2": "NA","TYPE_2": "LocalAuthority","ENGTYPE_2": "LocalAuthority","CC_2": "NA","HASC_2": "NA","name": "Yauri.county","area_km2": 952.964,"hist_schema_id": "Elevation0-9000","hist_area_km2": {"125": 18.9212,"150": 435.1655,"175": 269.319,"200": 177.0994,"225": 50.2327,"250": 2.2263}}}