{"type": "Feature","bbox": [8.7657,6.8669,9.4437,7.2211],"geometry": {"type": "MultiPolygon","coordinates": [[[[9.0407,7.1197,168.4562],[9.0335,7.121,179.0571],[9.0237,7.1895,193.7043],[8.9844,7.218,185.6697],[8.9543,7.2211,161.7866],[8.9264,7.2197,136.1856],[8.8969,7.2073,124.0549],[8.8644,7.1825,115.2833],[8.8487,7.1664,106.7201],[8.8223,7.1339,100.7398],[8.7928,7.104,101.7832],[8.7839,7.0972,110.9245],[8.7657,7.0903,139.8953],[8.7779,7.0669,127.4935],[8.7948,7.0461,132.4138],[8.815,7.0264,147.605],[8.8556,6.9962,125.129],[8.8682,6.9896,108.26],[8.896,6.9801,103.6725],[8.9115,6.9835,113.4736],[8.9252,6.9759,132.8],[8.974,6.9726,151.9165],[8.9741,6.9704,157.6463],[8.9793,6.9718,161.0127],[8.9918,6.9674,147.2481],[9.0447,6.9709,161.3362],[9.0516,6.9694,153.5857],[9.0759,6.9704,145.0126],[9.0892,6.9687,137.8767],[9.0984,6.9706,142.8787],[9.1348,6.9674,182.746],[9.1438,6.9631,203.9034],[9.1516,6.957,198.2349],[9.1587,6.9488,201.5822],[9.1698,6.9436,199.762],[9.1732,6.9404,188.9651],[9.1775,6.9244,200.4324],[9.1837,6.9095,182.2775],[9.1873,6.8701,221.5005],[9.1909,6.8725,222.4076],[9.1989,6.872,209.9429],[9.2186,6.8669,229.6034],[9.2509,6.8743,224.6344],[9.2737,6.8837,187.7683],[9.2855,6.8962,210.1008],[9.2946,6.9024,171.1918],[9.3122,6.9195,182.8769],[9.3265,6.9302,201.2638],[9.3347,6.9402,176.017],[9.3525,6.9566,197.9094],[9.3583,6.9652,202.8362],[9.3742,6.9786,178.3764],[9.3999,7.0064,177.708],[9.4115,7.0168,145.9694],[9.4211,7.0318,173.7982],[9.4375,7.0491,150.4069],[9.4437,7.0618,143.2933],[9.4287,7.0679,135.2226],[9.3991,7.0687,151.7331],[9.3721,7.0779,122.0172],[9.3705,7.0821,122.2457],[9.3522,7.0885,115.1852],[9.3516,7.0964,133.0885],[9.334,7.107,141.8267],[9.3079,7.1322,123.6497],[9.2826,7.1017,126.3712],[9.2711,7.0954,142.9986],[9.2631,7.0931,150.0741],[9.244,7.0751,140.8681],[9.2308,7.0685,145.3612],[9.2095,7.0626,128.9235],[9.1982,7.0553,135.5535],[9.1871,7.0543,157.7401],[9.1597,7.0464,165.2303],[9.1389,7.047,153.6497],[9.1333,7.0496,144.7767],[9.1238,7.0458,140.1146],[9.0788,7.0714,176.3506],[9.0494,7.0991,188.0569],[9.0461,7.1003,182.3063],[9.0407,7.1197,168.4562]]]]}
,"properties": {"GID_2": "NGA.7.22_1","GID_0": "NGA","country": "Nigeria","GID_1": "NGA.7_1","province": "Benue","NL_NAME_1": "NA","county": "Ushongo","VARNAME_2": "NA","NL_NAME_2": "NA","TYPE_2": "LocalAuthority","ENGTYPE_2": "LocalAuthority","CC_2": "NA","HASC_2": "NA","name": "Ushongo.county","area_km2": 1267.8531,"hist_schema_id": "Elevation0-9000","hist_area_km2": {"100": 48.9173,"125": 242.3602,"150": 345.1461,"175": 393.4548,"200": 191.2727,"225": 42.6188,"250": 2.9888,"275": 0.6735,"300": 0.3157,"325": 0.0631,"350": 0.021,"375": 0.021}}}