{"type": "Feature","bbox": [5.4268,7.2951,5.5975,7.5371],"geometry": {"type": "MultiPolygon","coordinates": [[[[5.5041,7.5371,375.9486],[5.5026,7.5254,360.4068],[5.4964,7.508,355.153],[5.4748,7.4848,366.1855],[5.4653,7.4682,370.4716],[5.4441,7.4577,372.3372],[5.4298,7.4434,371.6701],[5.4268,7.4117,371.2055],[5.4275,7.3999,358.1428],[5.4346,7.3712,365.9799],[5.4431,7.351,350.8982],[5.4452,7.3406,341.5413],[5.458,7.3054,339.4538],[5.4583,7.2951,336.0398],[5.4689,7.3004,346.1009],[5.5091,7.3304,321.9131],[5.5348,7.3636,311.2199],[5.5583,7.4017,311.6989],[5.5858,7.465,325.7467],[5.591,7.4845,322.492],[5.5975,7.5258,338.7668],[5.5831,7.5247,377.4369],[5.5725,7.5214,354.8073],[5.537,7.5236,357.3513],[5.5271,7.5261,381.1723],[5.5041,7.5371,375.9486]]]]}
,"properties": {"GID_2": "NGA.13.6_1","GID_0": "NGA","country": "Nigeria","GID_1": "NGA.13_1","province": "Ekiti","NL_NAME_1": "NA","county": "Emure/Ise/Orun","VARNAME_2": "Emure","NL_NAME_2": "NA","TYPE_2": "LocalAuthority","ENGTYPE_2": "LocalAuthority","CC_2": "NA","HASC_2": "NA","name": "Emure_Ise_Orun.county","area_km2": 286.9403,"hist_schema_id": "Elevation0-9000","hist_area_km2": {"300": 10.7649,"325": 82.1415,"350": 128.4566,"375": 62.2974,"400": 3.1747,"425": 0.1051}}}