{"type":"Feature","properties":{"GID_2":"NGA.27.2_1","GID_0":"NGA","country":"Nigeria","GID_1":"NGA.27_1","province":"Niger","NL_NAME_1":"NA","county":"Agwara","VARNAME_2":"NA","NL_NAME_2":"NA","TYPE_2":"LocalAuthority","ENGTYPE_2":"LocalAuthority","CC_2":"NA","HASC_2":"NA","name":"Agwara.county"},
"geometry":{"type": "MultiPolygon","coordinates": [[[[4.7276,10.7043,164.5278],[4.7375,10.7565,162.462],[4.7507,10.8042,182.769],[4.7528,10.8182,181.2547],[4.7561,10.883,159.5692],[4.7478,10.8947,150.0202],[4.727,10.9054,134.9482],[4.7013,10.9118,138.0057],[4.691,10.913,150.3275],[4.6757,10.9102,162.4382],[4.667,10.9177,152.3734],[4.625,10.9456,162.4759],[4.606,10.9562,157.9909],[4.584,10.9719,158.8768],[4.5666,10.9814,163.2661],[4.5553,10.9914,161.1931],[4.54,11.0012,176.8243],[4.512,11.0112,190.5106],[4.4553,11.0281,184.0086],[4.4079,11.0269,188.3585],[4.3694,11.0207,199.0131],[4.3415,11.0134,211.4793],[4.3447,10.998,197.5509],[4.3526,10.9888,206.3451],[4.3637,10.9661,235.4612],[4.3833,10.9102,237.5326],[4.3772,10.8665,219.9702],[4.3842,10.8329,220.8977],[4.3845,10.8117,206.327],[4.3898,10.778,167.0242],[4.4034,10.7382,161.024],[4.4047,10.7154,180.2447],[4.3974,10.6696,179.9218],[4.3837,10.6443,172.6853],[4.3737,10.5938,208.661],[4.3653,10.569,195.9328],[4.3495,10.5483,204.6687],[4.3483,10.5344,193.8624],[4.3621,10.5353,205.3369],[4.3709,10.54,214.4271],[4.3823,10.5427,206.2427],[4.3957,10.5389,193.4213],[4.4231,10.5379,158.1805],[4.4366,10.5361,151.4133],[4.4442,10.5334,150.491],[4.4608,10.5348,148.6572],[4.4678,10.537,138.4933],[4.4868,10.5341,130.0],[4.4996,10.5347,130.0],[4.5104,10.5312,130.0],[4.5406,10.5264,130.0],[4.5518,10.5373,130.0],[4.5758,10.5535,130.0],[4.639,10.5765,149.2285],[4.6513,10.5856,155.5855],[4.7136,10.6472,147.7079],[4.7205,10.6666,152.5912],[4.7276,10.7043,164.5278]]]]}}