{"type": "Feature","bbox": [5.1792,13.248,5.5971,13.6157],"geometry": {"type": "MultiPolygon","coordinates": [[[[5.1933,13.5438,278.8924],[5.1962,13.5135,271.5602],[5.2027,13.4856,275.727],[5.2036,13.4554,264.3495],[5.2074,13.44,263.9515],[5.2046,13.4238,259.6406],[5.1858,13.3818,262.6054],[5.1831,13.3583,263.1396],[5.1792,13.3407,263.3381],[5.1821,13.316,284.4648],[5.18,13.3058,284.8546],[5.1885,13.2822,276.6725],[5.1895,13.2743,278.8422],[5.2016,13.2839,274.5732],[5.2139,13.2905,269.8357],[5.2655,13.3315,279.2286],[5.2869,13.3389,285.6443],[5.3046,13.3306,288.0056],[5.3169,13.3213,288.4962],[5.3265,13.305,288.6201],[5.3324,13.2873,284.742],[5.3403,13.2722,288.6794],[5.3446,13.2697,289.6693],[5.3551,13.2691,286.0845],[5.3632,13.2618,283.8447],[5.3763,13.2581,251.8456],[5.3914,13.248,256.014],[5.3935,13.2507,260.472],[5.3962,13.2618,290.0253],[5.4007,13.272,271.7497],[5.4188,13.2851,270.7675],[5.4261,13.296,260.9893],[5.4328,13.3028,254.716],[5.4546,13.3125,256.982],[5.4787,13.3267,258.816],[5.4978,13.3345,270.4333],[5.5099,13.342,263.0286],[5.5199,13.3555,266.4901],[5.5281,13.3759,279.4858],[5.5295,13.3863,288.974],[5.5291,13.4011,316.7933],[5.5308,13.4074,341.4565],[5.5409,13.4211,324.6348],[5.5673,13.441,332.8127],[5.5918,13.4787,295.4347],[5.5968,13.4889,321.6843],[5.5971,13.5104,306.5531],[5.5927,13.5569,305.0625],[5.5931,13.562,305.0478],[5.597,13.5696,305.8542],[5.5911,13.5687,299.9021],[5.5841,13.57,296.637],[5.5824,13.5672,293.2774],[5.569,13.5599,305.3676],[5.5604,13.5519,342.7672],[5.5502,13.5463,342.548],[5.5262,13.5252,339.0868],[5.5031,13.5079,321.8887],[5.4727,13.4884,312.7011],[5.4618,13.4838,279.2369],[5.4534,13.4828,284.8395],[5.4428,13.4855,308.6218],[5.4357,13.4898,310.9043],[5.4243,13.5005,307.3879],[5.4188,13.5092,303.939],[5.4183,13.5136,300.0134],[5.4221,13.5228,301.1399],[5.4248,13.5462,307.4062],[5.4307,13.5756,314.7272],[5.4278,13.5921,313.8985],[5.4225,13.6011,303.6094],[5.4076,13.6136,303.8582],[5.3928,13.6157,299.0142],[5.3847,13.6131,299.4548],[5.3582,13.598,289.8677],[5.3534,13.5929,287.789],[5.3477,13.5797,280.1895],[5.335,13.5576,277.6132],[5.3328,13.5479,278.399],[5.3233,13.5272,278.7429],[5.2899,13.5067,264.1701],[5.2703,13.5031,258.127],[5.2518,13.5024,258.0835],[5.2436,13.5041,254.8232],[5.2353,13.5082,253.098],[5.2148,13.5227,262.1125],[5.2036,13.5323,270.1793],[5.1933,13.5438,278.8924]]]]}
,"properties": {"GID_2": "NGA.34.7_1","GID_0": "NGA","country": "Nigeria","GID_1": "NGA.34_1","province": "Sokoto","NL_NAME_1": "NA","county": "Gwadabawa","VARNAME_2": "NA","NL_NAME_2": "NA","TYPE_2": "LocalAuthority","ENGTYPE_2": "LocalAuthority","CC_2": "NA","HASC_2": "NA","name": "Gwadabawa.county","area_km2": 1010.1815,"hist_schema_id": "Elevation0-9000","hist_area_km2": {"250": 150.0632,"275": 408.4232,"300": 327.2559,"325": 71.7576,"350": 52.6816}}}