{"type": "Feature","bbox": [11.2745,11.9424,12.3282,12.4825],"geometry": {"type": "MultiPolygon","coordinates": [[[[12.3006,12.4299,333.5723],[12.293,12.4255,332.7944],[12.2838,12.4249,334.7274],[12.2729,12.4202,329.903],[12.2614,12.4066,330.8635],[12.2434,12.3913,333.1014],[12.22,12.382,335.2133],[12.1864,12.3871,332.6188],[12.1616,12.386,332.1036],[12.1399,12.3825,332.936],[12.1131,12.3761,332.8902],[12.1034,12.3695,333.6276],[12.0444,12.3466,334.999],[12.0143,12.3574,337.6153],[11.9715,12.3554,337.6863],[11.9538,12.3562,339.4539],[11.9319,12.3648,340.701],[11.8797,12.3634,338.8459],[11.8388,12.3569,339.7894],[11.7976,12.3582,340.7799],[11.7718,12.3609,339.4625],[11.7296,12.3693,339.2356],[11.7038,12.3842,335.7104],[11.6867,12.4038,339.6485],[11.6811,12.4225,340.2207],[11.6861,12.4531,336.7406],[11.6947,12.469,336.7529],[11.6746,12.4724,336.9036],[11.6697,12.4821,334.8405],[11.6562,12.4825,335.0913],[11.6471,12.4776,335.1138],[11.6191,12.4704,333.572],[11.5897,12.4517,337.3722],[11.5799,12.462,336.8903],[11.5693,12.4693,336.8854],[11.5215,12.463,338.6745],[11.5103,12.4572,338.391],[11.4844,12.4555,338.6379],[11.4754,12.4515,341.6247],[11.4635,12.4415,339.4025],[11.4226,12.4421,338.9633],[11.3917,12.4308,341.1236],[11.3658,12.4247,341.4747],[11.3427,12.4138,343.0516],[11.313,12.4027,341.8259],[11.2745,12.397,343.8783],[11.2836,12.3865,343.5693],[11.3085,12.344,348.4765],[11.3279,12.2933,352.9223],[11.3313,12.2771,348.9919],[11.3454,12.2364,353.2031],[11.3651,12.2124,356.0798],[11.3865,12.1959,354.6332],[11.407,12.1851,358.1717],[11.4421,12.1806,353.8907],[11.4598,12.1668,353.5678],[11.4654,12.1513,350.5268],[11.4868,12.115,358.5303],[11.5001,12.0287,371.0952],[11.5054,12.0217,367.588],[11.5202,12.0132,368.7772],[11.5793,12.0008,373.1996],[11.6444,11.9656,371.263],[11.682,11.9424,382.3022],[11.6878,11.943,382.6295],[11.7107,11.9523,381.4008],[11.7295,11.9738,379.7922],[11.7909,11.9891,374.6153],[11.8096,11.9906,363.4883],[11.8247,11.986,361.505],[11.8663,11.9678,368.7925],[11.9101,11.9613,371.8367],[11.9369,11.974,377.2473],[11.9683,11.9837,373.0679],[11.9966,11.9969,368.4709],[12.0162,12.0101,368.3304],[12.0496,12.0069,365.3831],[12.096,11.9975,368.846],[12.1136,11.9973,367.6089],[12.1383,12.0015,364.3782],[12.1947,12.0173,361.2535],[12.2511,12.0218,361.9284],[12.2874,12.0275,360.2789],[12.3153,12.1923,339.6517],[12.3199,12.2361,337.483],[12.3256,12.2694,338.1474],[12.3282,12.3416,336.6212],[12.3265,12.3613,329.6684],[12.3122,12.3869,328.6089],[12.2986,12.4222,332.4673],[12.3006,12.4299,333.5723]]]]}
,"properties": {"GID_2": "NGA.36.15_1","GID_0": "NGA","country": "Nigeria","GID_1": "NGA.36_1","province": "Yobe","NL_NAME_1": "NA","county": "Tarmuwa","VARNAME_2": "NA","NL_NAME_2": "NA","TYPE_2": "LocalAuthority","ENGTYPE_2": "LocalAuthority","CC_2": "NA","HASC_2": "NA","name": "Tarmuwa.county","area_km2": 4505.579,"hist_schema_id": "Elevation0-9000","hist_area_km2": {"325": 387.695,"350": 3340.629,"375": 777.255}}}