{"type": "Feature","bbox": [7.2617,5.1804,7.4884,5.3363],"geometry": {"type": "MultiPolygon","coordinates": [[[[7.291,5.3233,48.9654],[7.2764,5.2733,40.9921],[7.2721,5.2496,42.3268],[7.2617,5.2158,36.8283],[7.2944,5.219,78.5833],[7.3023,5.2234,77.4477],[7.3171,5.2356,82.0661],[7.3335,5.2655,93.4846],[7.3448,5.2801,97.0101],[7.3546,5.2907,101.0696],[7.3681,5.2951,104.7467],[7.3736,5.2918,101.6592],[7.3753,5.2862,103.1431],[7.3739,5.2676,96.2746],[7.3744,5.2293,86.2543],[7.3704,5.1967,78.9042],[7.3724,5.1893,77.7076],[7.376,5.186,77.406],[7.3916,5.1804,75.2722],[7.4052,5.1804,78.9939],[7.4214,5.1839,79.6322],[7.4443,5.2017,87.9814],[7.4701,5.225,78.569],[7.4736,5.23,88.8242],[7.4812,5.26,100.7236],[7.4876,5.2691,107.668],[7.4871,5.2779,107.2758],[7.4826,5.2847,111.7031],[7.4815,5.2904,112.4873],[7.4788,5.2933,110.4121],[7.4832,5.2976,112.6998],[7.4868,5.3065,111.6787],[7.4866,5.3192,118.4359],[7.4884,5.3306,109.5423],[7.4806,5.3347,111.4736],[7.4523,5.3363,116.8911],[7.4148,5.3326,117.3163],[7.3794,5.3235,108.9354],[7.3706,5.3193,108.0265],[7.3511,5.3136,106.1206],[7.3279,5.3207,106.2761],[7.3088,5.3238,66.6086],[7.2977,5.3217,50.9901],[7.291,5.3233,48.9654]]]]}
,"properties": {"GID_2": "NGA.1.7_1","GID_0": "NGA","country": "Nigeria","GID_1": "NGA.1_1","province": "Abia","NL_NAME_1": "NA","county": "IsialaNgwaSouth","VARNAME_2": "NA","NL_NAME_2": "NA","TYPE_2": "LocalAuthority","ENGTYPE_2": "LocalAuthority","CC_2": "NA","HASC_2": "NA","name": "Isiala_Ngwa_South.county","area_km2": 261.3958,"hist_schema_id": "Elevation0-9000","hist_area_km2": {"25": 0.6756,"50": 17.9245,"75": 60.0902,"100": 162.3123,"125": 20.3932}}}