{"type": "Feature","bbox": [5.6979,5.5016,5.8534,5.6247],"geometry": {"type": "MultiPolygon","coordinates": [[[[5.6979,5.5766,7.0194],[5.7086,5.5698,5.236],[5.7379,5.5557,3.2075],[5.7507,5.5456,5.088],[5.7581,5.5355,5.8171],[5.7645,5.5301,5.1328],[5.7696,5.5213,7.1691],[5.775,5.5016,3.7772],[5.779,5.5018,0.0],[5.7878,5.5194,3.565],[5.7903,5.5292,10.1575],[5.7881,5.5339,1.8903],[5.7835,5.5381,7.5104],[5.7838,5.5436,7.349],[5.7899,5.5461,12.9505],[5.8046,5.54,6.7899],[5.8174,5.5382,6.4967],[5.8288,5.5431,5.3793],[5.8326,5.5479,7.7184],[5.8384,5.5508,7.4874],[5.8458,5.5583,11.8209],[5.8426,5.5818,6.1623],[5.8473,5.5896,12.5594],[5.8534,5.5939,7.4773],[5.8478,5.5923,2.8429],[5.8382,5.5821,8.4315],[5.8301,5.5792,7.4182],[5.8244,5.5807,8.2001],[5.8106,5.587,6.8835],[5.8082,5.5928,6.6129],[5.7971,5.6042,13.4511],[5.7876,5.618,18.2197],[5.772,5.6247,12.6305],[5.7238,5.5983,12.8327],[5.7095,5.5841,4.2736],[5.6979,5.5766,7.0194]]]]}
,"properties": {"GID_2": "NGA.10.22_1","GID_0": "NGA","country": "Nigeria","GID_1": "NGA.10_1","province": "Delta","NL_NAME_1": "NA","county": "Uvwie","VARNAME_2": "NA","NL_NAME_2": "NA","TYPE_2": "LocalAuthority","ENGTYPE_2": "LocalAuthority","CC_2": "NA","HASC_2": "NA","name": "Uvwie.county","area_km2": 99.77043,"hist_schema_id": "Elevation0-9000","hist_area_km2": {"0": 84.89418,"25": 14.87625}}}