{"type": "Feature","bbox": [12.7002,11.187,13.8509,12.2047],"geometry": {"type": "MultiPolygon","coordinates": [[[[13.8509,11.7697,299.9764],[13.84,11.7816,300.9882],[13.8148,11.7993,301.6726],[13.7556,11.8231,301.3514],[13.7261,11.8208,301.0033],[13.7013,11.8221,300.831],[13.687,11.8172,301.443],[13.6732,11.8091,302.3623],[13.6431,11.7951,302.7122],[13.6205,11.7874,303.9069],[13.5995,11.7847,303.6883],[13.5721,11.7847,304.6268],[13.5468,11.7816,304.7084],[13.511,11.7813,306.3488],[13.4893,11.7876,308.4308],[13.4635,11.7903,309.5728],[13.4487,11.7942,309.1184],[13.4387,11.7937,309.5441],[13.3999,11.7791,311.6077],[13.3754,11.776,312.5833],[13.3537,11.7766,313.7935],[13.3405,11.7835,314.0431],[13.333,11.7903,312.9759],[13.3357,11.8048,311.7927],[13.3537,11.8188,309.9942],[13.3643,11.8233,309.4673],[13.3367,11.826,309.9698],[13.3098,11.8199,311.557],[13.3019,11.8065,312.4366],[13.3024,11.7968,313.2609],[13.3092,11.7856,314.1323],[13.3283,11.7627,316.0016],[13.3395,11.7568,316.7205],[13.3568,11.7424,316.4844],[13.3636,11.7331,315.9157],[13.3713,11.7286,315.4257],[13.3728,11.7178,315.6936],[13.3599,11.6935,321.7728],[13.3504,11.6863,334.674],[13.3233,11.684,328.3795],[13.3056,11.6865,327.0],[13.2953,11.6899,327.0],[13.2912,11.6958,327.0],[13.286,11.7131,327.1536],[13.2696,11.7334,325.2993],[13.2612,11.7391,328.0563],[13.2386,11.7332,329.5549],[13.222,11.7222,327.5794],[13.1944,11.7102,331.1076],[13.174,11.6974,335.2053],[13.1648,11.6945,335.3853],[13.1398,11.6903,335.3425],[13.1238,11.6903,335.7802],[13.1173,11.692,336.5293],[13.1073,11.6984,336.2994],[13.0948,11.7128,336.4938],[13.0965,11.7298,336.0636],[13.0938,11.7372,337.4452],[13.1007,11.7447,338.1856],[13.1063,11.7607,335.9345],[13.1101,11.7566,334.5784],[13.1189,11.7626,334.8943],[13.1264,11.7724,331.6646],[13.1308,11.7889,332.247],[13.1365,11.7987,333.2116],[13.138,11.8111,333.8727],[13.155,11.8417,323.6063],[13.164,11.8699,317.0393],[13.1623,11.9339,309.6201],[13.1513,11.9732,306.5881],[13.1463,12.0027,305.4193],[13.1487,12.022,304.6786],[13.1455,12.04,302.3659],[13.153,12.0509,303.1528],[13.1509,12.0737,300.8877],[13.1533,12.0978,300.1549],[13.159,12.1092,299.6793],[13.1727,12.15,299.0663],[13.1972,12.1586,297.2693],[13.2077,12.1564,297.4009],[13.2199,12.1581,296.2717],[13.2004,12.1968,296.3624],[13.1878,12.2047,297.9446],[13.1643,12.1892,299.3294],[13.1247,12.1668,301.8111],[13.1009,12.1588,302.1292],[13.0848,12.1443,303.4197],[13.0897,12.1222,302.4633],[13.0792,12.0975,302.8183],[13.0453,12.0471,309.0112],[13.0372,12.0194,308.4414],[13.043,11.9547,315.1266],[13.0529,11.9322,316.6983],[13.0547,11.9239,318.7445],[13.011,11.8971,333.2348],[12.9711,11.8818,334.3539],[12.9453,11.867,334.3575],[12.9043,11.8607,334.5904],[12.8807,11.8596,335.3358],[12.8655,11.8571,335.8461],[12.8382,11.8485,336.7233],[12.8202,11.8557,335.929],[12.7942,11.8611,331.8665],[12.7524,11.8465,340.7064],[12.7422,11.8444,344.1808],[12.7498,11.8346,340.7729],[12.7561,11.7742,348.2986],[12.7605,11.7603,347.6347],[12.7557,11.7349,348.0676],[12.7322,11.7239,344.5158],[12.7105,11.7162,349.3253],[12.7002,11.6959,358.4831],[12.7019,11.6588,362.1819],[12.7315,11.5162,371.4043],[12.7395,11.4903,372.7147],[12.755,11.4712,369.5616],[12.7549,11.4448,367.0221],[12.7499,11.4138,368.2939],[12.7518,11.3921,370.4543],[12.7589,11.3674,376.9831],[12.7759,11.3321,379.483],[12.788,11.3125,377.7622],[12.8083,11.2649,374.7076],[12.8236,11.2617,376.4355],[12.8365,11.2534,376.9963],[12.8522,11.2398,379.4425],[12.8757,11.2263,379.3643],[12.9021,11.2022,379.6599],[12.9125,11.187,382.5596],[12.923,11.191,378.554],[12.9319,11.2012,374.0515],[12.9373,11.2122,372.496],[12.9637,11.2535,373.861],[12.9664,11.2645,373.7365],[13.0142,11.2836,369.4124],[13.0309,11.2824,368.8304],[13.0492,11.2941,365.9523],[13.0634,11.3054,365.0457],[13.0738,11.3094,363.8373],[13.1066,11.3296,360.4913],[13.116,11.3399,359.09],[13.123,11.3591,354.7411],[13.1294,11.3844,355.0925],[13.1369,11.4244,353.7214],[13.1519,11.4326,352.6369],[13.1667,11.4363,351.5962],[13.2013,11.4342,347.6516],[13.2159,11.4291,345.1526],[13.2447,11.4065,345.7627],[13.2564,11.3996,345.3327],[13.263,11.391,346.177],[13.2923,11.368,348.8975],[13.299,11.3589,349.5265],[13.3395,11.3191,353.4087],[13.3661,11.3069,353.9622],[13.3826,11.2949,354.4576],[13.3926,11.2963,353.6871],[13.4113,11.2942,353.3601],[13.4361,11.2829,352.3445],[13.443,11.2958,351.6115],[13.4607,11.3446,345.0042],[13.47,11.3613,344.9624],[13.4756,11.3766,343.9036],[13.4788,11.3899,342.8862],[13.4778,11.3985,341.3516],[13.4923,11.4307,339.7053],[13.5109,11.462,337.0726],[13.5131,11.4747,336.3723],[13.5498,11.5105,331.4088],[13.5828,11.522,325.9976],[13.6001,11.5335,323.7702],[13.6187,11.5408,321.3374],[13.6528,11.5377,319.1542],[13.6741,11.5307,322.715],[13.6824,11.5137,330.9901],[13.7186,11.5164,318.535],[13.7317,11.516,318.6408],[13.7487,11.5102,319.4922],[13.7594,11.516,318.4807],[13.7693,11.525,316.8853],[13.7759,11.5372,316.0131],[13.7679,11.5477,317.2763],[13.7618,11.5666,313.2802],[13.7591,11.6006,311.7577],[13.7598,11.6252,309.304],[13.7652,11.6422,308.0857],[13.7822,11.6558,307.5513],[13.7959,11.6721,306.9261],[13.8113,11.6867,306.5204],[13.8078,11.7008,304.9559],[13.8143,11.7223,304.1187],[13.8202,11.7292,303.4012],[13.8298,11.7468,302.5075],[13.8475,11.7628,300.7522],[13.8509,11.7697,299.9764]]]]}
,"properties": {"GID_2": "NGA.8.16_1","GID_0": "NGA","country": "Nigeria","GID_1": "NGA.8_1","province": "Borno","NL_NAME_1": "NA","county": "Konduga","VARNAME_2": "NA","NL_NAME_2": "NA","TYPE_2": "LocalAuthority","ENGTYPE_2": "LocalAuthority","CC_2": "NA","HASC_2": "NA","name": "Konduga.county","area_km2": 5889.577,"hist_schema_id": "Elevation0-9000","hist_area_km2": {"300": 1025.995,"325": 1766.177,"350": 2422.308,"375": 675.098}}}