{"type": "Feature","bbox": [8.6947,9.4942,11.0802,12.5025],"geometry": {"type": "MultiPolygon","coordinates": [[[[9.7527,9.6009,621.1125],[9.7633,9.6261,590.4197],[9.782,9.6508,566.8652],[9.8037,9.6556,559.4095],[9.8336,9.6674,586.3938],[9.8589,9.6717,603.5033],[9.8671,9.6983,592.8698],[9.8626,9.7263,579.7752],[9.8459,9.7537,552.8553],[9.8272,9.7768,534.1618],[9.8115,9.7913,552.2716],[9.8163,9.8143,551.619],[9.8452,9.8331,523.7295],[9.8652,9.8429,521.7662],[9.9881,9.7797,626.6249],[10.0296,9.7715,763.7625],[10.0708,9.7497,589.6494],[10.1105,9.7326,443.4335],[10.1791,9.6924,307.5868],[10.2454,9.6627,405.4097],[10.3127,9.638,388.8542],[10.358,9.6164,365.8666],[10.4578,9.5516,268.4836],[10.5581,9.4942,190.0398],[10.5695,9.5051,208.3319],[10.6346,9.5392,227.5269],[10.6569,9.5391,224.8658],[10.6948,9.5292,229.751],[10.7291,9.5267,268.2117],[10.8341,9.5765,316.5246],[10.8715,9.5908,403.9499],[10.9002,9.6044,394.8648],[10.9277,9.6033,431.3687],[11.0043,9.587,316.8868],[11.0423,9.584,325.0627],[11.0603,9.5842,345.2178],[11.0781,9.589,354.4455],[11.0802,9.6042,358.0956],[11.0529,9.6383,352.7971],[11.0112,9.7229,303.0791],[11.0013,9.8221,318.8485],[10.9949,9.8531,327.8322],[10.9814,9.8829,381.6201],[10.9493,9.9094,413.9037],[10.8742,9.9635,567.577],[10.8337,9.9963,482.7613],[10.7933,10.0189,420.794],[10.7603,10.0467,374.8117],[10.724,10.0891,318.478],[10.7187,10.115,299.6112],[10.7398,10.1456,329.7871],[10.772,10.1602,355.4208],[10.8349,10.1703,405.8257],[10.8484,10.1985,462.9727],[10.8419,10.2443,427.2709],[10.8432,10.2871,415.0377],[10.8497,10.3824,389.2247],[10.8364,10.4178,397.9932],[10.8161,10.4613,377.081],[10.7795,10.4786,369.1582],[10.7287,10.4927,431.3003],[10.6998,10.5032,434.2995],[10.6855,10.5216,408.6954],[10.6789,10.5562,392.0496],[10.6788,10.5976,439.382],[10.6714,10.636,481.5879],[10.6531,10.6632,505.6162],[10.6065,10.684,455.3233],[10.5338,10.711,356.1456],[10.5371,10.7331,322.355],[10.5954,10.814,316.383],[10.6062,10.8528,322.487],[10.6375,10.9326,370.2099],[10.6419,10.9669,371.9066],[10.6533,11.0115,351.9802],[10.6754,11.0438,364.2661],[10.6987,11.0655,389.9365],[10.7292,11.0758,369.5369],[10.762,11.0796,384.0085],[10.786,11.0918,397.2434],[10.8184,11.1197,394.9207],[10.8358,11.1486,384.4482],[10.86,11.1787,336.9515],[10.9576,11.231,367.813],[10.9946,11.2786,405.4984],[11.0013,11.291,404.2992],[11.0052,11.2893,411.8997],[11.0142,11.2948,421.8087],[10.9652,11.3007,394.2314],[10.9488,11.3113,427.4778],[10.9389,11.3251,462.1245],[10.9403,11.3563,474.3146],[10.9528,11.4025,494.8522],[10.9547,11.4331,500.3884],[10.9718,11.4766,494.2723],[10.9767,11.5078,487.2835],[10.9754,11.5548,471.8423],[10.9589,11.6062,447.5438],[10.932,11.669,425.3504],[10.9089,11.7304,409.7936],[10.8956,11.7601,401.1808],[10.877,11.7891,395.0837],[10.8605,11.8308,387.74],[10.8406,11.8878,381.8217],[10.8356,11.9185,377.9532],[10.8373,11.9493,366.6246],[10.822,11.9924,366.1857],[10.8167,12.0353,364.5182],[10.8173,12.088,366.7912],[10.8133,12.1425,363.6867],[10.791,12.1785,360.293],[10.7623,12.2165,358.9333],[10.7653,12.2453,359.0529],[10.7611,12.3067,349.6588],[10.7529,12.3578,348.2794],[10.7344,12.4043,349.4854],[10.7037,12.4326,346.7822],[10.6654,12.4619,347.1298],[10.6288,12.4836,346.4507],[10.6095,12.5025,347.8611],[10.564,12.4746,350.6718],[10.5404,12.4554,350.202],[10.4655,12.4131,349.7523],[10.4492,12.4018,350.6252],[10.4308,12.3925,350.5719],[10.4289,12.4145,351.0597],[10.4154,12.4406,349.4344],[10.3995,12.4536,353.1961],[10.3735,12.4531,350.8362],[10.3432,12.4449,350.2747],[10.2885,12.4244,351.0096],[10.2699,12.414,351.8264],[10.2595,12.3915,354.5075],[10.2504,12.3584,353.7834],[10.2407,12.3129,354.9704],[10.2249,12.2673,356.8458],[10.2003,12.2106,357.8583],[10.1767,12.1297,361.8163],[10.1615,12.0869,364.4225],[10.1707,12.057,368.4332],[10.1712,12.0212,370.335],[10.152,12.0063,370.3564],[10.132,12.0008,372.4831],[10.0514,11.9663,371.4878],[10.0057,11.9515,376.5233],[9.9418,11.9336,375.2073],[9.8747,11.907,378.5739],[9.8261,11.8816,379.4834],[9.7863,11.8586,380.7767],[9.7331,11.8507,384.8388],[9.6868,11.8512,381.5905],[9.6745,11.839,382.098],[9.657,11.8157,384.3495],[9.6346,11.7791,385.9286],[9.6249,11.7328,387.9767],[9.6269,11.7112,389.3741],[9.6486,11.7012,390.3989],[9.6908,11.7019,390.6308],[9.725,11.7183,398.1823],[9.7694,11.7225,402.658],[9.7987,11.7146,400.0502],[9.8051,11.7038,401.3315],[9.8134,11.679,411.6647],[9.8223,11.6442,420.6906],[9.828,11.6138,413.4533],[9.8307,11.5755,417.4791],[9.799,11.5181,421.0224],[9.7901,11.4957,416.7366],[9.7989,11.4681,413.4861],[9.818,11.4504,413.1379],[9.8371,11.4534,411.8915],[9.8801,11.4653,410.0939],[9.8877,11.4244,409.8178],[9.9047,11.3845,409.2392],[9.9316,11.3479,417.2684],[9.9567,11.31,432.72],[9.9902,11.2662,492.3279],[10.0386,11.2368,463.1301],[10.0895,11.2325,462.7087],[10.1417,11.2245,437.9688],[10.2341,11.2043,429.0885],[10.3105,11.1972,425.3119],[10.3775,11.1953,416.1547],[10.3943,11.1721,434.6318],[10.3764,11.1285,438.8073],[10.3466,11.1064,428.2679],[10.3233,11.0941,430.5431],[10.293,11.085,441.0274],[10.2581,11.0782,434.4195],[10.2173,11.0565,452.6261],[10.1925,11.0261,462.7719],[10.1918,10.9972,483.5427],[10.2098,10.9425,478.6384],[10.1798,10.9334,473.8735],[10.14,10.9434,457.6461],[10.11,10.965,478.36],[10.0847,10.9678,480.3836],[10.0585,10.96,481.8419],[9.9943,10.9456,504.19],[9.9568,10.9517,532.336],[9.9022,10.9646,520.9259],[9.8804,10.9863,514.0432],[9.8674,11.019,511.89],[9.8681,11.0522,491.9681],[9.8788,11.0972,481.2881],[9.8807,11.1443,467.691],[9.8721,11.1785,458.0513],[9.849,11.2275,435.528],[9.829,11.2566,426.5311],[9.8105,11.2614,426.6003],[9.776,11.2516,425.8142],[9.7528,11.247,425.899],[9.6284,11.2393,440.6613],[9.5779,11.2427,449.7807],[9.5686,11.2681,466.1198],[9.549,11.3011,458.6697],[9.5119,11.3128,443.8559],[9.4578,11.2895,443.5196],[9.4414,11.2923,441.8916],[9.3883,11.308,475.7107],[9.3378,11.328,455.1382],[9.2409,11.3455,467.4986],[9.2224,11.3421,462.9825],[9.1872,11.3296,488.2999],[9.1696,11.3198,469.9384],[9.1356,11.3078,475.907],[9.1172,11.3094,468.4008],[9.0988,11.3263,473.744],[9.0715,11.3216,478.9656],[9.0314,11.2966,493.8985],[9.0206,11.279,487.3955],[8.999,11.2615,505.5835],[8.981,11.244,513.4379],[8.9637,11.2326,518.1628],[8.9609,11.2247,521.9625],[8.944,11.2126,527.6767],[8.9222,11.1851,558.8384],[8.9012,11.147,611.476],[8.8735,11.1127,628.6824],[8.8569,11.0957,637.1563],[8.824,11.0876,634.1875],[8.7803,11.0901,627.5547],[8.7638,11.0832,621.1033],[8.7501,11.0568,595.9614],[8.738,11.0104,591.4564],[8.7308,10.9545,616.2572],[8.7333,10.8919,631.5032],[8.7372,10.8445,631.2077],[8.7445,10.8128,648.8732],[8.7625,10.7868,658.0704],[8.8069,10.7435,746.4963],[8.8193,10.717,706.5509],[8.8206,10.685,714.8632],[8.8127,10.6528,721.0389],[8.7991,10.6234,738.2353],[8.7804,10.5946,751.6181],[8.7693,10.5803,773.4011],[8.7572,10.558,794.024],[8.7456,10.5503,806.9938],[8.7413,10.5491,816.9027],[8.7437,10.5346,850.3409],[8.7346,10.5017,823.4881],[8.7327,10.4858,831.1157],[8.7248,10.4668,801.3064],[8.6987,10.4289,775.5782],[8.6947,10.4187,770.4433],[8.6991,10.407,756.6421],[8.7165,10.3935,763.8775],[8.7291,10.389,780.7207],[8.7442,10.3791,824.3807],[8.785,10.3357,835.897],[8.7914,10.3407,828.9595],[8.8098,10.3435,820.8325],[8.8365,10.3438,814.4584],[8.8612,10.3423,859.3428],[8.8869,10.3363,1001.2838],[8.9061,10.3281,1208.2512],[8.9117,10.3219,1061.4573],[8.9237,10.3029,979.7361],[8.9482,10.2617,1102.7369],[8.9579,10.2266,1072.7614],[8.9608,10.1848,871.5065],[8.9587,10.1682,880.3762],[8.9616,10.1429,875.9689],[8.9602,9.9865,983.7682],[8.9947,9.9973,890.6083],[9.0411,10.0032,917.927],[9.1133,10.0188,919.2932],[9.1374,10.0216,938.4356],[9.1545,10.0183,1055.3936],[9.1696,10.0063,1138.1218],[9.1835,9.9875,1046.5488],[9.195,9.9612,1197.2797],[9.1992,9.9375,950.6629],[9.1981,9.8993,1100.6198],[9.199,9.8755,1253.649],[9.2034,9.8423,1165.5437],[9.1997,9.8235,1029.7798],[9.1779,9.7889,1169.4308],[9.1612,9.7519,934.7738],[9.1596,9.7406,960.8511],[9.1598,9.7249,997.0298],[9.1696,9.7112,1013.2524],[9.2156,9.6958,1003.9843],[9.2329,9.6885,1019.2382],[9.2456,9.6771,989.0505],[9.2545,9.6678,946.0787],[9.26,9.6585,946.8644],[9.2867,9.5932,1060.6792],[9.3119,9.5717,1070.8021],[9.3364,9.5632,1307.7179],[9.4139,9.559,1037.1202],[9.4371,9.5487,746.7788],[9.4525,9.5473,729.3737],[9.5023,9.5353,718.7886],[9.5775,9.5389,691.0037],[9.6239,9.5439,657.8456],[9.6645,9.5447,663.845],[9.6893,9.5538,656.8218],[9.7354,9.5673,607.8102],[9.7527,9.6009,621.1125]]]]}
,"properties": {"GID_1": "NGA.5_1","GID_0": "NGA","country": "Nigeria","province": "Bauchi","VARNAME_1": "NA","NL_NAME_1": "NA","TYPE_1": "State","ENGTYPE_1": "State","CC_1": "NA","HASC_1": "NG.BA","ISO_1": "NG-BA","name": "Bauchi.province","area_km2": 49259.89,"hist_schema_id": "Elevation0-9000","hist_area_km2": {"200": 39.77,"225": 127.27,"250": 291.66,"275": 575.73,"300": 793.45,"325": 983.13,"350": 3242.99,"375": 5078.21,"400": 4430.16,"425": 3366.27,"450": 3571.23,"475": 3010.8,"500": 2921.98,"525": 2966.74,"550": 2738.91,"575": 2119.51,"600": 1821.98,"625": 1563.95,"650": 1364.14,"675": 1149.04,"700": 959.87,"725": 822.59,"750": 783.94,"775": 742.47,"800": 728.35,"825": 683.04,"850": 529.56,"875": 392.28,"900": 310.5,"925": 245.82,"950": 191.63,"975": 157.4,"1000": 124.07,"1025": 83.58,"1050": 63.85,"1075": 45.25,"1100": 38.16,"1125": 33.64,"1150": 26.84,"1175": 24.23,"1200": 21.14,"1225": 17.51,"1250": 14.19,"1275": 11.96,"1300": 9.96,"1325": 7.83,"1350": 7.31,"1375": 5.76,"1400": 4.76,"1425": 4.12,"1450": 3.55,"1475": 2.49,"1500": 1.65,"1525": 1.23,"1550": 0.77,"1575": 0.67,"1600": 0.4}}}