{"type":"Feature","properties":{"ISO3166-1-Alpha-3":"NGA","country":"Nigeria","fill":"#F0F","id":"2858","name":"Bauchi"},
"geometry":{"type": "Polygon","coordinates": [[[11.01424,11.29471,421.8087],[10.96567,11.30213,395.5306],[10.93931,11.33608,474.8641],[10.97404,11.49059,492.1275],[10.96815,11.57526,463.6187],[10.84795,11.86698,384.5213],[10.81767,12.02676,364.4083],[10.81663,12.0965,363.8698],[10.81043,12.13972,363.2118],[10.7909,12.17848,360.293],[10.77023,12.21006,353.2986],[10.76527,12.24525,359.0529],[10.76382,12.28553,353.569],[10.74842,12.36431,348.3208],[10.73519,12.40227,348.4217],[10.67793,12.45668,346.3597],[10.60951,12.50244,347.8611],[10.47743,12.41635,351.4267],[10.42472,12.42929,349.6226],[10.39402,12.4489,352.3916],[10.31847,12.43624,350.7461],[10.28747,12.42441,351.5757],[10.26473,12.40268,352.6524],[10.25057,12.35974,353.6641],[10.24116,12.31532,354.593],[10.16913,12.11639,368.0116],[10.16251,12.08371,370.896],[10.17161,12.0427,369.4891],[10.15497,12.00854,369.9119],[9.85039,11.89426,377.952],[9.81762,11.87364,380.1786],[9.78393,11.85817,379.8915],[9.6997,11.85124,380.8719],[9.64626,11.80341,383.2458],[9.62518,11.72941,388.3561],[9.66766,11.70125,390.5776],[9.72853,11.71854,396.8107],[9.7644,11.72241,395.9284],[9.79871,11.7145,400.0502],[9.81452,11.68125,410.8665],[9.82961,11.60983,414.1801],[9.83065,11.57542,417.4791],[9.79757,11.51454,418.3958],[9.79334,11.48168,414.1132],[9.81297,11.45499,412.3178],[9.84594,11.45465,413.6003],[9.8631,11.45982,412.5832],[9.90465,11.38835,407.228],[10.00056,11.26228,473.4989],[10.07332,11.23381,456.812],[10.23279,11.20451,429.0885],[10.31816,11.20128,426.9417],[10.3902,11.17759,435.8637],[10.38565,11.14519,424.516],[10.36147,11.11741,423.5363],[10.32695,11.09658,432.1007],[10.21646,11.05408,451.6379],[10.19569,10.98659,477.0337],[10.20685,10.95042,487.1827],[10.17977,10.93339,473.8735],[10.14081,10.94791,450.3799],[10.10598,10.96535,483.6067],[9.94826,10.9537,544.5148],[9.89111,10.97688,519.7472],[9.86765,11.03222,502.2646],[9.87664,11.09661,480.1595],[9.87643,11.16133,461.3695],[9.85431,11.22159,435.6602],[9.81049,11.26138,426.6003],[9.75282,11.24696,425.899],[9.62384,11.23782,441.9333],[9.57319,11.25533,455.5155],[9.53392,11.30466,452.6068],[9.4718,11.29549,449.3616],[9.40814,11.29908,462.8575],[9.34561,11.32479,468.6976],[9.28577,11.34122,461.8823],[9.22469,11.34243,467.4567],[9.14924,11.31169,470.7657],[9.13084,11.30815,478.3564],[9.11369,11.31657,463.1842],[9.0988,11.32623,473.744],[9.03193,11.29608,493.8985],[8.92962,11.19105,550.3944],[8.89024,11.13346,602.5716],[8.86316,11.10441,636.6136],[8.8274,11.08837,636.4467],[8.76766,11.0848,628.8502],[8.73748,11.0215,613.1089],[8.73107,10.94652,622.8436],[8.73397,10.86283,613.9478],[8.76249,10.78676,658.0704],[8.80828,10.73294,787.0072],[8.81541,10.6641,726.077],[8.7873,10.59868,766.0824],[8.74131,10.54905,816.9027],[8.73035,10.48342,828.0313],[8.69666,10.42376,777.4343],[8.7102,10.39763,773.9809],[8.74027,10.38159,816.6048],[8.76384,10.36004,829.1089],[8.78502,10.33565,835.897],[8.84249,10.34539,822.3722],[8.90109,10.33014,1178.5894],[8.93685,10.28679,1050.0529],[8.95669,10.23178,1058.0055],[8.96176,10.18269,871.0369],[8.96052,10.02311,903.6859],[8.99731,9.99861,887.9746],[9.11327,10.01879,919.2932],[9.17725,9.99595,996.5008],[9.19885,9.92753,880.5694],[9.20298,9.8457,1226.1853],[9.19523,9.81555,1212.5312],[9.17787,9.78881,1169.4308],[9.16464,9.75992,930.9457],[9.15968,9.72889,979.8021],[9.18366,9.70504,1004.3534],[9.22004,9.69388,1020.5101],[9.26479,9.64212,958.3882],[9.2991,9.58215,1036.2526],[9.36142,9.56234,1388.5549],[9.5024,9.53658,721.3041],[9.66084,9.54461,673.2776],[9.69949,9.55265,653.0708],[9.73535,9.56725,607.8102],[9.76522,9.62866,587.6114],[9.79065,9.6507,569.0764],[9.85607,9.6754,611.2645],[9.86548,9.70812,583.4434],[9.85204,9.74349,563.0198],[9.81339,9.79777,549.7324],[9.82641,9.82087,540.5742],[9.84077,9.83015,524.5563],[9.8723,9.83713,525.339],[10.3624,9.61189,382.7754],[10.52931,9.50914,196.7301],[10.56042,9.49666,192.3539],[10.61406,9.53061,221.7752],[10.74077,9.53446,227.0872],[10.86428,9.59169,409.9193],[10.93032,9.60264,448.0144],[10.99915,9.58631,311.8469],[11.06861,9.58639,346.0757],[11.07501,9.61042,333.8475],[11.0529,9.63825,352.7971],[11.02427,9.69556,287.6301],[11.00804,9.7576,323.0558],[11.00132,9.82204,318.4376],[10.97135,9.88785,400.8507],[10.76506,10.03936,373.6863],[10.72361,10.09714,301.1634],[10.7293,10.13026,314.9758],[10.84319,10.18765,435.5708],[10.84588,10.21659,470.4575],[10.84195,10.24661,427.8149],[10.84402,10.38559,378.8398],[10.82335,10.44556,388.1371],[10.75896,10.4852,415.0928],[10.68765,10.51866,412.8626],[10.677,10.59726,440.8752],[10.64569,10.66635,493.7019],[10.53861,10.71162,359.518],[10.54151,10.7394,323.3318],[10.5938,10.81185,319.8326],[10.609,10.84911,310.5648],[10.6431,10.96711,374.5395],[10.6738,11.04137,361.4627],[10.70325,11.06659,390.5935],[10.77922,11.08948,399.4525],[10.81198,11.1141,396.6631],[10.85994,11.17865,336.9515],[10.95378,11.23216,359.3464],[10.97755,11.25758,391.8314],[10.99399,11.28022,404.1556],[11.01424,11.29471,421.8087]]]}}