{"type":"Feature","properties":{"GID_2":"NGA.27.20_1","GID_0":"NGA","country":"Nigeria","GID_1":"NGA.27_1","province":"Niger","NL_NAME_1":"NA","county":"Rafi","VARNAME_2":"NA","NL_NAME_2":"NA","TYPE_2":"LocalAuthority","ENGTYPE_2":"LocalAuthority","CC_2":"NA","HASC_2":"NA","name":"Rafi.county"},
"geometry":{"type": "MultiPolygon","coordinates": [[[[6.0944,10.4674,316.2812],[6.0467,10.4498,258.2537],[6.0326,10.4349,324.7714],[6.0284,10.4127,302.5417],[6.0245,10.3464,249.0922],[6.0317,10.3158,247.2763],[6.0386,10.2646,209.4932],[6.0237,10.2353,210.7221],[6.0136,10.193,217.1601],[6.0065,10.1287,207.3776],[6.0105,10.1101,204.9578],[6.0101,10.0872,213.6474],[6.0068,10.0742,190.8726],[5.9986,10.0578,187.2133],[5.9868,10.0417,204.4252],[5.9886,10.0163,206.4333],[5.9803,9.9871,179.9011],[5.967,9.9524,192.097],[5.9497,9.9314,172.8402],[5.9385,9.9098,144.8965],[5.939,9.893,105.7322],[5.9448,9.8762,193.8557],[5.94,9.8683,150.0537],[5.9378,9.8569,133.2982],[5.942,9.8438,127.2538],[5.9507,9.8391,146.5147],[5.9638,9.8242,170.1129],[5.9833,9.8152,215.9995],[6.0182,9.8172,187.9808],[6.0558,9.8139,123.4634],[6.0941,9.8145,165.7994],[6.1213,9.8233,146.4899],[6.1499,9.852,129.7602],[6.1643,9.8723,129.6169],[6.1691,9.883,139.0213],[6.182,9.8995,158.3723],[6.1896,9.907,158.7476],[6.2042,9.9163,146.81],[6.2163,9.9169,127.8214],[6.2278,9.9117,153.9268],[6.274,9.9076,154.0316],[6.2894,9.9076,196.8059],[6.3134,9.9117,201.4478],[6.3354,9.9011,217.2681],[6.3559,9.8847,180.6845],[6.3756,9.8725,202.7054],[6.403,9.8582,196.5126],[6.4477,9.8668,180.6186],[6.4672,9.8783,195.3199],[6.4796,9.896,212.6981],[6.4792,9.9078,219.1376],[6.4728,9.9335,242.5226],[6.4776,9.9477,255.6531],[6.491,9.9559,222.8875],[6.5166,9.9631,214.0794],[6.5338,9.97,217.2361],[6.5323,9.9815,235.8886],[6.5251,9.9985,241.0603],[6.5285,10.0115,252.9384],[6.5245,10.0334,259.0412],[6.5117,10.0487,287.3411],[6.5156,10.0589,245.2728],[6.508,10.0741,258.9839],[6.4824,10.1112,298.0212],[6.4608,10.1283,340.3628],[6.4378,10.1356,360.2587],[6.4087,10.1349,357.851],[6.3758,10.1389,287.0693],[6.3647,10.1482,294.3526],[6.3616,10.1558,272.7115],[6.3589,10.1897,252.1351],[6.3634,10.209,285.8875],[6.3733,10.2257,327.4106],[6.3901,10.2413,294.1874],[6.4179,10.261,359.6377],[6.4613,10.2959,405.4872],[6.4933,10.3369,391.1421],[6.5225,10.3797,453.7525],[6.523,10.3963,460.028],[6.5182,10.4145,480.935],[6.5189,10.4553,486.7119],[6.5108,10.4964,436.1337],[6.5239,10.5304,480.3712],[6.5345,10.5441,459.5045],[6.5309,10.5504,466.3517],[6.5262,10.572,438.0872],[6.5096,10.588,418.4126],[6.4857,10.5901,415.3726],[6.4626,10.5859,397.0825],[6.4287,10.5761,380.8652],[6.412,10.5641,379.5429],[6.389,10.5521,363.1163],[6.3472,10.514,398.1895],[6.3235,10.4953,380.3749],[6.2987,10.4802,380.6954],[6.257,10.4302,358.6951],[6.2356,10.3974,367.8642],[6.2117,10.368,300.2768],[6.1889,10.3539,281.2188],[6.1658,10.3634,263.4007],[6.1579,10.3922,301.0425],[6.1461,10.4197,332.4678],[6.1149,10.4349,382.9293],[6.0968,10.4518,346.7293],[6.0944,10.4674,316.2812]]]]}}