{"type":"Feature","properties":{"GID_2":"NGA.32.10_1","GID_0":"NGA","country":"Nigeria","GID_1":"NGA.32_1","province":"Plateau","NL_NAME_1":"NA","county":"LangtangSouth","VARNAME_2":"NA","NL_NAME_2":"NA","TYPE_2":"LocalAuthority","ENGTYPE_2":"LocalAuthority","CC_2":"NA","HASC_2":"NA","name":"Langtang_South.county"},
"geometry":{"type": "MultiPolygon","coordinates": [[[[9.733,8.7845,155.2914],[9.7273,8.7764,153.6622],[9.7173,8.7692,146.9428],[9.6964,8.7592,154.9133],[9.688,8.7591,162.3484],[9.6714,8.753,152.9756],[9.6616,8.7437,160.8329],[9.6491,8.7257,152.0924],[9.6399,8.7046,158.5282],[9.6357,8.6877,152.3404],[9.6313,8.6448,160.0826],[9.6313,8.6138,153.4453],[9.6383,8.577,126.1289],[9.646,8.557,133.2147],[9.6586,8.5369,123.05],[9.6597,8.5216,132.0783],[9.6684,8.5005,120.7751],[9.6984,8.4572,110.134],[9.7048,8.4327,113.3401],[9.7129,8.4166,108.7795],[9.7339,8.3939,102.7054],[9.7408,8.3885,102.3244],[9.7552,8.3681,102.96],[9.7582,8.359,105.0717],[9.8153,8.3721,120.8981],[9.8547,8.3913,98.3556],[9.8821,8.4231,112.5916],[9.9386,8.4794,126.3372],[9.9787,8.5144,114.8473],[10.0743,8.5651,125.1296],[10.0494,8.6017,117.5918],[10.0461,8.6052,118.1461],[10.0389,8.6085,119.2628],[10.0338,8.6138,119.8293],[10.0249,8.6135,123.8277],[9.9923,8.631,127.6096],[9.9886,8.6305,130.1294],[9.9656,8.6452,132.9312],[9.9424,8.6523,136.7642],[9.9363,8.6526,138.7208],[9.9011,8.6863,156.5701],[9.8704,8.7375,183.2849],[9.8535,8.7761,193.545],[9.8327,8.7773,202.6057],[9.8233,8.7803,214.8995],[9.7599,8.7879,177.8136],[9.7461,8.7884,165.7984],[9.733,8.7845,155.2914]]]]}}