{"type":"Feature","properties":{"GID_2":"NGA.20.4_1","GID_0":"NGA","country":"Nigeria","GID_1":"NGA.20_1","province":"Kano","NL_NAME_1":"NA","county":"Bebeji","VARNAME_2":"NA","NL_NAME_2":"NA","TYPE_2":"LocalAuthority","ENGTYPE_2":"LocalAuthority","CC_2":"NA","HASC_2":"NA","name":"Bebeji.county"},
"geometry":{"type": "MultiPolygon","coordinates": [[[[8.2814,11.704,489.7742],[8.2788,11.7061,484.339],[8.2696,11.7081,482.3143],[8.2661,11.7147,487.8505],[8.2645,11.7147,489.2169],[8.2478,11.7032,498.9058],[8.2455,11.6985,497.7426],[8.237,11.6901,502.8033],[8.2317,11.6762,510.9487],[8.2253,11.6715,505.4117],[8.2147,11.6495,523.6108],[8.2104,11.6285,518.1749],[8.1986,11.6048,528.4929],[8.1914,11.5817,534.2123],[8.1894,11.5504,563.0802],[8.1919,11.5389,551.3936],[8.1781,11.4828,595.8889],[8.1735,11.4351,623.3337],[8.1779,11.4124,604.433],[8.193,11.3787,593.5635],[8.1997,11.3568,585.1039],[8.2111,11.3409,575.4171],[8.2398,11.3258,548.0528],[8.2546,11.3213,550.6462],[8.2855,11.3224,537.4451],[8.3025,11.3216,539.9006],[8.3063,11.3199,534.7297],[8.3199,11.334,536.1061],[8.3462,11.3511,524.309],[8.3624,11.3637,517.5],[8.386,11.3893,517.5],[8.3903,11.3993,517.5],[8.3956,11.4058,517.5],[8.3989,11.413,517.5],[8.395,11.4211,517.5],[8.3924,11.4522,517.5],[8.4019,11.4602,517.5],[8.4085,11.4708,499.223],[8.4112,11.4896,485.3964],[8.4196,11.5021,481.4576],[8.4202,11.5058,489.9579],[8.4176,11.5111,489.9416],[8.4134,11.5112,497.8252],[8.4073,11.5159,502.2068],[8.4037,11.5303,495.1799],[8.4048,11.5393,498.0297],[8.3988,11.5604,500.029],[8.3917,11.567,497.4103],[8.38,11.5724,490.6979],[8.3719,11.5718,492.9099],[8.3657,11.5758,487.7231],[8.3517,11.5797,501.2573],[8.3412,11.5849,500.4714],[8.339,11.5872,497.1592],[8.337,11.5956,496.8408],[8.3265,11.6124,507.8532],[8.3042,11.6321,500.7729],[8.2998,11.6437,504.5611],[8.2954,11.6501,502.9672],[8.2924,11.6717,495.3184],[8.2861,11.6799,490.9686],[8.2863,11.6985,490.5752],[8.2814,11.704,489.7742]]]]}}