{"type":"Feature","properties":{"GID_2":"NGA.21.18_1","GID_0":"NGA","country":"Nigeria","GID_1":"NGA.21_1","province":"Katsina","NL_NAME_1":"NA","county":"Kaita","VARNAME_2":"NA","NL_NAME_2":"NA","TYPE_2":"LocalAuthority","ENGTYPE_2":"LocalAuthority","CC_2":"NA","HASC_2":"NA","name":"Kaita.county"},
"geometry":{"type": "MultiPolygon","coordinates": [[[[7.6085,13.2147,481.0404],[7.5391,13.175,472.4906],[7.5416,13.1567,481.7295],[7.5396,13.1484,483.5112],[7.5297,13.1314,493.9775],[7.5226,13.1244,494.5709],[7.5161,13.1221,491.9828],[7.5104,13.1114,480.3242],[7.507,13.101,482.5557],[7.4973,13.0907,468.7771],[7.5021,13.0739,468.4882],[7.5134,13.0502,499.3444],[7.5364,13.0232,517.5557],[7.5516,13.0148,505.5183],[7.556,13.0108,506.0245],[7.562,13.026,517.3732],[7.5779,13.0405,515.1266],[7.586,13.0457,518.2577],[7.591,13.0554,510.7061],[7.5986,13.0643,496.3829],[7.6178,13.0709,493.5446],[7.6329,13.0679,484.3311],[7.6388,13.0635,492.8672],[7.6481,13.0609,492.7657],[7.6542,13.0565,488.0951],[7.6643,13.0444,465.9723],[7.6758,13.0258,486.8707],[7.6804,13.0215,490.15],[7.6849,13.0087,496.1306],[7.7004,13.018,481.328],[7.7225,13.0365,467.1011],[7.7315,13.0382,456.9368],[7.7552,13.0313,458.8898],[7.7787,13.0292,459.7472],[7.7865,13.0203,466.5273],[7.8093,13.0363,464.615],[7.8122,13.0499,474.6146],[7.8203,13.0567,488.9808],[7.8376,13.077,473.3249],[7.852,13.0993,439.1368],[7.8668,13.1167,457.167],[7.8839,13.1504,491.1708],[7.888,13.1666,477.4531],[7.9001,13.1845,481.4562],[7.9037,13.2081,481.2844],[7.9002,13.2373,477.2332],[7.895,13.2481,471.0448],[7.8917,13.2506,470.6048],[7.8781,13.2784,447.725],[7.8784,13.2904,442.7292],[7.8754,13.2973,444.0676],[7.8739,13.3185,452.4978],[7.8745,13.3325,457.4259],[7.8485,13.3337,437.7107],[7.8249,13.3396,411.1456],[7.8155,13.3386,411.279],[7.8042,13.3343,414.0395],[7.7805,13.3215,428.5883],[7.7529,13.303,425.0208],[7.749,13.3021,434.1264],[7.7484,13.2989,439.2601],[7.7462,13.2991,439.2757],[7.7196,13.2834,463.2271],[7.6533,13.2409,478.1153],[7.6505,13.2412,478.9315],[7.6496,13.2389,480.6057],[7.6443,13.2368,485.8584],[7.6318,13.2275,486.6149],[7.623,13.224,483.1596],[7.6216,13.2214,478.5503],[7.6188,13.2214,477.3087],[7.6085,13.2147,481.0404]]]]}}