{"type":"Feature","properties":{"GID_2":"NGA.36.11_1","GID_0":"NGA","country":"Nigeria","GID_1":"NGA.36_1","province":"Yobe","NL_NAME_1":"NA","county":"Machina","VARNAME_2":"NA","NL_NAME_2":"NA","TYPE_2":"LocalAuthority","ENGTYPE_2":"LocalAuthority","CC_2":"NA","HASC_2":"NA","name":"Machina.county"},
"geometry":{"type": "MultiPolygon","coordinates": [[[[9.8777,13.0405,353.3061],[9.8727,13.0359,354.1622],[9.8694,13.0358,354.0363],[9.8468,13.015,353.4808],[9.8328,12.9961,352.5521],[9.8166,12.97,354.3535],[9.812,12.9661,353.4637],[9.7943,12.9421,353.4608],[9.7904,12.9402,351.5541],[9.7699,12.9175,354.2373],[9.6751,12.8233,355.2901],[9.704,12.8046,354.9005],[9.7411,12.797,352.9088],[9.801,12.7929,355.4899],[9.8299,12.8043,353.8418],[9.8517,12.8215,351.7383],[9.8735,12.8534,356.0576],[9.8856,12.8847,351.8881],[9.9715,12.9259,349.8078],[10.0225,12.9358,349.6063],[10.0681,12.9575,350.1041],[10.1146,12.9727,347.8865],[10.1704,12.9886,347.1969],[10.1962,12.9743,347.761],[10.2034,12.9854,346.3754],[10.2069,13.016,347.6562],[10.2107,13.0242,347.2256],[10.2103,13.0351,347.2211],[10.2088,13.0368,347.1975],[10.2044,13.0677,347.7782],[10.207,13.0891,347.0067],[10.2072,13.1328,347.276],[10.2185,13.1682,350.4951],[10.2227,13.1962,352.0458],[10.2224,13.2274,353.8981],[10.2359,13.2692,355.42],[10.2071,13.2678,357.7426],[10.1614,13.2487,354.9666],[10.0609,13.2035,352.7611],[10.0395,13.1897,352.1544],[10.0333,13.1834,351.3676],[9.9965,13.1633,354.4225],[9.9915,13.1565,353.5927],[9.9839,13.1495,352.8419],[9.9819,13.1496,352.7464],[9.979,13.1434,352.8683],[9.9127,13.0706,354.1702],[9.8777,13.0405,353.3061]]]]}}