{"type":"Feature","properties":{"GID_2":"NGA.12.13_1","GID_0":"NGA","country":"Nigeria","GID_1":"NGA.12_1","province":"Edo","NL_NAME_1":"NA","county":"Orhionmwon","VARNAME_2":"NA","NL_NAME_2":"NA","TYPE_2":"LocalAuthority","ENGTYPE_2":"LocalAuthority","CC_2":"NA","HASC_2":"NA","name":"Orhionmwon.county"},
"geometry":{"type": "MultiPolygon","coordinates": [[[[5.9892,5.7527,8.0924],[6.0318,5.7654,16.8607],[6.0766,5.7976,10.5081],[6.0967,5.8287,24.9163],[6.1137,5.8473,29.9509],[6.1345,5.8642,33.1067],[6.1634,5.8801,35.4298],[6.1717,5.8924,32.6669],[6.1897,5.9069,33.6707],[6.1916,5.9129,35.1874],[6.2146,5.9378,38.0704],[6.2107,5.9368,38.4659],[6.2259,5.9902,52.8294],[6.2245,6.0053,59.4802],[6.2212,6.0185,113.1166],[6.2059,6.027,144.4126],[6.1958,6.0272,140.6215],[6.1852,6.0315,138.8263],[6.1755,6.0437,139.0382],[6.1668,6.0515,138.3658],[6.1549,6.0551,131.9024],[6.1232,6.0942,98.835],[6.0904,6.1522,135.2272],[6.088,6.1744,135.3408],[6.089,6.191,134.0315],[6.0874,6.2095,149.1841],[6.0817,6.2301,150.0403],[6.0582,6.2432,145.0962],[6.0517,6.2553,141.6074],[6.0515,6.2705,147.9144],[6.0541,6.2935,101.4909],[6.0635,6.3183,51.1466],[6.0685,6.3263,73.1822],[6.0831,6.3429,141.9238],[6.0973,6.3519,110.4326],[6.1063,6.3533,74.7161],[6.1405,6.3401,128.022],[6.1822,6.2764,165.7202],[6.1926,6.2771,112.5539],[6.2103,6.2992,184.815],[6.2241,6.313,168.3905],[6.2355,6.3318,180.8583],[6.2495,6.3442,169.7814],[6.2445,6.3563,169.0048],[6.234,6.362,193.3846],[6.2298,6.3729,171.1906],[6.2203,6.3858,165.4428],[6.2115,6.3958,172.2591],[6.2042,6.4015,109.0808],[6.1853,6.405,89.5558],[6.1694,6.406,97.7409],[6.1512,6.4054,113.6319],[6.1436,6.4032,103.004],[6.1237,6.4019,100.7166],[6.1179,6.3986,112.4212],[6.1155,6.3942,94.4671],[6.1031,6.3829,185.6289],[6.0981,6.3724,174.0051],[6.0865,6.3588,168.7766],[6.0784,6.3539,181.3217],[6.0732,6.3486,170.6246],[6.063,6.3431,164.1827],[6.0564,6.3363,144.938],[6.0356,6.3306,133.9031],[6.023,6.3214,129.5782],[6.0165,6.3206,130.8664],[6.0019,6.3148,124.3454],[5.9988,6.3119,118.7492],[5.9835,6.3066,113.5773],[5.9718,6.2928,104.168],[5.9547,6.2778,92.8958],[5.9457,6.2658,82.6323],[5.9438,6.2589,80.8579],[5.9402,6.2534,93.5812],[5.9241,6.242,64.4623],[5.8998,6.2394,55.0286],[5.8558,6.2417,29.7103],[5.8052,6.2488,27.9614],[5.7995,6.253,27.6847],[5.7942,6.2534,27.0486],[5.795,6.2458,19.4199],[5.7972,6.2425,24.0346],[5.7978,6.2222,67.4268],[5.7964,6.2197,67.9666],[5.7874,6.2168,64.2842],[5.78,6.2179,61.6923],[5.768,6.2165,17.8244],[5.7457,6.207,18.1679],[5.7387,6.2006,27.578],[5.7274,6.1768,25.7958],[5.7194,6.1238,25.4365],[5.7211,6.1115,28.8364],[5.7105,6.0997,23.7194],[5.7015,6.0978,36.5478],[5.6999,6.0886,23.2813],[5.6998,6.0824,18.0828],[5.7112,6.0573,15.7754],[5.7211,6.0267,30.3954],[5.7233,6.0235,37.7323],[5.7255,6.0158,29.9882],[5.7229,6.0082,26.674],[5.7988,5.9657,33.5142],[5.8133,5.9486,27.5867],[5.8248,5.9323,31.7237],[5.8311,5.9199,26.6029],[5.8692,5.8941,29.7793],[5.8942,5.8819,33.9547],[5.9018,5.8684,33.2818],[5.8948,5.8485,27.7755],[5.882,5.8245,20.0043],[5.8742,5.8165,18.1678],[5.8689,5.8032,12.037],[5.8948,5.7772,13.561],[5.8874,5.7626,8.8958],[5.8835,5.7481,6.2461],[5.8933,5.7419,10.4537],[5.918,5.739,8.4449],[5.9379,5.7439,7.8588],[5.9687,5.748,13.9888],[5.9892,5.7527,8.0924]]]]}}