{"type": "Feature","bbox": [7.2713,5.3925,7.3836,5.532],"geometry": {"type": "MultiPolygon","coordinates": [[[[7.3598,5.4451,55.5436],[7.3649,5.4506,62.3424],[7.3785,5.4824,62.9293],[7.3836,5.499,57.7065],[7.3571,5.5131,148.8491],[7.3461,5.5165,146.1865],[7.3452,5.5206,134.8657],[7.3429,5.5227,131.6897],[7.3221,5.532,167.1972],[7.32,5.5162,158.0562],[7.3176,5.5089,159.5959],[7.3114,5.4989,153.4009],[7.3001,5.4838,136.1406],[7.2929,5.4807,120.5634],[7.2735,5.4642,106.8666],[7.2713,5.459,105.6978],[7.2715,5.4541,99.9194],[7.2749,5.4506,110.9912],[7.2819,5.4314,119.0574],[7.2849,5.4272,117.2674],[7.2933,5.4185,124.3081],[7.3034,5.4036,87.7932],[7.317,5.3925,49.1043],[7.3353,5.4234,47.5033],[7.3598,5.4451,55.5436]]]]}
,"properties": {"GID_2": "NGA.17.4_1","GID_0": "NGA","country": "Nigeria","GID_1": "NGA.17_1","province": "Imo","NL_NAME_1": "NA","county": "EzinihitteMbaise","VARNAME_2": "NA","NL_NAME_2": "NA","TYPE_2": "LocalAuthority","ENGTYPE_2": "LocalAuthority","CC_2": "NA","HASC_2": "NA","name": "Ezinihitte_Mbaise.county","area_km2": 98.62764,"hist_schema_id": "Elevation0-9000","hist_area_km2": {"50": 15.47093,"75": 7.70374,"100": 13.40265,"125": 34.46635,"150": 23.59528,"175": 3.98868}}}