{"type": "Feature","bbox": [7.6876,10.5444,9.3559,12.5773],"geometry": {"type": "MultiPolygon","coordinates": [[[[8.7844,10.7666,873.9431],[8.7625,10.7868,658.0704],[8.7445,10.8128,648.8732],[8.7372,10.8445,631.2077],[8.7333,10.8919,631.5032],[8.7308,10.9545,616.2572],[8.738,11.0104,591.4564],[8.7501,11.0568,595.9614],[8.7638,11.0832,621.1033],[8.7803,11.0901,627.5547],[8.824,11.0876,634.1875],[8.8569,11.0957,637.1563],[8.8735,11.1127,628.6824],[8.9012,11.147,611.476],[8.9222,11.1851,558.8384],[8.944,11.2126,527.6767],[8.9609,11.2247,521.9625],[8.9637,11.2326,518.1628],[8.981,11.244,513.4379],[8.999,11.2615,505.5835],[9.0206,11.279,487.3955],[9.0314,11.2966,493.8985],[9.0715,11.3216,478.9656],[9.0988,11.3263,473.744],[9.1172,11.3094,468.4008],[9.1356,11.3078,475.907],[9.1696,11.3198,469.9384],[9.1872,11.3296,488.2999],[9.2247,11.3425,467.4567],[9.2283,11.3519,461.4459],[9.2234,11.3782,454.0108],[9.2305,11.4057,439.5363],[9.241,11.4374,436.3638],[9.253,11.4537,433.5498],[9.2868,11.4841,422.9885],[9.3185,11.5094,420.3344],[9.3559,11.547,414.4825],[9.3416,11.5654,423.0479],[9.3077,11.5738,421.6888],[9.289,11.5885,441.8185],[9.262,11.6159,451.4936],[9.2382,11.6597,442.3786],[9.2301,11.6914,426.1313],[9.2124,11.7072,413.8413],[9.1795,11.704,426.0718],[9.1325,11.7029,430.3801],[9.1307,11.7049,429.9846],[9.1276,11.736,429.635],[9.1355,11.7693,426.0182],[9.1646,11.8057,423.4167],[9.1898,11.844,425.4728],[9.193,11.8765,413.2154],[9.2101,11.9059,404.2061],[9.2069,11.9449,396.111],[9.1816,12.0271,394.02],[9.1701,12.0592,395.1211],[9.1499,12.0508,394.1718],[9.1262,12.0229,399.0899],[9.0888,12.0004,408.9286],[9.0594,11.9975,412.6443],[9.0372,12.0015,412.2701],[9.037,12.0424,399.5014],[9.0279,12.0653,395.7386],[8.9924,12.0607,398.7188],[8.9772,12.0613,396.1411],[8.9772,12.0594,397.1158],[8.9662,12.0578,398.6307],[8.9464,12.0423,399.7714],[8.9464,12.0586,393.5776],[8.9256,12.064,395.883],[8.9198,12.0702,398.1706],[8.9284,12.0976,400.4387],[8.9474,12.1196,393.8275],[8.9488,12.2087,399.4052],[8.9465,12.2135,399.0093],[8.9415,12.2387,398.4516],[8.9357,12.2555,398.3538],[8.9278,12.264,398.0208],[8.9209,12.2683,399.8306],[8.891,12.2772,407.0108],[8.8583,12.2798,401.69],[8.8272,12.2869,411.3177],[8.8031,12.2861,399.1657],[8.7897,12.2927,396.2943],[8.7733,12.3149,404.1702],[8.7759,12.3255,404.627],[8.7819,12.3371,402.8887],[8.7824,12.3469,403.1616],[8.7718,12.3841,405.5436],[8.7648,12.3956,404.6304],[8.7566,12.403,405.0663],[8.7447,12.4059,406.0137],[8.7179,12.4231,407.9444],[8.7031,12.4294,407.0257],[8.6903,12.4393,406.1307],[8.6848,12.4513,405.0201],[8.6825,12.4607,406.4666],[8.684,12.4743,405.1943],[8.6818,12.4955,405.3291],[8.6826,12.5308,402.5846],[8.6818,12.5393,402.9488],[8.6776,12.5452,403.3144],[8.6666,12.5485,405.1678],[8.6541,12.5493,403.9062],[8.6398,12.5526,405.2612],[8.6159,12.5615,406.7978],[8.5742,12.5697,411.6659],[8.552,12.5772,414.2244],[8.5414,12.5773,414.0345],[8.4911,12.5717,421.1641],[8.4711,12.5634,422.0965],[8.4266,12.5412,425.7387],[8.4076,12.5282,433.4696],[8.3986,12.5196,445.8736],[8.3951,12.5131,445.6041],[8.3909,12.4962,446.6395],[8.3886,12.4784,442.2292],[8.3643,12.4258,441.4981],[8.3585,12.4211,445.9005],[8.3411,12.4389,448.3359],[8.3391,12.4497,448.742],[8.3411,12.4583,463.1429],[8.3395,12.47,474.7537],[8.308,12.5299,482.1326],[8.2828,12.5696,477.4336],[8.2561,12.5692,495.5351],[8.208,12.564,501.2425],[8.1973,12.5616,506.9642],[8.1874,12.5557,520.5903],[8.1793,12.5434,493.9264],[8.1753,12.5256,485.9491],[8.1667,12.5068,484.3176],[8.1527,12.4826,521.9746],[8.1464,12.4648,517.1266],[8.1346,12.4129,523.2399],[8.1219,12.3994,537.9983],[8.0938,12.3827,545.0626],[8.0625,12.3687,543.1235],[8.0002,12.3492,549.4447],[7.9614,12.339,550.7136],[7.9391,12.3309,552.1233],[7.8705,12.2933,537.4943],[7.8382,12.2629,521.4083],[7.8352,12.2571,519.0853],[7.8308,12.2111,546.8027],[7.8371,12.1622,550.7362],[7.8374,12.1385,557.8361],[7.8403,12.1053,564.01],[7.8396,12.0411,585.0214],[7.8378,12.0274,595.5243],[7.8422,12.0152,604.4713],[7.8418,12.0021,617.0782],[7.8369,11.9847,620.0293],[7.839,11.9623,608.0551],[7.8278,11.9246,581.528],[7.8282,11.9147,582.326],[7.8343,11.9099,575.265],[7.862,11.8417,566.7202],[7.859,11.8237,559.8787],[7.8596,11.8124,561.9696],[7.8564,11.7904,541.5875],[7.8512,11.7772,543.9404],[7.8558,11.7639,541.5613],[7.8658,11.7524,536.5401],[7.8753,11.7145,529.1019],[7.8923,11.6863,524.9482],[7.8989,11.6677,531.9161],[7.8995,11.6589,522.0],[7.9019,11.653,522.6595],[7.8952,11.6455,522.934],[7.8866,11.6438,529.6168],[7.8788,11.6449,534.4554],[7.8491,11.6403,530.0866],[7.8428,11.6426,529.6758],[7.8033,11.6156,560.1113],[7.7928,11.6122,552.9827],[7.7867,11.6131,543.4721],[7.7673,11.6089,569.0594],[7.7426,11.5992,568.6267],[7.7318,11.5852,569.3907],[7.7253,11.5815,580.2975],[7.7186,11.5749,573.0326],[7.7132,11.5732,557.1541],[7.71,11.5654,575.2209],[7.7155,11.5571,573.8847],[7.712,11.5379,591.9606],[7.6876,11.4954,634.7285],[7.6914,11.4862,634.6749],[7.6916,11.4775,640.9897],[7.6945,11.4708,638.5696],[7.7001,11.4379,664.0119],[7.7077,11.4133,672.99],[7.7265,11.3946,686.8215],[7.7345,11.3926,675.6424],[7.7411,11.3883,679.7463],[7.7501,11.3801,678.8167],[7.7624,11.3731,689.1112],[7.7763,11.3592,679.7894],[7.8261,11.3589,672.306],[7.8506,11.3631,667.1696],[7.8655,11.3696,661.2255],[7.933,11.4306,642.0761],[7.972,11.4549,625.9781],[8.0107,11.4759,604.1603],[8.0374,11.4758,597.6273],[8.059,11.4848,584.8099],[8.0838,11.4923,579.0057],[8.1032,11.4955,580.2314],[8.1229,11.4926,581.0432],[8.1412,11.4796,590.4415],[8.1463,11.4597,599.992],[8.1123,11.3956,633.3718],[8.1126,11.3761,625.9877],[8.1208,11.3546,604.1348],[8.1377,11.3357,605.7839],[8.1634,11.3201,581.0998],[8.1946,11.3066,584.5049],[8.2277,11.2983,577.6975],[8.2551,11.287,555.192],[8.2795,11.2618,571.2195],[8.2943,11.2358,572.525],[8.3119,11.2212,596.3062],[8.3366,11.2124,605.8318],[8.3642,11.2145,638.3995],[8.3815,11.2128,614.7299],[8.4211,11.2034,649.2275],[8.4634,11.1717,609.3324],[8.4868,11.1467,609.0482],[8.508,11.1328,604.0057],[8.5227,11.1138,616.7712],[8.5379,11.0848,608.6572],[8.5499,11.0572,605.8008],[8.566,11.0303,606.5038],[8.5698,11.0123,620.1235],[8.5721,10.9685,611.619],[8.5558,10.9295,653.45],[8.5407,10.8746,887.8555],[8.5395,10.851,785.9366],[8.559,10.7544,737.3525],[8.5557,10.7268,732.8064],[8.544,10.7092,720.2819],[8.5243,10.7014,703.603],[8.4972,10.6997,690.254],[8.4867,10.6938,701.1868],[8.4777,10.6813,727.1125],[8.4874,10.6481,721.028],[8.5047,10.6309,723.6862],[8.5229,10.6279,722.328],[8.5459,10.6282,705.6042],[8.5735,10.6256,734.6907],[8.6181,10.6154,747.9326],[8.6258,10.6001,735.9294],[8.6499,10.5714,772.2827],[8.6564,10.566,782.3931],[8.6758,10.5548,810.5372],[8.7243,10.5444,843.0746],[8.7456,10.5503,806.9938],[8.7572,10.558,794.024],[8.7693,10.5803,773.4011],[8.7804,10.5946,751.6181],[8.7991,10.6234,738.2353],[8.8127,10.6528,721.0389],[8.8206,10.685,714.8632],[8.8193,10.717,706.5509],[8.8069,10.7435,746.4963],[8.7844,10.7666,873.9431]]]]}
,"properties": {"GID_1": "NGA.20_1","GID_0": "NGA","country": "Nigeria","province": "Kano","VARNAME_1": "NA","NL_NAME_1": "NA","TYPE_1": "State","ENGTYPE_1": "State","CC_1": "NA","HASC_1": "NG.KN","ISO_1": "NG-KN","name": "Kano.province","area_km2": 20162.33,"hist_schema_id": "Elevation0-9000","hist_area_km2": {"400": 1137.42,"425": 2439.17,"450": 2853.03,"475": 2653.13,"500": 1968.7,"525": 2170.02,"550": 2220.98,"575": 1813.46,"600": 1151.46,"625": 491.99,"650": 266.28,"675": 194.82,"700": 92.37,"725": 167.35,"750": 218.13,"775": 131.81,"800": 64.43,"825": 29.09,"850": 20.96,"875": 24.96,"900": 13.87,"925": 9.85,"950": 6.15,"975": 4.9,"1000": 4.46,"1025": 3.71,"1050": 2.54,"1075": 2.6,"1100": 1.67,"1125": 1.4,"1150": 1.02,"1175": 0.35,"1200": 0.21}}}