{"type": "Feature","id": "2869","bbox": [7.69217,10.54463,9.35068,12.57468],"geometry": {"type": "Polygon","coordinates": [[[8.95638,12.05063,399.8939],[8.94657,12.05443,393.4696],[8.93664,12.06187,394.9764],[8.92321,12.08314,402.3604],[8.93137,12.0988,399.463],[8.94191,12.11241,395.8365],[8.94688,12.12967,394.2709],[8.94615,12.22181,400.5873],[8.9045,12.27295,405.4744],[8.84115,12.28013,408.0754],[8.78513,12.29866,397.589],[8.77686,12.32896,405.6253],[8.7781,12.36323,401.4415],[8.76539,12.3909,406.1018],[8.74089,12.40808,407.086],[8.71402,12.42185,409.2005],[8.69025,12.43929,406.1307],[8.68147,12.475,405.1958],[8.68271,12.51319,403.87],[8.67826,12.53926,404.3089],[8.65408,12.54923,403.9062],[8.58958,12.56639,409.2883],[8.53005,12.57468,415.6314],[8.47104,12.56332,422.0965],[8.42071,12.53761,427.8707],[8.39053,12.4936,448.6127],[8.37327,12.44425,440.935],[8.36221,12.42521,441.2699],[8.34433,12.43542,451.8992],[8.33988,12.44929,448.742],[8.33999,12.4642,476.1403],[8.33317,12.48149,489.7599],[8.28283,12.56957,477.4336],[8.23302,12.5689,508.1784],[8.18734,12.55567,520.5903],[8.16356,12.51272,482.515],[8.13039,12.41648,528.8005],[8.0938,12.38266,545.0626],[7.9181,12.31796,556.9023],[7.84131,12.26607,521.2676],[7.82963,12.22106,540.2181],[7.83945,12.12311,552.0336],[7.83314,11.91436,576.6531],[7.85433,11.85031,558.8702],[7.85929,11.81796,563.1117],[7.85795,11.79889,547.0398],[7.85247,11.78057,548.5079],[7.85578,11.7653,541.5613],[7.8658,11.75241,536.5401],[7.88999,11.69027,531.0548],[7.89371,11.65079,522.8008],[7.84906,11.6403,530.0866],[7.79273,11.61219,552.9827],[7.74654,11.60079,563.8385],[7.71532,11.56395,572.7215],[7.69941,11.51594,607.8959],[7.69217,11.46726,642.3586],[7.70736,11.41669,670.8035],[7.7762,11.35915,679.7894],[7.84513,11.36504,671.1442],[7.96254,11.45114,634.6142],[8.10321,11.4955,580.2314],[8.13876,11.47894,591.5325],[8.13721,11.44101,614.3795],[8.1184,11.40819,635.4232],[8.11395,11.37269,623.1271],[8.13432,11.34013,608.9668],[8.16666,11.31866,579.7125],[8.23725,11.29427,564.7715],[8.26981,11.26887,570.2507],[8.29431,11.23577,572.525],[8.36376,11.20947,633.618],[8.43983,11.18968,636.9711],[8.54235,11.08201,607.6246],[8.56189,10.94285,637.4814],[8.54277,10.86631,815.5942],[8.55837,10.74668,745.2186],[8.5439,10.70911,720.2819],[8.50153,10.69878,690.6284],[8.48065,10.67116,719.5095],[8.53532,10.62607,709.9354],[8.61563,10.61592,749.2501],[8.65945,10.56419,786.9493],[8.67888,10.5545,812.4977],[8.72053,10.54463,834.4758],[8.74131,10.54905,816.9027],[8.7873,10.59868,766.0824],[8.81541,10.6641,726.077],[8.80828,10.73294,787.0072],[8.76249,10.78676,658.0704],[8.73397,10.86283,613.9478],[8.73107,10.94652,622.8436],[8.73748,11.0215,613.1089],[8.76766,11.0848,628.8502],[8.8274,11.08837,636.4467],[8.86316,11.10441,636.6136],[8.89024,11.13346,602.5716],[8.92962,11.19105,550.3944],[9.03193,11.29608,493.8985],[9.0988,11.32623,473.744],[9.11369,11.31657,463.1842],[9.13084,11.30815,478.3564],[9.14924,11.31169,470.7657],[9.22469,11.34243,467.4567],[9.22738,11.35533,457.3948],[9.22644,11.38233,447.9994],[9.228,11.39595,442.855],[9.23719,11.42633,438.7658],[9.25301,11.45359,433.5498],[9.34158,11.53266,415.9962],[9.35068,11.55501,418.0437],[9.32794,11.5687,425.8395],[9.31512,11.57265,419.4074],[9.29187,11.58635,438.0096],[9.26427,11.61521,450.6161],[9.25001,11.63727,456.0664],[9.22727,11.69383,421.7199],[9.21621,11.70179,416.6174],[9.18882,11.70474,421.8561],[9.14593,11.70135,438.2217],[9.1296,11.71577,436.8018],[9.14335,11.77639,430.6708],[9.17983,11.82886,427.6065],[9.18841,11.85217,421.3354],[9.19296,11.87646,413.5884],[9.20464,11.90775,404.2747],[9.20712,11.94198,397.2692],[9.19224,12.00133,393.122],[9.18118,12.03027,394.7943],[9.13498,12.03536,398.3799],[9.09953,12.01188,405.3301],[9.03721,12.01203,409.2735],[9.03597,12.03746,403.8625],[9.02925,12.06164,396.789],[9.0216,12.06513,390.9003],[8.98016,12.05916,397.3498],[8.95638,12.05063,399.8939]]]}
,"properties": {"ISO3166-1-Alpha-3": "NGA","country": "Nigeria","fill": "#F00","name": "Kano","area_km2": 20165.86,"hist_schema_id": "Elevation0-9000","hist_area_km2": {"400": 1127.15,"425": 2435.72,"450": 2854.42,"475": 2654.53,"500": 1969.55,"525": 2171.87,"550": 2222.31,"575": 1815.81,"600": 1164.86,"625": 514.92,"650": 269.53,"675": 185.59,"700": 87.48,"725": 158.97,"750": 217.09,"775": 130.02,"800": 62.34,"825": 27.88,"850": 19.64,"875": 24.02,"900": 13.5,"925": 9.6,"950": 6.15,"975": 4.9,"1000": 4.46,"1025": 3.71,"1050": 2.54,"1075": 2.6,"1100": 1.67,"1125": 1.4,"1150": 1.02,"1175": 0.35,"1200": 0.21}}}