{"type": "Feature","bbox": [8.8297,11.841,9.2101,12.0653],"geometry": {"type": "MultiPolygon","coordinates": [[[[9.2051,11.9508,396.1326],[9.1816,12.0271,394.02],[9.1701,12.0592,395.1211],[9.1499,12.0508,394.1718],[9.1262,12.0229,399.0899],[9.0888,12.0004,408.9286],[9.0594,11.9975,412.6443],[9.0372,12.0015,412.2701],[9.037,12.0424,399.5014],[9.0279,12.0653,395.7386],[8.9924,12.0607,398.7188],[8.9772,12.0613,396.1411],[8.9772,12.0594,397.1158],[8.9662,12.0578,398.6307],[8.9464,12.0423,399.7714],[8.9194,12.0339,395.1627],[8.9158,12.0258,396.0799],[8.912,12.0276,395.8992],[8.9007,12.0245,397.0325],[8.8896,12.0101,397.1903],[8.8864,12.0086,398.0613],[8.8728,11.9856,398.3206],[8.8537,11.9804,401.8248],[8.8432,11.9722,405.7724],[8.8363,11.9641,407.0953],[8.8355,11.9611,407.0304],[8.8297,11.9623,409.6895],[8.8355,11.9608,407.0304],[8.8329,11.9326,402.5981],[8.8338,11.9134,404.9505],[8.8315,11.8835,412.6905],[8.8328,11.8862,413.1801],[8.8557,11.9065,401.2486],[8.8684,11.9131,402.1931],[8.876,11.9067,402.2537],[8.8872,11.8876,410.8057],[8.8927,11.8819,418.9308],[8.8993,11.8822,421.4606],[8.916,11.8948,422.5245],[8.9226,11.8944,425.4458],[8.934,11.8906,416.5491],[8.9453,11.8815,414.3559],[8.9456,11.8785,416.9543],[8.9556,11.8682,422.4043],[8.9592,11.8601,428.6993],[8.9744,11.847,431.6243],[8.988,11.8479,427.9591],[9.0039,11.8424,423.6921],[9.0242,11.8432,417.9453],[9.0465,11.841,410.2523],[9.0509,11.8436,409.9879],[9.0595,11.8527,407.9716],[9.0842,11.8646,402.5916],[9.1025,11.8667,402.819],[9.11,11.865,403.0387],[9.1409,11.8652,409.9566],[9.1922,11.8686,416.6556],[9.193,11.8765,413.2154],[9.2101,11.9059,404.2061],[9.2069,11.9449,396.111],[9.2051,11.9508,396.1326]]]]}
,"properties": {"GID_2": "NGA.20.1_1","GID_0": "NGA","country": "Nigeria","GID_1": "NGA.20_1","province": "Kano","NL_NAME_1": "NA","county": "Ajingi","VARNAME_2": "NA","NL_NAME_2": "NA","TYPE_2": "LocalAuthority","ENGTYPE_2": "LocalAuthority","CC_2": "NA","HASC_2": "NA","name": "Ajingi.county","area_km2": 693.455,"hist_schema_id": "Elevation0-9000","hist_area_km2": {"400": 520.2507,"425": 173.2042}}}