{"type": "Feature","bbox": [7.5354,11.3927,7.9019,11.862],"geometry": {"type": "MultiPolygon","coordinates": [[[[7.8533,11.862,567.8975],[7.8295,11.8549,585.574],[7.822,11.8507,588.2709],[7.8064,11.8473,586.0944],[7.7959,11.8423,584.2894],[7.7847,11.8403,585.1048],[7.7677,11.8321,597.3561],[7.7528,11.8273,610.9791],[7.734,11.8155,631.4565],[7.7113,11.7977,632.1069],[7.7055,11.7949,628.9087],[7.7002,11.7895,621.4332],[7.6964,11.7763,618.7689],[7.6925,11.7724,617.2341],[7.6888,11.7629,614.5247],[7.6725,11.7433,611.3123],[7.6558,11.7334,638.6232],[7.6426,11.7282,641.7145],[7.6307,11.7255,653.9958],[7.6219,11.7204,647.3648],[7.6148,11.7129,640.7535],[7.5944,11.7027,626.8291],[7.5834,11.7017,626.9059],[7.578,11.7049,633.6381],[7.5692,11.7043,640.2897],[7.5597,11.6929,641.6176],[7.5545,11.6802,649.5608],[7.5444,11.6683,642.8376],[7.5416,11.6618,638.3605],[7.5408,11.6518,634.7778],[7.5432,11.6422,631.8546],[7.5354,11.6072,615.8207],[7.5386,11.5927,618.9459],[7.5367,11.5751,610.142],[7.5389,11.5662,609.9156],[7.5552,11.5479,619.455],[7.5645,11.5348,641.0333],[7.5634,11.5279,629.8458],[7.5814,11.5131,633.4647],[7.5852,11.5076,619.293],[7.5818,11.5004,614.8894],[7.5718,11.4918,626.4486],[7.5654,11.4808,641.2296],[7.5603,11.4616,666.0949],[7.5652,11.4492,649.6646],[7.5667,11.4375,643.7507],[7.5719,11.4237,657.25],[7.5795,11.4122,655.108],[7.5798,11.4089,657.9434],[7.6153,11.3988,677.9556],[7.6253,11.3927,681.611],[7.6366,11.3991,689.2144],[7.6591,11.4021,692.8282],[7.6781,11.4007,689.8155],[7.6856,11.3985,687.5359],[7.7137,11.4077,664.1326],[7.7077,11.4133,672.99],[7.7001,11.4379,664.0119],[7.6945,11.4708,638.5696],[7.6916,11.4775,640.9897],[7.6914,11.4862,634.6749],[7.6876,11.4954,634.7285],[7.712,11.5379,591.9606],[7.7155,11.5571,573.8847],[7.71,11.5654,575.2209],[7.7132,11.5732,557.1541],[7.7186,11.5749,573.0326],[7.7253,11.5815,580.2975],[7.7318,11.5852,569.3907],[7.7426,11.5992,568.6267],[7.7673,11.6089,569.0594],[7.7867,11.6131,543.4721],[7.7928,11.6122,552.9827],[7.8033,11.6156,560.1113],[7.8428,11.6426,529.6758],[7.8491,11.6403,530.0866],[7.8788,11.6449,534.4554],[7.8866,11.6438,529.6168],[7.8952,11.6455,522.934],[7.9019,11.653,522.6595],[7.8995,11.6589,522.0],[7.8989,11.6677,531.9161],[7.8923,11.6863,524.9482],[7.8753,11.7145,529.1019],[7.8658,11.7524,536.5401],[7.8558,11.7639,541.5613],[7.8512,11.7772,543.9404],[7.8564,11.7904,541.5875],[7.8596,11.8124,561.9696],[7.859,11.8237,559.8787],[7.862,11.8417,566.7202],[7.8533,11.862,567.8975]]]]}
,"properties": {"GID_2": "NGA.21.17_1","GID_0": "NGA","country": "Nigeria","GID_1": "NGA.21_1","province": "Katsina","NL_NAME_1": "NA","county": "Kafur","VARNAME_2": "NA","NL_NAME_2": "NA","TYPE_2": "LocalAuthority","ENGTYPE_2": "LocalAuthority","CC_2": "NA","HASC_2": "NA","name": "Kafur.county","area_km2": 1031.9026,"hist_schema_id": "Elevation0-9000","hist_area_km2": {"525": 23.9625,"550": 127.0904,"575": 242.0314,"600": 311.3492,"625": 213.8506,"650": 65.7982,"675": 38.3846,"700": 9.4149,"725": 0.0208}}}