{"type": "Feature","bbox": [6.7055,9.1269,7.2736,9.5005],"geometry": {"type": "MultiPolygon","coordinates": [[[[6.9632,9.2324,237.8286],[6.979,9.2357,241.2336],[7.0075,9.2256,264.5297],[7.0162,9.2146,263.5822],[7.0631,9.1794,231.4317],[7.0738,9.1663,241.1945],[7.0901,9.1505,331.7018],[7.1202,9.1269,212.2111],[7.1229,9.133,218.5685],[7.124,9.145,220.5152],[7.1243,9.179,383.0861],[7.1219,9.2118,481.8277],[7.1181,9.2192,561.4841],[7.1141,9.2517,392.9752],[7.1184,9.2619,408.4582],[7.1242,9.2673,400.6698],[7.1457,9.2809,443.6314],[7.152,9.2816,462.578],[7.1642,9.2711,461.7949],[7.1673,9.2621,467.4568],[7.1733,9.2527,487.2695],[7.183,9.2489,485.3951],[7.2025,9.2548,507.8037],[7.2208,9.2554,487.7905],[7.2252,9.2596,505.2604],[7.2264,9.2627,504.3459],[7.222,9.2897,520.3307],[7.2193,9.2973,524.2412],[7.2222,9.3246,518.1266],[7.2291,9.3329,502.8429],[7.241,9.3398,521.1124],[7.2587,9.3378,527.7949],[7.2666,9.3417,529.9825],[7.2736,9.3608,538.4851],[7.2663,9.3707,549.7143],[7.2425,9.3835,534.1844],[7.2273,9.3935,526.5082],[7.2187,9.4054,536.8151],[7.2203,9.4427,522.2858],[7.2292,9.4575,536.5599],[7.25,9.4702,524.9182],[7.2661,9.4771,524.7396],[7.2344,9.4835,508.3559],[7.1999,9.5005,499.797],[7.181,9.4973,497.2086],[7.1704,9.4898,494.3934],[7.1511,9.4893,497.4479],[7.1302,9.4832,479.8473],[7.1085,9.4834,493.0795],[7.103,9.4796,485.3537],[7.0733,9.4721,491.6523],[7.0646,9.4664,501.8196],[7.0634,9.4598,498.3175],[7.0654,9.4552,497.6517],[7.0723,9.4505,483.9667],[7.0937,9.4475,493.8586],[7.0986,9.4392,480.834],[7.0935,9.4301,469.9681],[7.0551,9.4215,468.0156],[7.0297,9.4125,468.3632],[7.0183,9.4058,454.3033],[7.0128,9.397,446.8532],[7.0015,9.3945,441.8956],[6.993,9.3992,449.7853],[6.9829,9.4017,459.1889],[6.9668,9.4,455.0256],[6.9284,9.3722,438.6786],[6.9196,9.3638,375.0167],[6.9084,9.358,363.799],[6.894,9.3549,362.3689],[6.8866,9.3581,382.6844],[6.867,9.3765,349.7709],[6.8386,9.3768,360.942],[6.8159,9.3822,345.2278],[6.8003,9.38,337.9902],[6.8024,9.3567,370.588],[6.8109,9.3461,382.4516],[6.8156,9.3447,385.4326],[6.8207,9.3387,390.9649],[6.8229,9.3339,369.663],[6.8225,9.3292,339.6875],[6.8214,9.3258,332.8382],[6.8101,9.3206,333.9514],[6.8029,9.3192,332.3827],[6.798,9.3133,389.4292],[6.7982,9.3018,329.8113],[6.8018,9.2874,276.0471],[6.797,9.2765,252.9215],[6.7888,9.2725,256.8347],[6.7817,9.2753,257.2384],[6.7747,9.2826,270.3383],[6.7603,9.3044,287.1941],[6.7448,9.3215,284.4536],[6.7207,9.3307,288.9829],[6.7139,9.3294,303.0263],[6.7069,9.3243,290.8422],[6.7055,9.3203,284.7033],[6.7059,9.303,269.6295],[6.7081,9.2943,252.4437],[6.7173,9.2804,241.4991],[6.7216,9.2705,236.1851],[6.7267,9.265,230.9575],[6.726,9.2599,234.4845],[6.731,9.2483,251.2905],[6.7321,9.2375,236.6236],[6.7385,9.2229,257.0565],[6.7382,9.1993,220.8821],[6.7349,9.1858,236.1558],[6.7369,9.1689,237.0622],[6.7364,9.1553,235.7746],[6.7384,9.1486,244.1782],[6.751,9.1323,260.9608],[6.7498,9.2003,221.5416],[6.7518,9.2068,229.1834],[6.7521,9.2167,234.2422],[6.7576,9.2228,250.0926],[6.8177,9.2289,237.3699],[6.8569,9.2292,256.3908],[6.8667,9.2311,274.9876],[6.8876,9.2286,236.75],[6.9206,9.2297,245.6274],[6.9309,9.2327,261.3593],[6.9408,9.2313,258.1118],[6.9632,9.2324,237.8286]]]]}
,"properties": {"GID_2": "NGA.27.9_1","GID_0": "NGA","country": "Nigeria","GID_1": "NGA.27_1","province": "Niger","NL_NAME_1": "NA","county": "Gurara","VARNAME_2": "NA","NL_NAME_2": "NA","TYPE_2": "LocalAuthority","ENGTYPE_2": "LocalAuthority","CC_2": "NA","HASC_2": "NA","name": "Gurara.county","area_km2": 1142.8745,"hist_schema_id": "Elevation0-9000","hist_area_km2": {"200": 0.5024,"225": 23.2735,"250": 227.5943,"275": 139.193,"300": 64.4878,"325": 36.2612,"350": 46.3858,"375": 55.4653,"400": 47.6823,"425": 52.178,"450": 77.7593,"475": 96.182,"500": 128.8952,"525": 124.9656,"550": 21.4213,"575": 0.5021,"600": 0.1255}}}