{"type":"Feature","properties":{"GID_2":"NGA.7.19_1","GID_0":"NGA","country":"Nigeria","GID_1":"NGA.7_1","province":"Benue","NL_NAME_1":"NA","county":"Otukpo","VARNAME_2":"NA","NL_NAME_2":"NA","TYPE_2":"LocalAuthority","ENGTYPE_2":"LocalAuthority","CC_2":"NA","HASC_2":"NA","name":"Otukpo.county"},
"geometry":{"type": "MultiPolygon","coordinates": [[[[8.0868,6.9692,86.1066],[8.1051,6.9751,66.5448],[8.1495,6.9815,73.5613],[8.1935,6.9952,94.6157],[8.2113,7.0067,82.0358],[8.2244,7.0233,76.7818],[8.2504,7.0724,79.663],[8.2593,7.0828,81.4225],[8.2672,7.0871,85.1996],[8.2682,7.1053,75.5082],[8.2503,7.1528,95.8789],[8.235,7.1759,102.2247],[8.2208,7.1855,102.8062],[8.2052,7.201,115.9981],[8.1983,7.2175,135.5654],[8.1875,7.2322,178.2476],[8.1729,7.2444,141.9843],[8.1609,7.2571,127.5066],[8.1492,7.2925,132.1281],[8.1418,7.3079,131.0212],[8.1381,7.3201,133.9206],[8.1321,7.3301,139.44],[8.127,7.3609,161.6626],[8.115,7.3993,196.2156],[8.1123,7.4178,157.6268],[8.1061,7.4389,160.1823],[8.1038,7.4647,146.3691],[8.0901,7.5055,138.3688],[8.0824,7.5536,134.4441],[8.0768,7.6119,144.6124],[8.0668,7.6006,161.217],[8.0546,7.5925,143.9916],[8.0324,7.5733,145.6678],[8.0221,7.5633,151.3094],[8.0122,7.5501,145.036],[7.9972,7.5382,152.5973],[7.9637,7.5185,165.3279],[7.9322,7.4964,211.4799],[7.9157,7.4893,226.9556],[7.8937,7.4715,277.5162],[7.8548,7.4459,243.5633],[7.8204,7.4283,255.804],[7.8576,7.4343,240.5277],[7.8815,7.4267,249.3428],[7.8758,7.3975,240.2892],[7.8558,7.378,242.8874],[7.8483,7.3572,231.789],[7.8475,7.3482,225.6569],[7.8559,7.3443,219.8114],[7.8739,7.3412,237.9375],[7.9248,7.324,211.7367],[7.9601,7.3255,208.8342],[7.9709,7.3234,195.5712],[7.9856,7.3158,187.7172],[7.9899,7.3111,190.2821],[7.9943,7.3011,163.5834],[7.9942,7.2926,153.8058],[8.0023,7.2796,160.6971],[8.015,7.266,136.5231],[8.0355,7.2491,138.5498],[8.0487,7.2405,140.9058],[8.0627,7.2341,150.7612],[8.0874,7.2341,143.9609],[8.0971,7.2372,145.4811],[8.1058,7.2359,143.6107],[8.1109,7.2213,148.3972],[8.1108,7.2123,132.5811],[8.1051,7.2052,131.0474],[8.1056,7.1951,131.6272],[8.1104,7.1872,138.3555],[8.1108,7.1743,141.577],[8.1045,7.1532,148.295],[8.0946,7.1407,125.4753],[8.0746,7.1274,102.7594],[8.0581,7.1196,95.5629],[8.0459,7.1099,110.4736],[8.0266,7.1027,110.0769],[8.0183,7.1021,117.167],[8.0072,7.0965,121.2824],[7.9914,7.0922,119.6983],[7.9835,7.0866,136.6238],[7.9719,7.0731,148.6685],[7.9817,7.0631,114.7968],[7.9888,7.0588,111.0573],[8.0044,7.0417,92.5055],[8.0132,7.0248,118.6656],[8.0135,7.0188,116.5148],[8.0263,6.9964,116.1206],[8.0351,6.9864,108.585],[8.0452,6.9779,104.3516],[8.0534,6.9734,98.1072],[8.0783,6.9718,87.622],[8.0868,6.9692,86.1066]]]]}}