{"type": "Feature","bbox": [3.4321,6.5378,3.6987,6.691],"geometry": {"type": "MultiPolygon","coordinates": [[[[3.6987,6.689,26.465],[3.4562,6.691,12.5113],[3.4493,6.6872,5.1479],[3.4354,6.6745,6.8371],[3.4342,6.6695,9.0819],[3.4366,6.6593,7.1105],[3.4397,6.6537,7.2901],[3.4436,6.6511,4.7412],[3.4321,6.6485,6.9157],[3.4331,6.6397,4.3904],[3.4363,6.6327,1.941],[3.4485,6.6166,2.1263],[3.4576,6.6105,5.5426],[3.4707,6.6082,0.7078],[3.472,6.6061,0.6255],[3.47,6.5941,0.0],[3.4615,6.5701,0.0],[3.4628,6.5604,0.0],[3.4671,6.5543,0.0],[3.4744,6.551,1.4703],[3.4812,6.543,0.5968],[3.4867,6.5422,4.6734],[3.493,6.5437,4.6799],[3.5055,6.5378,3.1483],[3.5137,6.5411,4.2688],[3.5189,6.5391,4.6117],[3.5298,6.5397,5.7019],[3.5565,6.5491,2.6318],[3.5682,6.5618,8.4114],[3.586,6.5744,23.2749],[3.5957,6.5759,19.1147],[3.5991,6.5747,20.7002],[3.6197,6.5649,7.533],[3.6295,6.5584,6.2542],[3.6616,6.589,2.8129],[3.6861,6.6059,7.1031],[3.6878,6.6082,9.2148],[3.684,6.62,9.4093],[3.6835,6.6288,7.3022],[3.682,6.6334,10.5644],[3.6783,6.6376,12.4163],[3.6728,6.6365,10.986],[3.6711,6.6439,30.9148],[3.6718,6.6495,26.535],[3.6759,6.6602,17.3817],[3.6987,6.689,26.465]]]]}
,"properties": {"GID_2": "NGA.25.12_1","GID_0": "NGA","country": "Nigeria","GID_1": "NGA.25_1","province": "Lagos","NL_NAME_1": "NA","county": "Ikorodu","VARNAME_2": "NA","NL_NAME_2": "NA","TYPE_2": "LocalAuthority","ENGTYPE_2": "LocalAuthority","CC_2": "NA","HASC_2": "NA","name": "Ikorodu.county","area_km2": 368.3495,"hist_schema_id": "Elevation0-9000","hist_area_km2": {"0": 133.5925,"25": 187.0585,"50": 47.6985}}}