{"type": "Feature","bbox": [12.8954,12.5745,13.6366,13.1516],"geometry": {"type": "MultiPolygon","coordinates": [[[[13.1755,13.0752,294.0073],[13.1485,13.0756,292.7426],[13.0746,13.0907,293.423],[12.9985,13.0939,291.1931],[12.9832,13.089,298.0174],[12.9464,13.0845,296.0833],[12.9307,13.0737,295.4442],[12.904,13.0455,298.848],[12.8954,13.0302,298.7159],[12.9096,13.0134,298.2687],[12.9379,12.973,298.4371],[12.9593,12.9458,297.1591],[12.9698,12.9269,298.3808],[12.976,12.9088,296.8385],[12.9774,12.8472,296.8857],[12.9795,12.8288,297.7971],[12.9861,12.8169,294.2972],[12.9991,12.8093,298.8369],[13.0163,12.8029,289.5917],[13.032,12.8059,295.9636],[13.0479,12.8125,294.4498],[13.0689,12.8329,293.0544],[13.0824,12.8509,293.6421],[13.0885,12.8564,295.9295],[13.1225,12.8692,293.1803],[13.144,12.8682,295.073],[13.1602,12.8634,295.957],[13.1674,12.8578,291.8985],[13.191,12.8563,288.1599],[13.2002,12.8398,290.1053],[13.2032,12.8234,290.557],[13.2052,12.7806,291.2965],[13.2176,12.7798,290.7054],[13.2327,12.7733,292.7227],[13.2477,12.7704,293.391],[13.2559,12.7578,292.7294],[13.2614,12.7299,292.2697],[13.2857,12.676,292.686],[13.315,12.6456,291.8317],[13.3177,12.6385,290.5861],[13.3418,12.6344,291.6651],[13.3642,12.6284,289.4755],[13.3842,12.6355,292.9205],[13.3963,12.6378,291.3093],[13.4114,12.6277,289.7829],[13.4297,12.6088,292.0583],[13.441,12.6001,288.8198],[13.4527,12.5949,290.6761],[13.4656,12.5867,289.8181],[13.4689,12.5799,288.5934],[13.4946,12.5745,290.0153],[13.5651,12.6055,288.6034],[13.5765,12.6067,288.436],[13.591,12.6171,287.6457],[13.6302,12.6561,284.6668],[13.633,12.6706,284.6223],[13.6366,12.675,285.4165],[13.6296,12.6796,284.1928],[13.6197,12.6924,288.0759],[13.6072,12.7018,285.1121],[13.592,12.7234,285.9468],[13.5707,12.7345,287.9645],[13.5544,12.749,291.0351],[13.5414,12.7582,290.0192],[13.5109,12.7956,290.1258],[13.4859,12.8201,291.5342],[13.4719,12.8438,289.2585],[13.4567,12.8631,289.2499],[13.4465,12.8824,290.3368],[13.4374,12.8942,289.9583],[13.4304,12.9067,289.8222],[13.4232,12.9374,291.1353],[13.4243,12.9501,292.8953],[13.4197,12.9633,289.4159],[13.4154,12.984,286.6827],[13.4101,13.0239,290.4678],[13.3846,13.1124,285.7887],[13.3754,13.1291,289.7117],[13.3778,13.1441,289.7103],[13.3722,13.1494,288.1649],[13.3584,13.1516,285.5992],[13.3568,13.1468,285.8633],[13.3509,13.1407,289.3843],[13.3189,13.1171,288.5073],[13.2942,13.1007,293.7174],[13.2504,13.0774,292.8605],[13.2187,13.0734,286.4255],[13.1755,13.0752,294.0073]]]]}
,"properties": {"GID_2": "NGA.8.10_1","GID_0": "NGA","country": "Nigeria","GID_1": "NGA.8_1","province": "Borno","NL_NAME_1": "NA","county": "Guzamala","VARNAME_2": "NA","NL_NAME_2": "NA","TYPE_2": "LocalAuthority","ENGTYPE_2": "LocalAuthority","CC_2": "NA","HASC_2": "NA","name": "Guzamala.county","area_km2": 2314.655,"hist_schema_id": "Elevation0-9000","hist_area_km2": {"275": 124.036,"300": 2190.619}}}