{"type": "Feature","bbox": [9.3831,9.1923,9.7714,9.565],"geometry": {"type": "MultiPolygon","coordinates": [[[[9.4171,9.5576,1039.5933],[9.4139,9.559,1037.1202],[9.3841,9.5604,1438.5851],[9.3831,9.5262,1212.4116],[9.3855,9.4896,1273.955],[9.3896,9.4718,1248.4314],[9.4079,9.4523,1200.6561],[9.4245,9.4221,1153.9728],[9.4269,9.4004,1547.6581],[9.4237,9.3796,1259.9972],[9.4196,9.3577,1188.964],[9.4148,9.3439,1198.5825],[9.4101,9.3364,1213.1078],[9.413,9.3162,1186.1924],[9.4223,9.3024,1216.5837],[9.428,9.2857,1368.2507],[9.4382,9.2641,1322.3663],[9.4569,9.211,463.218],[9.4669,9.1946,422.4678],[9.4908,9.1975,462.121],[9.5051,9.2051,418.8753],[9.5218,9.2259,440.824],[9.5332,9.2439,483.2254],[9.5576,9.2719,707.8766],[9.5737,9.2725,643.728],[9.5967,9.2607,615.6404],[9.6348,9.2052,968.1704],[9.6559,9.1923,753.4058],[9.6691,9.2217,865.1353],[9.6872,9.2555,567.7054],[9.6965,9.2685,493.7826],[9.7073,9.2749,484.0477],[9.722,9.2904,519.6199],[9.7295,9.3034,395.2158],[9.7572,9.3421,413.3944],[9.7606,9.3627,366.5005],[9.7609,9.3809,345.87],[9.7672,9.4392,401.9239],[9.7714,9.4563,428.6923],[9.7698,9.4708,478.7131],[9.7597,9.4983,522.3403],[9.747,9.516,630.5035],[9.7336,9.5537,630.1821],[9.7275,9.565,621.0377],[9.6893,9.5538,656.8218],[9.6645,9.5447,663.845],[9.6239,9.5439,657.8456],[9.5775,9.5389,691.0037],[9.5023,9.5353,718.7886],[9.4525,9.5473,729.3737],[9.4371,9.5487,746.7788],[9.4171,9.5576,1039.5933]]]]}
,"properties": {"GID_2": "NGA.32.8_1","GID_0": "NGA","country": "Nigeria","GID_1": "NGA.32_1","province": "Plateau","NL_NAME_1": "NA","county": "Kanke","VARNAME_2": "NA","NL_NAME_2": "NA","TYPE_2": "LocalAuthority","ENGTYPE_2": "LocalAuthority","CC_2": "NA","HASC_2": "NA","name": "Kanke.county","area_km2": 1279.0736,"hist_schema_id": "Elevation0-9000","hist_area_km2": {"325": 0.0418,"350": 5.7943,"375": 23.3442,"400": 34.9955,"425": 47.4447,"450": 52.1936,"475": 48.7025,"500": 47.178,"525": 39.7098,"550": 32.1767,"575": 27.5315,"600": 32.7191,"625": 56.3911,"650": 91.8127,"675": 82.4072,"700": 85.7091,"725": 95.8068,"750": 77.5303,"775": 48.2731,"800": 26.2515,"825": 22.4034,"850": 20.1235,"875": 16.4634,"900": 15.5222,"925": 14.3926,"950": 11.0877,"975": 9.8327,"1000": 9.6656,"1025": 9.7702,"1050": 10.1048,"1075": 10.021,"1100": 14.3932,"1125": 15.4177,"1150": 14.2248,"1175": 17.6558,"1200": 21.0447,"1225": 21.5476,"1250": 15.3132,"1275": 12.5519,"1300": 11.3597,"1325": 10.8993,"1350": 7.7822,"1375": 3.9538,"1400": 2.0707,"1425": 1.1503,"1450": 1.192,"1475": 1.0875,"1500": 0.6901,"1525": 0.5228,"1550": 0.2928,"1575": 0.1464,"1600": 0.23,"1625": 0.0836,"1650": 0.0209,"1675": 0.0418}}}