{"type": "Feature","bbox": [8.2931,4.7268,8.6718,5.0961],"geometry": {"type": "MultiPolygon","coordinates": [[[[8.6653,4.9508,12.1785],[8.6649,4.9627,11.6491],[8.6718,4.9684,5.3944],[8.6545,4.9724,24.8052],[8.6413,4.9719,10.5182],[8.5858,4.9759,20.0933],[8.5758,4.9742,41.5763],[8.5521,4.9764,39.1004],[8.5222,4.9691,49.9861],[8.4906,4.9662,58.4223],[8.4632,4.9717,58.8935],[8.4518,4.9805,13.0865],[8.4446,4.9898,15.1956],[8.4435,4.9946,19.5611],[8.4334,5.0103,15.3317],[8.4308,5.0232,18.9038],[8.4226,5.0418,52.395],[8.402,5.0509,15.3261],[8.3889,5.0684,33.4027],[8.3791,5.0923,49.1829],[8.3702,5.0961,58.0518],[8.3623,5.0933,42.2713],[8.361,5.094,46.77],[8.3581,5.0883,27.575],[8.3519,5.0836,43.2641],[8.3601,5.0721,29.2965],[8.3609,5.0613,36.2216],[8.3572,5.0493,69.5215],[8.3523,5.043,68.3414],[8.3401,5.0176,69.0784],[8.3377,4.996,60.8728],[8.3419,4.9888,52.1486],[8.3529,4.983,61.2266],[8.3684,4.9828,13.1089],[8.3722,4.9804,10.9254],[8.3718,4.9696,3.8223],[8.3766,4.9654,12.4358],[8.3879,4.9617,11.8511],[8.3922,4.9575,16.0049],[8.3897,4.9462,10.4252],[8.3859,4.9396,15.1083],[8.3817,4.9386,14.3586],[8.3762,4.9391,15.518],[8.356,4.948,1.8727],[8.3503,4.9474,28.7818],[8.3486,4.9423,27.5146],[8.3498,4.9356,6.3272],[8.347,4.9313,7.9674],[8.346,4.9253,7.9714],[8.3055,4.9228,5.3087],[8.3016,4.9079,5.6294],[8.301,4.8982,5.009],[8.2986,4.8941,4.6596],[8.2986,4.8906,2.6379],[8.2946,4.8873,6.4352],[8.2931,4.8813,7.5686],[8.2943,4.8695,11.2858],[8.2986,4.8637,6.013],[8.3231,4.8504,8.1968],[8.3309,4.8373,4.4483],[8.3416,4.824,1.0],[8.3474,4.8113,8.6779],[8.3471,4.7876,0.5],[8.3484,4.779,0.0],[8.3563,4.7863,4.3013],[8.3601,4.7865,1.2538],[8.3657,4.779,4.0991],[8.3746,4.776,1.0771],[8.3929,4.7807,7.7889],[8.3957,4.7826,3.9209],[8.3996,4.7815,7.8696],[8.3974,4.7749,1.4744],[8.4004,4.769,5.0493],[8.4029,4.7674,5.4886],[8.4132,4.7671,1.9363],[8.3982,4.7654,2.8953],[8.3857,4.754,0.0],[8.3857,4.7474,0.0],[8.3879,4.7463,10.8994],[8.3932,4.7379,2.0978],[8.4007,4.7332,0.0],[8.4043,4.7326,4.3232],[8.4082,4.7349,0.0],[8.4121,4.7299,0.0],[8.4163,4.7279,1.4937],[8.424,4.7268,4.8578],[8.4296,4.7279,2.7919],[8.436,4.7321,0.0],[8.4376,4.736,5.4065],[8.4424,4.7371,10.3665],[8.4449,4.7351,0.0],[8.4485,4.7357,1.6193],[8.4576,4.7465,3.4731],[8.4585,4.7551,0.0],[8.4613,4.7554,8.2829],[8.4616,4.7572,9.0835],[8.4664,4.7528,11.9633],[8.4664,4.7544,8.2066],[8.476,4.7637,11.3874],[8.4855,4.7794,3.6671],[8.4995,4.7902,4.4259],[8.5234,4.8004,12.153],[8.5444,4.8033,0.0],[8.5559,4.8159,7.0461],[8.5618,4.818,5.3849],[8.5683,4.8155,0.0],[8.5715,4.8089,0.0],[8.5892,4.8194,8.2274],[8.5969,4.8391,15.3659],[8.6019,4.8456,18.1573],[8.6175,4.8518,4.5756],[8.6078,4.8589,6.4425],[8.603,4.8683,2.0],[8.603,4.8724,2.0],[8.6081,4.8851,4.0457],[8.622,4.905,8.4349],[8.6276,4.9069,1.8864],[8.6387,4.9064,9.7171],[8.647,4.9094,7.5599],[8.6495,4.9118,5.9537],[8.653,4.9193,7.4572],[8.6525,4.926,5.9365],[8.649,4.9349,5.5585],[8.6509,4.9427,4.2039],[8.6525,4.9454,8.3057],[8.6632,4.9477,9.4325],[8.6653,4.9508,12.1785]]]]}
,"properties": {"GID_2": "NGA.9.3_1","GID_0": "NGA","country": "Nigeria","GID_1": "NGA.9_1","province": "CrossRiver","NL_NAME_1": "NA","county": "Akpabuyo","VARNAME_2": "NA","NL_NAME_2": "NA","TYPE_2": "LocalAuthority","ENGTYPE_2": "LocalAuthority","CC_2": "NA","HASC_2": "NA","name": "Akpabuyo.county","area_km2": 791.6128,"hist_schema_id": "Elevation0-9000","hist_area_km2": {"0": 262.3246,"25": 329.203,"50": 186.3133,"75": 13.7719}}}