{"type":"Feature","properties":{"GID_2":"NGA.23.13_1","GID_0":"NGA","country":"Nigeria","GID_1":"NGA.23_1","province":"Kogi","NL_NAME_1":"NA","county":"Mopa-Muro","VARNAME_2":"NA","NL_NAME_2":"NA","TYPE_2":"LocalAuthority","ENGTYPE_2":"LocalAuthority","CC_2":"NA","HASC_2":"NA","name":"Mopa-Muro.county"},
"geometry":{"type": "MultiPolygon","coordinates": [[[[6.0018,8.1062,468.3987],[6.0307,8.1121,514.8101],[6.0334,8.121,457.7685],[6.0269,8.1485,383.0251],[6.0257,8.1723,294.5352],[6.0356,8.1869,322.1525],[6.0344,8.2136,317.8312],[6.0381,8.2394,303.3033],[6.0427,8.2522,451.4427],[6.0512,8.2652,370.1124],[6.056,8.2932,283.5384],[6.0518,8.3057,264.4019],[6.044,8.3163,264.8354],[6.0446,8.3137,267.944],[6.032,8.3056,264.4523],[5.9893,8.2913,240.4744],[5.9482,8.2754,243.0354],[5.9118,8.2592,245.5201],[5.8901,8.2449,276.925],[5.8563,8.2275,298.1783],[5.8432,8.2122,295.5734],[5.8013,8.1789,248.3559],[5.7927,8.1693,288.2353],[5.7865,8.1614,306.5495],[5.7843,8.14,345.2201],[5.7736,8.1194,323.2802],[5.7329,8.0708,349.2065],[5.7263,8.0603,412.0476],[5.7224,8.0364,445.0164],[5.7267,7.9725,394.4467],[5.7305,7.951,409.0746],[5.7406,7.931,441.8931],[5.7638,7.9117,465.6852],[5.7865,7.901,477.2865],[5.7997,7.8895,453.4665],[5.8058,7.882,500.423],[5.8083,7.8731,489.567],[5.836,7.8999,432.9478],[5.8481,7.9168,408.2319],[5.8631,7.9324,383.2656],[5.8689,7.9494,386.4085],[5.8957,7.9941,361.5935],[5.9075,8.0245,378.5015],[5.9221,8.0434,355.4614],[5.9763,8.0973,437.4574],[6.0018,8.1062,468.3987]]]]}}