{"type":"Feature","properties":{"GID_2":"NGA.5.11_1","GID_0":"NGA","country":"Nigeria","GID_1":"NGA.5_1","province":"Bauchi","NL_NAME_1":"NA","county":"Jama'are","VARNAME_2":"NA","NL_NAME_2":"NA","TYPE_2":"LocalAuthority","ENGTYPE_2":"LocalAuthority","CC_2":"NA","HASC_2":"NA","name":"Jama'are.county"},
"geometry":{"type": "MultiPolygon","coordinates": [[[[9.7591,11.7215,397.1299],[9.7694,11.7225,402.658],[9.7987,11.7146,400.0502],[9.8051,11.7038,401.3315],[9.8134,11.679,411.6647],[9.8223,11.6442,420.6906],[9.828,11.6138,413.4533],[9.8307,11.5755,417.4791],[9.8178,11.5516,423.85],[9.8333,11.5494,421.1542],[9.8683,11.5495,409.9228],[9.8859,11.5523,406.2869],[9.9034,11.5574,403.393],[9.9235,11.5707,402.5961],[9.9393,11.5838,397.6723],[9.9489,11.5942,394.7111],[9.9622,11.6195,393.9108],[9.9717,11.6312,394.4118],[9.9833,11.6405,396.5756],[10.0002,11.638,393.1099],[10.0315,11.6273,396.202],[10.046,11.6254,397.5908],[10.0606,11.6297,397.6845],[10.0812,11.6394,396.1365],[10.1103,11.6611,393.3385],[10.1202,11.6778,394.3745],[10.1239,11.6945,394.8807],[10.1166,11.7028,393.424],[10.0491,11.7318,391.9533],[10.0377,11.7394,387.3532],[10.0187,11.7466,384.2155],[9.9938,11.7619,386.0209],[9.9853,11.7602,386.4395],[9.9716,11.7633,387.0807],[9.9188,11.7604,385.6336],[9.8955,11.7628,385.3956],[9.8426,11.7624,391.8909],[9.8178,11.7583,399.1772],[9.7802,11.7442,403.9883],[9.7591,11.7215,397.1299]]]]}}