{"type": "Feature","bbox": [2.8571,6.5161,3.266,6.7721],"geometry": {"type": "MultiPolygon","coordinates": [[[[3.2517,6.7051,72.7392],[3.2524,6.7065,71.0147],[3.2521,6.7054,72.7392],[3.266,6.707,34.5555],[3.266,6.7179,53.1347],[3.26,6.7304,79.4578],[3.2606,6.7373,78.4736],[3.2566,6.7489,77.8471],[3.2498,6.7596,76.4041],[3.2439,6.7655,85.5387],[3.2337,6.7721,48.7157],[3.2239,6.7672,48.5892],[3.1592,6.7584,36.2382],[3.1084,6.7691,49.8528],[3.0772,6.7651,82.8658],[3.0694,6.7666,73.748],[3.0677,6.7641,72.8499],[3.0617,6.7628,74.1725],[3.0425,6.7631,63.7611],[3.0317,6.767,86.149],[3.025,6.7657,84.2158],[3.022,6.749,80.1208],[3.013,6.7362,47.8702],[3.0095,6.7335,60.4837],[3.0071,6.7266,63.5401],[3.0026,6.7207,69.2904],[2.9997,6.7113,58.8224],[2.9945,6.7036,62.785],[2.9936,6.6923,59.2623],[2.9906,6.6893,56.8323],[2.9711,6.6968,58.0715],[2.9623,6.6965,59.5264],[2.9454,6.7044,15.0654],[2.9218,6.6986,10.7191],[2.9031,6.6878,42.0936],[2.9001,6.6837,56.9737],[2.8978,6.6706,55.7388],[2.9051,6.6512,46.3124],[2.9045,6.6473,41.7986],[2.9076,6.6398,41.542],[2.9091,6.6304,39.0888],[2.9125,6.6275,39.3311],[2.9124,6.6213,38.6671],[2.9063,6.6136,25.4584],[2.8916,6.6053,31.4516],[2.8834,6.5962,26.9909],[2.8744,6.5934,16.1788],[2.8678,6.5875,10.7116],[2.8596,6.5777,38.0103],[2.8571,6.5679,27.8065],[2.8582,6.5612,29.7462],[2.8749,6.5245,31.9658],[2.8811,6.5161,8.1907],[2.8796,6.5218,24.2437],[2.8803,6.5251,9.4814],[2.887,6.5268,0.0],[2.8965,6.5245,9.3831],[2.9211,6.5237,13.1596],[2.9404,6.5183,22.6693],[2.9444,6.5182,20.4288],[2.9557,6.5222,17.5679],[2.9687,6.5219,11.8999],[2.9806,6.519,17.2478],[2.9915,6.5206,16.7855],[3.0344,6.5183,21.3719],[3.0804,6.5228,21.7742],[3.1035,6.5222,16.7053],[3.112,6.5195,13.3401],[3.1178,6.521,11.7037],[3.1344,6.5184,7.4998],[3.155,6.5195,8.1928],[3.1628,6.5221,17.0186],[3.1658,6.5213,17.4991],[3.1808,6.5333,7.2866],[3.183,6.5377,12.4868],[3.19,6.5601,12.53],[3.1906,6.5811,13.2628],[3.1953,6.6014,30.8375],[3.2165,6.6146,38.8481],[3.229,6.628,37.3545],[3.2318,6.6453,49.2469],[3.2303,6.6515,51.187],[3.2315,6.6561,50.8672],[3.2305,6.666,41.762],[3.2517,6.7051,72.7392]]]]}
,"properties": {"GID_2": "NGA.28.3_1","GID_0": "NGA","country": "Nigeria","GID_1": "NGA.28_1","province": "Ogun","NL_NAME_1": "NA","county": "AdoOdo/Ota","VARNAME_2": "NA","NL_NAME_2": "NA","TYPE_2": "LocalAuthority","ENGTYPE_2": "LocalAuthority","CC_2": "NA","HASC_2": "NA","name": "Ado_Odo_Ota.county","area_km2": 904.4674,"hist_schema_id": "Elevation0-9000","hist_area_km2": {"0": 103.6046,"25": 397.8362,"50": 303.642,"75": 99.2373,"100": 0.1474}}}