{"type":"Feature","properties":{"GID_2":"NGA.37.10_1","GID_0":"NGA","country":"Nigeria","GID_1":"NGA.37_1","province":"Zamfara","NL_NAME_1":"NA","county":"Maru","VARNAME_2":"NA","NL_NAME_2":"NA","TYPE_2":"LocalAuthority","ENGTYPE_2":"LocalAuthority","CC_2":"NA","HASC_2":"NA","name":"Maru.county"},
"geometry":{"type": "MultiPolygon","coordinates": [[[[6.8483,11.3104,575.3455],[6.8634,11.3233,574.6024],[6.8507,11.3441,586.5848],[6.8428,11.3516,598.771],[6.8345,11.3689,602.6157],[6.8347,11.3742,618.4214],[6.8161,11.3809,619.8068],[6.809,11.3907,607.5314],[6.8038,11.4057,619.4411],[6.7866,11.4124,612.1163],[6.7773,11.4142,601.3293],[6.7674,11.4268,589.2395],[6.7536,11.4366,593.298],[6.7332,11.4675,642.9712],[6.7231,11.4746,662.8882],[6.7081,11.4908,626.4933],[6.6833,11.5261,632.394],[6.6776,11.5563,583.3643],[6.6702,11.5705,605.6067],[6.666,11.5832,601.0294],[6.6528,11.5893,599.2683],[6.636,11.59,576.6412],[6.6239,11.5932,562.5129],[6.607,11.6212,591.2493],[6.5901,11.6409,573.2043],[6.5768,11.6495,570.7732],[6.5181,11.6617,561.5472],[6.5019,11.6627,548.1575],[6.4926,11.6598,563.955],[6.4745,11.6612,567.4312],[6.4461,11.6695,549.1512],[6.4344,11.6749,542.0004],[6.4198,11.6734,522.3341],[6.4095,11.6823,506.6954],[6.4002,11.6875,497.8749],[6.4017,11.6982,510.6801],[6.4074,11.7072,521.8696],[6.4358,11.7279,507.8896],[6.4633,11.7561,544.2727],[6.4711,11.7656,536.4041],[6.4792,11.7804,525.3364],[6.4674,11.7889,521.8859],[6.4644,11.7882,528.6459],[6.4532,11.7913,496.4149],[6.4362,11.8022,479.5053],[6.4273,11.8109,464.66],[6.404,11.8195,477.1365],[6.3991,11.8229,501.9845],[6.394,11.8293,475.9033],[6.3825,11.8357,463.1356],[6.3746,11.8372,454.1489],[6.3597,11.8477,464.0765],[6.3388,11.8595,451.0789],[6.3302,11.8608,444.6904],[6.3278,11.849,435.8562],[6.312,11.828,479.2288],[6.2785,11.788,460.6837],[6.2587,11.7693,478.163],[6.2376,11.7291,450.7508],[6.2198,11.7121,441.2956],[6.213,11.694,435.1482],[6.2116,11.672,426.3682],[6.2072,11.6676,425.0797],[6.2037,11.6609,419.7269],[6.1763,11.6435,401.686],[6.1563,11.6428,405.2778],[6.1365,11.647,409.4855],[6.1134,11.6602,413.9435],[6.0961,11.6665,390.3975],[6.0619,11.6643,386.3747],[5.9602,11.6642,415.3283],[5.9417,11.6575,398.8121],[5.9215,11.6543,398.287],[5.9049,11.654,397.0008],[5.9061,11.6082,395.931],[5.903,11.5956,406.3727],[5.9132,11.5803,400.6456],[5.9165,11.5725,406.6537],[5.9163,11.5332,420.1049],[5.8985,11.476,436.6743],[5.8929,11.4487,445.9697],[5.8832,11.4299,456.2577],[5.8831,11.4107,473.9784],[5.9454,11.3825,495.3131],[5.9701,11.3675,504.3658],[5.988,11.3459,490.4147],[6.0013,11.3195,497.0006],[6.0103,11.2919,497.8988],[6.0179,11.2298,480.4351],[6.0235,11.1987,491.9764],[6.0232,11.18,474.2685],[6.0271,11.1574,495.7819],[6.027,11.1113,479.4387],[6.0531,11.0752,483.7201],[6.0806,11.041,461.0634],[6.119,10.9725,442.0175],[6.142,10.9351,434.7792],[6.1676,10.8698,394.1013],[6.1665,10.8563,401.1288],[6.1773,10.856,414.207],[6.1937,10.8582,413.673],[6.2056,10.8632,409.192],[6.2143,10.8704,407.796],[6.2325,10.89,414.8601],[6.2504,10.9244,424.3574],[6.2605,10.9367,423.2205],[6.2908,10.9585,432.8065],[6.3137,10.9895,438.7359],[6.3306,11.0035,441.3808],[6.3456,11.012,442.0766],[6.366,11.0196,420.5092],[6.4368,11.0271,453.5573],[6.5168,11.0173,454.6639],[6.5651,11.018,467.3358],[6.6411,11.0279,520.6752],[6.6787,11.052,493.4942],[6.7002,11.0721,490.9154],[6.7279,11.1015,514.2997],[6.7523,11.153,525.3039],[6.7625,11.2097,557.5013],[6.7748,11.2415,572.2216],[6.804,11.2822,566.7578],[6.8225,11.2953,575.1296],[6.8483,11.3104,575.3455]]],
[[[6.3315,11.8672,441.0526],[6.3313,11.8662,438.9373],[6.3331,11.8689,446.6805],[6.3362,11.8849,448.6269],[6.3376,11.8983,495.7585],[6.3478,11.906,469.6069],[6.3632,11.8983,477.0316],[6.3748,11.907,459.3833],[6.4012,11.959,460.1317],[6.406,11.9791,448.3435],[6.4093,12.0491,438.426],[6.408,12.0655,428.7336],[6.4122,12.0877,441.8384],[6.4062,12.0939,444.1563],[6.4086,12.1048,450.634],[6.4019,12.1211,464.2224],[6.3709,12.1795,486.2354],[6.3753,12.2042,497.0406],[6.3862,12.23,457.0876],[6.3917,12.2374,448.7545],[6.4019,12.2454,441.4262],[6.4278,12.2583,415.86],[6.4465,12.2772,409.9519],[6.4537,12.2976,396.8547],[6.449,12.3071,390.4588],[6.4502,12.3193,391.6751],[6.4623,12.34,413.6397],[6.4616,12.3522,416.8136],[6.4583,12.3656,406.4771],[6.4537,12.3739,403.162],[6.4407,12.3858,411.1274],[6.4365,12.394,471.4903],[6.4361,12.4051,462.0305],[6.4389,12.411,452.0767],[6.43,12.4032,449.194],[6.4225,12.4015,420.536],[6.4107,12.4017,412.6472],[6.3936,12.4091,395.1885],[6.3721,12.4221,392.5588],[6.3417,12.4356,390.1157],[6.3012,12.4475,384.4464],[6.2804,12.4512,370.5822],[6.2654,12.4507,356.7698],[6.2458,12.4423,347.0026],[6.2689,12.4239,348.5108],[6.2756,12.4149,353.1809],[6.2803,12.4039,359.5487],[6.2629,12.3914,362.8401],[6.2486,12.3837,378.0058],[6.2367,12.3665,381.7829],[6.2206,12.324,398.5034],[6.211,12.2921,413.9418],[6.2032,12.2578,399.6016],[6.2042,12.2275,405.8644],[6.1983,12.1956,388.8517],[6.1906,12.1754,386.6204],[6.1913,12.1165,390.8071],[6.1886,12.0839,380.4266],[6.1951,12.0544,396.1173],[6.2097,12.028,369.4025],[6.2382,11.9929,397.3048],[6.2529,11.9787,416.567],[6.2626,11.9645,431.437],[6.2679,11.9421,415.5107],[6.2767,11.9187,444.0724],[6.2877,11.8994,420.1761],[6.2963,11.8886,414.3169],[6.3102,11.8763,424.8705],[6.3239,11.8757,433.7386],[6.332,11.8737,448.5036],[6.3315,11.8672,441.0526]]]]}}