{"type": "Feature","bbox": [7.0206,4.379,7.3401,4.6456],"geometry": {"type": "MultiPolygon","coordinates": [[[[7.3385,4.474,0.0],[7.3385,4.4723,0.0],[7.3401,4.476,2.6692],[7.3399,4.4785,3.1086],[7.3393,4.4754,1.1844],[7.3385,4.474,0.0]]],
[[[7.3349,4.4593,1.5929],[7.3353,4.4579,1.6617],[7.336,4.4621,0.0],[7.3349,4.4615,1.5227],[7.3349,4.4593,1.5929]]],
[[[7.2271,4.4493,1.0021],[7.2251,4.4501,2.7685],[7.2246,4.4482,2.7315],[7.2274,4.4485,1.3219],[7.2271,4.4493,1.0021]]],
[[[7.331,4.4485,1.6113],[7.3323,4.4479,1.6113],[7.3338,4.4518,0.6058],[7.331,4.4507,1.121],[7.331,4.4485,1.6113]]],
[[[7.3339,4.4521,0.0],[7.3338,4.4521,0.0],[7.3338,4.4518,0.6058],[7.3339,4.4521,0.0]]],
[[[7.2285,4.456,0.8814],[7.2265,4.4568,0.0],[7.2276,4.4546,0.0],[7.2293,4.4551,0.0],[7.2285,4.456,0.8814]]],
[[[7.2143,4.4768,2.6885],[7.2118,4.4776,0.8051],[7.2082,4.4751,1.2013],[7.2107,4.4715,0.9589],[7.211,4.4676,1.0534],[7.2054,4.4676,0.9395],[7.2004,4.4713,0.3346],[7.1985,4.4704,1.1193],[7.1996,4.4626,1.7397],[7.1979,4.4596,3.7133],[7.1954,4.4596,3.3585],[7.1929,4.4615,1.2926],[7.1896,4.4718,0.2213],[7.1849,4.4718,0.0],[7.1826,4.4699,0.0],[7.1812,4.4638,0.0],[7.1757,4.4601,0.0],[7.1757,4.4496,0.4919],[7.1804,4.4415,2.0472],[7.1885,4.4432,0.0],[7.1938,4.4376,3.5931],[7.1979,4.4368,0.8298],[7.2024,4.4388,3.9184],[7.2057,4.4488,9.4008],[7.2079,4.449,7.2422],[7.2101,4.4476,4.7913],[7.2118,4.4426,2.9205],[7.2149,4.4429,3.7285],[7.2168,4.4468,0.9329],[7.2185,4.4476,3.8678],[7.2238,4.4479,2.7315],[7.226,4.4551,0.0],[7.2235,4.4626,4.3292],[7.2263,4.4713,1.5841],[7.2188,4.4715,2.203],[7.2143,4.4768,2.6885]]],
[[[7.3174,4.4632,0.0],[7.3176,4.4626,0.0],[7.3179,4.4671,1.6924],[7.3168,4.4665,0.8188],[7.3174,4.4632,0.0]]],
[[[7.2104,4.4774,1.9594],[7.2112,4.4793,0.4282],[7.2101,4.4801,0.4282],[7.2068,4.4785,1.1324],[7.2035,4.4796,0.0],[7.201,4.4774,0.0],[7.1982,4.4779,1.1018],[7.1951,4.4835,0.1677],[7.1935,4.4826,0.2952],[7.189,4.4746,0.5401],[7.1921,4.4707,0.8589],[7.1935,4.4618,1.2926],[7.1976,4.4601,3.7133],[7.1985,4.464,0.0],[7.1968,4.4696,2.3591],[7.1988,4.4721,2.8881],[7.2076,4.4685,1.0173],[7.2071,4.4743,2.4442],[7.2104,4.4774,1.9594]]],
[[[7.2801,4.5946,0.0],[7.2788,4.5957,0.0],[7.2815,4.5926,0.0],[7.281,4.594,0.0],[7.2801,4.5946,0.0]]],
[[[7.2165,4.6443,1.3714],[7.2063,4.6456,3.6775],[7.1966,4.6365,1.7594],[7.1917,4.624,1.8869],[7.1968,4.6238,2.6618],[7.1982,4.6224,3.3191],[7.2001,4.6143,1.8546],[7.2065,4.6171,4.7875],[7.2049,4.6251,2.2127],[7.2107,4.6296,1.5171],[7.2085,4.6343,0.0],[7.2051,4.6371,2.8907],[7.2054,4.6407,2.7454],[7.2079,4.6435,0.8033],[7.2112,4.6429,1.1671],[7.2132,4.6401,1.7999],[7.2196,4.641,1.9293],[7.2199,4.6432,1.1621],[7.2165,4.6443,1.3714]]],
[[[7.2257,4.6399,1.2493],[7.2207,4.6426,1.1621],[7.2196,4.6401,6.0634],[7.2132,4.6393,1.7999],[7.2104,4.6424,1.1671],[7.2082,4.6426,0.8033],[7.206,4.6374,0.7479],[7.209,4.6349,0.0],[7.2115,4.6282,1.8454],[7.2138,4.6274,2.0394],[7.2146,4.6293,2.5545],[7.2182,4.6296,0.9839],[7.2207,4.6324,1.6239],[7.2251,4.6321,0.7103],[7.2257,4.6399,1.2493]]],
[[[7.0364,4.4685,3.7288],[7.0358,4.459,3.9945],[7.0391,4.4511,5.4078],[7.049,4.4395,10.2881],[7.0332,4.4363,0.0],[7.0368,4.4354,0.0],[7.0424,4.4376,0.0],[7.0521,4.4376,0.0],[7.066,4.4413,0.0],[7.0746,4.446,3.4794],[7.0751,4.4496,7.4893],[7.0712,4.4535,2.2915],[7.0688,4.4535,3.1677],[7.061,4.4646,5.8405],[7.0562,4.4785,6.2807],[7.0565,4.4851,4.7385],[7.059,4.4921,0.0],[7.0535,4.4963,2.3682],[7.0562,4.5012,4.7402],[7.0532,4.5085,1.4372],[7.0513,4.5096,1.9751],[7.0446,4.5087,2.7514],[7.0449,4.5104,1.8258],[7.0476,4.5096,1.5214],[7.0485,4.5138,6.392],[7.046,4.5163,4.3879],[7.0493,4.5154,2.3085],[7.0485,4.5099,1.5214],[7.0515,4.5104,1.9751],[7.054,4.5087,1.4372],[7.0571,4.5012,7.7143],[7.0543,4.4965,2.3682],[7.0565,4.4949,3.3141],[7.0599,4.4949,0.0],[7.0646,4.501,2.2786],[7.0704,4.5049,0.0],[7.0612,4.5143,0.0],[7.0521,4.5312,1.3726],[7.0507,4.5435,1.4641],[7.0465,4.5579,1.0174],[7.046,4.5782,2.2104],[7.0388,4.5843,0.0],[7.0295,4.5874,0.0],[7.026,4.5691,1.5184],[7.0224,4.5613,0.5155],[7.0206,4.5372,2.9827],[7.024,4.5279,2.0169],[7.0305,4.5172,1.2569],[7.0407,4.5064,1.3847],[7.0421,4.4967,2.9087],[7.041,4.4852,2.4762],[7.0364,4.4685,3.7288]]],
[[[7.1476,4.5213,0.0],[7.146,4.5232,0.0],[7.1457,4.5213,0.1309],[7.1476,4.521,0.0],[7.1476,4.5213,0.0]]],
[[[7.0729,4.561,1.4334],[7.0699,4.5618,2.2748],[7.0671,4.559,0.0],[7.0618,4.5576,0.3773],[7.0576,4.561,0.3851],[7.0526,4.5568,0.0],[7.0596,4.5268,0.4471],[7.0729,4.5124,0.8284],[7.0757,4.5062,1.9792],[7.0724,4.4954,3.3325],[7.0612,4.4832,13.7242],[7.0604,4.4779,2.9297],[7.0712,4.4638,0.0],[7.0768,4.459,1.9905],[7.0965,4.4524,0.0],[7.1054,4.451,0.0],[7.1085,4.4579,0.0],[7.1051,4.4682,0.0],[7.1051,4.4721,0.72],[7.1079,4.4776,1.6486],[7.106,4.4871,10.5726],[7.1074,4.4907,3.696],[7.1143,4.4982,0.9246],[7.1176,4.5082,1.4265],[7.1168,4.5124,0.0],[7.1101,4.5215,2.8589],[7.1093,4.5274,1.609],[7.106,4.5321,4.6045],[7.1051682613768961,4.53610746791132,0.0],[7.1051,4.5362,0.0],[7.1051,4.5364363636363612,0.0],[7.1049,4.5374,1.9746],[7.0982,4.546,0.7549],[7.0935,4.5499,1.1683],[7.0868,4.5515,3.3008],[7.0824,4.5557,0.6329],[7.0813,4.559,0.2895],[7.0729,4.561,1.4334]]],
[[[7.1051,4.5364363636363612,0.0],[7.1051682613768961,4.53610746791132,0.0],[7.1096,4.5301,0.0],[7.1113,4.5221,2.0571],[7.1163,4.5174,0.8471],[7.1193,4.5087,5.2289],[7.1293,4.5138,0.0],[7.1296,4.5163,0.0],[7.1262,4.5213,2.9338],[7.1307,4.5185,0.0],[7.134,4.5193,1.1014],[7.1371,4.5179,0.0],[7.1415,4.5215,1.5185],[7.1451,4.5282,8.6458],[7.1471,4.529,0.1828],[7.144,4.5365,1.0319],[7.1446,4.5385,0.8425],[7.1474,4.5357,0.1584],[7.1532,4.5349,0.0],[7.1576,4.5315,0.0],[7.1496,4.5279,0.0],[7.1488,4.5249,0.0],[7.1504,4.5176,0.9119],[7.1476,4.5126,1.9325],[7.1379,4.5085,3.9314],[7.1346,4.4985,1.8216],[7.126,4.4932,0.9314],[7.1262,4.4807,1.9545],[7.1218,4.4804,2.8729],[7.1174,4.484,1.327],[7.1143,4.484,1.8496],[7.1126,4.4776,1.4694],[7.1082,4.4718,0.0],[7.1088,4.4646,0.0],[7.1107,4.4626,0.0],[7.1162,4.4641,4.1091],[7.1224,4.4624,4.0226],[7.1243,4.4654,3.7294],[7.1271,4.4638,0.0],[7.1326,4.466,5.5743],[7.1363,4.4618,0.0],[7.1415,4.4604,0.0],[7.1468,4.4643,2.1935],[7.1537,4.4643,0.2291],[7.1579,4.4682,0.0],[7.151,4.4801,2.4273],[7.151,4.4835,1.5226],[7.154,4.4843,0.7078],[7.1521,4.4826,0.3333],[7.1529,4.479,0.0],[7.1579,4.4715,0.4901],[7.161,4.4715,0.0],[7.1724,4.4979,0.0],[7.1743,4.5074,0.5999],[7.1729,4.5174,0.0],[7.1751,4.5279,0.0],[7.1682,4.5365,0.0],[7.1537,4.5449,3.2547],[7.1404,4.5554,5.9062],[7.134,4.564,0.0],[7.1268,4.5651,5.0331],[7.1151,4.5643,0.4554],[7.1088,4.5674,0.4312],[7.1079,4.5693,0.9427],[7.0851,4.5707,0.0],[7.0838,4.5696,2.1002],[7.0843,4.5624,2.2002],[7.0829,4.5574,0.0],[7.0882,4.5518,0.0],[7.096,4.5493,0.7287],[7.1037,4.5413,1.4622],[7.1051,4.5388,3.5242],[7.1051,4.5364363636363612,0.0]]],
[[[7.2101,4.4804,0.4282],[7.2126,4.4788,1.9559],[7.2149,4.4804,0.6077],[7.2188,4.4804,1.4764],[7.2229,4.484,1.5334],[7.2196,4.4799,2.4934],[7.2151,4.4796,0.6077],[7.2135,4.4779,0.9577],[7.2188,4.4724,2.2593],[7.2268,4.4721,3.6924],[7.2274,4.4693,2.0083],[7.2246,4.4646,3.12],[7.2254,4.4585,0.0],[7.2296,4.456,0.8814],[7.2326,4.4474,2.0623],[7.2385,4.4485,1.0861],[7.2393,4.4515,1.4758],[7.2393,4.4465,0.0],[7.2487,4.446,3.4925],[7.2476,4.4446,2.592],[7.2343,4.4446,1.4456],[7.2426,4.4374,3.3924],[7.2279,4.4479,0.0],[7.219,4.4471,3.8678],[7.2174,4.4463,0.9329],[7.2163,4.4421,3.7541],[7.2126,4.4418,4.3165],[7.2107,4.4426,4.6211],[7.2096,4.4474,4.7913],[7.2071,4.4485,2.1761],[7.2054,4.4471,2.1761],[7.2029,4.4385,0.3893],[7.1951,4.4357,0.3861],[7.1865,4.4424,1.345],[7.1824,4.4404,1.9822],[7.1793,4.4415,2.0472],[7.1746,4.4479,0.943],[7.1749,4.4588,0.0],[7.1726,4.4588,0.0],[7.1701,4.4571,0.0],[7.1651,4.4435,3.571],[7.1615,4.441,0.0],[7.1601,4.4371,2.3802],[7.1576,4.4368,0.0],[7.1582,4.4351,3.2485],[7.1543,4.4315,1.4884],[7.154,4.4287,0.3229],[7.1479,4.4254,0.0],[7.1493,4.4232,0.6627],[7.1457,4.4193,4.3643],[7.1504,4.4163,2.6996],[7.1468,4.416,3.1523],[7.1443,4.4176,0.7174],[7.1426,4.4163,0.0],[7.1429,4.4132,4.6292],[7.1371,4.416,0.0],[7.1385,4.414,0.3329],[7.1382,4.4096,2.7378],[7.1457,4.4074,2.5228],[7.151,4.4032,1.601],[7.1546,4.4029,0.0],[7.154,4.4049,0.0],[7.1565,4.4051,0.4559],[7.1568,4.4029,0.0],[7.1693,4.4024,2.536],[7.1693,4.401,0.0],[7.1512,4.4024,1.601],[7.1454,4.4068,2.9074],[7.1388,4.4074,2.079],[7.1368,4.409,0.0],[7.1382,4.4068,1.5462],[7.1335,4.4024,0.0],[7.1326,4.3979,0.0],[7.1349,4.3849,0.0],[7.1568,4.3838,4.631],[7.1726,4.3804,0.0],[7.1904,4.379,2.335],[7.209,4.3807,2.7241],[7.2282,4.3863,1.1715],[7.2579,4.3982,1.4671],[7.2596,4.3968,0.0],[7.2612,4.3976,0.1595],[7.261,4.3993,1.4549],[7.2751,4.4021,1.8687],[7.326,4.4182,1.9402],[7.3263,4.4218,5.8132],[7.3196,4.4313,2.6102],[7.3168,4.4388,1.0222],[7.3168,4.4574,0.0],[7.3154,4.4618,0.4245],[7.3165,4.4676,1.6924],[7.3204,4.4749,2.8967],[7.316,4.4782,0.7011],[7.3124,4.4796,0.0],[7.3082,4.4785,2.4634],[7.304,4.4701,1.9445],[7.2976,4.4668,4.2262],[7.2929,4.4685,1.9673],[7.289,4.4729,1.1106],[7.2846,4.4749,4.3891],[7.2826,4.4779,3.0964],[7.2818,4.4843,0.0],[7.2738,4.4812,0.4845],[7.2685,4.4771,0.2654],[7.2618,4.4768,0.9953],[7.2593,4.4801,0.3063],[7.2587,4.4857,1.6435],[7.2571,4.4876,0.2155],[7.2457,4.4874,1.2221],[7.2468,4.4935,0.0],[7.2401,4.496,1.1097],[7.2401,4.5015,0.6867],[7.2346,4.5032,0.4031],[7.2318,4.4979,0.1383],[7.2274,4.4976,0.4802],[7.2193,4.506,0.102],[7.2151,4.5082,0.0],[7.2118,4.5026,0.1127],[7.2071,4.4999,0.0],[7.2046,4.4963,0.0652],[7.199,4.4938,0.0],[7.1957,4.4874,0.0],[7.1971,4.481,1.62],[7.2001,4.4785,0.0],[7.2026,4.4804,0.5721],[7.2063,4.479,0.6593],[7.2085,4.481,1.5296],[7.2101,4.4804,0.4282]]],
[[[7.2379,4.5368,0.4598],[7.2346,4.5376,0.0],[7.2312,4.536,0.0],[7.2193,4.5235,0.0],[7.2188,4.5196,0.41],[7.2154,4.5176,0.0],[7.2146,4.5112,0.0],[7.2274,4.4985,0.4802],[7.2321,4.499,0.4841],[7.2326,4.5029,0.1723],[7.2343,4.504,0.7884],[7.2404,4.5024,0.3285],[7.2418,4.5007,0.2786],[7.241,4.4963,0.0],[7.2476,4.4938,0.1976],[7.2465,4.4876,0.1773],[7.2574,4.4885,0.2155],[7.2587,4.4876,1.2322],[7.2601,4.4804,0.3063],[7.2624,4.4776,0.6662],[7.2679,4.4785,0.2654],[7.2813,4.4857,2.4704],[7.2838,4.4835,1.0855],[7.2846,4.4765,0.8802],[7.2885,4.4754,0.0],[7.296,4.4685,0.0],[7.2988,4.4682,0.5332],[7.3015,4.4701,1.0011],[7.3049,4.4779,0.0],[7.3082,4.4801,0.0],[7.3129,4.4812,1.7279],[7.3182,4.4788,0.3223],[7.3204,4.4799,1.2235],[7.3218,4.486,2.4165],[7.3288,4.4924,0.0],[7.3299,4.496,0.0],[7.3282,4.4982,1.396],[7.3187,4.5012,1.146],[7.3085,4.4999,1.5957],[7.2971,4.4954,4.8425],[7.2818,4.4932,1.8505],[7.2693,4.4951,0.5164],[7.2607,4.501,0.9794],[7.2485,4.5246,0.1085],[7.2379,4.5368,0.4598]]],
[[[7.144,4.5199,0.0],[7.1426,4.5215,1.5185],[7.1407,4.5207,0.3178],[7.1393,4.5185,0.0],[7.1415,4.5176,0.7107],[7.1407,4.5165,1.7917],[7.131,4.5179,0.0],[7.1285,4.5107,2.5231],[7.1193,4.5082,5.2289],[7.1163,4.496,0.0],[7.1088,4.4868,1.2536],[7.111,4.4796,0.2207],[7.1124,4.4799,0.2207],[7.1135,4.4843,1.8496],[7.1157,4.4851,0.6096],[7.1182,4.4843,1.327],[7.1201,4.4818,1.0303],[7.1257,4.4812,1.9545],[7.1254,4.4938,2.7359],[7.1338,4.4988,0.0],[7.1349,4.5046,2.8071],[7.1379,4.5093,1.4865],[7.1463,4.5121,0.3549],[7.149,4.5163,0.6341],[7.1493,4.5193,0.8558],[7.144,4.5199,0.0]]],
[[[7.3249,4.5413,0.1627],[7.3274,4.5415,0.0],[7.3257,4.5454,1.1061],[7.3243,4.5438,0.0],[7.3249,4.5413,0.1627]]],
[[[7.3274,4.5374,0.7432],[7.3218,4.5382,0.7707],[7.3135,4.5343,0.2714],[7.3135,4.5274,0.4154],[7.3107,4.5254,0.0],[7.3118,4.5218,0.746],[7.3157,4.5224,0.6046],[7.3165,4.5199,0.0],[7.3193,4.5201,0.0],[7.3196,4.5185,0.3335],[7.3179,4.5171,1.0832],[7.3187,4.5126,0.8793],[7.3243,4.5129,0.5554],[7.3257,4.5082,0.0],[7.3285,4.5087,0.0],[7.3293,4.5107,0.0],[7.3274,4.5374,0.7432]]],
[[[7.2854,4.5457,0.546],[7.2829,4.5463,0.2279],[7.281,4.544,0.2084],[7.2818,4.5421,1.3429],[7.2785,4.5418,0.647],[7.2768,4.539,0.8296],[7.2793,4.5357,0.814],[7.2785,4.5332,0.6824],[7.2799,4.5299,0.6142],[7.2876,4.5265,1.0366],[7.2854,4.521,1.7742],[7.2871,4.5176,0.3885],[7.2826,4.516,0.3787],[7.2885,4.5124,1.6653],[7.2893,4.509,0.2559],[7.2946,4.5107,1.8205],[7.2965,4.506,0.9053],[7.2988,4.5057,1.3251],[7.311,4.5099,0.6508],[7.3235,4.5099,0.0],[7.3235,4.5124,0.5554],[7.3182,4.5121,0.6996],[7.3171,4.516,0.528],[7.3187,4.519,0.0],[7.3165,4.519,0.0],[7.3151,4.5218,0.4397],[7.3113,4.5213,0.746],[7.3104,4.5218,0.746],[7.3096,4.5254,0.4905],[7.3129,4.5282,0.4154],[7.3115,4.531,0.74],[7.3124,4.5332,0.6013],[7.3076,4.5349,1.9613],[7.3043,4.5421,0.0],[7.3024,4.5415,1.6589],[7.3032,4.5346,1.0959],[7.2988,4.534,0.1994],[7.2965,4.5354,1.125],[7.2907,4.5307,0.2537],[7.2893,4.5376,0.6302],[7.2876,4.5393,0.0],[7.2879,4.5435,0.6624],[7.2854,4.5457,0.546]]],
[[[7.309,4.5557,0.0],[7.306,4.5554,0.0],[7.3065,4.5501,0.7832],[7.3115,4.5371,0.0],[7.3135,4.5365,0.0],[7.319,4.5415,0.6251],[7.3235,4.5424,0.0],[7.3235,4.5468,0.183],[7.3199,4.5451,0.9581],[7.3154,4.5454,1.1599],[7.3154,4.5479,0.3711],[7.3171,4.5476,1.0394],[7.3174,4.5457,0.6034],[7.321,4.5479,0.0],[7.3146,4.5499,0.7673],[7.309,4.5557,0.0]]],
[[[7.2785,4.551,0.1661],[7.2776,4.5529,0.0],[7.2751,4.5529,0.1529],[7.2749,4.5479,0.0],[7.2718,4.5451,0.5256],[7.2715,4.5429,0.2679],[7.279,4.5438,0.8967],[7.2815,4.546,0.2279],[7.2785,4.551,0.1661]]],
[[[7.2938,4.5435,0.375],[7.2946,4.5443,0.9488],[7.2912,4.5463,0.541],[7.2912,4.5454,0.9158],[7.2938,4.5435,0.375]]],
[[[7.2932,4.5457,0.3146],[7.296,4.5435,0.8172],[7.2985,4.544,1.5005],[7.2999,4.5421,0.4436],[7.3032,4.5446,0.0],[7.3026,4.5501,0.0],[7.2974,4.5596,0.3265],[7.2912,4.5588,0.0],[7.2904,4.5571,0.3857],[7.2918,4.5554,0.6303],[7.2896,4.5576,0.3857],[7.2863,4.5574,0.0],[7.2865,4.5532,0.1999],[7.2887,4.556,0.8675],[7.291,4.5549,0.3176],[7.2865,4.5526,0.1999],[7.2871,4.5499,0.2645],[7.2851,4.5471,0.0],[7.2885,4.5443,1.0215],[7.291,4.5321,0.6106],[7.2949,4.5357,0.9686],[7.3021,4.5349,1.0959],[7.3026,4.5376,0.919],[7.2982,4.5432,0.0],[7.2932,4.5421,0.6006],[7.2904,4.5432,0.8467],[7.289,4.5471,1.3728],[7.2912,4.5468,0.541],[7.2924,4.5513,0.6809],[7.2932,4.5507,0.6809],[7.2918,4.5474,1.0055],[7.2932,4.5457,0.3146]]],
[[[7.3271,4.5488,1.2905],[7.3307,4.5538,1.163],[7.3296,4.558,0.3912],[7.3311,4.5626,0.0],[7.3307,4.5668,2.3556],[7.3274,4.5701,2.3448],[7.3299,4.5745,0.0],[7.3272,4.5755,3.0449],[7.3153,4.5718,0.9113],[7.3093,4.5679,0.0],[7.311,4.5585,0.0],[7.314,4.5532,0.0],[7.3271,4.5488,1.2905]]],
[[[7.3013,4.5576,0.115],[7.3007,4.5599,0.0],[7.2999,4.5596,0.0],[7.3004,4.5574,0.115],[7.3013,4.5576,0.115]]],
[[[7.2779,4.5551,0.1311],[7.281,4.5565,0.1517],[7.2729,4.5554,0.3161],[7.2746,4.5535,0.1529],[7.2779,4.5551,0.1311]]],
[[[7.2851,4.5563,0.5713],[7.2824,4.5571,0.0],[7.2815,4.554,0.2049],[7.2838,4.5543,0.0],[7.2851,4.5563,0.5713]]],
[[[7.2768,4.5571,0.3949],[7.2771,4.5588,0.3229],[7.2746,4.5588,0.1264],[7.2754,4.5571,0.3949],[7.2768,4.5571,0.3949]]],
[[[7.2968,4.5735,0.1002],[7.2949,4.5854,0.185],[7.2926,4.5876,0.1069],[7.2943,4.591,0.0],[7.2929,4.5926,0.0],[7.2907,4.5924,0.0],[7.2854,4.5876,0.0],[7.2854,4.5829,0.0],[7.286,4.5815,0.0],[7.2896,4.581,0.2659],[7.2938,4.5743,0.3167],[7.2968,4.5735,0.1002]]],
[[[7.0832,4.5682,1.5627],[7.0821,4.5696,0.0],[7.0737,4.5685,1.021],[7.0699,4.5657,0.3966],[7.0696,4.5637,0.0],[7.0737,4.5612,0.3011],[7.0818,4.5599,0.0],[7.0838,4.5626,2.2002],[7.0832,4.5682,1.5627]]],
[[[7.305,4.6053,6.6845],[7.3119,4.6123,2.3486],[7.3068,4.6132,2.7991],[7.3066,4.6199,13.304],[7.3044,4.6213,10.5136],[7.3035,4.625,11.5152],[7.2955,4.6166,7.9609],[7.2909,4.6158,2.1719],[7.2723,4.6207,12.1202],[7.261,4.6204,0.9283],[7.2568,4.6254,0.0],[7.2538,4.6249,0.1033],[7.2449,4.6168,0.296],[7.246,4.6132,0.2719],[7.2515,4.6085,0.9057],[7.2496,4.6063,0.0],[7.2415,4.604,0.9386],[7.2415,4.601,1.154],[7.2446,4.5976,0.2557],[7.2529,4.5985,0.0],[7.2563,4.5957,0.0],[7.2507,4.5829,0.4492],[7.2538,4.5774,0.2024],[7.2538,4.5749,0.2308],[7.2507,4.5707,0.5196],[7.2507,4.5682,0.3733],[7.259,4.5643,0.6111],[7.2612,4.5599,1.4961],[7.2604,4.5543,0.2568],[7.2571,4.5518,1.1073],[7.2529,4.5515,0.5287],[7.2521,4.5496,0.2218],[7.2557,4.5426,0.1031],[7.2665,4.534,0.0781],[7.2693,4.5301,0.9901],[7.2699,4.5254,1.0723],[7.2685,4.5226,0.7343],[7.2604,4.5218,0.1079],[7.2596,4.5179,0.4888],[7.2665,4.5021,0.0],[7.2715,4.4985,0.0],[7.2799,4.499,1.4415],[7.2904,4.5035,0.0],[7.2949,4.5071,0.4311],[7.294,4.5101,1.008],[7.2912,4.5082,1.0718],[7.2887,4.5085,1.46],[7.2879,4.5121,1.6653],[7.2821,4.5154,1.5954],[7.2821,4.5171,1.8308],[7.2865,4.5182,0.3885],[7.2849,4.5213,1.7742],[7.2871,4.526,0.3487],[7.2818,4.5274,0.2773],[7.2793,4.5293,0.6142],[7.2779,4.5329,0.6824],[7.2785,4.5354,0.3941],[7.2774,4.536,0.7494],[7.2763,4.5388,0.8296],[7.2763,4.5407,0.7003],[7.2779,4.5424,0.2245],[7.2715,4.5421,0.2679],[7.2721,4.5379,0.401],[7.2704,4.5354,0.7361],[7.2679,4.5357,0.3296],[7.2713,4.5379,0.401],[7.2704,4.5449,0.3634],[7.2732,4.5468,0.3523],[7.2743,4.5501,0.2768],[7.2726,4.556,0.0],[7.2721,4.556,0.0],[7.2707,4.5526,0.1246],[7.2701,4.5526,0.1246],[7.2713,4.5565,0.0],[7.2679,4.5546,0.0],[7.2704,4.5571,0.0],[7.2668,4.559,0.628],[7.2704,4.5585,0.0],[7.2715,4.561,0.0],[7.2699,4.5668,0.0],[7.2724,4.5649,0.0],[7.276,4.5663,0.1885],[7.2707,4.5743,0.0871],[7.2685,4.5746,0.0859],[7.2676,4.5715,0.5165],[7.2662,4.5713,0.2714],[7.2679,4.5749,0.0859],[7.2674,4.579,0.0705],[7.2657,4.5801,0.1831],[7.2646,4.5782,0.4925],[7.2635,4.5796,0.0585],[7.2649,4.5807,0.0],[7.2624,4.5799,0.2038],[7.2618,4.5813,0.3683],[7.2662,4.5851,0.098],[7.264,4.5904,0.5975],[7.266,4.589,0.0756],[7.2676,4.584,0.1568],[7.2749,4.5865,0.3517],[7.2746,4.591,0.1648],[7.2718,4.591,0.1721],[7.2718,4.5921,0.5721],[7.2749,4.5918,0.1648],[7.2776,4.5882,0.0],[7.2788,4.5896,0.0],[7.2757,4.5993,0.1469],[7.2662,4.6032,1.5927],[7.2657,4.6057,0.0],[7.2696,4.6049,0.8241],[7.271,4.6018,1.1078],[7.2749,4.6021,2.8868],[7.2774,4.5993,0.0],[7.2824,4.6035,0.0],[7.2818,4.5996,0.1742],[7.2835,4.599,1.1166],[7.2857,4.5938,2.8109],[7.2879,4.5929,0.0808],[7.2899,4.5949,0.0],[7.2907,4.6024,0.1349],[7.2893,4.606,0.3797],[7.2918,4.6107,0.0],[7.2921,4.6096,0.9242],[7.291,4.6079,0.0],[7.2915,4.6054,0.0],[7.2976,4.599,0.1409],[7.3,4.5985,0.0947],[7.305,4.6053,6.6845]]],
[[[7.2757,4.5599,0.3229],[7.276,4.5643,0.171],[7.2735,4.5643,0.0],[7.2721,4.5596,0.1208],[7.2757,4.5599,0.3229]]],
[[[7.0685,4.574,0.0],[7.064,4.574,0.0],[7.0596,4.5685,1.1813],[7.0585,4.5618,0.3851],[7.0604,4.5599,0.0],[7.0657,4.5599,0.0],[7.0682,4.5626,0.0],[7.0715,4.569,0.0],[7.0685,4.574,0.0]]],
[[[7.1703,4.5883,2.0027],[7.1584,4.5839,2.2564],[7.1526,4.5787,2.6971],[7.1349,4.5718,0.0],[7.1407,4.5696,1.8739],[7.1418,4.5671,4.3697],[7.1454,4.5665,0.0],[7.1512,4.5604,0.0],[7.1557,4.5582,0.559],[7.166,4.5576,0.4756],[7.1713,4.5624,1.0076],[7.1768,4.5804,0.0],[7.1743,4.5912,1.1662],[7.1703,4.5883,2.0027]]],
[[[7.2871,4.579,0.0],[7.2799,4.5793,0.0841],[7.2754,4.5721,0.0],[7.2782,4.5599,0.2131],[7.2871,4.5588,0.5871],[7.2926,4.5626,0.855],[7.2996,4.5612,0.1364],[7.2965,4.5693,0.0],[7.2871,4.579,0.0]]],
[[[7.2496,4.6226,0.4865],[7.2507,4.6237,0.1312],[7.2339,4.629,7.6179],[7.2326,4.6307,7.63],[7.2301,4.6274,0.2971],[7.2265,4.6279,2.1657],[7.2279,4.6218,1.5177],[7.2251,4.6224,1.0233],[7.2243,4.6254,2.5696],[7.2218,4.6271,0.6139],[7.2232,4.6207,1.961],[7.2193,4.6196,1.2852],[7.221,4.6151,1.1497],[7.2154,4.6154,1.3229],[7.2151,4.614,1.3229],[7.2238,4.6101,1.3651],[7.2246,4.6082,1.1586],[7.2226,4.6038,0.0],[7.2246,4.5999,0.0],[7.2285,4.6018,0.2122],[7.231,4.6013,0.0],[7.2299,4.5965,0.5795],[7.2335,4.5938,1.8394],[7.2324,4.5868,1.4667],[7.2362,4.5829,2.001],[7.2387,4.5774,0.1708],[7.2482,4.5735,0.0],[7.244,4.5599,1.0563],[7.2385,4.5574,0.1726],[7.241,4.5421,0.0],[7.2579,4.5232,0.0],[7.2668,4.5229,0.0],[7.269,4.5249,1.0723],[7.2682,4.5307,0.1198],[7.2574,4.5393,0.7245],[7.2515,4.5482,0.2208],[7.2518,4.5518,0.0851],[7.2585,4.5532,0.4219],[7.2604,4.5574,0.5468],[7.2596,4.5626,0.4363],[7.2515,4.5663,0.6119],[7.2496,4.5699,1.5043],[7.2529,4.5771,0.2024],[7.249,4.5843,0.7003],[7.2551,4.596,0.0],[7.2521,4.5976,0.0],[7.2443,4.5968,1.6388],[7.2401,4.6024,3.4291],[7.2413,4.6051,0.9386],[7.2501,4.6076,0.6164],[7.244,4.6154,0.6826],[7.2446,4.6185,0.082],[7.2496,4.6226,0.4865]]],
[[[7.2751,4.5776,0.2393],[7.2749,4.5796,0.0],[7.2726,4.5782,0.0],[7.2735,4.5763,0.0614],[7.2751,4.5776,0.2393]]],
[[[7.2718,4.5796,0.0],[7.2699,4.5804,0.2538],[7.2676,4.5779,0.1873],[7.2707,4.5765,0.0],[7.2721,4.5774,0.0],[7.2718,4.5796,0.0]]],
[[[7.2738,4.581,0.0559],[7.2715,4.5821,0.0],[7.2724,4.5793,0.0],[7.2743,4.5799,0.0],[7.2738,4.581,0.0559]]],
[[[7.0409,4.6053,1.431],[7.0346,4.6088,1.5468],[7.03,4.5912,0.0],[7.0393,4.5893,1.2077],[7.0468,4.584,1.7428],[7.0493,4.5793,3.2865],[7.051,4.5676,2.4367],[7.0532,4.5665,0.0],[7.0596,4.5726,0.0],[7.0624,4.5782,0.4184],[7.0624,4.5854,1.1383],[7.0576,4.5918,0.0],[7.0501,4.5912,1.385],[7.0474,4.5932,0.7056],[7.044,4.5929,1.7577],[7.0474,4.5946,0.5765],[7.0479,4.5969,1.4093],[7.0409,4.6053,1.431]]],
[[[7.2318,4.6304,2.0943],[7.2296,4.6379,2.04],[7.2274,4.6385,1.1981],[7.2257,4.6315,0.8696],[7.2207,4.6315,1.6401],[7.2185,4.6288,0.9839],[7.2149,4.6285,2.0394],[7.214,4.6265,1.3598],[7.2104,4.6279,0.6044],[7.2063,4.626,0.9638],[7.2054,4.6232,0.3614],[7.2076,4.6179,1.6076],[7.2021,4.6135,2.088],[7.1996,4.6137,2.2937],[7.1957,4.6232,3.6402],[7.1914,4.6229,3.6654],[7.1871,4.6146,0.2421],[7.1915,4.6099,2.4041],[7.1971,4.5943,1.481],[7.2099,4.5796,0.0768],[7.2238,4.5685,0.0],[7.2332,4.5654,0.0],[7.2421,4.5599,0.0],[7.2465,4.5724,0.0],[7.236,4.5779,1.9674],[7.2335,4.5846,0.0],[7.2312,4.5865,2.0051],[7.2326,4.5943,1.8394],[7.229,4.596,1.1372],[7.229,4.5996,0.9049],[7.2229,4.5993,2.2063],[7.2213,4.6054,0.9014],[7.2235,4.6076,2.7177],[7.2229,4.6099,1.6359],[7.2143,4.6135,2.9866],[7.2151,4.6162,1.7592],[7.2204,4.6162,0.5153],[7.2185,4.6196,1.2852],[7.2224,4.621,1.961],[7.2204,4.6265,0.4941],[7.2215,4.6279,1.2808],[7.2232,4.6282,0.6139],[7.2257,4.6229,1.0233],[7.2274,4.6226,1.4143],[7.2254,4.6279,0.9432],[7.2263,4.629,0.5112],[7.2301,4.6285,0.2971],[7.2318,4.6304,2.0943]]]]}
,"properties": {"GID_2": "NGA.33.7_1","GID_0": "NGA","country": "Nigeria","GID_1": "NGA.33_1","province": "Rivers","NL_NAME_1": "NA","county": "Bonny","VARNAME_2": "NA","NL_NAME_2": "NA","TYPE_2": "LocalAuthority","ENGTYPE_2": "LocalAuthority","CC_2": "NA","HASC_2": "NA","name": "Bonny.county","area_km2": 514.639,"hist_schema_id": "Elevation0-9000","hist_area_km2": {"0": 505.1692,"25": 9.4698}}}