{"type": "Feature","bbox": [7.3802,5.472,7.5654,5.6744],"geometry": {"type": "MultiPolygon","coordinates": [[[[7.4544,5.6631,95.6407],[7.4303,5.6634,90.2718],[7.4181,5.6653,70.0382],[7.3859,5.6706,87.341],[7.3837,5.6744,95.7775],[7.3802,5.6744,92.2881],[7.3915,5.6541,95.5173],[7.4039,5.6359,95.6073],[7.3994,5.6027,105.9774],[7.4033,5.5842,77.559],[7.4028,5.5688,84.7306],[7.4052,5.547,57.9002],[7.4043,5.5323,55.6777],[7.4024,5.5268,56.3268],[7.4103,5.5241,73.2201],[7.4415,5.5243,99.533],[7.4452,5.5155,87.8041],[7.4428,5.5065,87.1426],[7.4447,5.4984,129.8082],[7.4435,5.4943,103.7902],[7.448,5.4843,151.9931],[7.4642,5.4774,155.6186],[7.4893,5.4739,120.6659],[7.5104,5.4764,156.9887],[7.5207,5.472,127.8886],[7.529,5.4724,116.3053],[7.5407,5.4855,133.6416],[7.5484,5.4872,142.7183],[7.5614,5.4817,78.7814],[7.564,5.4867,110.2269],[7.5652,5.4987,105.1121],[7.5654,5.5111,108.3734],[7.5627,5.5319,67.9383],[7.5512,5.5466,88.8095],[7.5372,5.5531,93.7194],[7.5324,5.5529,115.3881],[7.5079,5.5642,141.7152],[7.4915,5.5769,107.0217],[7.4732,5.6173,80.755],[7.463,5.6318,104.3556],[7.4539,5.6536,103.3429],[7.4544,5.6631,95.6407]]]]}
,"properties": {"GID_2": "NGA.1.16_1","GID_0": "NGA","country": "Nigeria","GID_1": "NGA.1_1","province": "Abia","NL_NAME_1": "NA","county": "UmuahiaNorth","VARNAME_2": "NA","NL_NAME_2": "NA","TYPE_2": "LocalAuthority","ENGTYPE_2": "LocalAuthority","CC_2": "NA","HASC_2": "NA","name": "Umuahia_North.county","area_km2": 230.8194,"hist_schema_id": "Elevation0-9000","hist_area_km2": {"50": 5.571,"75": 61.6149,"100": 76.1368,"125": 49.6785,"150": 33.3444,"175": 4.4739}}}