{"type": "Feature","bbox": [3.831,7.3114,3.9016,7.395],"geometry": {"type": "MultiPolygon","coordinates": [[[[3.8997,7.3661,170.5729],[3.894,7.375,204.7078],[3.8878,7.3788,184.1209],[3.8821,7.3812,176.4755],[3.8774,7.3789,194.9064],[3.8693,7.3786,196.3487],[3.8634,7.3808,192.2269],[3.8471,7.395,158.7516],[3.8462,7.3878,157.5869],[3.8325,7.3698,170.0804],[3.831,7.3615,154.1238],[3.8354,7.3497,167.2198],[3.851,7.3266,148.9566],[3.8538,7.3197,154.5914],[3.8596,7.3114,136.4443],[3.8648,7.3116,135.4708],[3.869,7.3146,157.8137],[3.8742,7.3138,191.3072],[3.8775,7.3289,173.1122],[3.8804,7.3337,173.9557],[3.8898,7.3474,169.0865],[3.9016,7.3578,177.3015],[3.8997,7.3661,170.5729]]]]}
,"properties": {"GID_2": "NGA.31.10_1","GID_0": "NGA","country": "Nigeria","GID_1": "NGA.31_1","province": "Oyo","NL_NAME_1": "NA","county": "IbadanSouth-West","VARNAME_2": "NA","NL_NAME_2": "NA","TYPE_2": "LocalAuthority","ENGTYPE_2": "LocalAuthority","CC_2": "NA","HASC_2": "NA","name": "Ibadan_South-West.county","area_km2": 40.20513,"hist_schema_id": "Elevation0-9000","hist_area_km2": {"125": 1.1566,"150": 15.96027,"175": 20.22853,"200": 2.7756,"225": 0.08412}}}