{"type": "Feature","bbox": [7.8308,11.9293,8.1338,12.2823],"geometry": {"type": "MultiPolygon","coordinates": [[[[7.9981,12.1334,539.1996],[7.9956,12.1431,546.7589],[7.9825,12.158,549.9346],[7.951,12.1717,558.6328],[7.9425,12.1813,554.8528],[7.934,12.195,556.5021],[7.911,12.2038,543.8138],[7.898,12.2191,542.7787],[7.8939,12.2308,532.1415],[7.8724,12.2613,541.4022],[7.8649,12.2667,536.1412],[7.8593,12.2823,531.0375],[7.8382,12.2629,521.4083],[7.8352,12.2571,519.0853],[7.8308,12.2111,546.8027],[7.8371,12.1622,550.7362],[7.8374,12.1385,557.8361],[7.8403,12.1053,564.01],[7.8396,12.0411,585.0214],[7.8378,12.0274,595.5243],[7.8422,12.0152,604.4713],[7.8418,12.0021,617.0782],[7.8376,11.9871,623.9507],[7.8408,11.9877,624.9066],[7.8483,11.985,609.9528],[7.8628,11.9834,603.5077],[7.8766,11.9706,598.9589],[7.8845,11.959,589.0867],[7.9003,11.949,591.3025],[7.9047,11.9368,595.5227],[7.91,11.9293,599.5111],[7.9718,11.951,574.9827],[7.9816,11.9528,571.5558],[7.9884,11.9521,562.773],[7.9988,11.947,554.8713],[8.0038,11.939,548.2385],[8.0176,11.9304,540.153],[8.0251,11.9323,547.3441],[8.0326,11.9432,543.8839],[8.0463,11.9535,533.5],[8.0535,11.9562,535.4008],[8.0666,11.9561,535.5889],[8.105,11.9482,523.3583],[8.1204,11.9519,519.598],[8.1338,11.9606,518.0],[8.1335,11.9663,518.0],[8.1267,11.9711,522.8046],[8.1229,11.9731,525.4748],[8.1107,11.9735,528.0293],[8.1067,11.9755,533.2379],[8.1017,11.9819,540.609],[8.0985,11.9878,548.1343],[8.0993,12.0001,545.4794],[8.0974,12.0157,550.0311],[8.0928,12.0288,549.5739],[8.0912,12.0401,541.9142],[8.0749,12.0526,553.4206],[8.065,12.0534,560.1719],[8.0135,12.0479,567.172],[8.0011,12.0484,570.6387],[7.9969,12.0519,578.148],[7.9944,12.0963,538.3804],[7.9981,12.1334,539.1996]]]]}
,"properties": {"GID_2": "NGA.20.35_1","GID_0": "NGA","country": "Nigeria","GID_1": "NGA.20_1","province": "Kano","NL_NAME_1": "NA","county": "Shanono","VARNAME_2": "NA","NL_NAME_2": "NA","TYPE_2": "LocalAuthority","ENGTYPE_2": "LocalAuthority","CC_2": "NA","HASC_2": "NA","name": "Shanono.county","area_km2": 624.9132,"hist_schema_id": "Elevation0-9000","hist_area_km2": {"525": 58.6896,"550": 240.9836,"575": 205.667,"600": 110.1991,"625": 9.3116,"650": 0.0622}}}