{"type":"Feature","properties":{"GID_2":"NGA.9.11_1","GID_0":"NGA","country":"Nigeria","GID_1":"NGA.9_1","province":"CrossRiver","NL_NAME_1":"NA","county":"Ikom","VARNAME_2":"NA","NL_NAME_2":"NA","TYPE_2":"LocalAuthority","ENGTYPE_2":"LocalAuthority","CC_2":"NA","HASC_2":"NA","name":"Ikom.county"},
"geometry":{"type": "MultiPolygon","coordinates": [[[[8.5858,5.714,411.037],[8.5896,5.7396,362.6268],[8.5865,5.7466,280.1077],[8.5837,5.7603,344.5304],[8.5854,5.7674,466.2541],[8.5948,5.7905,254.7404],[8.6192,5.8286,157.8286],[8.6298,5.8316,143.2484],[8.6554,5.8298,124.2993],[8.6685,5.8367,116.8974],[8.6738,5.8419,106.7171],[8.688,5.8751,104.058],[8.6892,5.8811,106.1829],[8.6877,5.8882,96.3552],[8.6892,5.8912,96.3992],[8.7,5.9025,88.1639],[8.7246,5.9157,111.1682],[8.7515,5.9374,134.0377],[8.7635,5.9683,92.3809],[8.7725,5.9808,101.7505],[8.7778,5.9931,105.4796],[8.7849,6.0034,117.3949],[8.7921,6.0076,129.7737],[8.798,6.0138,136.8865],[8.8034,6.0229,128.995],[8.8142,6.0356,109.5992],[8.815,6.0413,111.6516],[8.8111,6.0419,101.9634],[8.8082,6.0468,109.6138],[8.8041,6.0538,101.0917],[8.8022,6.0632,73.9708],[8.7914,6.0786,88.1911],[8.784,6.0933,83.8959],[8.7771,6.0957,75.9914],[8.7546,6.114,69.3254],[8.7353,6.1215,72.8842],[8.7233,6.1319,56.5426],[8.718,6.1338,67.3049],[8.7096,6.1422,71.0153],[8.7115,6.1463,80.2762],[8.7105,6.1671,84.4052],[8.7224,6.1784,88.7281],[8.7263,6.2037,121.8762],[8.7353,6.2188,120.4748],[8.7383,6.2335,100.1225],[8.7334,6.2725,125.4494],[8.7225,6.3081,124.2012],[8.7106,6.3289,101.0514],[8.6938,6.3506,116.6788],[8.6889,6.3608,110.8835],[8.6641,6.3525,50.4907],[8.6483,6.3426,96.1802],[8.6255,6.3354,54.7832],[8.5998,6.33,49.5931],[8.5779,6.3288,41.2787],[8.5678,6.3313,35.4166],[8.5492,6.339,45.842],[8.5292,6.3434,36.6306],[8.5118,6.3516,25.3998],[8.4889,6.3593,30.6769],[8.4699,6.3565,51.934],[8.4678,6.3512,62.6448],[8.47,6.3488,42.9082],[8.4729,6.3386,38.3888],[8.4796,6.3279,38.3688],[8.4792,6.316,28.944],[8.4678,6.2963,25.8759],[8.4649,6.2885,30.117],[8.4569,6.2806,27.0135],[8.4467,6.2743,31.1128],[8.4436,6.27,33.0096],[8.4393,6.2586,23.6714],[8.4406,6.2383,22.904],[8.4196,6.2232,29.5206],[8.4038,6.2046,24.1404],[8.4032,6.1976,22.1352],[8.4104,6.1708,25.3144],[8.4108,6.1526,24.0616],[8.4154,6.1214,23.4101],[8.4212,6.107,27.4486],[8.4423,6.0756,34.2687],[8.4399,6.0691,24.8885],[8.4408,6.0645,24.6677],[8.4495,6.0478,29.0457],[8.4643,6.0367,29.4595],[8.4791,6.039,49.2552],[8.4988,6.0308,44.7661],[8.5049,6.0233,35.0881],[8.5092,6.0145,36.4084],[8.5122,6.0029,40.882],[8.5107,5.9954,38.8635],[8.4966,5.9811,39.1328],[8.4647,5.9625,54.1164],[8.4572,5.9555,55.4402],[8.4557,5.9336,56.7242],[8.4634,5.9254,63.8118],[8.471,5.9087,99.6062],[8.47,5.9034,106.691],[8.4681,5.8993,110.6636],[8.4632,5.8948,101.7683],[8.4443,5.8829,93.01],[8.436,5.8697,124.8839],[8.4381,5.856,143.2759],[8.441,5.8491,94.3491],[8.4455,5.8437,81.3082],[8.4481,5.8328,114.0623],[8.4485,5.8137,213.2876],[8.4517,5.7964,204.0818],[8.4528,5.7652,202.9248],[8.4556,5.7431,287.9444],[8.5858,5.714,411.037]]]]}}