{"type": "Feature","bbox": [7.5902,11.0686,7.7836,11.2551],"geometry": {"type": "MultiPolygon","coordinates": [[[[7.6044,11.1315,690.7857],[7.6303,11.1304,666.6482],[7.6661,11.118,653.465],[7.6788,11.1106,645.9482],[7.688,11.101,649.7437],[7.6987,11.0933,648.2805],[7.7119,11.0713,656.6088],[7.7166,11.0686,646.8278],[7.7478,11.0891,611.8792],[7.7818,11.1059,648.9071],[7.7808,11.1073,645.5263],[7.7723,11.1083,642.9298],[7.783,11.1165,634.5301],[7.7836,11.1456,615.0],[7.7821,11.1626,636.8873],[7.778,11.1746,644.1375],[7.764,11.2023,654.088],[7.7458,11.2039,640.257],[7.7326,11.2081,633.1555],[7.7185,11.2067,628.0682],[7.7079,11.2015,640.4993],[7.6909,11.1962,655.2209],[7.6788,11.1942,665.9648],[7.669,11.2013,665.1095],[7.6639,11.2107,666.1559],[7.6555,11.2212,670.3406],[7.6429,11.2522,657.6891],[7.6368,11.2551,664.9949],[7.6333,11.2504,665.2523],[7.6212,11.2429,666.6548],[7.6035,11.2372,673.9757],[7.6001,11.212,672.1056],[7.5902,11.1703,690.7791],[7.5915,11.1415,706.7143],[7.6044,11.1315,690.7857]]]]}
,"properties": {"GID_2": "NGA.19.19_1","GID_0": "NGA","country": "Nigeria","GID_1": "NGA.19_1","province": "Kaduna","NL_NAME_1": "NA","county": "SabonGari","VARNAME_2": "NA","NL_NAME_2": "NA","TYPE_2": "LocalAuthority","ENGTYPE_2": "LocalAuthority","CC_2": "NA","HASC_2": "NA","name": "Sabon_Gari.county","area_km2": 245.2267,"hist_schema_id": "Elevation0-9000","hist_area_km2": {"600": 4.2857,"625": 70.8956,"650": 78.5063,"675": 63.4381,"700": 28.101}}}