{"type":"Feature","properties":{"featurecla":"River","scalerank":9,"rivernum":982,"dissolve":"982River","name":"Hadejia3","name_alt":null,"note":null,"min_zoom":7.1,"strokeweig":0.2,"name_en":"Hadejia","min_label":8.1},
"geometry":{"type": "LineString","coordinates": [[8.550048828125,11.82221100468162,427.229],[8.5846191406250227,11.80536530155662,426.3729],[8.6139160156250227,11.783319403119108,433.4006],[8.6285644531250227,11.74713776249412,425.3371],[8.655517578125,11.72223541874412,422.332],[8.68408203125,11.73847077030662,418.0825],[8.71484375,11.75556061405662,414.2667],[8.7630859375000227,11.75324127811912,422.342],[8.808349609375,11.76386139530662,432.4124],[8.8302246093750227,11.78400299686912,422.6563],[8.8556152343750227,11.79718659061912,417.7056],[8.882080078125,11.808124090619117,408.0195],[8.888916015625,11.83612702030662,421.5427],[8.8839355468750227,11.920770574994108,406.9678],[8.905517578125,12.000018621869117,401.6292]]}}