{"type":"Feature","properties":{"featurecla":"River","scalerank":9,"rivernum":982,"dissolve":"982River","name":"Hadejia4","name_alt":null,"note":null,"min_zoom":7.1,"strokeweig":0.2,"name_en":"Hadejia","min_label":8.1},
"geometry":{"type": "LineString","coordinates": [[8.0,11.64996979374412,526.1863],[8.01171875,11.68964264530662,521.0],[8.030517578125,11.724969793744108,506.0126],[8.053955078125,11.72955963749412,497.1372],[8.07958984375,11.72772858280662,510.9137],[8.09423828125,11.73871491093162,509.7762],[8.11083984375,11.752704168744117,503.6625],[8.15087890625,11.77509186405662,484.6932],[8.1944824218750227,11.78888580936912,468.1865],[8.2367187500000227,11.78449127811912,476.7186],[8.2777343750000227,11.78888580936912,477.801],[8.2904296875000227,11.802850653119108,473.275],[8.3094726562500227,11.815204168744117,471.4911],[8.324951171875,11.82843659061912,470.6846],[8.3416992187500227,11.84442780155662,464.8606],[8.37158203125,11.872674871869108,463.941],[8.4052734375,11.898553778119108,454.1663],[8.441162109375,11.88678619999412,441.3602],[8.4803710937500227,11.868280340619108,440.4871],[8.518310546875,11.848407293744117,432.708],[8.550048828125,11.82221100468162,427.229]]}}