{"type":"Feature","properties":{"featurecla":"River","scalerank":9,"rivernum":982,"dissolve":"982River","name":"Hadejia2","name_alt":null,"note":null,"min_zoom":7.1,"strokeweig":0.15,"name_en":"Hadejia","min_label":8.1},
"geometry":{"type": "LineString","coordinates": [[7.4930664062500227,11.54083893436912,622.7833],[7.572021484375,11.558221746869108,638.7032],[7.5966796875,11.554315496869108,596.0004],[7.6222167968750227,11.54437897343162,584.3956],[7.6424804687500227,11.55255768436912,577.0589],[7.6612792968750227,11.565448309369117,578.7488],[7.68359375,11.573602606244108,579.8512],[7.70556640625,11.577752996869108,562.8538],[7.7384277343750227,11.59528229374412,571.17],[7.772216796875,11.61383698124412,563.5748],[7.8056640625,11.62030670780662,554.8632],[7.84326171875,11.630389715619117,537.2454],[7.9215332031250227,11.64179108280662,521.7847],[8.0,11.64996979374412,526.1863]]}}