{"type":"Feature","properties":{"GID_2":"NGA.17.6_1","GID_0":"NGA","country":"Nigeria","GID_1":"NGA.17_1","province":"Imo","NL_NAME_1":"NA","county":"IdeatoNorth","VARNAME_2":"NA","NL_NAME_2":"NA","TYPE_2":"LocalAuthority","ENGTYPE_2":"LocalAuthority","CC_2":"NA","HASC_2":"NA","name":"Ideato_North.county"},
"geometry":{"type": "MultiPolygon","coordinates": [[[[7.0717,5.9234,188.8701],[7.074,5.9218,201.2341],[7.0677,5.9044,186.8841],[7.0706,5.8873,185.2677],[7.0735,5.8817,180.0497],[7.0856,5.8707,211.8911],[7.0873,5.863,203.603],[7.0853,5.8508,187.0299],[7.0781,5.8346,150.3675],[7.079,5.8194,129.4185],[7.0842,5.8122,129.4109],[7.0887,5.8092,123.465],[7.1048,5.8183,212.6731],[7.1116,5.8246,251.949],[7.1404,5.8363,164.9351],[7.1587,5.8399,132.0925],[7.1656,5.8382,127.8032],[7.175,5.8337,145.1271],[7.1806,5.8276,149.4279],[7.1883,5.8037,128.6558],[7.1935,5.7981,127.3204],[7.1929,5.7907,134.4814],[7.1949,5.7854,112.6587],[7.2003,5.7761,109.7545],[7.2058,5.7717,111.0275],[7.2121,5.8075,125.5323],[7.2233,5.8287,103.2749],[7.2234,5.8335,106.8647],[7.234,5.8392,94.9198],[7.2239,5.8381,105.8569],[7.2352,5.8525,99.612799999999993],[7.2482,5.8527,104.7066],[7.2593,5.8578,111.3038],[7.2509,5.8787,118.8618],[7.2384,5.8918,112.0313],[7.2299,5.9069,116.8535],[7.2257999999999996,5.9225,105.7765],[7.1862,5.9081,132.4686],[7.1641,5.9034,164.9181],[7.1003,5.9216,275.1559],[7.0717,5.9234,188.8701]]]]}}