{"type": "Feature","bbox": [8.3369,9.9233,8.785,10.6677],"geometry": {"type": "MultiPolygon","coordinates": [[[[8.7413,10.5491,816.9027],[8.7243,10.5444,843.0746],[8.6758,10.5548,810.5372],[8.6564,10.566,782.3931],[8.6499,10.5714,772.2827],[8.6258,10.6001,735.9294],[8.6181,10.6154,747.9326],[8.5735,10.6256,734.6907],[8.5459,10.6282,705.6042],[8.5229,10.6279,722.328],[8.5047,10.6309,723.6862],[8.4874,10.6481,721.028],[8.4817,10.6677,730.3782],[8.4539,10.6589,834.8298],[8.4247,10.6401,792.8255],[8.4173,10.6232,877.2356],[8.415,10.601,880.259],[8.411,10.588,935.458],[8.4168,10.5492,735.0286],[8.412,10.5321,756.1144],[8.4016,10.5174,836.3906],[8.3691,10.4083,807.3554],[8.3449,10.3549,912.2209],[8.3427,10.3223,860.4215],[8.3369,10.2907,868.7899],[8.3485,10.2742,1116.5728],[8.3614,10.264099999999999,999.9051],[8.3784,10.2466,869.6366],[8.4165,10.2184,767.9507],[8.4345,10.2087,800.5706],[8.4594,10.1612,754.1642],[8.4772,10.1186,797.4451],[8.4756,10.102,794.9885],[8.4779,10.0908,782.14],[8.4745,10.0755,766.0193],[8.4725,10.0536,754.6833],[8.4605,10.0138,764.5654],[8.4602,9.9611,773.8843],[8.47,9.9619,796.5592],[8.4832,9.9699,792.5961],[8.4943,9.9807,780.1022],[8.5045,9.9847,772.9014],[8.5217,9.9833,788.2993],[8.5365,9.9851,797.8898],[8.5499,9.9933,804.1085],[8.5619,9.9983,809.2161],[8.5838,9.9875,824.0533],[8.5938,9.9706,842.5632],[8.6067,9.9366,896.8782],[8.6251,9.9309,1004.1065],[8.632,9.9233,919.4313],[8.6315,9.9291,913.7849],[8.6369,9.9467,874.2075],[8.6571,9.9594,915.8865],[8.6756,9.9783,923.4063],[8.6756,9.9972,948.3389],[8.6634,10.0347,918.4116],[8.6508,10.0576,870.7622],[8.6414,10.0798,859.5336],[8.6421,10.1001,832.5908],[8.645,10.1232,814.5311],[8.6631,10.174,823.0665],[8.6794,10.2028,844.2803],[8.7101,10.225,814.671],[8.7455,10.2368,838.5326],[8.7667,10.2617,843.564],[8.7756,10.2847,849.6968],[8.7791,10.3311,843.8555],[8.785,10.3357,835.897],[8.7442,10.3791,824.3807],[8.7291,10.389,780.7207],[8.7165,10.3935,763.8775],[8.6991,10.407,756.6421],[8.6947,10.4187,770.4433],[8.6987,10.4289,775.5782],[8.7248,10.4668,801.3064],[8.7327,10.4858,831.1157],[8.7346,10.5017,823.4881],[8.7437,10.5346,850.3409],[8.7413,10.5491,816.9027]]]]}
,"properties": {"GID_2": "NGA.19.17_1","GID_0": "NGA","country": "Nigeria","GID_1": "NGA.19_1","province": "Kaduna","NL_NAME_1": "NA","county": "Lere","VARNAME_2": "NA","NL_NAME_2": "NA","TYPE_2": "LocalAuthority","ENGTYPE_2": "LocalAuthority","CC_2": "NA","HASC_2": "NA","name": "Lere.county","area_km2": 2325.18,"hist_schema_id": "Elevation0-9000","hist_area_km2": {"675": 0.625,"700": 17.95,"725": 133.586,"750": 371.08,"775": 598.327,"800": 581.507,"825": 350.455,"850": 112.332,"875": 49.051,"900": 37.095,"925": 25.246,"950": 15.46,"975": 14.105,"1000": 9.035,"1025": 4.861,"1050": 2.399,"1075": 1.022,"1100": 0.48,"1125": 0.271,"1150": 0.25,"1175": 0.042}}}