{"type": "Feature","bbox": [7.3148,5.057,7.3867,5.1282],"geometry": {"type": "MultiPolygon","coordinates": [[[[7.3781,5.057,53.9988],[7.3835,5.0647,53.6082],[7.3867,5.0773,55.9342],[7.3849,5.0921,57.1221],[7.3856,5.107,35.0858],[7.3836,5.1121,51.9293],[7.3777,5.1201,56.8279],[7.372,5.1232,63.5464],[7.3654,5.1258,62.8208],[7.3499,5.1282,64.7067],[7.3213,5.0987,57.3419],[7.3148,5.088,53.2079],[7.3223,5.0874,54.4642],[7.3333,5.0891,56.0315],[7.3428,5.1095,57.0942],[7.3585,5.113,62.6115],[7.3655,5.113,60.7983],[7.3668,5.1076,61.5234],[7.376,5.1025,58.5242],[7.3777,5.0937,56.422],[7.3777,5.0815,54.8674],[7.369,5.057,53.2343],[7.3781,5.057,53.9988]]]]}
,"properties": {"GID_2": "NGA.1.1_1","GID_0": "NGA","country": "Nigeria","GID_1": "NGA.1_1","province": "Abia","NL_NAME_1": "NA","county": "AbaNorth","VARNAME_2": "NA","NL_NAME_2": "NA","TYPE_2": "LocalAuthority","ENGTYPE_2": "LocalAuthority","CC_2": "NA","HASC_2": "NA","name": "Aba_North.county","area_km2": 18.01386,"hist_schema_id": "Elevation0-9000","hist_area_km2": {"25": 0.52795,"50": 14.25491,"75": 3.231}}}