{"type": "Feature","bbox": [6.0502,12.4015,6.4843,13.0659],"geometry": {"type": "MultiPolygon","coordinates": [[[[6.0502,12.9957,340.4365],[6.0514,12.9811,321.6121],[6.0603,12.9448,295.3584],[6.0623,12.9199,299.8935],[6.06,12.8977,307.2551],[6.064,12.879,310.3583],[6.0636,12.8257,311.04],[6.0664,12.7938,330.4553],[6.0653,12.7911,332.8926],[6.0817,12.767,353.0011],[6.0905,12.7401,349.603],[6.1103,12.6987,323.9366],[6.1441,12.6593,311.4246],[6.1594,12.6308,328.7224],[6.1681,12.6191,337.5071],[6.1626,12.615,337.5327],[6.1808,12.6014,341.8407],[6.1968,12.5837,344.9724],[6.2054,12.5703,361.3018],[6.212,12.5378,332.5],[6.2069,12.5252,332.5],[6.2032,12.5062,332.5],[6.1947,12.4935,333.5656],[6.1963,12.4772,342.5472],[6.2055,12.4619,331.8608],[6.2175,12.4522,334.0067],[6.2309,12.4501,336.174],[6.2458,12.4423,347.0026],[6.2654,12.4507,356.7698],[6.2804,12.4512,370.5822],[6.3012,12.4475,384.4464],[6.3417,12.4356,390.1157],[6.3721,12.4221,392.5588],[6.3936,12.4091,395.1885],[6.4107,12.4017,412.6472],[6.4225,12.4015,420.536],[6.43,12.4032,449.194],[6.4423,12.414,448.4874],[6.454,12.4279,440.4308],[6.4639,12.4417,443.5583],[6.4668,12.4502,440.5759],[6.4705,12.4542,446.5879],[6.4773,12.47,469.0122],[6.4816,12.4738,464.4368],[6.4843,12.4742,459.3851],[6.4812,12.4892,451.009],[6.4581,12.5216,439.8545],[6.4583,12.5359,456.7233],[6.4534,12.5583,448.9569],[6.4547,12.5765,437.4942],[6.4502,12.5929,471.731],[6.4469,12.6185,485.4124],[6.4512,12.639099999999999,408.0997],[6.4793,12.684,388.918],[6.482,12.6923,385.6556],[6.4761,12.705,380.964],[6.468,12.7116,392.8063],[6.4529,12.7167,392.1029],[6.4426,12.7139,386.6131],[6.4121,12.7104,410.7894],[6.404,12.7123,412.6096],[6.3979,12.7192,406.364],[6.3956,12.7298,400.9655],[6.4106,12.746,387.9725],[6.4291,12.757,388.1509],[6.4542,12.7683,363.1674],[6.4655,12.7702,353.9911],[6.4726,12.7748,357.081],[6.4819,12.784,362.88],[6.4827,12.7892,356.2426],[6.4796,12.7949,346.0124],[6.4631,12.8065,348.4124],[6.449,12.8132,361.2754],[6.4285,12.8129,374.9258],[6.4115,12.8172,371.6863],[6.4204,12.8329,361.8763],[6.4458,12.8603,343.6025],[6.4439,12.8748,353.2848],[6.44,12.8832,357.8272],[6.4369,12.8992,345.2147],[6.4508,12.9198,339.3784],[6.4705,12.9369,342.4603],[6.4743,12.9479,342.8],[6.4743,12.9582,334.7811],[6.4551,12.9653,329.6435],[6.4194,12.958,328.4519],[6.3925,12.9488,354.1757],[6.3585,12.9481,374.9576],[6.3454,12.9528,373.3966],[6.327,12.9654,370.8947],[6.2976,12.9942,342.574],[6.2873,13.0085,356.4986],[6.2832,13.018,361.5431],[6.2759,13.0285,366.0424],[6.2603,13.0464,360.2948],[6.2526,13.043,354.8548],[6.2443,13.0522,351.7313],[6.2295,13.0552,345.7827],[6.2177,13.0625,341.159],[6.2091,13.0659,334.95],[6.164,13.0658,328.6937],[6.1256,13.0552,327.2355],[6.0856,13.0411,331.5186],[6.0515,13.0123,332.9106],[6.0502,12.9957,340.4365]]]]}
,"properties": {"GID_2": "NGA.37.9_1","GID_0": "NGA","country": "Nigeria","GID_1": "NGA.37_1","province": "Zamfara","NL_NAME_1": "NA","county": "Maradun","VARNAME_2": "NA","NL_NAME_2": "NA","TYPE_2": "LocalAuthority","ENGTYPE_2": "LocalAuthority","CC_2": "NA","HASC_2": "NA","name": "Maradun.county","area_km2": 2332.53,"hist_schema_id": "Elevation0-9000","hist_area_km2": {"275": 0.599,"300": 139.674,"325": 556.592,"350": 613.524,"375": 412.13,"400": 308.711,"425": 189.507,"450": 82.277,"475": 21.65,"500": 5.837,"525": 1.284,"550": 0.414,"575": 0.29,"600": 0.041}}}