{"type": "Feature","bbox": [11.6293,10.0292,14.6762,13.7144],"geometry": {"type": "MultiPolygon","coordinates": [[[[11.9138,10.0594,186.7143],[11.9438,10.0451,184.0801],[11.9866,10.0357,179.9955],[12.0479,10.0292,206.3748],[12.0916,10.0322,268.0556],[12.1313,10.041,499.2338],[12.1653,10.0534,571.0099],[12.1935,10.0705,691.9568],[12.2209,10.1009,657.9507],[12.2428,10.1396,610.6771],[12.2812,10.1897,538.3025],[12.3147,10.2281,502.2739],[12.3428,10.2645,481.8907],[12.3813,10.3026,343.9083],[12.422,10.3165,323.5634],[12.468,10.3211,341.7178],[12.5235,10.3244,476.1671],[12.5792,10.3419,367.3408],[12.6188,10.36,449.8284],[12.6583,10.4018,422.6406],[12.6715,10.4444,428.7889],[12.7251,10.4466,463.3222],[12.7631,10.4649,486.2878],[12.7988,10.524,593.7355],[12.8329,10.5585,431.1931],[12.8735,10.5821,441.3648],[12.9479,10.5797,466.2556],[13.0111,10.5695,487.8689],[13.0574,10.553,510.8898],[13.0991,10.5281,537.9763],[13.145,10.4784,509.3421],[13.1842,10.46,537.5273],[13.2226,10.4437,493.2786],[13.2592,10.4401,496.6712],[13.2935,10.4439,530.1276],[13.312,10.4634,519.294],[13.3196,10.5173,489.2912],[13.3359,10.5874,508.2234],[13.3797,10.6783,472.526],[13.3994,10.7363,463.3975],[13.4136,10.8018,444.354],[13.4169,10.847,428.2616],[13.4141,10.8923,422.1587],[13.4181,10.9298,426.8621],[13.468,10.9366,426.0307],[13.478,10.9249,424.8743],[13.4988,10.9162,423.0781],[13.5385,10.9066,438.3612],[13.601,10.9113,456.6999],[13.663,10.9324,493.6507],[13.6917,10.939,741.2139],[13.6947,10.9668,644.1486],[13.7073,10.9788,832.8203],[13.7244,10.9815,904.4536],[13.7263,10.9835,874.0266],[13.7309,10.994,961.8967],[13.7278,10.9985,888.0895],[13.728,11.0019,867.332],[13.7347,11.0114,907.8887],[13.7459,11.0112,978.6237],[13.7637,11.0074,953.5632],[13.7849,11.0076,633.838],[13.7925,11.0097,501.1302],[13.7973,11.0166,494.6124],[13.7947,11.0259,502.6696],[13.8,11.0311,490.6493],[13.799,11.0339,491.498],[13.8085,11.0461,476.9428],[13.8109,11.0532,472.7938],[13.8137,11.0627,465.6891],[13.8123,11.0692,466.781],[13.8185,11.0743,463.3506],[13.8256,11.0713,459.0155],[13.8295,11.0858,451.7362],[13.8344,11.0864,450.1725],[13.8393,11.0915,444.5031],[13.8472,11.0922,439.9143],[13.8488,11.0959,436.0654],[13.8554,11.1007,430.7138],[13.8578,11.1039,427.3347],[13.8573,11.1065,426.2363],[13.8606,11.1106,421.9867],[13.8585,11.1153,421.1825],[13.8595,11.1176,419.7866],[13.8655,11.12,418.5707],[13.8717,11.133,410.101],[13.8767,11.1351,406.052],[13.8788,11.1465,400.9004],[13.8817,11.1534,398.2287],[13.8893,11.1606,396.6879],[13.9062,11.1682,385.7879],[13.9102,11.1737,383.2899],[13.9125,11.1812,381.1255],[13.9136,11.1941,374.8055],[13.9153,11.197,374.2336],[13.9272,11.2026,369.2213],[13.9276,11.2106,365.255],[13.9338,11.216,361.794],[13.9363,11.2234,359.2914],[13.9403,11.2244,358.9534],[13.9475,11.2392,353.7558],[13.9532,11.2457,350.8728],[13.9575,11.2611,345.6205],[13.9686,11.2804,339.3474],[13.9732,11.3067,331.5177],[13.9806,11.3188,332.724],[13.9856,11.3204,324.5077],[13.9949,11.3137,326.1071],[14.0102,11.3085,329.6947],[14.0149,11.3037,332.6418],[14.0334,11.296,331.8857],[14.0424,11.2941,330.6703],[14.0678,11.2822,330.7036],[14.0818,11.2827,329.1007],[14.1008,11.2788,328.3272],[14.1101,11.2699,330.6351],[14.1107,11.2628,332.5345],[14.125,11.2581,331.3621],[14.1493,11.254,331.2219],[14.1639,11.2494,327.397],[14.169,11.2456,326.3528],[14.1755,11.2482,325.2507],[14.1827,11.2547,323.6233],[14.1891,11.2556,321.9297],[14.1947,11.2527,321.8326],[14.1988,11.2528,320.3669],[14.2021,11.2547,319.4401],[14.2046,11.2603,318.9283],[14.2136,11.2643,318.5864],[14.2164,11.2699,317.3126],[14.2357,11.2887,313.6087],[14.2397,11.2889,312.8274],[14.2453,11.2926,312.1517],[14.2565,11.2958,311.5898],[14.266,11.3031,310.1794],[14.3223,11.3328,309.207],[14.3571,11.3556,308.7156],[14.3901,11.3813,306.054],[14.4067,11.3978,308.7939],[14.4141,11.4018,306.7134],[14.4232,11.4154,306.5014],[14.4283,11.4199,304.7193],[14.4463,11.4186,303.7946],[14.4583,11.4239,302.5693],[14.4661,11.425,303.4622],[14.4775,11.4395,302.9898],[14.4921,11.4488,302.2195],[14.5012,11.4599,301.5215],[14.5077,11.4642,301.183],[14.5161,11.4728,300.983],[14.5312,11.4749,300.5545],[14.5549,11.482,300.7],[14.5696,11.494,299.7053],[14.5774,11.4955,299.6273],[14.5827,11.4985,299.5258],[14.5955,11.4998,299.5898],[14.6018,11.5061,299.609],[14.6145,11.513,299.5352],[14.62,11.5365,299.1385],[14.6282,11.5569,299.6652],[14.6323,11.5638,298.0307],[14.6402,11.5707,298.0213],[14.6426,11.576,297.8401],[14.6439,11.5827,297.78],[14.6428,11.5976,297.9482],[14.6502,11.6092,297.7443],[14.6471,11.618,297.7054],[14.6393,11.6233,297.3154],[14.6373,11.6284,297.0249],[14.6384,11.6371,296.8295],[14.6362,11.6416,296.813],[14.6397,11.6465,296.9727],[14.6407,11.6508,297.2229],[14.6343,11.6588,296.7432],[14.626,11.6635,296.662],[14.623,11.6713,296.6327],[14.6188,11.6757,296.6493],[14.6096,11.6783,296.6156],[14.6076,11.6859,296.4938],[14.6039,11.6903,296.5088],[14.5991,11.7006,296.3051],[14.5941,11.702,296.4266],[14.5798,11.6997,295.9075],[14.5661,11.709,296.0912],[14.5568,11.7089,295.9865],[14.5531,11.7109,296.1699],[14.5527,11.715,295.9143],[14.5485,11.723,295.9599],[14.5719,11.7353,295.5072],[14.574,11.7382,295.2563],[14.5744,11.7453,295.3107],[14.5767,11.7504,295.67],[14.5841,11.7505,294.9977],[14.5871,11.7552,295.1091],[14.5942,11.7568,295.1507],[14.5988,11.7597,295.0864],[14.6126,11.7806,294.4914],[14.608,11.7859,294.4556],[14.6046,11.7956,293.9525],[14.6055,11.8053,293.4325],[14.6089,11.8179,293.253],[14.6047,11.8331,292.7544],[14.6064,11.8411,292.667],[14.6124,11.8464,292.5489],[14.6143,11.8503,292.4694],[14.6135,11.8532,292.702],[14.6072,11.8576,292.9062],[14.6028,11.865,292.8568],[14.609,11.8755,291.7969],[14.6178,11.8807,292.4039],[14.6244,11.8909,291.6652],[14.6282,11.9013,291.3944],[14.642,11.9101,291.0755],[14.6335,11.9274,292.3748],[14.6337,11.9316,291.6916],[14.6433,11.94,291.8184],[14.648,11.9485,290.9379],[14.6525,11.9522,291.9071],[14.6537,11.957,291.2318],[14.6518,11.9631,292.0118],[14.6479,11.9643,292.0547],[14.6423,11.9689,292.1683],[14.6401,11.9774,291.6833],[14.6367,11.9809,291.4312],[14.6359,11.9866,291.8889],[14.6331,11.9895,292.0789],[14.6312,11.9964,291.9941],[14.6319,12.0082,291.5698],[14.6255,12.0229,291.522],[14.6209,12.0256,291.5032],[14.6197,12.0403,291.12],[14.6243,12.0493,290.7713],[14.6316,12.0581,290.4165],[14.6531,12.0623,290.9158],[14.6533,12.067,290.554],[14.6449,12.0702,290.9688],[14.639,12.0753,290.8469],[14.6335,12.0862,290.7471],[14.634,12.0918,290.32],[14.6465,12.1043,289.6915],[14.654,12.1175,290.5121],[14.6536,12.1282,290.3295],[14.6495,12.1358,289.6544],[14.6515,12.139,290.2589],[14.6557,12.138,289.4399],[14.6623,12.144,289.3359],[14.6635,12.1472,289.6539],[14.6669,12.1485,289.8461],[14.6693,12.1537,289.3777],[14.6732,12.1559,288.5294],[14.6762,12.1598,289.7889],[14.6751,12.1686,289.6372],[14.6726,12.1741,289.7483],[14.6626,12.1782,288.9106],[14.6652,12.1889,289.3616],[14.6594,12.1971,288.1644],[14.6522,12.1964,290.4263],[14.6476,12.1905,290.0391],[14.6419,12.1941,290.4273],[14.6411,12.1896,288.8043],[14.6395,12.1886,289.2321],[14.632,12.1922,290.899],[14.6281,12.1874,288.6992],[14.6311,12.1826,289.2628],[14.6313,12.1803,289.4724],[14.629,12.1792,289.0004],[14.6193,12.1826,289.3917],[14.6135,12.183,289.9769],[14.613,12.1861,289.282],[14.6148,12.1865,287.8987],[14.6152,12.189,287.6589],[14.6104,12.1881,289.711],[14.6037,12.191,289.56],[14.5975,12.1903,289.2266],[14.5971,12.1951,288.8273],[14.6062,12.1953,288.9579],[14.6073,12.197,289.3233],[14.6006,12.2113,289.2399],[14.594,12.2123,289.5103],[14.5905,12.2159,288.4486],[14.5908,12.2178,287.7551],[14.594,12.2199,288.6945],[14.5911,12.2265,289.6538],[14.5815,12.2264,289.6005],[14.5719,12.2241,288.7676],[14.567,12.2299,289.1335],[14.5487,12.2353,289.4542],[14.548,12.241,288.175],[14.5536,12.2449,288.1525],[14.5546,12.2502,290.5127],[14.5597,12.2593,288.4196],[14.5574,12.2599,287.9334],[14.5527,12.2551,288.5894],[14.5481,12.2564,287.7904],[14.5414,12.2722,288.3962],[14.5455,12.277,287.6063],[14.545,12.2803,288.8793],[14.5397,12.2823,288.5688],[14.5338,12.2878,289.5657],[14.5291,12.2878,288.791],[14.525,12.2899,288.8443],[14.5204,12.2959,288.0376],[14.5147,12.295,288.7325],[14.511,12.2962,288.4395],[14.5144,12.3046,287.0811],[14.5101,12.311,288.6365],[14.5097,12.3149,288.1932],[14.514099999999999,12.3164,287.7853],[14.5191,12.3133,288.2689],[14.5207,12.314,288.0687],[14.5205,12.3247,287.8199],[14.5163,12.3283,287.9282],[14.5012,12.329,287.0801],[14.4942,12.3368,288.1044],[14.4853,12.3401,288.0735],[14.4844,12.343,286.6446],[14.4886,12.3477,288.5259],[14.4872,12.3515,288.3885],[14.4828,12.3518,287.4255],[14.4799,12.3446,289.6354],[14.476,12.3449,288.8071],[14.4729,12.3477,287.8076],[14.4677,12.3581,286.3701],[14.4635,12.3593,287.3032],[14.4558,12.3563,287.1854],[14.448,12.3468,287.7094],[14.4436,12.3518,286.6964],[14.4436,12.3622,286.7665],[14.4335,12.3692,286.5297],[14.4286,12.3682,287.525],[14.4229,12.3614,287.2308],[14.4169,12.3613,287.6725],[14.4065,12.366,286.4996],[14.3999,12.3662,288.2087],[14.3897,12.364,286.62],[14.3837,12.358,287.7196],[14.3788,12.357,287.4826],[14.376,12.3578,287.7554],[14.3714,12.3627,286.4622],[14.3639,12.3647,286.7398],[14.351,12.363,287.0142],[14.3289,12.3747,287.1449],[14.3228,12.3724,285.8045],[14.319,12.3662,286.6548],[14.3114,12.3591,286.8067],[14.309,12.3586,287.2505],[14.2998,12.3604,287.4238],[14.2984,12.3626,287.8722],[14.3001,12.3654,287.4062],[14.2993,12.3687,287.8961],[14.2914,12.3725,286.8936],[14.2886,12.3709,287.4175],[14.2891,12.3683,287.7501],[14.2951,12.3649,286.5976],[14.2961,12.3613,286.963],[14.293,12.3556,286.1914],[14.2876,12.3568,288.5795],[14.2858,12.3591,287.3351],[14.2822,12.3704,285.9394],[14.2732,12.3735,286.5594],[14.2658,12.372,286.9986],[14.2613,12.3681,287.7025],[14.2466,12.3679,286.7575],[14.2365,12.3635,286.6864],[14.2205,12.3624,285.1163],[14.2164,12.3657,286.8374],[14.2157,12.3688,290.3647],[14.2162,12.3715,290.5974],[14.2199,12.3731,290.8829],[14.2182,12.376,285.0822],[14.1977,12.386,285.2428],[14.1856,12.406,285.4969],[14.1733,12.4078,288.863],[14.1706,12.4104,286.9618],[14.1702,12.4123,287.1874],[14.1766,12.4177,286.6344],[14.1734,12.4234,286.8283],[14.1734,12.4294,288.6552],[14.1758,12.4299,286.3883],[14.1811,12.4272,285.4056],[14.1831,12.4295,285.6999],[14.1835,12.4348,288.0962],[14.1855,12.4359,288.5247],[14.1887,12.4334,285.7393],[14.1927,12.4331,285.5208],[14.193,12.4359,285.3353],[14.1862,12.4405,286.8956],[14.186,12.4431,287.114],[14.1874,12.4457,286.2564],[14.1944,12.4481,286.1733],[14.1911,12.4507,284.4875],[14.1833,12.446,285.6358],[14.1787,12.4482,288.157],[14.181,12.4539,285.5015],[14.1783,12.4648,285.8508],[14.1734,12.4739,286.3202],[14.1741,12.4796,286.0418],[14.1845,12.4822,289.0536],[14.1866,12.4854,288.3851],[14.1879,12.4989,284.7711],[14.1927,12.5019,284.6515],[14.1951,12.5016,283.4728],[14.197,12.5039,283.7598],[14.1942,12.5137,283.3275],[14.1854,12.5243,282.5551],[14.1837,12.5292,282.2878],[14.1229,12.8791,280.9686],[14.0854,13.0781,280.4203],[14.0677,13.0974,280.1177],[14.066,13.1017,280.1415],[14.0519,13.1217,280.2957],[14.0484,13.1238,280.1762],[14.025,13.1599,280.1695],[13.9798,13.2214,279.9963],[13.977,13.2276,279.567],[13.9744,13.229,279.4819],[13.9669,13.2391,279.4037],[13.8893,13.3461,278.8482],[13.8843,13.3567,279.995],[13.8702,13.3734,279.9979],[13.8659,13.3829,280.5919],[13.8612,13.3863,281.0986],[13.8497,13.4028,282.3377],[13.8034,13.4703,281.447],[13.7994,13.4791,276.4564],[13.7845,13.4965,276.4044],[13.781,13.5059,276.2083],[13.7744,13.5117,276.0293],[13.7626,13.5284,275.5846],[13.7611,13.5332,275.4751],[13.7555,13.5378,281.5283],[13.7519,13.545,281.7465],[13.7155,13.5961,274.5197],[13.7122,13.6056,283.3719],[13.7028,13.6143,282.1657],[13.6832,13.6414,281.9061],[13.6621,13.6666,274.0618],[13.6621,13.6693,273.9669],[13.6378,13.7015,281.795],[13.6345,13.7107,273.4942],[13.6166,13.7106,273.4976],[13.6128,13.7087,273.6265],[13.5921,13.7107,273.5828],[13.5869,13.7093,273.4801],[13.5549,13.7113,272.8205],[13.4653,13.7094,271.8047],[13.4568,13.7112,273.684],[13.4162,13.7092,273.4731],[13.3924,13.7118,276.79],[13.3762,13.7104,281.1908],[13.3705,13.7136,280.4686],[13.3625,13.7117,279.3214],[13.3538,13.7144,281.7413],[13.3491,13.7101,282.1173],[13.3411,13.71,282.5515],[13.3348,13.6933,283.6222],[13.3313,13.6915,286.3943],[13.3178,13.691,283.7719],[13.3148,13.6894,284.6053],[13.3136,13.683,285.4293],[13.3087,13.6812,284.6569],[13.3063,13.6747,285.0717],[13.2995,13.6743,284.3514],[13.2978,13.6727,284.5895],[13.3004,13.6642,285.7178],[13.2985,13.658,285.8164],[13.2933,13.6594,285.6181],[13.2832,13.6516,287.9704],[13.2745,13.6475,284.9218],[13.2712,13.6431,287.3702],[13.2754,13.6383,285.5782],[13.265,13.6311,285.8228],[13.2615,13.6224,286.6633],[13.2572,13.6178,288.7],[13.2499,13.6151,287.4301],[13.2483,13.613,288.3048],[13.2541,13.6063,287.8458],[13.2548,13.5969,289.6835],[13.2621,13.5987,289.2463],[13.2652,13.5941,288.0389],[13.2569,13.5879,289.0123],[13.2571,13.5845,287.8741],[13.2548,13.5815,290.1024],[13.2517,13.5806,288.9286],[13.2397,13.5864,289.9318],[13.2355,13.5848,289.5983],[13.2324,13.5735,289.153],[13.2331,13.5717,291.5235],[13.2385,13.5721,289.4841],[13.2414,13.5705,290.4611],[13.2411,13.5636,289.1036],[13.2376,13.5583,289.3267],[13.2321,13.5553,293.1638],[13.2216,13.5528,289.5097],[13.2201,13.5466,290.3519],[13.2185,13.5462,290.799],[13.2157,13.5515,288.6732],[13.2143,13.5503,289.9217],[13.2083,13.5266,291.4645],[13.2001,13.5225,291.1318],[13.1987,13.5188,290.1444],[13.2001,13.5115,290.7457],[13.1987,13.5103,290.576],[13.1949,13.5108,290.8619],[13.1916,13.5149,289.7264],[13.1865,13.5301,292.5599],[13.1839,13.5322,292.1192],[13.1792,13.5324,291.6893],[13.1653,13.5283,292.1838],[13.1627,13.5263,291.2195],[13.163,13.5219,291.8087],[13.158,13.5178,292.0898],[13.1594,13.514099999999999,291.8508],[13.158,13.5129,292.5378],[13.1552,13.5127,292.0731],[13.1495,13.5155,292.3864],[13.1432,13.5148,293.0308],[13.142,13.518,291.5706],[13.1453,13.5298,293.2484],[13.1444,13.5367,293.3535],[13.1498,13.5449,292.3738],[13.1482,13.5477,293.2888],[13.1456,13.5472,291.7858],[13.139,13.5401,292.3023],[13.1242,13.5397,293.3466],[13.1225,13.5362,292.8003],[13.1286,13.5284,293.8472],[13.1253,13.5247,293.1927],[13.1274,13.519,293.3727],[13.123,13.5197,294.0013],[13.1056,13.5353,293.5789],[13.1007,13.5308,293.6226],[13.0936,13.5163,293.3837],[13.0908,13.5147,294.5287],[13.0868,13.5204,291.4308],[13.0833,13.5195,292.1219],[13.072,13.5232,294.0223],[13.0671,13.5271,293.8141],[13.0675,13.531,294.4798],[13.0715,13.535,292.8318],[13.0753,13.5349,296.2921],[13.0819,13.5437,294.641],[13.0814,13.5457,293.2971],[13.0755,13.5474,292.5301],[13.065,13.5471,292.1435],[13.0577,13.5403,295.7509],[13.0548,13.5394,293.1219],[13.0492,13.5426,293.7295],[13.0476,13.5414,293.7088],[13.045,13.532,294.1907],[13.0467,13.5244,294.6495],[13.0418,13.5255,293.1855],[13.0302,13.5321,294.2817],[13.0262,13.531,294.4834],[13.012,13.5139,295.6601],[13.0078,13.5111,295.4966],[13.0045,13.5111,294.584],[13.0012,13.514,294.5302],[12.9951,13.5138,295.0467],[12.9861,13.5098,294.0945],[12.9758,13.5095,294.9535],[12.9741,13.5139,295.6372],[12.9706,13.5155,294.0854],[12.9612,13.4972,297.3748],[12.9542,13.5096,295.4715],[12.9469,13.5029,295.3583],[12.9378,13.5001,295.274],[12.9305,13.4934,295.9587],[12.924,13.4832,296.0508],[12.9062,13.4811,295.817],[12.9012,13.4852,296.1566],[12.8925,13.4856,296.0497],[12.8915,13.493,296.1758],[12.8771,13.4971,296.5276],[12.8738,13.495,297.3786],[12.8726,13.4881,297.4274],[12.8735,13.4839,296.9185],[12.8794,13.4775,298.1232],[12.8784,13.4701,296.0537],[12.8744,13.4704,296.1397],[12.8658,13.477,297.8471],[12.8585,13.48,298.2323],[12.8561,13.4759,297.9703],[12.8521,13.4741,296.7141],[12.8493,13.4704,298.0916],[12.8512,13.4686,299.024],[12.8613,13.4678,297.3172],[12.8625,13.4656,296.5807],[12.8554,13.4495,297.2845],[12.8617,13.4412,298.8065],[12.8612,13.4366,298.1486],[12.8479,13.4391,297.1796],[12.8417,13.4437,296.8364],[12.8378,13.4426,296.628],[12.8354,13.438,298.2484],[12.8387,13.4318,298.4172],[12.838,13.429,298.1572],[12.8298,13.4306,298.236],[12.8276,13.4263,299.1225],[12.8168,13.4256,298.4075],[12.8152,13.4233,297.6139],[12.8161,13.4212,299.1566],[12.829,13.4198,298.3047],[12.8316,13.4173,297.7894],[12.834,13.4044,298.0911],[12.8316,13.398,297.1475],[12.8279,13.3968,298.4111],[12.8253,13.4072,298.4287],[12.8222,13.4056,298.8221],[12.8192,13.4007,298.776],[12.821,13.3966,298.3292],[12.8196,13.3931,298.4328],[12.8003,13.381,297.9309],[12.7975,13.3807,298.4789],[12.7942,13.375,302.3665],[12.7954,13.3718,301.7218],[12.7942,13.3688,300.9544],[12.7874,13.3612,301.5435],[12.7724,13.3541,298.7247],[12.763,13.3518,299.0411],[12.7548,13.352,299.3299],[12.7533,13.3536,299.4825],[12.7404,13.3403,300.0287],[12.7376,13.335,299.1815],[12.7385,13.3318,299.7824],[12.743,13.3288,299.5262],[12.7421,13.3251,301.8511],[12.7383,13.3214,300.2143],[12.7305,13.3189,299.4704],[12.7146,13.3168,300.5743],[12.7139,13.3145,299.7956],[12.7216,13.3067,302.4869],[12.7143,13.3042,302.4005],[12.7037,13.3134,299.9776],[12.6981,13.3122,299.9254],[12.6929,13.3132,300.4149],[12.6906,13.3088,300.4591],[12.6939,13.3005,301.4775],[12.6892,13.2904,302.2827],[12.6765,13.2743,301.2416],[12.6737,13.2729,303.2504],[12.6683,13.2738,302.8555],[12.6638,13.2846,300.8098],[12.6598,13.2856,300.7528],[12.6551,13.2835,300.7749],[12.6509,13.2837,300.8973],[12.6483,13.286,301.9648],[12.647,13.3005,303.0185],[12.6432,13.2999,301.0765],[12.6403,13.297,302.1642],[12.6338,13.2797,301.2086],[12.6261,13.2723,302.2206],[12.6181,13.2718,302.5222],[12.6094,13.2766,301.6125],[12.5977,13.2758,302.0408],[12.5892,13.2778,301.9247],[12.5923,13.2675,302.2625],[12.5914,13.2633,302.7651],[12.581,13.2702,302.2595],[12.5789,13.2683,302.2168],[12.5772,13.2561,302.6591],[12.5746,13.2499,302.8738],[12.566,13.2402,303.5432],[12.5662,13.2374,303.1679],[12.5724,13.2312,303.6285],[12.5682,13.2261,302.5894],[12.5574,13.2226,303.2122],[12.5535,13.2191,303.5234],[12.5529,13.2037,303.9297],[12.5501,13.2009,304.2994],[12.547,13.2011,304.4015],[12.5406,13.2128,303.8536],[12.5361,13.2124,303.9699],[12.5375,13.2074,304.996],[12.5368,13.2037,304.6042],[12.5403,13.1959,304.1696],[12.5436,13.1924,303.405],[12.5483,13.1906,303.862],[12.5532,13.191,304.3542],[12.5614,13.1982,304.376],[12.5652,13.1931,304.0477],[12.5556,13.1814,304.229],[12.5534,13.1761,304.3055],[12.5541,13.1614,305.8202],[12.5588,13.1577,304.44],[12.5499,13.1533,304.7051],[12.5462,13.1492,305.1771],[12.5424,13.1404,304.8687],[12.5396,13.1393,304.9736],[12.538,13.1404,305.3877],[12.537,13.1462,305.4244],[12.5262,13.1462,305.3326],[12.5187,13.1499,305.7944],[12.5121,13.1432,305.4932],[12.5044,13.139,305.7424],[12.4948,13.1289,305.9817],[12.4908,13.1197,305.7153],[12.4964,13.1098,306.9299],[12.4917,13.1018,305.9107],[12.4924,13.0983,306.4395],[12.4969,13.0937,305.577],[12.4906,13.09,306.9846],[12.4917,13.0882,306.8684],[12.4964,13.087,306.2956],[12.4969,13.0838,306.053],[12.4809,13.0836,306.683],[12.4793,13.081,306.6381],[12.4826,13.0707,306.676],[12.4805,13.0647,307.0839],[12.4767,13.0624,307.4513],[12.4709,13.0633,306.7386],[12.4612,13.0695,307.7073],[12.4528,13.0718,306.6336],[12.4335,13.0711,308.0349],[12.4098,13.0787,307.4357],[12.407,13.079,307.1359],[12.4004,13.0741,307.3431],[12.4021,13.0773,308.1198],[12.3864,13.0768,308.2262],[12.385,13.0101,311.9111],[12.3781,12.9757,313.7923],[12.3665,12.9346,316.1395],[12.3609,12.8831,316.8],[12.3809,12.822,316.3478],[12.4042,12.7931,315.0708],[12.4368,12.7682,315.4094],[12.4639,12.7445,312.7088],[12.4818,12.7323,313.2752],[12.488,12.7043,313.3899],[12.4896,12.673,312.741],[12.4598,12.6062,316.8822],[12.4216,12.5573,323.2286],[12.3962,12.5293,329.9611],[12.3206,12.4735,330.1523],[12.3075,12.4571,330.8801],[12.2986,12.4222,332.4673],[12.3122,12.3869,328.6089],[12.3265,12.3613,329.6684],[12.3282,12.3416,336.6212],[12.3256,12.2694,338.1474],[12.3199,12.2361,337.483],[12.3153,12.1923,339.6517],[12.2846,12.0105,360.2233],[12.2824,11.9548,364.7854],[12.2956,11.9155,357.0211],[12.3099,11.8364,365.4595],[12.2336,11.691,393.6664],[12.236,11.6601,392.6648],[12.2463,11.6544,390.6299],[12.2922,11.66,378.1698],[12.3256,11.6577,374.4333],[12.3549,11.6294,382.8322],[12.3762,11.5981,385.3171],[12.3897,11.545,395.8294],[12.3738,11.5114,395.4811],[12.3414,11.4748,409.7326],[12.3005,11.4408,415.5893],[12.2687,11.3872,435.4013],[12.2471,11.3468,451.5882],[12.2004,11.2934,473.3848],[12.186,11.2478,463.6531],[12.1866,11.2004,477.5175],[12.1988,11.1342,509.6944],[12.1949,11.0873,508.6285],[12.1612,11.0381,515.5337],[12.111,11.0041,534.8855],[12.0625,10.9799,559.7413],[12.0016,10.9654,584.3775],[11.9653,10.9519,604.6263],[11.8813,10.9316,551.5801],[11.8384,10.901,394.6082],[11.8107,10.8558,372.3987],[11.8008,10.8115,375.1639],[11.8052,10.6776,279.5064],[11.7774,10.6375,285.6917],[11.7503,10.6052,291.9956],[11.7011,10.5942,286.7485],[11.7112,10.5758,312.9384],[11.7229,10.5414,443.5499],[11.7128,10.4932,363.0893],[11.6798,10.4501,313.4049],[11.6293,10.3723,251.1609],[11.6423,10.327,275.9074],[11.6815,10.2708,320.9924],[11.7111,10.2417,252.8627],[11.7343,10.2305,213.2703],[11.7704,10.2208,216.5423],[11.8026,10.2043,243.8105],[11.8183,10.1833,198.1278],[11.8531,10.1056,258.5409],[11.8824,10.08,216.9653],[11.9138,10.0594,186.7143]]]]}
,"properties": {"GID_1": "NGA.8_1","GID_0": "NGA","country": "Nigeria","province": "Borno","VARNAME_1": "NA","NL_NAME_1": "NA","TYPE_1": "State","ENGTYPE_1": "State","CC_1": "NA","HASC_1": "NG.BO","ISO_1": "NG-BO","name": "Borno.province","area_km2": 71684.61,"hist_schema_id": "Elevation0-9000","hist_area_km2": {"175": 31.09,"200": 141.18,"225": 229.77,"250": 272.71,"275": 9136.26,"300": 29011.27,"325": 6777.19,"350": 6836.7,"375": 4187.19,"400": 2707.29,"425": 2413.35,"450": 2804.95,"475": 2536.23,"500": 1439.77,"525": 680.03,"550": 373.21,"575": 343.86,"600": 332.81,"625": 299.46,"650": 261.47,"675": 241.36,"700": 193.85,"725": 123.44,"750": 86.55,"775": 81.05,"800": 46.35,"825": 25.61,"850": 23.36,"875": 9.14,"900": 4.81,"925": 5.2,"950": 4.14,"975": 4.29,"1000": 5.37,"1025": 3.77,"1050": 2.31,"1075": 1.85,"1100": 1.5,"1125": 0.77,"1150": 1.04,"1175": 0.62,"1200": 0.94,"1225": 0.56}}}