{"type": "Feature","id": "2839","bbox": [11.63715,10.03603,14.66994,13.71441],"geometry": {"type": "Polygon","coordinates": [[[13.60731,13.7041,273.8868],[13.35999,13.71441,280.2771],[13.35892,13.71423,281.599],[13.32991,13.70942,283.0373],[13.32072,13.70229,282.7935],[13.32123,13.68511,283.6674],[13.30604,13.67464,285.0717],[13.26615,13.63803,285.2747],[13.25922,13.62896,286.71],[13.25385,13.61891,286.3046],[13.25354,13.61488,287.0185],[13.2586,13.6078,288.3743],[13.26005,13.60214,288.0439],[13.25726,13.59424,286.9765],[13.25085,13.59276,289.871],[13.24382,13.59325,289.9058],[13.23948,13.59157,290.4918],[13.23018,13.57775,289.8469],[13.23225,13.57289,289.8814],[13.24641,13.57108,290.1511],[13.22811,13.54804,289.9271],[13.20393,13.53938,291.6169],[13.17695,13.53447,291.7412],[13.15018,13.52266,291.8557],[13.1537,13.5307,293.0833],[13.15587,13.54078,292.5953],[13.1537,13.54876,292.3129],[13.14398,13.55062,291.645],[13.1384,13.54654,292.7365],[13.13096,13.52982,291.9571],[13.12352,13.52266,293.4561],[13.12383,13.53344,293.5182],[13.12352,13.53695,291.9057],[13.10709,13.53155,292.6591],[13.08828,13.5306,293.2514],[13.07701,13.53468,294.0246],[13.08249,13.54439,295.8682],[13.08249,13.55062,293.1743],[13.05489,13.54837,294.9828],[13.02926,13.53917,296.5797],[12.93934,13.49507,294.3312],[12.91175,13.4899,295.5387],[12.88384,13.496,296.8042],[12.87971,13.4797,298.0186],[12.87061,13.47887,298.8372],[12.8578,13.48491,298.6469],[12.8423,13.48913,296.9642],[12.8423,13.48168,298.1035],[12.85056,13.47939,295.6621],[12.85759,13.47533,296.4721],[12.8639,13.46928,295.9914],[12.8702,13.46125,299.5489],[12.85708,13.45065,298.6028],[12.82927,13.42029,297.7416],[12.82855,13.41745,298.2643],[12.83,13.40936,298.7831],[12.82927,13.40662,298.4034],[12.82628,13.40606,297.9767],[12.81759,13.4073,297.6574],[12.81501,13.40662,297.4862],[12.81067,13.4043,298.358],[12.79734,13.39965,298.3071],[12.79455,13.39606,298.5173],[12.79847,13.38427,298.5753],[12.80478,13.37686,298.2352],[12.80519,13.37298,300.4487],[12.79114,13.37185,301.5701],[12.78897,13.37546,298.0654],[12.78328,13.38234,298.8921],[12.77739,13.3867,298.7542],[12.7746,13.3827,298.5223],[12.77326,13.38223,298.7429],[12.76654,13.36567,298.8936],[12.7408,13.33482,299.4362],[12.72437,13.32229,299.483],[12.70174,13.31725,300.1301],[12.69006,13.31198,300.3756],[12.68313,13.28893,300.374],[12.67435,13.28371,301.6123],[12.65915,13.28661,300.7528],[12.64923,13.29361,302.2389],[12.64065,13.30239,302.2405],[12.63001,13.31038,302.8689],[12.62877,13.29418,301.9382],[12.62681,13.28826,301.6642],[12.62019,13.28144,302.1606],[12.61327,13.2765,302.1057],[12.60613,13.27423,301.634],[12.60272,13.27999,301.765],[12.59756,13.2765,302.0408],[12.56107,13.24276,302.7537],[12.55818,13.22653,303.6664],[12.54516,13.20821,304.1249],[12.53834,13.19336,304.8146],[12.55425,13.18754,304.6173],[12.54795,13.16545,304.3386],[12.54257,13.15478,305.2766],[12.53451,13.14592,304.7621],[12.52697,13.14364,305.8044],[12.50433,13.13961,305.7424],[12.49978,13.13597,305.6972],[12.49121,13.08264,306.2739],[12.48666,13.07081,305.9817],[12.47271,13.06416,306.8796],[12.45638,13.06742,306.8687],[12.43726,13.07401,310.2105],[12.41431,13.07763,307.2733],[12.38674,13.07858,308.3716],[12.38636,13.07672,308.2262],[12.36289,12.88526,315.9017],[12.38088,12.82193,316.3478],[12.42501,12.77328,315.5753],[12.47896,12.73416,312.4959],[12.48754,12.67277,312.797],[12.46242,12.61194,315.3561],[12.4185,12.55182,325.4093],[12.30832,12.44955,333.1976],[12.32889,12.2999,332.4351],[12.2828,11.96348,364.6905],[12.30646,11.86369,361.6073],[12.30109,11.81967,367.9929],[12.24125,11.70234,393.493],[12.23567,11.66324,393.6907],[12.26213,11.655,391.7281],[12.29561,11.6597,376.373],[12.33633,11.64668,372.2209],[12.36558,11.61368,383.101],[12.38377,11.57849,389.7055],[12.38832,11.54201,395.0977],[12.28724,11.41845,421.7873],[12.246,11.34551,451.8867],[12.21851,11.31685,461.9958],[12.19753,11.28432,465.3795],[12.19205,11.19976,484.6544],[12.19722,11.1157,504.4342],[12.16673,11.04705,511.6534],[12.10441,11.0008,539.2531],[11.86845,10.91908,409.9759],[11.81182,10.85768,377.436],[11.79817,10.77764,331.0388],[11.80479,10.69392,299.7289],[11.79383,10.65919,280.1093],[11.77037,10.62907,330.8593],[11.73978,10.60486,279.5464],[11.70102,10.59419,286.7485],[11.71342,10.50706,375.7551],[11.63953,10.38882,259.5488],[11.63715,10.34477,316.8792],[11.65803,10.30097,301.9339],[11.68914,10.26322,291.6722],[11.72717,10.237,232.1507],[11.77037,10.22069,216.5423],[11.80706,10.1963,212.6343],[11.87435,10.08897,233.97559999999999],[11.94556,10.04471,184.0226],[12.10689,10.03603,332.8069],[12.23422,10.12432,632.2131],[12.33716,10.25726,499.0082],[12.39473,10.30498,335.7619],[12.4679,10.32105,341.7178],[12.5479,10.32947,420.4222],[12.62014,10.36138,443.6591],[12.64784,10.39192,456.041],[12.66623,10.42761,409.5656],[12.69094,10.44621,436.4591],[12.72835,10.4481,467.8258],[12.78726,10.50065,484.5331],[12.8409,10.56315,439.7654],[12.92296,10.58147,460.0585],[13.00926,10.56969,487.476],[13.07717,10.54083,514.8256],[13.13287,10.49243,527.4291],[13.19106,10.455,534.7268],[13.25917,10.44003,496.6712],[13.30971,10.46789,520.9033],[13.34526,10.60119,506.6173],[13.40045,10.7357,463.3975],[13.41379,10.805,441.66],[13.41337,10.87301,416.5389],[13.42216,10.93029,429.2852],[13.45616,10.93491,429.7858],[13.46991,10.93212,427.3466],[13.48117,10.92347,423.762],[13.51311,10.91158,426.1921],[13.54639,10.90711,440.259],[13.6917,10.93892,741.2139],[13.74927,10.94241,904.2845],[13.74984,10.94244,904.2845],[13.75702,10.95825,749.4368],[13.75041,10.9962,888.5051],[13.75485,11.01672,955.7483],[13.76591,11.0339,788.1414],[13.78203,11.04752,582.4167],[13.82007,11.06927,466.0765],[13.83205,11.0848,452.5916],[13.84921,11.12457,424.3074],[13.87319,11.1665,393.1313],[13.90626,11.20803,368.6014],[13.94388,11.24572,351.1647],[13.98233,11.27626,336.306],[14.01313,11.27637,335.1754],[14.05251,11.26515,334.0125],[14.12258,11.23572,335.8341],[14.14325,11.23273,333.3957],[14.16547,11.23833,328.7285],[14.18676,11.24924,323.4989],[14.20464,11.26213,318.87],[14.23213,11.29029,313.9919],[14.24433,11.29544,312.1658],[14.2713,11.29864,311.2485],[14.27916,11.30184,311.9131],[14.36825,11.383,307.688],[14.38706,11.39339,305.994],[14.44628,11.41168,305.4436],[14.46726,11.42385,304.7147],[14.50395,11.4563,301.7613],[14.52493,11.46884,300.9758],[14.57661,11.48734,299.7659],[14.59377,11.49643,299.6485],[14.60575,11.51472,299.5081],[14.61619,11.53868,299.1466],[14.62384,11.56348,298.1225],[14.62756,11.58436,297.9057],[14.62715,11.60968,297.3197],[14.62136,11.62978,297.0133],[14.6102,11.64684,296.6109],[14.59387,11.66301,296.8544],[14.5886,11.66968,296.8304],[14.58508,11.67681,296.7508],[14.58095,11.68327,296.3852],[14.57351,11.68771,296.2623],[14.55645,11.6875,296.363],[14.55242,11.689,296.611],[14.54333,11.7011,296.6087],[14.54188,11.70983,296.1679],[14.54653,11.71861,296.1387],[14.58322,11.76636,295.4212],[14.59066,11.78316,294.8319],[14.61206,11.88496,293.288],[14.62343,11.91653,292.9175],[14.62715,11.95007,292.3988],[14.62694,11.9572,292.2444],[14.62518,11.96811,292.0961],[14.60627,12.01126,291.5015],[14.60431,12.03043,290.9111],[14.62219,12.04201,290.2191],[14.61991,12.0525,291.329],[14.63717,12.12422,290.4469],[14.64317,12.13585,290.1471],[14.64813,12.14184,290.2711],[14.65061,12.1481,290.1613],[14.66994,12.16742,289.7262],[14.66828,12.17807,287.9167],[14.66342,12.18758,290.5239],[14.65154,12.19378,288.4228],[14.64317,12.19063,289.9272],[14.62932,12.1835,289.0982],[14.6163,12.17895,288.7375],[14.61061,12.18355,289.5547],[14.6041,12.20432,289.4507],[14.58829,12.21719,289.1476],[14.56813,12.22773,289.0003],[14.5485,12.24158,288.175],[14.55832,12.2469,288.5317],[14.56214,12.2484,288.3258],[14.56214,12.25584,288.7926],[14.55118,12.26044,288.8766],[14.52152,12.28235,288.2267],[14.51439,12.28938,288.0734],[14.51243,12.29863,288.6602],[14.51759,12.31336,288.8777],[14.51439,12.32354,288.2691],[14.4871,12.3378,287.9203],[14.42313,12.35315,287.5236],[14.21756,12.3593,287.7879],[14.20216,12.3625,288.5446],[14.18893,12.37041,286.7701],[14.17984,12.3856,286.9504],[14.17911,12.39728,286.6909],[14.18511,12.42787,286.6605],[14.18542,12.44704,285.4584],[14.18022,12.46353,285.0797],[14.1787,12.46834,286.0407],[14.17736,12.54559,281.9063],[14.12113,12.81179,280.7189],[14.06491,13.07799,280.3304],[13.83611,13.39104,281.3304],[13.60731,13.7041,273.8868]]]}
,"properties": {"ISO3166-1-Alpha-3": "NGA","country": "Nigeria","fill": "#FF0","name": "Borno","area_km2": 71325.21,"hist_schema_id": "Elevation0-9000","hist_area_km2": {"175": 26.3,"200": 135.31,"225": 225.87,"250": 267.01,"275": 8853.84,"300": 28924.9,"325": 6839.32,"350": 6833.04,"375": 4185.36,"400": 2699.2,"425": 2406.66,"450": 2804.06,"475": 2522.22,"500": 1438.06,"525": 677.36,"550": 374.44,"575": 342.2,"600": 330.73,"625": 296.79,"650": 256.37,"675": 236.69,"700": 191.01,"725": 121.4,"750": 85.43,"775": 80.4,"800": 47.18,"825": 26.69,"850": 25.13,"875": 12.81,"900": 9.07,"925": 9.26,"950": 8.7,"975": 8.05,"1000": 7.87,"1025": 4.6,"1050": 2.91,"1075": 2.27,"1100": 1.73,"1125": 0.85,"1150": 1.04,"1175": 0.62,"1200": 0.94,"1225": 0.56}}}