{"type":"Feature","properties":{"GID_2":"NGA.34.23_1","GID_0":"NGA","country":"Nigeria","GID_1":"NGA.34_1","province":"Sokoto","NL_NAME_1":"NA","county":"Yabo","VARNAME_2":"NA","NL_NAME_2":"NA","TYPE_2":"LocalAuthority","ENGTYPE_2":"LocalAuthority","CC_2":"NA","HASC_2":"NA","name":"Yabo.county"},
"geometry":{"type": "MultiPolygon","coordinates": [[[[4.8228,12.7681,252.8905],[4.8293,12.7651,262.9039],[4.8514,12.761,275.3233],[4.8771,12.7484,279.8379],[4.8955,12.7348,287.502],[4.9152,12.7059,272.6721],[4.9185,12.687,273.8305],[4.9227,12.6751,278.7654],[4.9241,12.6414,265.2945],[4.9309,12.599,266.346],[4.9378,12.5883,253.2964],[4.9405,12.5557,281.5554],[4.9479,12.5579,267.2022],[4.9736,12.5718,278.6225],[5.0053,12.596,279.3838],[5.0268,12.629,258.835],[5.0361,12.6347,254.9842],[5.0465,12.6394,246.0],[5.0582,12.6416,246.0],[5.0704,12.6411,246.0],[5.0925,12.6372,246.2864],[5.1065,12.6378,246.2012],[5.1256,12.6422,254.3355],[5.1286,12.6457,258.17],[5.1379,12.6677,274.6794],[5.1381,12.6799,296.4711],[5.1333,12.6868,285.1508],[5.1049,12.7119,289.6635],[5.1017,12.719,291.5042],[5.0989,12.7376,295.909],[5.1027,12.7642,283.8359],[5.1065,12.771,285.0267],[5.1119,12.7752,289.3901],[5.1209,12.7792,284.1042],[5.1304,12.7874,266.489],[5.1376,12.8057,269.8712],[5.1432,12.8224,280.3732],[5.1452,12.8566,294.1036],[5.1432,12.8674,295.9105],[5.1332,12.8952,294.4294],[5.1272,12.9018,291.5563],[5.1055,12.9149,309.0518],[5.0963,12.9192,309.601],[5.0667,12.9244,305.6517],[5.0568,12.9289,308.3874],[5.0372,12.9271,301.7445],[5.0213,12.9294,297.487],[5.0225,12.9234,297.8945],[5.0209,12.9193,297.4595],[5.0027,12.8847,291.3385],[4.9991,12.8793,295.1798],[4.9815,12.8632,299.8703],[4.9711,12.8557,294.566],[4.9634,12.854,295.7509],[4.9403,12.853,287.2605],[4.9077,12.857,269.9905],[4.8827,12.8558,274.6247],[4.8498,12.8445,267.4066],[4.8164,12.8391,260.3807],[4.8094,12.8357,261.8206],[4.8271,12.7878,270.6636],[4.8228,12.7681,252.8905]]]]}}