{"type":"Feature","properties":{"GID_2":"NGA.8.2_1","GID_0":"NGA","country":"Nigeria","GID_1":"NGA.8_1","province":"Borno","NL_NAME_1":"NA","county":"Askira/Uba","VARNAME_2":"NA","NL_NAME_2":"NA","TYPE_2":"LocalAuthority","ENGTYPE_2":"LocalAuthority","CC_2":"NA","HASC_2":"NA","name":"Askira_Uba.county"},
"geometry":{"type": "MultiPolygon","coordinates": [[[[13.3131,10.4711,512.6497],[13.3196,10.5173,489.2912],[13.3359,10.5874,508.2234],[13.3797,10.6783,472.526],[13.3994,10.7363,463.3975],[13.4136,10.8018,444.354],[13.4141,10.8083,439.9003],[13.4107,10.8116,437.172],[13.3956,10.8081,431.7027],[13.3064,10.8193,422.2894],[13.2115,10.8278,432.2918],[13.1517,10.8246,424.467],[13.126,10.8192,432.592],[13.113,10.8144,449.0987],[13.1104,10.8036,454.8027],[13.1143,10.7664,449.4102],[13.1124,10.741,450.2114],[13.1079,10.7204,442.7538],[13.1029,10.7082,452.4146],[13.0923,10.6911,458.0378],[13.0357,10.7031,505.2531],[13.0055,10.702,510.1391],[12.9868,10.7034,491.9265],[12.9542,10.6968,488.0739],[12.898,10.6917,479.6066],[12.8731,10.6955,475.7588],[12.8334,10.7056,473.6741],[12.797,10.7045,459.6181],[12.7611,10.713,450.5514],[12.7444,10.7153,448.6931],[12.7135,10.7031,454.4381],[12.6903,10.7037,449.05],[12.6621,10.7168,406.0986],[12.6423,10.7427,417.4077],[12.63,10.762,417.2791],[12.5757,10.744,462.6737],[12.553,10.7236,471.3767],[12.5143,10.676,494.8091],[12.4952,10.6562,459.1091],[12.5298,10.6313,452.8764],[12.5837,10.624,453.8044],[12.6003,10.6124,442.3638],[12.6192,10.6025,442.1285],[12.6407,10.5971,406.6636],[12.6525,10.5863,408.3995],[12.6699,10.5429,424.1765],[12.6852,10.5127,426.6284],[12.7284,10.4482,467.8258],[12.7631,10.4649,486.2878],[12.7988,10.524,593.7355],[12.8329,10.5585,431.1931],[12.8735,10.5821,441.3648],[12.9479,10.5797,466.2556],[13.0111,10.5695,487.8689],[13.0574,10.553,510.8898],[13.0991,10.5281,537.9763],[13.145,10.4784,509.3421],[13.2226,10.4437,493.2786],[13.2592,10.4401,496.6712],[13.2935,10.4439,530.1276],[13.312,10.4634,519.294],[13.3131,10.4711,512.6497]]]]}}