{"type":"Feature","properties":{"GID_2":"NGA.7.1_1","GID_0":"NGA","country":"Nigeria","GID_1":"NGA.7_1","province":"Benue","NL_NAME_1":"NA","county":"Ado","VARNAME_2":"NA","NL_NAME_2":"NA","TYPE_2":"LocalAuthority","ENGTYPE_2":"LocalAuthority","CC_2":"NA","HASC_2":"NA","name":"Ado.county"},
"geometry":{"type": "MultiPolygon","coordinates": [[[[8.0868,6.9692,86.1066],[8.0783,6.9718,87.622],[8.0566,6.9729,96.7914],[8.038,6.9757,106.215],[8.0138,6.981,111.9059],[7.9885,6.9835,112.2355],[7.9783,6.982,109.0527],[7.9477,6.9715,118.248],[7.9228,6.9586,107.3731],[7.9044,6.9464,115.2053],[7.8914,6.9268,134.0185],[7.8827,6.9058,117.6271],[7.8814,6.8957,114.4613],[7.8822,6.8897,107.5545],[7.9039,6.8587,100.0554],[7.9081,6.8496,102.0547],[7.9119,6.838,98.2268],[7.9123,6.8246,103.5229],[7.8995,6.8156,109.4031],[7.86,6.8099,113.826],[7.8541,6.8077,118.8532],[7.8616,6.776,108.4234],[7.8646,6.734,120.1701],[7.8543,6.6943,117.3719],[7.8451,6.6695,110.0833],[7.8299,6.6421,119.5306],[7.8251,6.6156,96.404],[7.8355,6.5908,97.1279],[7.8705,6.5579,94.9982],[7.9004,6.5313,128.2034],[7.929,6.5193,114.1678],[7.9518,6.5288,96.1199],[7.9678,6.562,112.5785],[7.9751,6.6142,112.9437],[7.9825,6.6432,119.6054],[7.9835,6.6734,106.1684],[7.988,6.695,93.1989],[8.0437,6.7014,107.0511],[8.0914,6.6974,119.5584],[8.1224,6.7123,102.0352],[8.1511,6.7589,87.9219],[8.1566,6.7604,65.8023],[8.1532,6.7699,61.5335],[8.146,6.779,63.3048],[8.1393,6.7819,63.9734],[8.1357,6.787,59.3696],[8.1261,6.7911,61.6288],[8.1186,6.8002,64.2823],[8.1118,6.8335,64.1441],[8.1146,6.8482,69.4099],[8.1048,6.873,84.5803],[8.1015,6.8931,73.2331],[8.0966,6.9049,77.5989],[8.0905,6.9451,88.4411],[8.0899,6.9636,78.3213],[8.0868,6.9692,86.1066]]]]}}