{"type":"Feature","properties":{"GID_2":"NGA.21.8_1","GID_0":"NGA","country":"Nigeria","GID_1":"NGA.21_1","province":"Katsina","NL_NAME_1":"NA","county":"Danja","VARNAME_2":"NA","NL_NAME_2":"NA","TYPE_2":"LocalAuthority","ENGTYPE_2":"LocalAuthority","CC_2":"NA","HASC_2":"NA","name":"Danja.county"},
"geometry":{"type": "MultiPolygon","coordinates": [[[[7.6388,11.2817,640.7198],[7.656,11.2733,637.9644],[7.6742,11.2784,640.1523],[7.69,11.2878,651.6526],[7.7466,11.309,666.4792],[7.7567,11.323,673.0818],[7.7603,11.3417,679.8058],[7.7729,11.3594,680.8085],[7.7763,11.3592,679.7894],[7.7624,11.3731,689.1112],[7.7501,11.3801,678.8167],[7.7411,11.3883,679.7463],[7.7345,11.3926,675.6424],[7.7265,11.3946,686.8215],[7.7137,11.4077,664.1326],[7.6856,11.3985,687.5359],[7.6781,11.4007,689.8155],[7.6591,11.4021,692.8282],[7.6366,11.3991,689.2144],[7.6253,11.3927,681.611],[7.6153,11.3988,677.9556],[7.589,11.4068,647.4185],[7.5325,11.4198,706.4617],[7.5097,11.4267,709.5051],[7.5037,11.4374,723.0268],[7.5007,11.4559,680.4873],[7.5026,11.4663,671.255],[7.5021,11.4778,680.8038],[7.5036,11.4875,680.7688],[7.5014,11.4979,660.1536],[7.4957,11.5084,651.627],[7.486,11.5155,625.9521],[7.469,11.513,639.735],[7.4542,11.5075,657.7551],[7.4322,11.4962,680.5427],[7.4005,11.467,686.4046],[7.3795,11.4522,730.7424],[7.3802,11.4435,706.1661],[7.3775,11.4416,702.057],[7.3731,11.4337,712.1215],[7.3748,11.4289,701.793],[7.3744,11.4226,692.7603],[7.3782,11.4132,676.3433],[7.3813,11.4121,675.0176],[7.3855,11.4059,666.4521],[7.3875,11.3942,664.2159],[7.3922,11.3914,657.5683],[7.4052,11.3733,639.2868],[7.4078,11.3361,651.9402],[7.4357,11.3607,672.2405],[7.4498,11.3706,669.8945],[7.4722,11.375,684.1567],[7.5308,11.3581,705.902],[7.5817,11.3384,662.9709],[7.5981,11.3264,648.5204],[7.6149,11.3109,640.9212],[7.6305,11.2857,631.5],[7.6388,11.2817,640.7198]]]]}}