{"type":"Feature","properties":{"GID_2":"NGA.36.5_1","GID_0":"NGA","country":"Nigeria","GID_1":"NGA.36_1","province":"Yobe","NL_NAME_1":"NA","county":"Fune","VARNAME_2":"NA","NL_NAME_2":"NA","TYPE_2":"LocalAuthority","ENGTYPE_2":"LocalAuthority","CC_2":"NA","HASC_2":"NA","name":"Fune.county"},
"geometry":{"type": "MultiPolygon","coordinates": [[[[11.682,11.9424,382.3022],[11.6444,11.9656,371.263],[11.5793,12.0008,373.1996],[11.5202,12.0132,368.7772],[11.5054,12.0217,367.588],[11.5001,12.0287,371.0952],[11.4868,12.115,358.5303],[11.4654,12.1513,350.5268],[11.4598,12.1668,353.5678],[11.4421,12.1806,353.8907],[11.407,12.1851,358.1717],[11.3865,12.1959,354.6332],[11.3651,12.2124,356.0798],[11.3454,12.2364,353.2031],[11.3313,12.2771,348.9919],[11.3279,12.2933,352.9223],[11.3085,12.344,348.4765],[11.2846,12.3849,344.8075],[11.281,12.3836,343.8146],[11.2527,12.3515,345.3474],[11.2411,12.3355,343.7194],[11.2296,12.3171,346.2451],[11.2209,12.2951,352.6823],[11.1986,12.2802,349.3505],[11.1878,12.2612,352.0852],[11.1814,12.2549,353.0194],[11.1525,12.2108,355.8842],[11.1464,12.1971,356.6743],[11.1373,12.1668,360.1045],[11.1291,12.1529,360.5959],[11.1179,12.1413,361.0415],[11.1076,12.121,361.0469],[11.0899,12.0975,364.1002],[11.067,12.0743,364.7143],[11.0616,12.0666,365.7032],[11.0526,12.0478,369.3346],[11.0347,12.0241,371.2045],[11.0364,11.9808,374.4137],[11.0397,11.9595,376.4336],[11.0489,11.9352,379.7361],[11.0721,11.8957,383.4609],[11.1141,11.8465,391.7717],[11.1234,11.8399,393.675],[11.15,11.8225,397.0572],[11.1761,11.809,396.6469],[11.1904,11.8035,394.079],[11.2102,11.8016,393.611],[11.2253,11.8099,384.8137],[11.2524,11.8208,412.3086],[11.2996,11.824,413.3881],[11.3091,11.8283,410.9495],[11.3171,11.8289,412.0724],[11.3263,11.8191,420.6355],[11.3235,11.8048,424.3478],[11.3322,11.7772,416.5027],[11.326,11.7613,423.1147],[11.3207,11.7287,409.592],[11.3198,11.6721,424.1654],[11.3249,11.6506,453.0216],[11.3231,11.6456,453.8591],[11.3439,11.6096,437.5875],[11.3528,11.5897,448.2515],[11.3566,11.5711,497.521],[11.353,11.5339,518.1672],[11.3561,11.5057,463.1091],[11.3549,11.4745,421.1849],[11.3608,11.4562,432.0251],[11.3727,11.4344,399.8401],[11.4217,11.3783,380.6899],[11.4481,11.3648,349.7553],[11.4887,11.3566,323.2742],[11.5061,11.3571,315.3707],[11.5324,11.3657,342.1897],[11.5494,11.3652,337.5706],[11.5643,11.357,335.4249],[11.5642,11.3599,337.7294],[11.5789,11.3708,323.3464],[11.6005,11.3771,300.3094],[11.6258,11.3703,323.9942],[11.6461,11.367,327.4476],[11.6704,11.3672,325.5238],[11.6958,11.3785,334.5722],[11.7233,11.3998,349.1778],[11.749,11.4332,398.1165],[11.7656,11.47,365.8074],[11.7814,11.4931,391.3157],[11.806,11.5162,360.6704],[11.8043,11.5486,389.9173],[11.7995,11.5802,399.3044],[11.8082,11.6551,376.813],[11.8062,11.7511,411.5143],[11.7825,11.8301,394.2911],[11.749,11.8779,381.01369999999997],[11.7198,11.9113,373.1411],[11.682,11.9424,382.3022]]]]}}