{"type": "Feature","bbox": [7.1532,4.8603,7.3245,5.0976],"geometry": {"type": "MultiPolygon","coordinates": [[[[7.2562,5.0976,53.2152],[7.2463,5.0833,52.7586],[7.2331,5.0533,48.1545],[7.2063,5.0205,37.536],[7.2003,5.0068,35.9763],[7.178,4.9832,18.9202],[7.167,4.9596,16.8954],[7.1557,4.9231,14.67],[7.1532,4.9054,16.7585],[7.1628,4.8875,17.4992],[7.1862,4.8647,15.1889],[7.1989,4.8617,13.9478],[7.2152,4.8603,11.2982],[7.2282,4.866,16.4702],[7.2574,4.8674,9.2729],[7.2657,4.8698,9.3849],[7.2837,4.8801,11.4834],[7.3021,4.8765,11.5836],[7.3223,4.8796,5.6847],[7.3245,4.8984,20.5872],[7.3211,4.913,20.0795],[7.3137,4.9292,34.5369],[7.2995,4.95,37.6653],[7.298,4.9571,42.7221],[7.2951,4.9604,40.4212],[7.2938,4.9676,47.0353],[7.2868,4.9741,42.9347],[7.2843,4.9788,44.4065],[7.2826,4.9903,44.3948],[7.2857,4.9958,46.9348],[7.29,5.0197,48.2424],[7.2875,5.0324,53.4899],[7.2887,5.0361,53.1708],[7.2848,5.0638,53.5038],[7.2821,5.0705,53.717],[7.2695,5.0892,57.4522],[7.2647,5.0936,55.2733],[7.2562,5.0976,53.2152]]]]}
,"properties": {"GID_2": "NGA.1.14_1","GID_0": "NGA","country": "Nigeria","GID_1": "NGA.1_1","province": "Abia","NL_NAME_1": "NA","county": "UkwaWest","VARNAME_2": "NA","NL_NAME_2": "NA","TYPE_2": "LocalAuthority","ENGTYPE_2": "LocalAuthority","CC_2": "NA","HASC_2": "NA","name": "Ukwa_West.county","area_km2": 292.8491,"hist_schema_id": "Elevation0-9000","hist_area_km2": {"0": 32.1525,"25": 175.9603,"50": 84.7364}}}