{"type":"Feature","properties":{"GID_2":"NGA.10.14_1","GID_0":"NGA","country":"Nigeria","GID_1":"NGA.10_1","province":"Delta","NL_NAME_1":"NA","county":"OshimiliNorth","VARNAME_2":"NA","NL_NAME_2":"NA","TYPE_2":"LocalAuthority","ENGTYPE_2":"LocalAuthority","CC_2":"NA","HASC_2":"NA","name":"Oshimili_North.county"},
"geometry":{"type": "MultiPolygon","coordinates": [[[[6.6655,6.5228,17.0],[6.6461,6.4971,26.819],[6.6352,6.4899,28.7478],[6.622,6.4867,35.8298],[6.5884,6.4958,40.4543],[6.5712,6.4961,37.7467],[6.5652,6.4583,186.0035],[6.5689,6.4428,147.5117],[6.5665,6.438,175.7407],[6.5749,6.4146,192.3176],[6.58,6.4055,188.3824],[6.579,6.4004,192.6862],[6.5846,6.3861,170.8452],[6.5846,6.3715,131.3562],[6.5828,6.3649,141.1852],[6.5777,6.3583,178.6284],[6.5747,6.3489,195.2292],[6.5703,6.3425,199.9195],[6.5677,6.3297,193.3737],[6.5637,6.3224,193.7504],[6.5681,6.3082,188.8383],[6.588,6.2823,168.9555],[6.5944,6.2778,195.8048],[6.6146,6.2487,161.4856],[6.6224,6.2428,139.9852],[6.6303,6.2325,133.4036],[6.632,6.2228,113.4637],[6.6296,6.2153,104.1491],[6.6218,6.2036,99.1259],[6.6156,6.1664,84.2034],[6.6152,6.1547,65.0276],[6.6104,6.143,56.4362],[6.6207,6.1239,34.7632],[6.6275,6.1192,38.412],[6.6304,6.1116,22.9328],[6.6413,6.1017,29.7814],[6.6496,6.1006,24.0945],[6.6768,6.1096,30.0893],[6.6899,6.1239,20.1967],[6.6891,6.1313,24.149],[6.6973,6.136,25.8877],[6.6997,6.1426,22.9133],[6.6994,6.1544,32.6023],[6.6813,6.163,34.2058],[6.677,6.1833,46.9491],[6.6818,6.2047,52.4001],[6.6923,6.2285,52.3534],[6.6926,6.2338,55.162],[6.6959,6.2379,56.4859],[6.6937,6.2416,56.9493],[6.6935,6.2471,52.7533],[6.7007,6.2523,88.0678],[6.7117,6.2565,21.5648],[6.7314,6.2582,14.5],[6.7265,6.2832,19.8874],[6.7245,6.3047,14.5],[6.7168,6.3277,14.5],[6.7181,6.3498,21.2404],[6.6999,6.3681,21.2463],[6.6949,6.3874,15.0],[6.6944,6.4093,19.5584],[6.6923,6.4232,15.0],[6.6798,6.4654,20.836],[6.6788,6.4771,17.0973],[6.6726,6.4883,16.5],[6.6655,6.5228,17.0]]]]}}