{"type": "Feature","bbox": [8.3809,11.8591,8.6047,11.9609],"geometry": {"type": "MultiPolygon","coordinates": [[[[8.6047,11.9158,482.838],[8.5987,11.9198,478.4308],[8.592,11.93,472.2391],[8.5671,11.9471,478.8619],[8.5378,11.9338,455.0925],[8.5206,11.9341,464.8142],[8.5174,11.9295,468.8853],[8.4638,11.9194,468.9063],[8.4552,11.9226,457.9493],[8.4485,11.9272,457.6898],[8.4444,11.9327,461.6069],[8.4414,11.9408,465.0033],[8.4343,11.944,467.0458],[8.4327,11.9593,468.2737],[8.4195,11.9578,461.6412],[8.4048,11.9609,448.1774],[8.3979,11.945,448.3522],[8.3809,11.9194,456.1293],[8.383,11.9162,449.4355],[8.3943,11.9132,437.0],[8.3929,11.9081,444.7442],[8.3971,11.9003,453.2758],[8.411,11.8876,453.3819],[8.4272,11.8764,441.4442],[8.4391,11.8716,449.9069],[8.4604,11.8697,447.752],[8.4788,11.8712,442.2568],[8.4823,11.873,430.0848],[8.4916,11.8701,433.2286],[8.5014,11.8718,438.4852],[8.509,11.8704,436.5638],[8.5157,11.8663,433.9332],[8.5216,11.8663,435.3453],[8.5328,11.862,451.327],[8.536,11.8591,454.2388],[8.5791,11.8674,454.5522],[8.5992,11.8868,470.2457],[8.6047,11.9158,482.838]]]]}
,"properties": {"GID_2": "NGA.20.25_1","GID_0": "NGA","country": "Nigeria","GID_1": "NGA.20_1","province": "Kano","NL_NAME_1": "NA","county": "Kumbotso","VARNAME_2": "NA","NL_NAME_2": "NA","TYPE_2": "LocalAuthority","ENGTYPE_2": "LocalAuthority","CC_2": "NA","HASC_2": "NA","name": "Kumbotso.county","area_km2": 162.5047,"hist_schema_id": "Elevation0-9000","hist_area_km2": {"425": 5.9547,"450": 116.0342,"475": 40.5158}}}