{"type":"Feature","properties":{"GID_2":"NGA.31.4_1","GID_0":"NGA","country":"Nigeria","GID_1":"NGA.31_1","province":"Oyo","NL_NAME_1":"NA","county":"Atisbo","VARNAME_2":"NA","NL_NAME_2":"NA","TYPE_2":"LocalAuthority","ENGTYPE_2":"LocalAuthority","CC_2":"NA","HASC_2":"NA","name":"Atisbo.county"},
"geometry":{"type": "MultiPolygon","coordinates": [[[[2.697,8.3151,171.4532],[2.6982,8.3072,197.4327],[2.7112,8.2762,172.744],[2.7146,8.2605,178.2295],[2.7185,8.2536,160.7711],[2.7268,8.2465,168.7742],[2.7403,8.2247,178.9477],[2.7541,8.2113,142.1814],[2.7513,8.2076,145.7695],[2.7502,8.2008,151.1262],[2.7508,8.1881,152.7556],[2.7775,8.1893,201.4981],[2.7921,8.1936,229.9982],[2.8033,8.1912,221.4614],[2.8209,8.1941,243.2072],[2.8443,8.1879,285.8723],[2.8592,8.1923,303.1366],[2.9078,8.2004,268.9626],[2.9812,8.2068,237.6205],[3.0319,8.2032,259.4791],[3.076,8.2052,272.7927],[3.1137,8.2122,294.0882],[3.133,8.2176,316.6415],[3.1384,8.2152,338.96],[3.1483,8.2238,350.9615],[3.1505,8.2327,460.316],[3.1567,8.2439,384.514],[3.1637,8.2491,359.595],[3.2036,8.2519,432.8534],[3.2383,8.2573,332.7169],[3.2522,8.2573,331.2006],[3.2971,8.2392,242.9432],[3.3088,8.236,246.6252],[3.3629,8.2432,299.1715],[3.3742,8.2432,310.3014],[3.4047,8.2485,318.1007],[3.4206,8.2581,306.1481],[3.4377,8.2638,322.956],[3.4543,8.2744,308.0556],[3.473,8.2902,309.1812],[3.4825,8.3089,331.8595],[3.4954,8.3195,345.9972],[3.498,8.3248,358.6668],[3.5107,8.3389,367.5728],[3.5213,8.3396,368.5645],[3.5266,8.3522,368.2913],[3.5357,8.3587,362.2204],[3.5452,8.3738,365.4711],[3.5543,8.3828,351.0231],[3.5706,8.3798,334.2426],[3.5756,8.373,354.3643],[3.6021,8.3544,334.5168],[3.6047,8.3472,351.4634],[3.6185,8.3432,327.5203],[3.627,8.33,325.0545],[3.6372,8.3185,346.5024],[3.6496,8.31,309.8997],[3.6784,8.2966,332.9362],[3.686,8.2976,330.3547],[3.6965,8.3018,322.886],[3.7109,8.2935,316.8932],[3.7216,8.2839,291.6206],[3.7339,8.2756,271.2362],[3.7383,8.2633,265.0],[3.7475,8.2468,265.0],[3.7635,8.192,265.0],[3.7676,8.1916,265.0],[3.7743,8.1789,271.404],[3.7776,8.1829,283.498],[3.7865,8.2185,287.5609],[3.7951,8.237,280.0434],[3.8003,8.26,302.7184],[3.8137,8.3017,296.6675],[3.8131,8.3245,318.7718],[3.8048,8.368,319.4677],[3.8039,8.3823,302.8007],[3.7957,8.4161,302.5106],[3.7891,8.4231,310.3304],[3.785,8.4416,315.8832],[3.785,8.4681,311.5358],[3.7715,8.4745,304.1652],[3.7605,8.4777,335.9406],[3.6677,8.4903,349.1705],[3.6499,8.4904,376.7174],[3.6288,8.4942,387.3005],[3.5732,8.509,372.505],[3.5416,8.5211,375.5485],[3.5199,8.5343,409.3885],[3.4624,8.5646,384.0915],[3.4507,8.568,425.2652],[3.4075,8.536,338.3828],[3.3997,8.5216,351.69],[3.3735,8.4875,328.0402],[3.361,8.4561,339.3278],[3.3523,8.4273,321.7791],[3.3528,8.4051,297.069],[3.3446,8.3947,304.3391],[3.322,8.384,291.9217],[3.2841,8.3782,308.1596],[3.2671,8.3801,334.0403],[3.2388,8.3893,320.0054],[3.2288,8.3962,356.4028],[3.2196,8.3952,381.2605],[3.2167,8.3918,362.8459],[3.2016,8.3978,361.7701],[3.1969,8.4066,372.3088],[3.1892,8.4125,416.4691],[3.1746,8.4111,364.6016],[3.1664,8.4147,336.6774],[3.1452,8.4056,336.9432],[3.1307,8.4061,307.4798],[3.0976,8.4115,325.18],[3.0758,8.4075,281.1812],[3.0579,8.414,295.905],[3.0427,8.4168,281.2639],[3.026,8.4254,323.9497],[2.9774,8.4299,349.2935],[2.9123,8.44,334.6263],[2.89,8.4415,294.2666],[2.8837,8.4386,265.898],[2.8518,8.4463,274.6484],[2.8379,8.4445,244.0062],[2.828,8.4483,273.0015],[2.8151,8.4472,298.9098],[2.7852,8.4523,278.307],[2.7659,8.4462,247.8202],[2.7414,8.4487,216.462],[2.7407,8.445,213.5137],[2.7349,8.4363,203.0386],[2.7261,8.432,231.5332],[2.7146,8.4315,199.5732],[2.7069,8.4203,213.8816],[2.7113,8.4055,218.896],[2.714,8.3872,199.8394],[2.7087,8.3696,178.0171],[2.6971,8.3573,172.7059],[2.6957,8.3247,168.0685],[2.697,8.3151,171.4532]]]]}}