{"type": "Feature","bbox": [5.109,7.431,5.3064,7.5679],"geometry": {"type": "MultiPolygon","coordinates": [[[[5.1959,7.5679,415.9073],[5.1829,7.5531,447.4008],[5.1766,7.5341,391.8251],[5.1774,7.5274,399.1788],[5.1681,7.5068,384.6407],[5.1654,7.4961,383.6819],[5.1586,7.4902,380.3089],[5.1493,7.4862,386.8436],[5.1418,7.4792,424.6736],[5.1106,7.4461,428.672],[5.109,7.4368,397.0296],[5.1179,7.4379,414.5303],[5.1411,7.434,410.7213],[5.1603,7.4341,389.7466],[5.1776,7.4315,365.6361],[5.2332,7.431,380.8382],[5.2952,7.4365,373.7839],[5.2977,7.4378,388.3509],[5.3033,7.4363,360.3421],[5.3064,7.4584,332.125],[5.3052,7.4702,334.0157],[5.2961,7.4915,332.7011],[5.2962,7.4959,341.2358],[5.299,7.5003,346.5683],[5.2968,7.5152,341.0598],[5.2774,7.5223,372.0739],[5.2398,7.5462,394.2407],[5.1959,7.5679,415.9073]]]]}
,"properties": {"GID_2": "NGA.13.10_1","GID_0": "NGA","country": "Nigeria","GID_1": "NGA.13_1","province": "Ekiti","NL_NAME_1": "NA","county": "Ikere","VARNAME_2": "NA","NL_NAME_2": "NA","TYPE_2": "LocalAuthority","ENGTYPE_2": "LocalAuthority","CC_2": "NA","HASC_2": "NA","name": "Ikere.county","area_km2": 204.7294,"hist_schema_id": "Elevation0-9000","hist_area_km2": {"325": 2.7959,"350": 33.4243,"375": 67.2061,"400": 46.5632,"425": 17.6162,"450": 10.1114,"475": 9.9221,"500": 7.0001,"525": 4.0571,"550": 2.8589,"575": 1.4925,"600": 0.7357,"625": 0.5255,"650": 0.2733,"675": 0.1261,"700": 0.021}}}