{"type": "Feature","bbox": [6.6984,4.3579,7.049,4.8376],"geometry": {"type": "MultiPolygon","coordinates": [[[[6.9713,4.3768,0.0],[6.9704,4.3796,2.1648],[6.9685,4.3787,1.7103],[6.9696,4.3746,0.0],[6.9715,4.3749,0.0],[6.9713,4.3768,0.0]]],
[[[6.9088,4.4615,5.9697],[6.9063,4.4621,0.0],[6.8885,4.4532,4.5577],[6.8835,4.4454,2.3995],[6.8757,4.4399,1.7812],[6.8676,4.4404,4.007],[6.8596,4.449,0.0],[6.8571,4.449,0.0],[6.8546,4.4449,1.6103],[6.8488,4.4404,1.6804],[6.8576,4.4074,6.9353],[6.8615,4.3979,0.0],[6.8724,4.3929,0.7461],[6.8899,4.3929,7.4918],[6.9007,4.3913,9.6507],[6.9226,4.3849,0.5019],[6.9463,4.3757,3.5089],[6.9526,4.3746,0.0],[6.9646,4.3754,0.0],[6.9687,4.3799,2.1648],[6.9685,4.3868,7.7721],[6.966,4.3943,3.1158],[6.9668,4.3999,1.0074],[6.9557,4.401,3.1328],[6.9518,4.4093,1.5099],[6.9435,4.4071,1.2327],[6.9326,4.4121,0.8695],[6.9335,4.4163,2.0913],[6.9368,4.4185,0.0],[6.9368,4.4221,0.0],[6.9349,4.4232,4.5134],[6.9313,4.4199,2.0806],[6.9271,4.421,0.6648],[6.9229,4.4365,4.0288],[6.9126,4.4424,3.8315],[6.9107,4.446,1.9729],[6.9088,4.4532,7.0857],[6.911,4.459,0.0],[6.9088,4.4615,5.9697]]],
[[[6.944,4.4413,1.3968],[6.9407,4.4418,1.8709],[6.9357,4.4346,3.4034],[6.9329,4.4354,1.9636],[6.9307,4.4404,4.8941],[6.9296,4.4365,2.4865],[6.9257,4.4326,4.9444],[6.926,4.4268,4.428],[6.929,4.4215,0.0],[6.9343,4.4246,1.3428],[6.9385,4.4229,2.1907],[6.9387,4.4201,2.5898],[6.9346,4.4132,3.9953],[6.9351,4.4118,0.0],[6.9438,4.4088,2.2593],[6.9524,4.411,7.7025],[6.9546,4.409,5.3603],[6.9565,4.4021,8.1066],[6.9646,4.4032,0.0],[6.9646,4.4079,0.0],[6.9565,4.419,0.0],[6.9596,4.4287,5.8219],[6.9524,4.4293,0.0],[6.949,4.4313,1.7138],[6.9457,4.436,4.477],[6.944,4.4413,1.3968]]],
[[[6.8328,4.3751,3.8155],[6.8443,4.3618,14.7562],[6.8499,4.3579,2.5347],[6.8721,4.3601,1.6948],[6.8713,4.3654,10.9969],[6.8518,4.3818,1.3463],[6.8515,4.384,0.0],[6.8404,4.3949,1.8823],[6.8326,4.4054,1.8287],[6.8315,4.4232,0.0],[6.8332,4.426,0.0],[6.8332,4.4318,0.0],[6.8288,4.4379,0.0],[6.8243,4.4582,6.9187],[6.8218,4.4574,4.2633],[6.8204,4.4499,3.7599],[6.8174,4.4496,6.4036],[6.8154,4.4529,0.0],[6.8085,4.4518,6.4415],[6.8087,4.4532,2.5565],[6.8151,4.4549,5.4886],[6.8199,4.4515,0.0],[6.8221,4.4626,0.5734],[6.8113,4.4935,5.4814],[6.809,4.5062,1.5942],[6.8007,4.5285,17.7144],[6.7951,4.5599,0.0],[6.7957,4.5707,0.0],[6.7918,4.5735,10.8581],[6.7896,4.5766,4.218],[6.7866,4.5743,1.2345],[6.7844,4.5647,3.1147],[6.7853,4.5476,3.4574],[6.7833,4.5412,3.8389],[6.7916,4.5113,7.0679],[6.7981,4.4725,0.0],[6.8086,4.4327,5.8972],[6.8278,4.3805,13.3116],[6.8328,4.3751,3.8155]]],
[[[6.8263,4.5101,2.0459],[6.8254,4.5118,1.2473],[6.8224,4.5112,0.0],[6.8351,4.4801,2.3705],[6.8365,4.4676,0.0],[6.8407,4.4576,0.0],[6.8474,4.4488,3.2119],[6.8515,4.4479,0.7266],[6.8576,4.4515,0.0],[6.8624,4.4515,1.895],[6.8685,4.4432,0.0],[6.874,4.4418,0.0],[6.8896,4.4582,5.9644],[6.9026,4.4635,0.0],[6.9076,4.4715,2.7735],[6.9085,4.4765,15.7743],[6.9035,4.4779,11.3505],[6.8938,4.486,2.0979],[6.8865,4.4771,1.2536],[6.8832,4.4749,1.9261],[6.8782,4.4738,2.2245],[6.874,4.4771,1.0922],[6.8721,4.4885,9.6076],[6.8679,4.4879,1.5875],[6.8601,4.4963,3.6099],[6.8504,4.5007,1.0921],[6.8488,4.5037,2.0278],[6.8438,4.5012,1.0615],[6.8365,4.5001,2.5717],[6.8282,4.5043,1.6379],[6.8265,4.5065,3.1261],[6.8263,4.5101,2.0459]]],
[[[6.8482,4.5143,0.0],[6.8415,4.5151,3.6534],[6.8393,4.514,8.3463],[6.8368,4.5112,2.5863],[6.8351,4.5046,1.4832],[6.8318,4.5049,0.772],[6.8285,4.5099,0.8795],[6.8268,4.5093,0.8795],[6.8274,4.506,1.5032],[6.8368,4.5007,0.5271],[6.8432,4.5018,1.0615],[6.8485,4.5043,0.0],[6.8479,4.5079,0.0],[6.8496,4.5121,3.9954],[6.8482,4.5143,0.0]]],
[[[6.9435,4.5388,0.5427],[6.944,4.5418,0.5],[6.9421,4.5418,0.5165],[6.9421,4.5376,0.5557],[6.9435,4.5388,0.5427]]],
[[[6.7976,4.5832,11.7323],[6.7982,4.5849,1.5546],[6.7932,4.5799,0.8439],[6.7963,4.5804,3.1016],[6.7976,4.5832,11.7323]]],
[[[6.7985,4.5851,1.5546],[6.7983,4.5849,1.5546],[6.7985,4.5849,1.5546],[6.7985,4.5851,1.5546]]],
[[[7.024,4.5279,2.0169],[7.0206,4.5372,2.9827],[7.0224,4.5613,0.5155],[7.026,4.5691,1.5184],[7.0295,4.5874,0.0],[7.0121,4.5896,1.4425],[7.0079,4.5918,1.6709],[7.0026,4.5985,0.6042],[6.9962,4.5988,0.0],[6.9929,4.589,0.0],[6.9954,4.5854,2.1248],[6.9974,4.564,0.691],[7.0026,4.5538,0.7214],[7.0038,4.5451,0.0],[7.0063,4.5435,3.5473],[7.0057,4.5415,4.5782],[7.0101,4.5326,1.3721],[7.0085,4.5293,0.0],[7.0101,4.5235,3.1757],[7.0076,4.5146,0.0],[7.0146,4.481,4.5597],[7.0146,4.4724,1.3855],[7.0185,4.4624,1.2311],[7.0218,4.4599,0.0],[7.0212,4.4529,0.0],[7.0237,4.4485,1.1384],[7.0268,4.4465,2.4855],[7.0268,4.4454,6.2858],[7.0226,4.4457,0.0],[7.0229,4.4429,2.28],[7.0329,4.4363,0.0],[7.049,4.4395,10.2881],[7.0391,4.4511,5.4078],[7.0358,4.459,3.9945],[7.0364,4.4685,3.7288],[7.041,4.4852,2.4762],[7.0421,4.4967,2.9087],[7.0407,4.5064,1.3847],[7.0305,4.5172,1.2569],[7.024,4.5279,2.0169]]],
[[[6.854,4.6068,18.1896],[6.8496,4.6076,3.5764],[6.8471,4.606,0.0],[6.8435,4.599,1.1967],[6.8382,4.599,0.0],[6.8351,4.5974,0.0],[6.8307,4.5907,1.8572],[6.8301,4.5857,3.0682],[6.826,4.5857,0.0],[6.8249,4.584,0.772],[6.819,4.5824,0.0],[6.814,4.576,0.0],[6.8138,4.5632,2.2484],[6.811,4.5551,0.0],[6.8124,4.5426,2.6931],[6.8157,4.5346,0.4548],[6.816,4.5293,0.0],[6.8218,4.5165,0.0],[6.8285,4.514,0.0],[6.8332,4.5054,1.872],[6.8354,4.5071,0.0],[6.8368,4.514,2.5553],[6.8415,4.5163,0.0],[6.8429,4.5199,18.5262],[6.8449,4.5154,3.0366],[6.8496,4.5174,2.4914],[6.8488,4.5149,0.0],[6.8504,4.5126,3.9954],[6.8582,4.5121,1.6803],[6.8504,4.5099,3.9472],[6.8496,4.5054,6.2587],[6.8513,4.5018,3.3739],[6.8599,4.4976,2.1963],[6.8676,4.4888,3.2111],[6.8715,4.4899,3.3998],[6.8732,4.4935,1.6614],[6.8743,4.4907,3.5652],[6.8732,4.4821,1.025],[6.8763,4.476,1.4848],[6.8785,4.4746,2.2245],[6.8865,4.4785,1.2536],[6.8935,4.4874,0.0],[6.9079,4.4804,0.0],[6.9096,4.4812,0.0],[6.9079,4.4865,1.0136],[6.9129,4.4821,1.5436],[6.9196,4.4846,0.0],[6.9171,4.4949,2.5798],[6.9182,4.4996,1.1011],[6.9221,4.5035,0.0],[6.9229,4.5065,5.3364],[6.9171,4.5118,5.9445],[6.9132,4.5179,0.4793],[6.9129,4.5315,2.8849],[6.909,4.5335,0.8528],[6.9051,4.5332,5.7917],[6.9043,4.5371,0.1247],[6.9018,4.5385,0.2883],[6.9018,4.5438,0.1203],[6.8993,4.5465,0.1095],[6.9001,4.5513,0.0],[6.896,4.5532,0.1389],[6.8918,4.5632,2.7614],[6.8915,4.5693,0.2732],[6.8835,4.5757,0.0],[6.8835,4.5807,6.0661],[6.886,4.5813,0.0],[6.8843,4.5765,1.9273],[6.8924,4.5693,0.2732],[6.8926,4.5632,1.119],[6.8968,4.5535,0.3138],[6.901,4.5515,0.0937],[6.9004,4.5454,0.0],[6.9024,4.5443,0.1203],[6.9026,4.539,0.1864],[6.9076,4.5343,1.2819],[6.914,4.5329,0.0],[6.9143,4.5196,0.0],[6.9199,4.5115,1.0036],[6.924,4.5107,1.5757],[6.9263,4.514,1.1486],[6.9299,4.5149,0.4834],[6.9296,4.5185,0.0],[6.9349,4.519,0.3395],[6.9376,4.5224,1.7844],[6.9374,4.5296,0.6261],[6.9415,4.5349,1.6748],[6.9415,4.5376,0.5],[6.939,4.5385,1.2569],[6.9387,4.5457,0.5],[6.9346,4.5488,1.596],[6.9363,4.5493,2.0643],[6.9415,4.546,0.5],[6.9421,4.5426,0.5246],[6.9449,4.5426,0.5698],[6.9446,4.5465,0.586],[6.9468,4.5457,1.0469],[6.9476,4.541,0.5],[6.9457,4.5401,0.5213],[6.9451,4.5374,0.5],[6.9465,4.5299,1.3646],[6.9449,4.5293,0.6761],[6.9424,4.524,0.5175],[6.9418,4.5246,0.5175],[6.9424,4.5271,2.2787],[6.944,4.5312,0.5],[6.9404,4.5296,1.3148],[6.9396,4.5312,0.5],[6.9382,4.5296,1.1611],[6.9387,4.5232,0.0],[6.9365,4.5171,1.1316],[6.9401,4.5165,2.3029],[6.9404,4.5151,1.8765],[6.9374,4.5129,0.7563],[6.9346,4.5171,0.0],[6.9307,4.5185,0.0],[6.9307,4.5146,0.4834],[6.9276,4.5135,1.1261],[6.9246,4.5093,0.0],[6.9254,4.5015,3.2201],[6.9201,4.4974,1.2089],[6.9224,4.4846,1.0104],[6.9143,4.4771,0.0],[6.9104,4.4693,0.0],[6.9107,4.4657,0.0],[6.9135,4.4624,7.0177],[6.9115,4.4493,9.6971],[6.9182,4.4413,6.8456],[6.924,4.4399,1.251],[6.9274,4.4371,0.0],[6.929,4.4421,2.8915],[6.9315,4.4421,7.9239],[6.936,4.4363,1.2337],[6.9396,4.4426,6.0582],[6.9435,4.4435,0.0],[6.9474,4.4382,1.7509],[6.9488,4.4321,3.2855],[6.9518,4.4301,1.9951],[6.959,4.431,1.5441],[6.9618,4.4293,1.0826],[6.9579,4.4179,1.2456],[6.9654,4.4118,3.7968],[6.9676,4.4074,2.6091],[6.9707,4.3962,7.2478],[6.9707,4.3899,3.5875],[6.9743,4.3821,0.0],[6.9882,4.374,7.6575],[7.0038,4.3799,0.0],[7.0085,4.3874,6.3341],[7.0201,4.3979,0.0],[7.0218,4.4024,0.0],[7.0168,4.409,0.0],[7.0093,4.4121,0.0],[7.011,4.4085,2.8112],[7.0065,4.4154,0.0],[6.9996,4.4185,1.8545],[6.9979,4.4207,0.0],[6.9954,4.4351,0.0],[6.9915,4.441,0.0],[6.9901,4.4468,0.0],[6.9904,4.454,1.5409],[6.9929,4.461,1.8885],[6.9921,4.4693,0.0],[6.991,4.4704,0.9815],[6.9854,4.4699,1.266],[6.9874,4.4729,0.0],[6.9796,4.4899,0.0],[6.9779,4.4907,2.7279],[6.9749,4.5037,0.0],[6.9729,4.5046,0.0],[6.9732,4.5263,0.0],[6.9682,4.5376,3.9243],[6.9618,4.5451,2.4189],[6.9379,4.5607,0.0],[6.9174,4.5676,0.0],[6.9151,4.5713,0.8732],[6.9149,4.5824,13.2165],[6.9179,4.5821,4.5266],[6.924,4.5896,2.9263],[6.9104,4.5963,2.2399],[6.9054,4.6057,0.0],[6.9015,4.6051,5.7611],[6.8954,4.596,3.4144],[6.891,4.5954,2.7693],[6.8868,4.5971,0.0],[6.8824,4.6051,0.0],[6.8796,4.6057,0.0],[6.8765,4.5954,6.5963],[6.8699,4.5943,0.0],[6.8654,4.5985,6.0749],[6.8585,4.5974,0.0],[6.8562,4.5985,1.1615],[6.854,4.6068,18.1896]]],
[[[7.029,4.5915,0.0],[7.036,4.6124,1.0267],[7.026,4.611,1.4548],[7.0249,4.6018,2.6323],[7.0212,4.5993,1.2232],[7.0254,4.5974,2.6058],[7.026,4.5935,0.0],[7.029,4.5915,0.0]]],
[[[7.004,4.6096,1.9516],[7.0026,4.6118,1.6933],[6.9985,4.6118,0.8892],[6.999,4.606,0.0],[7.0035,4.6018,0.0],[7.0079,4.6093,0.0],[7.0071,4.6104,3.1597],[7.004,4.6096,1.9516]]],
[[[6.9513,4.6015,1.2653],[6.9443,4.6021,0.0],[6.941,4.5979,1.0486],[6.9315,4.5957,0.0],[6.929,4.5926,0.0],[6.9285,4.5846,4.786],[6.9204,4.5751,3.5784],[6.9188,4.5699,0.0],[6.9351,4.5693,1.5386],[6.9435,4.566,1.059],[6.9665,4.5496,2.4829],[6.9746,4.539,0.5964],[6.9785,4.5276,0.0],[6.9796,4.5129,0.6241],[6.981,4.511,0.4259],[6.9835,4.5115,0.0],[6.9851,4.5135,0.0],[6.9851,4.5168,0.0],[6.9801,4.5426,1.5298],[6.9788,4.566,4.4157],[6.9782,4.5676,0.0],[6.9729,4.5685,2.4111],[6.9776,4.571,4.0752],[6.9771,4.5926,0.0],[6.9735,4.5954,1.2583],[6.9513,4.6015,1.2653]]],
[[[6.7957,4.5796,3.1016],[6.7904,4.5773,5.1756],[6.7926,4.5738,4.2303],[6.7965,4.574,0.0],[6.8046,4.5818,0.0],[6.8146,4.5857,2.4515],[6.8188,4.5921,7.933],[6.8263,4.5988,15.4643],[6.8282,4.6063,2.86],[6.8254,4.6168,3.4374],[6.8232,4.621,0.0],[6.816,4.6276,0.0],[6.8156,4.6275,0.0],[6.8194,4.6166,6.3691],[6.8111,4.6016,2.8057],[6.8057,4.5961,3.3036],[6.7982,4.5821,4.2221],[6.7957,4.5796,3.1016]]],
[[[6.7376,4.7344,14.6566],[6.7378,4.7318,12.5848],[6.7455,4.7282,4.6092],[6.7537,4.7219,2.7514],[6.758,4.7131,11.7598],[6.7659,4.7058,5.7993],[6.7729,4.6902,11.5123],[6.7693,4.6999,0.0],[6.7657,4.7204,1.695],[6.761,4.7293,0.0],[6.7601,4.7349,0.0],[6.7576,4.7365,1.3468],[6.7535,4.7318,1.5223],[6.7554,4.736,1.3909],[6.7596,4.7388,0.0],[6.7576,4.7457,5.9029],[6.7582,4.7565,8.0294],[6.7571,4.759,0.0],[6.7504,4.7593,6.2272],[6.7585,4.7613,5.5553],[6.7596,4.7704,0.0],[6.7457,4.7815,1.4043],[6.739,4.791,0.0],[6.7307,4.7888,0.4611],[6.7332,4.794,0.0],[6.7315,4.796,1.3918],[6.7293,4.7971,0.0],[6.724,4.7965,1.0778],[6.7174,4.7974,0.8854],[6.7168,4.7979,0.8854],[6.7171,4.8021,0.8846],[6.7201,4.8074,0.3299],[6.7193,4.8118,1.0042],[6.7207,4.8118,2.0688],[6.7218,4.8076,10.5324],[6.7174,4.8007,0.3433],[6.7182,4.7976,1.9196],[6.7265,4.8007,0.5918],[6.7324,4.8004,0.0],[6.7185,4.8144,10.9666],[6.7174,4.8151,2.2364],[6.7182,4.814,10.9666],[6.7088,4.8101,1.8797],[6.7026,4.8146,1.5019],[6.7004,4.8121,1.0324],[6.7025,4.8092,6.6367],[6.7109,4.8005,2.6961],[6.7169,4.7976,0.8854],[6.7209,4.7909,0.9273],[6.732,4.7605,5.9366],[6.7345,4.7577,2.5989],[6.7377,4.7454,1.5648],[6.7376,4.7344,14.6566]]],
[[[6.8749,4.7457,1.277],[6.8746,4.7468,1.277],[6.8738,4.7457,2.8664],[6.871,4.7465,2.3782],[6.8707,4.7432,2.2792],[6.8749,4.7449,2.1897],[6.8749,4.7457,1.277]]],
[[[6.8559,4.7508,4.5445],[6.8601,4.7498,4.8909],[6.8607,4.744,3.5246],[6.8632,4.7428,5.0042],[6.8677,4.7363,2.7872],[6.8621,4.7326,3.8316],[6.8629,4.7313,0.0],[6.8676,4.7285,0.1981],[6.8746,4.7304,0.0],[6.8782,4.7368,0.0],[6.8779,4.7401,3.4106],[6.8768,4.7429,1.3021],[6.8707,4.7418,4.3814],[6.8663,4.7443,2.0356],[6.8696,4.746,2.8674],[6.8701,4.7493,1.5097],[6.8668,4.7515,0.6153],[6.871,4.7526,3.4483],[6.8615,4.7707,2.8555],[6.8632,4.7789,1.692],[6.8524,4.7755,3.2704],[6.8451,4.7639,4.1876],[6.8482,4.7576,1.9037],[6.8559,4.7508,4.5445]]],
[[[6.9149,4.7588,1.2057],[6.914,4.7601,1.2057],[6.9126,4.7601,0.0],[6.9135,4.7576,1.5961],[6.9149,4.7588,1.2057]]],
[[[6.9376,4.7785,1.671],[6.9344,4.7794,4.5872],[6.9276,4.7774,2.471],[6.926,4.7724,3.2454],[6.9299,4.7688,4.4731],[6.9299,4.7635,0.0],[6.9354,4.7596,2.2617],[6.9376,4.7551,0.0],[6.9393,4.7551,0.0],[6.9404,4.7571,3.2272],[6.9401,4.7593,0.0],[6.9376,4.7613,5.5875],[6.9382,4.7646,0.0],[6.9315,4.7715,4.2684],[6.9318,4.774,3.6308],[6.9376,4.7785,1.671]]],
[[[6.9207,4.7615,1.6301],[6.9193,4.7618,1.6301],[6.9201,4.7593,1.2657],[6.921,4.7593,1.2657],[6.9207,4.7615,1.6301]]],
[[[6.926,4.7754,1.8812],[6.9265,4.777,1.0534],[6.921,4.7753,0.0],[6.9188,4.7704,0.0],[6.9238,4.7607,1.5813],[6.9274,4.7593,0.0],[6.9299,4.7618,0.0],[6.9279,4.764,0.0],[6.9288,4.7685,3.5164],[6.9251,4.7724,6.3095],[6.926,4.7754,1.8812]]],
[[[6.9396,4.7638,0.0],[6.9429,4.7671,8.8888],[6.9435,4.7749,3.868],[6.9388,4.7782,1.6521],[6.9329,4.7721,0.0],[6.9396,4.7638,0.0]]],
[[[6.6984,4.8197,2.2571],[6.7001,4.8124,1.0324],[6.7018,4.8149,1.5019],[6.7046,4.8151,4.0516],[6.7093,4.811,0.3079],[6.7159,4.816,0.8875],[6.7133,4.8196,1.9262],[6.7135,4.8318,1.751],[6.712,4.8364,2.5864],[6.7079,4.8376,8.704],[6.6999,4.837,6.8001],[6.6984,4.8197,2.2571]]],
[[[6.786,4.7607,1.7619],[6.7848,4.7767,10.9442],[6.7798,4.7968,3.5632],[6.7582,4.7935,0.1403],[6.7521,4.791,0.0],[6.7529,4.7882,3.4145],[6.7582,4.7843,0.0],[6.764,4.7754,0.2081],[6.7651,4.7651,2.2336],[6.7629,4.7538,2.4353],[6.764,4.7449,0.0],[6.7665,4.741,0.0],[6.7718,4.7404,0.0],[6.7737,4.7487,0.9158],[6.7771,4.7496,0.4406],[6.7826,4.7576,4.7037],[6.7861,4.7588,2.8392],[6.786,4.7607,1.7619]]],
[[[6.9121,4.7729,0.865],[6.9121,4.7731,0.865],[6.9117,4.7729,0.865],[6.9121,4.7729,0.865]]],
[[[6.8307,4.6554,4.8619],[6.8263,4.656,5.3105],[6.8176,4.6476,1.8821],[6.8138,4.6485,1.8417],[6.8104,4.6518,0.8944],[6.8085,4.6501,1.2284],[6.8168,4.6418,0.0],[6.8196,4.6443,1.5492],[6.8307,4.6449,0.0],[6.8296,4.6538,1.2235],[6.8307,4.6554,4.8619]]],
[[[6.8388,4.6588,2.7297],[6.8376,4.6601,2.7297],[6.8343,4.6588,0.0],[6.8304,4.6538,1.2235],[6.8318,4.646,0.0],[6.8332,4.6451,7.2736],[6.8351,4.6476,3.8744],[6.8446,4.6479,4.2458],[6.8443,4.6501,14.1439],[6.8401,4.6549,6.4018],[6.8388,4.6588,2.7297]]],
[[[7.0085,4.6676,0.5581],[7.006,4.6715,0.3391],[7.0026,4.6696,0.5269],[6.9949,4.6693,1.3175],[6.9921,4.6715,1.231],[6.9921,4.6738,0.0],[6.9871,4.6757,0.0],[6.9829,4.6751,0.2724],[6.9815,4.6729,1.2388],[6.984,4.6624,0.2197],[6.9868,4.6632,1.8912],[6.9846,4.6646,0.727],[6.9857,4.6663,1.485],[6.9901,4.6643,1.0215],[6.9976,4.6646,0.573],[6.999,4.6671,0.8987],[7.0004,4.6657,2.4214],[6.9988,4.664,0.573],[7.0001,4.6626,2.4404],[7.0001,4.6585,0.8481],[7.0029,4.6565,0.0],[7.0007,4.6524,0.0],[7.0015,4.6485,2.134],[6.9993,4.6468,1.6389],[6.9974,4.6482,0.0],[6.9949,4.6471,0.9299],[6.9926,4.6421,0.0],[6.9932,4.6332,0.0],[6.996,4.6301,0.0],[6.9999,4.6301,0.0],[7.0074,4.6346,1.687],[7.0099,4.6338,5.5004],[7.0118,4.6304,0.0],[7.0151,4.6301,0.0],[7.0182,4.6318,0.0],[7.0196,4.6349,3.0443],[7.0185,4.6379,0.4706],[7.0118,4.6424,0.0],[7.0082,4.6474,0.0],[7.009,4.6535,1.084],[7.0135,4.6574,2.5709],[7.0082,4.6635,0.4227],[7.0085,4.6676,0.5581]]],
[[[6.9962,4.6632,0.5976],[6.9879,4.6618,1.9784],[6.9879,4.6546,0.9757],[6.9924,4.6482,0.464],[6.999,4.6488,1.4011],[6.9993,4.6532,1.6378],[7.0015,4.6551,0.0],[7.0013,4.6576,0.8481],[6.9982,4.6585,1.5738],[6.999,4.661,0.789],[6.9962,4.6632,0.5976]]],
[[[7.0332,4.6126,0.0],[7.0366,4.6136,0.8024],[7.0345,4.6231,4.0575],[7.019,4.6576,0.0],[7.0118,4.651,0.6545],[7.0101,4.6468,1.0239],[7.0115,4.6446,0.0],[7.0185,4.6426,1.4196],[7.0207,4.6399,0.3741],[7.0212,4.6329,0.0],[7.0193,4.6301,0.7096],[7.0221,4.629,0.8091],[7.0224,4.6274,0.9142],[7.0179,4.626,1.0136],[7.0176,4.624,1.1545],[7.0204,4.6221,2.119],[7.0212,4.6185,0.9058],[7.0182,4.6162,1.5847],[7.0204,4.619,0.4288],[7.019,4.6229,0.0],[7.0168,4.6235,1.5503],[7.0174,4.6268,1.0136],[7.0215,4.6276,1.9],[7.0204,4.629,0.7773],[7.0115,4.6288,0.0],[7.0043,4.6304,4.4566],[7.0013,4.6288,0.0],[7.0096,4.6104,0.0],[7.0074,4.6007,0.0],[7.0082,4.5974,1.5285],[7.0138,4.5949,0.0],[7.0246,4.5946,0.0],[7.0249,4.5971,2.6058],[7.021,4.5979,1.7508],[7.0201,4.5996,1.2232],[7.024,4.6018,2.5723],[7.0251,4.6112,1.4548],[7.0332,4.6126,0.0]]],
[[[6.9624,4.6829,0.0],[6.9568,4.6838,0.6703],[6.9543,4.6826,9.5502],[6.9529,4.6743,1.7069],[6.9438,4.6738,1.5509],[6.9426,4.6751,1.5509],[6.939,4.6712,2.321],[6.9382,4.6663,5.9778],[6.9329,4.6696,1.7341],[6.9307,4.6643,4.3824],[6.9226,4.666,1.7378],[6.9207,4.6638,3.469],[6.9246,4.6482,0.0],[6.9321,4.6329,0.0],[6.9449,4.614,1.8006],[6.9543,4.6068,0.0],[6.9629,4.6101,0.0],[6.9601,4.6182,4.0501],[6.9643,4.6276,3.7935],[6.9588,4.6335,0.8021],[6.9612,4.6332,7.3013],[6.9657,4.6288,1.8974],[6.961,4.6185,3.7563],[6.9626,4.6126,3.1149],[6.9765,4.6118,0.0],[6.9818,4.6135,0.0],[6.984,4.6174,1.3641],[6.9835,4.6254,0.0],[6.9776,4.6415,2.0252],[6.9751,4.6571,0.0],[6.9704,4.6674,1.6585],[6.9665,4.6721,0.0],[6.9624,4.6829,0.0]]],
[[[6.8584,4.6931,1.0925],[6.8401,4.7011,6.0797],[6.8335,4.7015,5.0417],[6.8315,4.709,0.5647],[6.8285,4.7104,0.0],[6.8271,4.7068,1.5872],[6.8285,4.701,0.0],[6.8276,4.6949,0.4036],[6.8263,4.6926,0.4414],[6.8229,4.6915,2.9425],[6.8213,4.6876,5.9281],[6.8215,4.684,1.7875],[6.8251,4.6804,0.9816],[6.8254,4.6712,0.5065],[6.8326,4.6649,0.6858],[6.8354,4.6599,1.3289],[6.8382,4.6618,7.37],[6.8385,4.6701,3.0075],[6.8326,4.6754,2.7466],[6.8349,4.6799,0.5317],[6.8399,4.6835,0.0],[6.8413,4.6882,0.6625],[6.8407,4.6815,0.8077],[6.8337,4.6757,3.4356],[6.8404,4.6693,3.5553],[6.8385,4.6601,2.7297],[6.8446,4.651,4.3594],[6.8457,4.646,0.0],[6.8526,4.6426,2.2872],[6.8507,4.6412,1.5372],[6.8435,4.6465,0.5516],[6.8365,4.6468,1.669],[6.8324,4.6437,6.8262],[6.8199,4.6435,0.5535],[6.8188,4.6421,0.5535],[6.8207,4.6371,5.0588],[6.8301,4.6318,0.9758],[6.8376,4.6232,0.0],[6.8407,4.616,1.3613],[6.8393,4.6054,2.0331],[6.8404,4.6013,1.9779],[6.8424,4.6004,0.0],[6.8446,4.606,3.1729],[6.8474,4.6085,0.0],[6.854,4.6093,6.3702],[6.8562,4.6076,21.0089],[6.859,4.5993,4.0143],[6.8665,4.6015,3.0697],[6.8743,4.5974,3.7097],[6.8768,4.6071,1.3237],[6.8815,4.6079,2.1463],[6.8857,4.6051,0.0],[6.8907,4.5974,15.0234],[6.8926,4.5971,4.5449],[6.8954,4.6001,0.0],[6.8965,4.6049,8.7001],[6.9007,4.6085,0.0],[6.9057,4.6088,2.1485],[6.909,4.6054,0.0],[6.9171,4.6082,8.0992],[6.9174,4.6099,1.1813],[6.9124,4.6112,1.5098],[6.9057,4.6182,8.3765],[6.9026,4.6132,1.3364],[6.899,4.6137,0.8931],[6.8924,4.6201,6.7038],[6.8887,4.6271,0.421],[6.8826,4.6276,3.2153],[6.884,4.6288,5.4871],[6.8871,4.6288,6.8371],[6.8896,4.6271,0.421],[6.8921,4.6218,1.5905],[6.9007,4.614,9.1375],[6.9021,4.6137,1.3364],[6.904,4.6179,7.0757],[6.9065,4.6187,8.3765],[6.9129,4.6121,0.0],[6.9182,4.611,2.3898],[6.9188,4.6085,1.6567],[6.9104,4.6024,2.6115],[6.9118,4.5993,5.9537],[6.9218,4.5996,2.0432],[6.926,4.6007,2.3479],[6.9265,4.6024,7.202],[6.9324,4.5985,0.0],[6.9393,4.6001,0.0],[6.9404,4.6038,0.0],[6.9363,4.6079,2.3943],[6.9232,4.6343,11.5625],[6.9182,4.6412,0.0],[6.911,4.6626,0.0],[6.901,4.6796,0.0],[6.8951,4.6741,2.1407],[6.8878,4.6788,4.1565],[6.8694,4.6821,6.7228],[6.8584,4.6931,1.0925]]],
[[[7.0038,4.7046,2.5388],[7.0088,4.7049,2.65],[7.0126,4.709,2.5616],[7.0144,4.7205,5.1467],[7.0071,4.7252,4.6519],[6.9962,4.7242,10.5886],[6.9809,4.7167,10.9628],[6.9781,4.7174,7.0697],[6.9766,4.7223,6.8991],[6.9671,4.7299,4.23],[6.9662,4.7179,0.0],[6.9704,4.7074,0.0],[6.974,4.7063,1.713],[6.9746,4.7046,0.0],[6.9782,4.7051,0.0],[6.9799,4.7035,2.8992],[6.9854,4.7049,2.0605],[6.9901,4.7029,0.886],[6.9912,4.704,2.397],[6.9957,4.7046,2.6615],[6.9979,4.7085,0.0],[6.996,4.7121,0.0],[6.996,4.7171,4.9313],[7.0004,4.7146,1.8472],[7.0007,4.7171,5.3104],[7.0018,4.7149,3.4769],[6.9993,4.7107,0.0],[7.0038,4.7046,2.5388]]],
[[[6.9804,4.6757,0.4745],[6.9776,4.6765,0.491],[6.9768,4.6754,0.3352],[6.9796,4.6726,0.0],[6.9804,4.6757,0.4745]]],
[[[7.0015,4.6751,1.0545],[7.0018,4.6782,0.6376],[6.9974,4.6718,0.8914],[7.001,4.6721,1.8305],[7.0015,4.6751,1.0545]]],
[[[6.9946,4.6838,0.0],[6.9924,4.684,0.2875],[6.9918,4.6799,0.8401],[6.9929,4.6776,0.5141],[6.996,4.6765,0.0],[6.9982,4.6799,0.7848],[6.9946,4.6838,0.0]]],
[[[6.9813,4.6871,3.3717],[6.9799,4.6888,0.5848],[6.9771,4.6843,0.3397],[6.9771,4.6829,0.3761],[6.9799,4.6818,7.09],[6.9793,4.6782,1.5017],[6.9896,4.6779,0.0],[6.9899,4.6852,0.9891],[6.9813,4.6871,3.3717]]],
[[[6.9985,4.701,2.4109],[6.999,4.6997,1.394],[7.0032,4.7029,3.431],[7.0007,4.7074,0.0],[6.9988,4.7071,0.0],[6.9954,4.7024,3.3904],[6.9918,4.7035,2.2246],[6.9904,4.7024,0.886],[6.9879,4.7024,3.055],[6.9851,4.7043,2.0605],[6.9804,4.7026,2.8992],[6.9782,4.7043,0.0],[6.9721,4.704,0.0],[6.9701,4.6924,0.0],[6.9726,4.6804,0.0],[6.9771,4.679,1.0409],[6.9749,4.6871,1.9344],[6.9774,4.6857,0.9955],[6.9774,4.6896,1.0932],[6.9785,4.691,1.8404],[6.9803,4.6901,0.5848],[6.9791,4.6943,4.5828],[6.9822,4.698,1.7745],[6.9962,4.6988,0.6968],[6.9979,4.6999,1.394],[6.9971,4.7021,3.3904],[6.9985,4.701,2.4109]]],
[[[6.7901,4.7051,5.7241],[6.7902,4.7208,4.1993],[6.7893,4.7275,4.2956],[6.7862,4.7335,1.5534],[6.7859,4.741,0.0],[6.784,4.7388,0.3848],[6.7818,4.7421,0.0],[6.7768,4.7438,0.0],[6.7701,4.7368,2.9631],[6.769,4.7335,5.0228],[6.7749,4.7188,0.0],[6.7796,4.6982,3.3044],[6.7818,4.6863,2.6034],[6.7812,4.6687,0.0],[6.7913,4.6643,3.8922],[6.8065,4.6532,0.6235],[6.8124,4.6538,5.4958],[6.8151,4.6485,1.6728],[6.8193,4.6496,9.6328],[6.8254,4.6565,5.3105],[6.8315,4.6571,3.3145],[6.8321,4.6624,2.8139],[6.824,4.6699,3.7626],[6.8229,4.6729,0.0],[6.8193,4.674,1.7701],[6.8188,4.6774,1.4543],[6.8221,4.6743,0.5264],[6.824,4.6782,0.8222],[6.819,4.6879,0.2853],[6.8143,4.6899,1.2877],[6.8129,4.6929,0.0],[6.8093,4.6937,1.8352],[6.8046,4.6979,2.4807],[6.7974,4.6985,1.3617],[6.7982,4.6999,0.0],[6.7958,4.7,0.8088],[6.7901,4.7051,5.7241]]],
[[[6.9107,4.7718,0.0],[6.9115,4.7729,0.865],[6.8964,4.7718,7.8106],[6.8884,4.7738,6.9856],[6.876,4.7793,3.0309],[6.8716,4.7846,0.0],[6.8663,4.7813,4.0185],[6.8646,4.7707,11.122],[6.8713,4.759,0.0],[6.8796,4.7493,0.0],[6.8821,4.7363,0.0],[6.8701,4.7207,1.1782],[6.8671,4.7146,0.0],[6.8668,4.7101,3.6767],[6.8676,4.7076,0.0],[6.8707,4.706,3.8102],[6.8879,4.7018,0.0],[6.8918,4.6993,2.044],[6.9024,4.6871,2.3114],[6.9085,4.6824,0.0],[6.9193,4.6663,2.429],[6.9249,4.6665,2.1206],[6.9301,4.6651,4.3824],[6.9321,4.6707,1.8329],[6.9354,4.6699,3.2831],[6.9379,4.6671,3.0532],[6.9379,4.671,2.321],[6.9429,4.6768,6.728],[6.9446,4.6746,7.3477],[6.9529,4.6757,0.9317],[6.9538,4.6835,2.8097],[6.9618,4.6868,0.0],[6.964,4.7079,2.2025],[6.9585,4.7207,0.8934],[6.9612,4.7338,0.0],[6.9574,4.7385,2.5062],[6.951,4.7418,2.8424],[6.9471,4.7487,1.2551],[6.9438,4.7474,4.4616],[6.9468,4.7493,0.0],[6.9463,4.7546,0.0],[6.9376,4.7529,1.2056],[6.9329,4.7579,2.0969],[6.926,4.7576,0.0],[6.9215,4.7538,2.8875],[6.9188,4.7554,6.3475],[6.9168,4.7518,14.537],[6.9107,4.7607,1.0066],[6.9051,4.7654,4.4148],[6.9051,4.7665,0.0],[6.9076,4.7665,0.0],[6.9107,4.7718,0.0]]]]}
,"properties": {"GID_2": "NGA.33.8_1","GID_0": "NGA","country": "Nigeria","GID_1": "NGA.33_1","province": "Rivers","NL_NAME_1": "NA","county": "Degema","VARNAME_2": "NA","NL_NAME_2": "NA","TYPE_2": "LocalAuthority","ENGTYPE_2": "LocalAuthority","CC_2": "NA","HASC_2": "NA","name": "Degema.county","area_km2": 819.1158,"hist_schema_id": "Elevation0-9000","hist_area_km2": {"0": 749.6231,"25": 69.4927}}}