{"type": "Feature","bbox": [9.2738,6.9934,9.9228,7.5956],"geometry": {"type": "MultiPolygon","coordinates": [[[[9.3079,7.1322,123.6497],[9.334,7.107,141.8267],[9.3516,7.0964,133.0885],[9.3522,7.0885,115.1852],[9.3705,7.0821,122.2457],[9.3721,7.0779,122.0172],[9.3991,7.0687,151.7331],[9.4287,7.0679,135.2226],[9.4491,7.0596,141.9486],[9.4567,7.0647,142.4465],[9.467,7.0605,154.3369],[9.4791,7.0508,150.3677],[9.4895,7.0334,140.7753],[9.5145,7.009,168.33],[9.5222,6.9934,155.4433],[9.5244,6.9936,149.1962],[9.534,7.0018,161.3566],[9.5435,7.0186,172.8587],[9.5596,7.0625,381.4439],[9.5645,7.0922,192.52],[9.5739,7.1249,163.4925],[9.5873,7.1396,169.8624],[9.6002,7.1485,183.8408],[9.6097,7.1576,194.7106],[9.6579,7.1833,216.644],[9.7218,7.2024,210.9932],[9.7545,7.2093,208.1119],[9.7752,7.217,221.448],[9.7854,7.2261,221.8119],[9.8092,7.2327,229.7098],[9.8155,7.2361,230.8121],[9.8197,7.2411,209.3082],[9.8416,7.2508,231.8295],[9.8652,7.2672,194.593],[9.8757,7.282,226.5168],[9.875,7.3137,244.5383],[9.8814,7.3266,211.5597],[9.887,7.3472,227.5356],[9.8972,7.3641,187.7827],[9.9134,7.4087,178.171],[9.9161,7.4311,175.4257],[9.9204,7.4414,167.3772],[9.9228,7.4607,186.8351],[9.9227,7.4762,185.1774],[9.9138,7.4895,157.1741],[9.9181,7.5062,158.6747],[9.8992,7.5281,179.7971],[9.9014,7.5386,188.9645],[9.8675,7.5722,178.8345],[9.8411,7.5956,196.7796],[9.8318,7.588,201.8724],[9.8265,7.5812,202.8932],[9.8136,7.5725,229.1203],[9.7926,7.5542,217.252],[9.7805,7.5393,203.9422],[9.7662,7.5294,200.7086],[9.7608,7.5239,202.3416],[9.7316,7.4837,170.6257],[9.7202,7.4762,169.7737],[9.6929,7.4529,155.9426],[9.6828,7.4476,162.8521],[9.6674,7.4326,158.9796],[9.645,7.4194,172.1529],[9.64,7.414,174.6849],[9.6316,7.4101,149.7825],[9.6184,7.4004,166.0536],[9.6016,7.4018,151.0031],[9.5986,7.4003,159.7006],[9.5698,7.4448,198.3335],[9.5443,7.4881,219.3658],[9.53,7.505,194.9417],[9.5264,7.5121,178.5897],[9.5195,7.5161,183.4416],[9.513,7.528,171.7224],[9.4999,7.5415,160.6153],[9.4886,7.556,168.2834],[9.4812,7.5714,164.2964],[9.4653,7.5851,166.9929],[9.4568,7.5784,155.7808],[9.4445,7.5738,152.2637],[9.4136,7.5448,141.8419],[9.3951,7.5344,164.5681],[9.3936,7.526,176.1249],[9.3739,7.5121,192.116],[9.3397,7.4968,157.9731],[9.3291,7.4947,156.8309],[9.3265,7.4955,148.7993],[9.3121,7.4903,149.288],[9.3111,7.4786,128.1506],[9.3126,7.4702,133.3749],[9.3122,7.4367,163.8101],[9.2879,7.3874,107.5333],[9.2851,7.3806,104.4532],[9.2816,7.3625,96.1555],[9.2829,7.3434,112.741],[9.2879,7.3127,135.7493],[9.2919,7.2965,131.1541],[9.2988,7.2909,133.5286],[9.3092,7.2565,146.8517],[9.3126,7.2406,113.7281],[9.3156,7.2389,111.1267],[9.3167,7.2191,100.166],[9.3101,7.2099,108.1398],[9.2738,7.1785,133.9902],[9.2758,7.1657,124.3148],[9.281,7.1547,102.8213],[9.2895,7.1485,103.5046],[9.2972,7.1383,102.8326],[9.3079,7.1322,123.6497]]]]}
,"properties": {"GID_2": "NGA.7.9_1","GID_0": "NGA","country": "Nigeria","GID_1": "NGA.7_1","province": "Benue","NL_NAME_1": "NA","county": "Katsina-Ala","VARNAME_2": "NA","NL_NAME_2": "NA","TYPE_2": "LocalAuthority","ENGTYPE_2": "LocalAuthority","CC_2": "NA","HASC_2": "NA","name": "Katsina-Ala.county","area_km2": 2700.496,"hist_schema_id": "Elevation0-9000","hist_area_km2": {"100": 104.1,"125": 255.667,"150": 577.02,"175": 777.915,"200": 720.217,"225": 247.045,"250": 11.21,"275": 2.314,"300": 1.788,"325": 0.799,"350": 0.926,"375": 0.589,"400": 0.231,"425": 0.337,"450": 0.147,"475": 0.168,"500": 0.021}}}