{"type": "Feature","bbox": [13.538,12.1169,14.1944,12.6528],"geometry": {"type": "MultiPolygon","coordinates": [[[[14.1745,12.4156,286.7633],[14.1766,12.4186,286.6344],[14.1734,12.4234,286.8283],[14.1734,12.4294,288.6552],[14.1758,12.4299,286.3883],[14.1811,12.4272,285.4056],[14.1831,12.4295,285.6999],[14.1835,12.4348,288.0962],[14.1855,12.4359,288.5247],[14.1887,12.4334,285.7393],[14.1927,12.4331,285.5208],[14.193,12.4359,285.3353],[14.1862,12.4405,286.8956],[14.186,12.4431,287.114],[14.1874,12.4457,286.2564],[14.1944,12.4481,286.1733],[14.1911,12.4507,284.4875],[14.1833,12.446,285.6358],[14.1805,12.4464,286.8299],[14.1787,12.4482,288.157],[14.181,12.4539,285.5015],[14.1778,12.464,285.8508],[14.1381,12.4627,282.5145],[14.1177,12.454,282.1582],[14.1144,12.4499,283.1495],[14.0941,12.4502,282.8415],[14.085,12.4488,283.0924],[14.0787,12.4378,283.6806],[14.0653,12.4387,283.4069],[14.0648,12.4398,283.3659],[14.0689,12.4439,282.9825],[14.0697,12.4552,282.332],[14.0461,12.4597,281.8945],[14.0375,12.4594,281.8092],[14.0284,12.4572,282.3659],[14.0204,12.4521,282.8217],[14.0147,12.4515,282.9889],[14.0089,12.4545,283.4913],[14.0029,12.4606,283.4261],[13.9967,12.4602,282.9243],[13.9852,12.4703,282.8084],[13.9912,12.4893,283.1265],[13.984,12.4947,282.7553],[13.9804,12.5051,282.8488],[13.9818,12.5106,283.1483],[13.981,12.5226,281.9994],[13.9745,12.5282,280.8435],[13.9518,12.5324,281.6073],[13.9461,12.5348,281.6156],[13.9409,12.5519,281.758],[13.9261,12.5574,281.7494],[13.9213,12.5632,283.0558],[13.9098,12.5935,281.881],[13.9024,12.5966,281.6006],[13.8849,12.5814,282.3722],[13.8763,12.5816,282.3817],[13.8665,12.5897,282.9033],[13.861,12.6131,283.0627],[13.8524,12.6192,282.3953],[13.8462,12.6172,281.1406],[13.835,12.6222,282.1617],[13.8295,12.6218,282.3401],[13.8334,12.6399,282.0546],[13.8291,12.6528,281.4438],[13.8045,12.6251,282.7587],[13.7822,12.5523,284.757],[13.781,12.521,285.213],[13.7826,12.4945,284.6959],[13.7888,12.4765,286.022],[13.7572,12.4604,286.244],[13.7439,12.4511,287.4372],[13.7066,12.434,287.9363],[13.6687,12.4103,287.8145],[13.6361,12.4066,287.7446],[13.6194,12.4087,287.7101],[13.6008,12.4071,287.7795],[13.5839,12.4085,287.7863],[13.5639,12.4003,290.263],[13.5519,12.3841,289.6188],[13.5391,12.3496,291.2336],[13.538,12.31,289.0926],[13.5436,12.2865,291.0109],[13.5413,12.2708,291.2651],[13.5739,12.2267,291.0617],[13.6343,12.1814,291.6895],[13.65,12.1651,290.9903],[13.6622,12.1555,290.7912],[13.6929,12.1343,292.3672],[13.7015,12.1305,291.8023],[13.7495,12.1325,291.2958],[13.7614,12.1302,291.1801],[13.7704,12.1361,291.494],[13.7754,12.1367,290.9475],[13.783,12.1421,290.9156],[13.8017,12.1623,290.2491],[13.8151,12.1801,290.7335],[13.825,12.1889,289.4169],[13.8389,12.2062,290.2763],[13.8504,12.21,290.5851],[13.8605,12.1948,290.0997],[13.8835,12.1836,289.8404],[13.8928,12.1814,289.8099],[13.9174,12.1826,288.8179],[13.9546,12.1588,290.5302],[13.965,12.142,288.8123],[13.9713,12.1272,289.7577],[13.9802,12.1169,290.762],[13.9905,12.1192,290.0485],[14.0151,12.117,289.7286],[14.0282,12.1175,289.7953],[14.043,12.1214,289.5745],[14.0541,12.1314,288.9396],[14.0629,12.1552,288.7548],[14.0647,12.1692,288.5814],[14.0724,12.1892,288.2964],[14.1176,12.2797,287.5133],[14.1296,12.298,287.2125],[14.1406,12.319,286.9769],[14.1582,12.3761,287.0261],[14.1715,12.4096,287.1245],[14.1702,12.4123,287.1874],[14.1745,12.4156,286.7633]]]]}
,"properties": {"GID_2": "NGA.8.23_1","GID_0": "NGA","country": "Nigeria","GID_1": "NGA.8_1","province": "Borno","NL_NAME_1": "NA","county": "Marte","VARNAME_2": "NA","NL_NAME_2": "NA","TYPE_2": "LocalAuthority","ENGTYPE_2": "LocalAuthority","CC_2": "NA","HASC_2": "NA","name": "Marte.county","area_km2": 2281.773,"hist_schema_id": "Elevation0-9000","hist_area_km2": {"275": 1072.032,"300": 1209.741}}}