{"type":"Feature","properties":{"GID_2":"NGA.12.16_1","GID_0":"NGA","country":"Nigeria","GID_1":"NGA.12_1","province":"Edo","NL_NAME_1":"NA","county":"OwanEast","VARNAME_2":"NA","NL_NAME_2":"NA","TYPE_2":"LocalAuthority","ENGTYPE_2":"LocalAuthority","CC_2":"NA","HASC_2":"NA","name":"Owan_East.county"},
"geometry":{"type": "MultiPolygon","coordinates": [[[[5.8906,7.2493,177.331],[5.8816,7.2382,240.405],[5.8755,7.2265,174.7783],[5.874,7.2215,186.5492],[5.874,7.2086,223.3526],[5.8783,7.2048,199.4788],[5.8764,7.1991,183.2961],[5.865,7.1827,242.6774],[5.8599,7.1631,153.6629],[5.8396,7.1245,146.1454],[5.8323,7.1002,142.9103],[5.8269,7.0952,179.7741],[5.8243,7.0878,137.159],[5.8244,7.0821,128.1484],[5.8281,7.0806,133.2505],[5.8294,7.0744,124.9989],[5.8383,7.0706,119.401],[5.8818,7.063,230.4715],[5.893,7.0575,234.2604],[5.9405,7.0403,246.4939],[5.9503,7.0346,188.2924],[5.9555,7.0288,198.3206],[5.962,7.016,165.8616],[5.9602,7.0049,193.9013],[5.9544,6.9898,209.5276],[5.9457,6.9778,193.2907],[5.9432,6.9684,186.0233],[5.9412,6.958,154.0022],[5.9452,6.9312,94.2509],[5.9494,6.9217,96.3235],[5.9606,6.9144,71.4227],[5.9646,6.9076,78.6156],[5.9792,6.8694,79.2922],[5.9884,6.8363,106.9974],[6.0138,6.8361,128.4684],[6.0171,6.8259,129.5789],[6.0169,6.7998,179.0376],[6.0196,6.7862,202.4933],[6.0184,6.7775,219.9326],[6.0196,6.7645,293.9538],[6.0283,6.7662,314.5301],[6.0371,6.7702,332.9581],[6.0765,6.7944,196.0725],[6.0956,6.8033,211.9426],[6.1412,6.8116,185.6114],[6.18,6.9045,95.3709],[6.1862,6.9479,83.3894],[6.1767,7.1069,153.1384],[6.1706,7.1037,178.5107],[6.1658,7.1054,179.5232],[6.1595,7.1023,185.6771],[6.1526,7.1033,193.2165],[6.1548,7.1132,177.4113],[6.1468,7.1193,216.0175],[6.1319,7.1516,281.3405],[6.1264,7.169,176.2336],[6.1094,7.1748,187.252],[6.0851,7.18,221.2771],[6.0688,7.1879,267.6811],[6.068,7.1939,271.8259],[6.0605,7.1986,311.7491],[6.0606,7.206,310.9439],[6.0521,7.2211,310.3108],[6.0453,7.2291,280.1792],[6.0372,7.2318,261.4942],[6.0165,7.2185,354.3061],[6.0043,7.2229,422.2279],[5.9976,7.2209,427.5073],[5.9961,7.2161,414.486],[5.9784,7.2148,277.8541],[5.9727,7.2084,222.4933],[5.9614,7.2082,192.9297],[5.9521,7.2155,277.5087],[5.948,7.2227,227.5359],[5.9375,7.2298,227.6083],[5.9259,7.2364,214.4839],[5.8906,7.2493,177.331]]]]}}