{"type":"Feature","properties":{"GID_2":"NGA.5.2_1","GID_0":"NGA","country":"Nigeria","GID_1":"NGA.5_1","province":"Bauchi","NL_NAME_1":"NA","county":"Bauchi","VARNAME_2":"NA","NL_NAME_2":"NA","TYPE_2":"LocalAuthority","ENGTYPE_2":"LocalAuthority","CC_2":"NA","HASC_2":"NA","name":"Bauchi.county"},
"geometry":{"type": "MultiPolygon","coordinates": [[[[10.3176,10.3059,438.1979],[10.3198,10.3356,397.8339],[10.3152,10.3617,371.6415],[10.3052,10.3853,423.6619],[10.2769,10.4375,482.5873],[10.264,10.4699,484.438],[10.2649,10.4761,475.3015],[10.2443,10.4667,475.7275],[10.2158,10.4564,493.3665],[10.1911,10.458,517.0452],[10.1835,10.4558,513.7307],[10.1558,10.4533,517.8347],[10.0655,10.4296,508.2683],[10.0074,10.4071,506.8372],[9.974,10.3889,534.9199],[9.9351,10.3806,561.0112],[9.9114,10.38,563.9993],[9.8962,10.3868,563.5105],[9.8852,10.3987,568.7599],[9.8705,10.4276,555.5],[9.863,10.4508,576.3531],[9.8498,10.472,598.088],[9.8327,10.506,563.8968],[9.8015,10.5192,561.8028],[9.7648,10.5319,564.8502],[9.718,10.5408,581.7829],[9.6716,10.5439,587.3839],[9.631,10.5494,530.5573],[9.6062,10.5422,537.5478],[9.6185,10.5257,545.1507],[9.6241,10.51,540.9269],[9.6363,10.4153,570.1072],[9.6432,10.3432,634.4366],[9.644,10.3147,633.1858],[9.6412,10.2923,651.4398],[9.6294,10.2632,675.9976],[9.629,10.2416,686.105],[9.6318,10.2314,674.3928],[9.638,10.2243,680.0023],[9.6498,10.202,654.8887],[9.6513,10.1941,655.6287],[9.6517,10.1766,616.7689],[9.6457,10.1488,602.9816],[9.6288,10.1121,837.4831],[9.6291,10.095,605.483],[9.6318,10.0858,597.9046],[9.6319,10.0668,594.1705],[9.6506,10.044,577.8557],[9.6861,10.0087,547.4563],[9.7334,9.9672,543.0449],[9.7729,9.9431,528.4706],[9.8128,9.9129,547.7698],[9.8417,9.8864,539.1633],[9.8691,9.8565,518.8383],[9.8723,9.8509,521.8824],[9.8752,9.8374,525.48],[9.9356,9.8056,581.3673],[9.9425,9.8341,555.927],[9.9563,9.8648,545.6919],[9.9648,9.9089,541.0084],[9.9771,9.9577,534.7512],[9.9915,9.9925,512.1094],[10.0073,10.0198,503.9772],[10.036,10.0404,506.2961],[10.0931,10.0409,555.939],[10.1448,10.0366,609.7918],[10.174,10.0328,568.5541],[10.2097,10.0231,463.1165],[10.261,10.0151,411.6676],[10.2814,10.0167,441.2564],[10.2921,10.0232,424.4133],[10.2931,10.0572,346.7293],[10.2898,10.0959,347.1956],[10.3041,10.1387,440.1927],[10.3164,10.1845,519.8392],[10.3133,10.2358,446.1707],[10.3176,10.3059,438.1979]]]]}}