{"type": "Feature","bbox": [3.6308,12.0475,4.5903,13.2282],"geometry": {"type": "MultiPolygon","coordinates": [[[[3.8358,12.6806,261.3394],[3.8172,12.6682,260.5162],[3.7223,12.5898,249.6237],[3.7024,12.5698,215.4014],[3.6963,12.5664,222.5402],[3.6426,12.5201,210.9933],[3.6414,12.5038,214.9568],[3.6472,12.4449,213.69],[3.6497,12.3658,265.0002],[3.6536,12.3345,221.4216],[3.6552,12.2817,255.6201],[3.6575,12.2685,221.9652],[3.6369,12.2002,213.7182],[3.6381,12.1904,244.4818],[3.6349,12.1632,210.2399],[3.6343,12.1408,207.4504],[3.6308,12.1172,229.1431],[3.6508,12.0496,209.6766],[3.6496,12.054,212.8174],[3.6872,12.0475,259.7983],[3.6961,12.0494,242.0797],[3.7245,12.0624,226.4294],[3.7363,12.0711,233.4047],[3.7537,12.0796,234.4348],[3.804,12.0959,239.0049],[3.806,12.1008,239.1154],[3.8048,12.1056,242.1285],[3.8063,12.1135,246.5459],[3.8103,12.1274,260.581],[3.8116,12.1518,269.9667],[3.8174,12.1676,256.8144],[3.8288,12.1901,248.7608],[3.8464,12.2146,235.7617],[3.8706,12.2382,219.956],[3.8876,12.2458,218.4211],[3.9006,12.2552,211.0154],[3.9004,12.2819,226.0573],[3.8871,12.3081,243.322],[3.8877,12.3181,245.1041],[3.8921,12.3345,234.8281],[3.9025,12.3441,226.3919],[3.914,12.3428,223.0348],[3.9271,12.3388,225.0141],[3.9477,12.3409,216.2007],[3.974,12.3516,194.1092],[3.9842,12.3582,187.93],[3.9955,12.3701,188.6998],[3.9989,12.3764,188.791],[4.0012,12.3895,189.3404],[4.0176,12.4193,190.0836],[4.0252,12.4305,190.7072],[4.0473,12.4556,191.3384],[4.056,12.4634,191.7266],[4.0864,12.4829,192.6518],[4.0975,12.4936,193.7127],[4.1091,12.5115,195.6062],[4.1147,12.5162,196.1265],[4.1212,12.5158,197.2556],[4.1333,12.5227,197.4622],[4.1501,12.5386,200.2577],[4.1613,12.544,200.7349],[4.17,12.5725,213.8942],[4.1869,12.5999,218.8611],[4.1942,12.6081,222.0097],[4.213,12.6203,230.4233],[4.2213,12.6287,233.1888],[4.2433,12.6618,243.3579],[4.2518,12.6854,256.5241],[4.2539,12.6991,266.4835],[4.2696,12.7159,285.6269],[4.2779,12.7204,270.2988],[4.2944,12.727,246.3259],[4.3213,12.7317,251.6969],[4.3324,12.7408,252.3187],[4.3464,12.759,249.9931],[4.3541,12.7896,251.1453],[4.3933,12.8267,255.8891],[4.4083,12.8385,252.9473],[4.4307,12.8907,236.892],[4.4407,12.9083,240.3167],[4.478,12.9519,255.3783],[4.4882,12.9738,263.0974],[4.5527,13.038,248.4295],[4.5903,13.0981,254.5768],[4.5507,13.1105,257.7818],[4.5117,13.12,229.0764],[4.4879,13.1294,232.7408],[4.4596,13.1438,233.4926],[4.4484,13.1435,223.7635],[4.4313,13.1608,219.9906],[4.4044,13.1739,236.756],[4.3798,13.1896,256.6858],[4.3615,13.2092,257.3701],[4.3531,13.2232,258.7998],[4.3409,13.2282,254.053],[4.3224,13.2263,251.0104],[4.3077,13.2211,277.2263],[4.2906,13.2105,293.9131],[4.2661,13.2031,231.6492],[4.2551,13.205,231.3061],[4.236,13.2147,280.3921],[4.2189,13.2155,255.5757],[4.1291,13.2127,220.786],[4.1282,13.1865,211.0538],[4.1296,13.1483,233.9521],[4.1226,13.1103,239.4375],[4.0961,12.9958,234.8562],[4.0516,12.9303,269.8196],[4.0307,12.9041,269.7038],[4.0186,12.8834,236.4302],[4.0036,12.8644,221.6957],[3.9422,12.7642,258.197],[3.9325,12.7559,266.1603],[3.9276,12.7493,265.1775],[3.8665,12.7055,234.0772],[3.8358,12.6806,261.3394]]]]}
,"properties": {"GID_2": "NGA.22.2_1","GID_0": "NGA","country": "Nigeria","GID_1": "NGA.22_1","province": "Kebbi","NL_NAME_1": "NA","county": "ArewaDandi","VARNAME_2": "NA","NL_NAME_2": "NA","TYPE_2": "LocalAuthority","ENGTYPE_2": "LocalAuthority","CC_2": "NA","HASC_2": "NA","name": "Arewa_Dandi.county","area_km2": 4953.186,"hist_schema_id": "Elevation0-9000","hist_area_km2": {"175": 0.331,"200": 393.456,"225": 1662.609,"250": 1983.381,"275": 873.361,"300": 38.189,"325": 1.859}}}