{"type": "Feature","bbox": [7.5227,4.5124,7.7394,4.6999],"geometry": {"type": "MultiPolygon","coordinates": [[[[7.6847,4.5329,9.3078],[7.6919,4.5378,10.2577],[7.7086,4.5555,12.5631],[7.717,4.562,12.9954],[7.73,4.5775,14.0976],[7.734,4.5859,14.6075],[7.7394,4.6043,14.5039],[7.7354,4.6149,19.058],[7.7247,4.6223,26.313],[7.7097,4.6361,22.2481],[7.7023,4.6358,14.8624],[7.7019,4.6399,15.3533],[7.6996,4.6411,16.4415],[7.7006,4.648,15.8293],[7.7136,4.6635,17.0426],[7.7186,4.6749,25.8697],[7.7179,4.6848,23.0685],[7.7135,4.6893,22.2143],[7.7088,4.6813,23.638],[7.706,4.6799,21.0209],[7.7002,4.6906,25.464],[7.6913,4.6832,22.3979],[7.6851,4.6863,22.2711],[7.6852,4.692,24.5131],[7.6816,4.6976,22.1871],[7.6768,4.6993,16.2871],[7.6621,4.6999,26.5028],[7.6575,4.693,28.8982],[7.6491,4.686,20.0935],[7.6291,4.6748,18.2585],[7.6025,4.657,27.4211],[7.5916,4.6517,21.7676],[7.5547,4.653,7.4775],[7.5237,4.6586,4.8348],[7.5227,4.6543,7.3178],[7.5253,4.6333,8.1034],[7.5261,4.5947,2.4355],[7.5321,4.5806,4.6802],[7.5239,4.5754,5.0504],[7.5233,4.565,3.2462],[7.5334,4.5457,1.2979],[7.5413,4.5399,0.0],[7.5499,4.5479,2.297],[7.5574,4.5485,3.6838],[7.5699,4.5443,4.0268],[7.5746,4.5454,0.0],[7.579,4.5499,3.7586],[7.5837,4.5507,6.0735],[7.5876,4.5479,1.2273],[7.5893,4.5429,0.0],[7.591,4.5429,4.117],[7.5957,4.5504,1.9036],[7.6071,4.5582,0.0],[7.6085,4.561,5.249],[7.6085,4.5635,4.9356],[7.6015,4.5707,0.0],[7.596,4.5696,0.0],[7.5951,4.5668,8.5019],[7.5932,4.5685,0.0],[7.5968,4.5721,6.9893],[7.6032,4.5712,0.7215],[7.6051,4.574,4.2752],[7.6104,4.5763,7.1473],[7.6115,4.5751,9.7576],[7.606,4.5729,0.0],[7.6046,4.5699,4.0005],[7.6093,4.5637,1.4279],[7.6079,4.5571,0.0],[7.6107,4.5565,0.0],[7.6174,4.561,10.1083],[7.6243,4.561,2.8393],[7.6268,4.5632,1.9493],[7.6249,4.5604,6.5959],[7.619,4.5596,4.1493],[7.6151,4.5571,0.0],[7.6104,4.5529,3.2921],[7.6096,4.5499,7.2005],[7.6085,4.554,3.1743],[7.6029,4.5543,3.1815],[7.5951,4.5429,6.5225],[7.5915,4.5404,8.088],[7.5876,4.5424,6.5633],[7.586,4.5471,1.2273],[7.5821,4.5496,0.0],[7.5754,4.5421,0.0],[7.5513,4.546,0.9298],[7.5474,4.5421,0.0],[7.5451,4.531,1.7854],[7.5576,4.5151,1.4042],[7.5726,4.5124,4.5793],[7.5757,4.5143,5.1062],[7.5832,4.5138,9.1586],[7.5837,4.5176,7.4217],[7.5862,4.5196,3.4409],[7.5987,4.5205,6.0146],[7.6051,4.5289,10.1834],[7.604,4.5328,10.1607],[7.6066,4.5353,6.0104],[7.6109,4.5362,12.7856],[7.6158,4.5356,11.7407],[7.6203,4.5305,9.155],[7.6352,4.524,5.5771],[7.6446,4.5252,5.1195],[7.6438,4.5282,2.3638],[7.6454,4.5326,6.9173],[7.6521,4.5312,2.4658],[7.6537,4.5349,7.9623],[7.6604,4.5404,0.0],[7.669,4.544,3.3054],[7.6715,4.5476,2.9017],[7.6754,4.5499,1.2533],[7.6799,4.5501,1.944],[7.6863,4.5557,4.376],[7.6849,4.5526,3.5928],[7.6801,4.5493,1.944],[7.6715,4.5468,4.2065],[7.669,4.5424,1.0938],[7.6601,4.539,0.0],[7.6524,4.5304,6.0451],[7.6457,4.5318,7.9778],[7.6446,4.5276,2.3638],[7.6454,4.5254,5.1195],[7.6859,4.5344,10.1068],[7.6847,4.5329,9.3078]]]]}
,"properties": {"GID_2": "NGA.3.13_1","GID_0": "NGA","country": "Nigeria","GID_1": "NGA.3_1","province": "AkwaIbom","NL_NAME_1": "NA","county": "IkotAbasi","VARNAME_2": "NA","NL_NAME_2": "NA","TYPE_2": "LocalAuthority","ENGTYPE_2": "LocalAuthority","CC_2": "NA","HASC_2": "NA","name": "Ikot_Abasi.county","area_km2": 334.1263,"hist_schema_id": "Elevation0-9000","hist_area_km2": {"0": 160.3691,"25": 173.7571}}}