{"type": "Feature","bbox": [7.8683,4.6816,8.0444,4.8262],"geometry": {"type": "MultiPolygon","coordinates": [[[[8.0201,4.6858,25.6446],[8.0368,4.6932,24.7188],[8.0444,4.6942,23.3798],[8.0439,4.7019,32.7116],[8.0404,4.7054,31.0238],[8.0384,4.7218,24.2039],[8.0353,4.7281,32.4889],[8.0235,4.7386,30.1334],[8.0111,4.7451,40.4918],[8.0022,4.7627,15.3076],[7.9892,4.7763,37.6412],[7.9801,4.796,42.4251],[7.9777,4.8065,44.2373],[7.9783,4.8131,37.6043],[7.972,4.8248,40.2507],[7.9658,4.8262,43.1059],[7.9472,4.8174,39.0731],[7.9437,4.8022,42.9972],[7.9405,4.8004,41.3627],[7.9292,4.8034,40.5027],[7.9135,4.8009,40.429],[7.9013,4.8013,28.3939],[7.8849,4.7986,20.7146],[7.8683,4.792,22.0386],[7.8727,4.776,12.711],[7.8737,4.7644,15.9482],[7.874,4.755,18.0701],[7.8732,4.7483,29.4406],[7.8706,4.7437,38.9325],[7.8705,4.7352,16.3013],[7.8789,4.7068,27.3953],[7.8927,4.6989,12.6569],[7.9,4.6928,10.9404],[7.9085,4.6894,27.0967],[7.9191,4.6918,24.2481],[7.9428,4.6856,12.8877],[7.9785,4.6816,22.0198],[7.9958,4.6845,15.0252],[8.0201,4.6858,25.6446]]]]}
,"properties": {"GID_2": "NGA.3.21_1","GID_0": "NGA","country": "Nigeria","GID_1": "NGA.3_1","province": "AkwaIbom","NL_NAME_1": "NA","county": "NsitUbium","VARNAME_2": "NA","NL_NAME_2": "NA","TYPE_2": "LocalAuthority","ENGTYPE_2": "LocalAuthority","CC_2": "NA","HASC_2": "NA","name": "Nsit_Ubium.county","area_km2": 203.6049,"hist_schema_id": "Elevation0-9000","hist_area_km2": {"0": 13.9036,"25": 144.0848,"50": 45.6165}}}