{"type": "Feature","bbox": [3.1864,6.5228,3.3014,6.7051],"geometry": {"type": "MultiPolygon","coordinates": [[[[3.2896,6.6727,63.1146],[3.2743,6.6758,60.3491],[3.2636,6.684,39.8121],[3.2582,6.6924,30.9968],[3.2583,6.6956,44.879],[3.2517,6.7051,72.7392],[3.2305,6.666,41.762],[3.2315,6.6561,50.8672],[3.2303,6.6515,51.187],[3.2318,6.6453,49.2469],[3.228,6.6262,35.6067],[3.2165,6.6146,38.8481],[3.1953,6.6014,30.8375],[3.1906,6.5811,13.2628],[3.19,6.5601,12.53],[3.1864,6.5497,9.9528],[3.1974,6.5377,9.0183],[3.206,6.5327,4.6507],[3.2135,6.5245,4.6476],[3.2437,6.5251,10.4162],[3.2619,6.5228,17.1094],[3.2751,6.5253,5.3876],[3.2775,6.5425,22.1445],[3.2783,6.5769,34.1461],[3.283,6.5825,35.2386],[3.2888,6.5855,39.4801],[3.2885,6.5974,38.8128],[3.3014,6.6204,44.9853],[3.2926,6.6248,27.4194],[3.2895,6.6311,28.8189],[3.2867,6.6535,39.6762],[3.2881,6.6698,59.2836],[3.2896,6.6727,63.1146]]]]}
,"properties": {"GID_2": "NGA.25.3_1","GID_0": "NGA","country": "Nigeria","GID_1": "NGA.25_1","province": "Lagos","NL_NAME_1": "NA","county": "Alimosho","VARNAME_2": "NA","NL_NAME_2": "NA","TYPE_2": "LocalAuthority","ENGTYPE_2": "LocalAuthority","CC_2": "NA","HASC_2": "NA","name": "Alimosho.county","area_km2": 147.6641,"hist_schema_id": "Elevation0-9000","hist_area_km2": {"0": 28.7931,"25": 82.2689,"50": 34.8963,"75": 1.7057}}}