{"type":"Feature","properties":{"GID_2":"NGA.33.6_1","GID_0":"NGA","country":"Nigeria","GID_1":"NGA.33_1","province":"Rivers","NL_NAME_1":"NA","county":"Asari-Toru","VARNAME_2":"NA","NL_NAME_2":"NA","TYPE_2":"LocalAuthority","ENGTYPE_2":"LocalAuthority","CC_2":"NA","HASC_2":"NA","name":"Asari-Toru.county"},
"geometry":{"type": "MultiPolygon","coordinates": [[[[6.8363,4.7021,8.0182],[6.8362,4.7009,5.0043],[6.8401,4.7011,6.0797],[6.8566,4.6948,4.4141],[6.8694,4.6821,6.7228],[6.8878,4.6788,4.1565],[6.8951,4.6741,2.1407],[6.901,4.6796,0.0],[6.8829,4.6985,2.6927],[6.8665,4.7035,2.1967],[6.8632,4.7104,1.5507],[6.8629,4.7176,1.7236],[6.8587,4.7146,3.2036],[6.8579,4.7087,5.9256],[6.8554,4.7068,9.0717],[6.8496,4.7076,0.9043],[6.8463,4.7107,1.4642],[6.8457,4.7079,2.9468],[6.8407,4.7076,2.0685],[6.8404,4.7038,1.1569],[6.8363,4.7021,8.0182]]],
[[[6.7901,4.7051,5.7241],[6.7958,4.7,0.8088],[6.7979,4.6999,0.0],[6.7963,4.7046,0.4986],[6.7996,4.7082,0.9938],[6.7996,4.7101,0.5304],[6.7976,4.7126,0.9418],[6.7965,4.7182,0.0],[6.7974,4.7249,0.0],[6.794,4.7262,3.0988],[6.7982,4.7251,0.0],[6.8035,4.7262,3.8844],[6.8021,4.7215,1.5669],[6.7985,4.7196,3.8366],[6.7982,4.7129,2.5556],[6.8001,4.7104,1.1256],[6.8001,4.7079,2.4486],[6.7968,4.7043,0.4986],[6.7979,4.7013,0.3744],[6.8087,4.6957,3.2602],[6.8138,4.6949,3.0203],[6.8163,4.6901,0.0],[6.8201,4.6896,0.5183],[6.8263,4.6946,1.3935],[6.8263,4.7107,3.1522],[6.8307,4.7118,2.0443],[6.8332,4.7076,6.691],[6.8335,4.7032,1.6774],[6.8349,4.7026,8.0182],[6.839,4.7043,1.1569],[6.8393,4.7076,2.0685],[6.8438,4.7085,0.0],[6.846,4.7118,1.4642],[6.8549,4.7076,6.8497],[6.859,4.7176,4.5513],[6.8629,4.7201,0.5797],[6.8646,4.7268,0.0],[6.8543,4.7357,0.0],[6.8463,4.7374,1.1641],[6.8388,4.7426,10.5914],[6.8357,4.7487,5.2429],[6.8299,4.7518,1.6554],[6.8271,4.7551,7.1321],[6.8285,4.7638,8.9148],[6.8263,4.766,2.5542],[6.8182,4.7632,0.5548],[6.8171,4.7563,1.7398],[6.8138,4.7543,2.486],[6.7963,4.7607,2.0746],[6.794,4.7601,3.7573],[6.7901,4.7557,0.7576],[6.7876,4.7554,4.2431],[6.7849,4.7574,0.6729],[6.7821,4.7538,0.7473],[6.7826,4.7482,0.0],[6.789,4.7404,1.8256],[6.7885,4.7401,1.8256],[6.7859,4.741,0.0],[6.7862,4.7335,1.5534],[6.7893,4.7275,4.2956],[6.7902,4.7208,4.1993],[6.7901,4.7051,5.7241]]],
[[[6.8024,4.7982,4.7691],[6.8021,4.8004,7.401],[6.793,4.7943,5.3638],[6.7798,4.7968,3.5632],[6.7848,4.7767,10.9442],[6.786,4.7585,2.0576],[6.7874,4.7571,2.0576],[6.7965,4.7621,7.7217],[6.8143,4.7551,1.88],[6.816,4.756,8.8073],[6.8157,4.7618,0.7879],[6.8171,4.7638,2.9],[6.8235,4.7674,6.2951],[6.8279,4.7665,1.2802],[6.8296,4.7632,2.453],[6.8293,4.7546,8.9872],[6.8351,4.7512,3.724],[6.8435,4.7413,0.7407],[6.8471,4.7396,0.2323],[6.8518,4.7418,3.5359],[6.8524,4.7401,2.657],[6.8507,4.7382,0.8916],[6.8582,4.736,2.9519],[6.8618,4.7326,3.8316],[6.8677,4.7363,2.7872],[6.8632,4.7428,5.0042],[6.8607,4.744,3.5246],[6.8601,4.7498,4.8909],[6.8525,4.7534,3.85],[6.8482,4.7576,1.9037],[6.8451,4.7639,4.1876],[6.8524,4.7755,3.2704],[6.8632,4.7789,1.692],[6.864,4.7821,0.4629],[6.8685,4.7865,0.7521],[6.8541,4.7916,10.8941],[6.8271,4.7918,1.0573],[6.8216,4.7982,1.5355],[6.8174,4.7924,1.4293],[6.8085,4.7896,2.1854],[6.8035,4.7915,5.2753],[6.8024,4.7982,4.7691]]],
[[[6.8201,4.7993,8.4379],[6.8157,4.8047,5.9524],[6.81,4.808,12.7378],[6.8047,4.8054,3.1104],[6.803,4.8021,0.5953],[6.8049,4.7924,10.5713],[6.8068,4.791,6.3516],[6.8165,4.7943,2.2774],[6.8201,4.7993,8.4379]]]]}}