{"type":"Feature","properties":{"GID_2":"NGA.32.9_1","GID_0":"NGA","country":"Nigeria","GID_1":"NGA.32_1","province":"Plateau","NL_NAME_1":"NA","county":"LangtangNorth","VARNAME_2":"NA","NL_NAME_2":"NA","TYPE_2":"LocalAuthority","ENGTYPE_2":"LocalAuthority","CC_2":"NA","HASC_2":"NA","name":"Langtang_North.county"},
"geometry":{"type": "MultiPolygon","coordinates": [[[[9.7192,9.2876,491.5628],[9.7073,9.2749,484.0477],[9.6965,9.2685,493.7826],[9.6872,9.2555,567.7054],[9.6603,9.2035,851.9934],[9.651,9.1762,1057.429],[9.6466,9.1495,1107.6425],[9.6401,9.1397,1167.5438],[9.6376,9.1385,1178.2688],[9.6552,9.1291,996.2501],[9.6634,9.1219,512.2358],[9.6829,9.0962,327.3644],[9.6834,9.0935,327.6422],[9.6941,9.0846,332.4974],[9.6945,9.0807,334.102],[9.7045,9.0617,312.2533],[9.7188,9.0456,290.8141],[9.7274,9.0391,289.8301],[9.7374,9.0286,286.8725],[9.7541,9.0262,276.028],[9.7638,9.0221,300.5217],[9.7696,9.0219,301.6945],[9.7691,9.0175,308.75],[9.787,8.9768,255.5651],[9.7884,8.9683,246.4906],[9.7868,8.9581,230.7177],[9.7756,8.9345,241.0787],[9.7368,8.8835,214.6779],[9.7352,8.8831,213.1088],[9.7379,8.8708,200.5925],[9.7367,8.8218,164.5917],[9.7384,8.8082,154.1018],[9.7375,8.7909,157.6873],[9.733,8.7845,155.2914],[9.7461,8.7884,165.7984],[9.7599,8.7879,177.8136],[9.8233,8.7803,214.8995],[9.8327,8.7773,202.6057],[9.8535,8.7761,193.545],[9.8378,8.8227,188.8052],[9.83,8.8541,186.4414],[9.8231,8.9046,190.6661],[9.8233,8.9245,211.8277],[9.8295,8.9459,239.4063],[9.8298,8.9606,243.0033],[9.8272,8.9776,256.6926],[9.8084,9.0209,321.1171],[9.801,9.0209,400.1786],[9.8059,9.0351,453.771],[9.8181,9.0412,301.1735],[9.8335,9.0575,229.3503],[9.852,9.0695,271.3141],[9.8948,9.1484,253.0503],[9.8938,9.1609,256.7699],[9.8856,9.1742,283.3687],[9.8816,9.1937,274.3403],[9.8997,9.2124,256.8662],[9.9166,9.2212,253.9323],[9.9251,9.224,254.7969],[9.9063,9.2255,258.8757],[9.8863,9.2299,267.6041],[9.8615,9.243,311.8146],[9.8425,9.2649,321.7322],[9.8296,9.2739,320.8667],[9.8057,9.2821,346.2392],[9.7795,9.2893,358.8841],[9.727,9.2841,416.187],[9.7192,9.2876,491.5628]]]]}}