{"type": "Feature","bbox": [9.13,6.4431,9.8821,7.282],"geometry": {"type": "MultiPolygon","coordinates": [[[[9.6451,6.5236,199.4137],[9.6443,6.5297,207.7326],[9.651,6.5495,215.2079],[9.6515,6.5654,211.0887],[9.6581,6.5883,387.2485],[9.6685,6.6139,220.7213],[9.6683,6.6317,241.3969],[9.6727,6.6406,302.8261],[9.6758,6.6556,468.8126],[9.6794,6.6971,339.3586],[9.6777,6.7634,190.8513],[9.679,6.7828,183.994],[9.6763,6.7971,191.9691],[9.6816,6.8146,187.4108],[9.6717,6.8264,199.2813],[9.6789,6.8458,191.2989],[9.6874,6.9164,207.9229],[9.7058,7.0119,206.7827],[9.7097,7.0242,214.8186],[9.7199,7.0455,227.0878],[9.7397,7.0823,191.8783],[9.7592,7.1114,169.7172],[9.7716,7.122,200.1664],[9.783,7.1354,205.5731],[9.8148,7.1639,220.0087],[9.8481,7.1811,223.0547],[9.8647,7.1952,228.0286],[9.873,7.2058,223.3493],[9.8797,7.2183,244.3176],[9.8821,7.2312,239.66],[9.8757,7.282,226.5168],[9.8652,7.2672,194.593],[9.8416,7.2508,231.8295],[9.8197,7.2411,209.3082],[9.8155,7.2361,230.8121],[9.8092,7.2327,229.7098],[9.7854,7.2261,221.8119],[9.7752,7.217,221.448],[9.7545,7.2093,208.1119],[9.7218,7.2024,210.9932],[9.6579,7.1833,216.644],[9.6097,7.1576,194.7106],[9.6002,7.1485,183.8408],[9.5873,7.1396,169.8624],[9.5739,7.1249,163.4925],[9.5645,7.0922,192.52],[9.5596,7.0625,381.4439],[9.5435,7.0186,172.8587],[9.534,7.0018,161.3566],[9.5244,6.9936,149.1962],[9.5222,6.9934,155.4433],[9.5145,7.009,168.33],[9.4895,7.0334,140.7753],[9.4791,7.0508,150.3677],[9.467,7.0605,154.3369],[9.4567,7.0647,142.4465],[9.4491,7.0596,141.9486],[9.4437,7.0618,143.2933],[9.4375,7.0491,150.4069],[9.4211,7.0318,173.7982],[9.4115,7.0168,145.9694],[9.3999,7.0064,177.708],[9.3742,6.9786,178.3764],[9.3583,6.9652,202.8362],[9.3525,6.9566,197.9094],[9.3347,6.9402,176.017],[9.3265,6.9302,201.2638],[9.3122,6.9195,182.8769],[9.2946,6.9024,171.1918],[9.2855,6.8962,210.1008],[9.2737,6.8837,187.7683],[9.2509,6.8743,224.6344],[9.2186,6.8669,229.6034],[9.1989,6.872,209.9429],[9.1909,6.8725,222.4076],[9.1851,6.8686,231.1371],[9.1764,6.851,235.9749],[9.174,6.8428,220.9062],[9.1687,6.8363,211.855],[9.1631,6.8099,187.2101],[9.1517,6.7913,188.2784],[9.1503,6.782,185.1389],[9.1462,6.7732,182.3283],[9.1455,6.7644,189.9911],[9.1387,6.7395,188.0802],[9.1378,6.7307,211.6104],[9.1329,6.7162,192.0391],[9.13,6.6923,187.7571],[9.1307,6.6686,176.0085],[9.1615,6.6761,207.4191],[9.1934,6.6877,224.458],[9.2161,6.6905,221.0641],[9.224,6.6904,245.9626],[9.2378,6.6875,287.8406],[9.2422,6.6892,271.7142],[9.266,6.6869,249.9357],[9.2791,6.6773,231.5573],[9.2902,6.6753,246.7494],[9.3024,6.6612,296.1285],[9.3119,6.6544,347.6763],[9.3306,6.6306,267.1254],[9.351,6.6097,495.6937],[9.3601,6.5975,852.0262],[9.3795,6.5827,401.3596],[9.4013,6.5478,293.071],[9.4219,6.5254,389.8239],[9.4475,6.488,460.2781],[9.4583,6.4755,389.9515],[9.4674,6.456,367.1427],[9.5136,6.4431,650.7687],[9.528,6.4434,373.0298],[9.5419,6.4494,435.7559],[9.588,6.4752,219.9617],[9.5828,6.4929,220.5216],[9.5859,6.5083,207.9214],[9.5927,6.5159,211.0915],[9.5948,6.5289,205.5795],[9.5997,6.5307,205.5658],[9.6121,6.5252,197.1629],[9.6231,6.5243,213.3513],[9.6329,6.5202,200.5107],[9.6451,6.5236,199.4137]]]]}
,"properties": {"GID_2": "NGA.7.11_1","GID_0": "NGA","country": "Nigeria","GID_1": "NGA.7_1","province": "Benue","NL_NAME_1": "NA","county": "Kwande","VARNAME_2": "NA","NL_NAME_2": "NA","TYPE_2": "LocalAuthority","ENGTYPE_2": "LocalAuthority","CC_2": "NA","HASC_2": "NA","name": "Kwande.county","area_km2": 3074.387,"hist_schema_id": "Elevation0-9000","hist_area_km2": {"150": 97.352,"175": 449.081,"200": 802.337,"225": 636.325,"250": 237.32,"275": 84.588,"300": 64.838,"325": 67.474,"350": 92.121,"375": 99.012,"400": 81.341,"425": 51.177,"450": 40.139,"475": 32.241,"500": 27.945,"525": 23.712,"550": 21.037,"575": 18.362,"600": 17.33,"625": 14.846,"650": 14.824,"675": 11.771,"700": 12.002,"725": 10.908,"750": 11.35,"775": 9.939,"800": 8.633,"825": 7.559,"850": 7.096,"875": 5.559,"900": 5.39,"925": 4.527,"950": 2.4,"975": 1.706,"1000": 0.737,"1025": 0.611,"1050": 0.379,"1075": 0.232,"1100": 0.126,"1125": 0.063}}}