{"type": "Feature","bbox": [8.0972,4.9662,8.9203,5.7898],"geometry": {"type": "MultiPolygon","coordinates": [[[[8.8652,5.6568,121.7491],[8.8558,5.6559,183.7795],[8.8124,5.6626,182.3054],[8.72,5.6861,196.5303],[8.691,5.6872,199.0087],[8.6541,5.6932,410.0017],[8.6403,5.6962,517.9181],[8.6053,5.7104,338.7108],[8.5908,5.7138,346.7078],[8.5814,5.7142,518.1379],[8.574,5.7176,396.069],[8.4605,5.7416,288.5503],[8.4494,5.745,229.4826],[8.4405,5.7502,253.8069],[8.4347,5.7621,266.4949],[8.4311,5.7792,179.179],[8.4258,5.7827,200.4133],[8.4068,5.7877,263.2882],[8.39,5.7898,200.1209],[8.3719,5.7834,169.1514],[8.3637,5.778,190.2772],[8.3564,5.7694,230.3281],[8.3378,5.7589,161.4814],[8.3244,5.7435,158.7207],[8.3079,5.7347,144.8596],[8.2978,5.7255,124.5876],[8.2873,5.7199,140.7954],[8.2824,5.7131,147.9534],[8.2554,5.6995,120.5801],[8.2372,5.6857,110.0349],[8.2223,5.6802,109.1572],[8.2139,5.6727,95.7852],[8.1574,5.6486,106.4592],[8.1531,5.6505,96.4454],[8.1399,5.65,111.8108],[8.1275,5.6537,126.2179],[8.1215,5.6485,101.0036],[8.1235,5.6323,119.4959],[8.1266,5.6217,108.7871],[8.1322,5.6142,127.3338],[8.1343,5.6015,148.0866],[8.139,5.5917,146.0108],[8.1391,5.5814,133.961],[8.1502,5.5561,143.2764],[8.1708,5.5207,114.8767],[8.1792,5.5093,130.2131],[8.1876,5.4854,123.5546],[8.2012,5.458,110.0453],[8.2063,5.4441,106.4197],[8.2146,5.4306,111.6832],[8.2171,5.401,99.6626],[8.2157,5.3863,103.5952],[8.1994,5.3741,102.2815],[8.1928,5.3646,87.0398],[8.1846,5.3566,80.8598],[8.1431,5.3014,9.5145],[8.1271,5.2848,1.0],[8.1173,5.2806,4.8476],[8.0972,5.277,36.905],[8.099,5.271,31.896],[8.106,5.2624,50.255],[8.1133,5.2576,34.1629],[8.126,5.2427,50.1281],[8.1526,5.2348,84.1547],[8.1689,5.2325,31.5667],[8.1806,5.2257999999999996,31.4617],[8.1961,5.212,16.1583],[8.2082,5.2065,9.8308],[8.2132,5.2002,15.4546],[8.2237,5.1949,3.3508],[8.2329,5.1925,5.0247],[8.2539,5.1914,12.0607],[8.2867,5.1828,8.0085],[8.2899,5.1788,9.5263],[8.2999,5.1731,6.7467],[8.3047,5.1661,6.2674],[8.3194,5.1509,8.5153],[8.3259,5.1409,10.8302],[8.3391,5.1125,48.3369],[8.3527,5.099,82.5199],[8.3623,5.0933,42.2713],[8.3702,5.0961,58.0518],[8.3791,5.0923,49.1829],[8.3889,5.0684,33.4027],[8.402,5.0509,15.3261],[8.4226,5.0418,52.395],[8.4308,5.0232,18.9038],[8.4334,5.0103,15.3317],[8.4435,4.9946,19.5611],[8.4446,4.9898,15.1956],[8.4518,4.9805,13.0865],[8.4632,4.9717,58.8935],[8.4906,4.9662,58.4223],[8.5222,4.9691,49.9861],[8.5521,4.9764,39.1004],[8.5758,4.9742,41.5763],[8.5858,4.9759,20.0933],[8.6413,4.9719,10.5182],[8.6545,4.9724,24.8052],[8.6718,4.9684,5.3944],[8.6781,4.973,13.182],[8.6803,4.9815,12.1593],[8.6928,4.9862,7.3912],[8.6941,4.9882,7.2055],[8.6943,4.9909,14.7515],[8.6824,4.9954,68.7462],[8.6815,5.0001,17.0167],[8.6919,5.0055,12.9864],[8.6942,5.014,75.6138],[8.7044,5.0202,54.7196],[8.7092,5.0307,61.3614],[8.7103,5.0321,68.4398],[8.7156,5.0319,60.2003],[8.7172,5.0386,73.8383],[8.7211,5.0418,62.1105],[8.7174,5.0526,88.1145],[8.7189,5.0586,86.5324],[8.723,5.0643,93.6569],[8.7253,5.0748,96.378],[8.7378,5.0849,90.9192],[8.7407,5.0857,83.394],[8.7424,5.0879,88.3174],[8.7435,5.097,98.2799],[8.7484,5.1012,92.788],[8.7748,5.1089,100.6192],[8.7816,5.1133,94.1842],[8.7831,5.1159,120.743],[8.7829,5.1212,110.3447],[8.7886,5.1241,108.8257],[8.7945,5.1346,112.9614],[8.7941,5.1381,124.8505],[8.7995,5.1476,129.3237],[8.8004,5.1559,123.5549],[8.8081,5.1644,127.3835],[8.8114,5.1744,135.1227],[8.8161,5.1837,146.3727],[8.8187,5.1856,136.9851],[8.8128,5.2202,353.739],[8.8167,5.2605,597.5103],[8.8152,5.2838,932.7654],[8.8293,5.3205,1014.3486],[8.8342,5.3285,973.2],[8.8402,5.3878,752.6448],[8.8369,5.3964,591.0629],[8.8352,5.4157,391.2304],[8.831,5.43,343.4979],[8.8401,5.4479,283.913],[8.8405,5.4546,320.0995],[8.8475,5.4626,298.0757],[8.8502,5.4644,292.1151],[8.8531,5.4635,287.6561],[8.8653,5.4735,255.761],[8.868,5.4811,295.4319],[8.8661,5.4864,288.6983],[8.8667,5.4894,279.4477],[8.8724,5.4965,268.5771],[8.8754,5.4974,262.5943],[8.887,5.5138,254.9655],[8.8918,5.5175,251.9085],[8.9057,5.543,221.7262],[8.9109,5.5594,220.6037],[8.9127,5.5618,214.9376],[8.9203,5.5647,197.5338],[8.92,5.5752,204.1416],[8.9149,5.5818,198.4112],[8.9099,5.5971,180.6676],[8.9099,5.6012,172.7638],[8.9037,5.6165,180.1909],[8.8986,5.6242,177.997],[8.8904,5.6268,192.1752],[8.8856,5.6338,163.9201],[8.8848,5.6385,160.5875],[8.8822,5.6408,172.7447],[8.8783,5.6438,151.0179],[8.87,5.6463,142.4174],[8.87,5.6495,134.9462],[8.8652,5.6568,121.7491]]]]}
,"properties": {"GID_2": "NGA.9.2_1","GID_0": "NGA","country": "Nigeria","GID_1": "NGA.9_1","province": "CrossRiver","NL_NAME_1": "NA","county": "Akamkpa","VARNAME_2": "NA","NL_NAME_2": "NA","TYPE_2": "LocalAuthority","ENGTYPE_2": "LocalAuthority","CC_2": "NA","HASC_2": "NA","name": "Akamkpa.county","area_km2": 5402.909,"hist_schema_id": "Elevation0-9000","hist_area_km2": {"0": 124.93,"25": 329.545,"50": 133.238,"75": 224.435,"100": 737.562,"125": 991.56,"150": 830.394,"175": 432.698,"200": 343.311,"225": 253.921,"250": 162.739,"275": 122.351,"300": 104.519,"325": 89.726,"350": 73.499,"375": 53.6,"400": 46.594,"425": 40.517,"450": 36.465,"475": 33.49,"500": 27.18,"525": 26.189,"550": 23.614,"575": 21.335,"600": 19.056,"625": 18.275,"650": 15.912,"675": 14.097,"700": 11.818,"725": 11.755,"750": 9.455,"775": 7.851,"800": 6.352,"825": 5.846,"850": 5.656,"875": 3.313,"900": 3.461,"925": 1.984,"950": 1.14,"975": 0.95,"1000": 0.739,"1025": 0.696,"1050": 0.57,"1075": 0.422,"1100": 0.106,"1125": 0.042}}}