{"type": "Feature","bbox": [6.4569,9.2094,7.3412,9.7538],"geometry": {"type": "MultiPolygon","coordinates": [[[[7.2219,9.751,459.106],[7.1991,9.7538,460.256],[7.1883,9.751,439.8185],[7.1734,9.7521,434.9515],[7.1668,9.7509,432.7822],[7.1571,9.7524,445.0013],[7.1368,9.7488,425.9038],[7.1249,9.743,449.5036],[7.1131,9.7323,483.3615],[7.1148,9.7142,478.7441],[7.1189,9.6992,476.5082],[7.1312,9.6925,459.3391],[7.1538,9.6859,454.29],[7.159,9.6825,462.9363],[7.1608,9.6781,473.6368],[7.1618,9.6719,497.0841],[7.1608,9.6631,495.161],[7.1579,9.6554,483.4032],[7.159,9.6395,510.4852],[7.155,9.6289,510.274],[7.1399,9.6116,525.5593],[7.1127,9.6063,510.1045],[7.0845,9.6126,490.9255],[7.0681,9.6197,507.9271],[7.0521,9.6423,499.3981],[7.032,9.648,453.0895],[7.0251,9.64,465.363],[7.0248,9.6303,458.3892],[7.0193,9.6213,470.5132],[7.0143,9.6083,491.5623],[7.0095,9.5841,514.5743],[7.0006,9.5665,510.9157],[6.9918,9.5597,460.5406],[6.9825,9.5384,471.476],[6.9722,9.5325,458.7944],[6.9673,9.5339,429.801],[6.9491,9.5484,412.7236],[6.9366,9.5455,418.7845],[6.9345,9.5295,367.7666],[6.9272,9.5191,354.4437],[6.9168,9.5157,348.9936],[6.8805,9.5183,320.8352],[6.8388,9.509,314.215],[6.8178,9.5191,324.2259],[6.8136,9.5334,318.2017],[6.8115,9.5322,311.7661],[6.8068,9.5328,305.7101],[6.7943,9.5421,314.3322],[6.7861,9.5461,306.1873],[6.7668,9.5475,273.5891],[6.7594,9.5451,275.7982],[6.7223,9.5418,260.93],[6.6932,9.5182,251.6752],[6.682,9.5169,254.8217],[6.6735,9.5244,247.2815],[6.6584,9.5292,244.8747],[6.6351,9.5338,216.432],[6.6275,9.5401,222.3835],[6.5998,9.5308,213.7612],[6.5711,9.5346,214.4743],[6.5278,9.5288,202.3909],[6.5035,9.5234,196.8845],[6.4859,9.5119,201.057],[6.4718,9.4914,207.4336],[6.4676,9.4757,189.0365],[6.4678,9.4323,190.9894],[6.4626,9.4147,181.4972],[6.4569,9.4128,179.4925],[6.4724,9.3664,168.406],[6.4749,9.3461,184.0975],[6.474,9.3318,178.7087],[6.4752,9.3182,170.3893],[6.475,9.3028,180.1021],[6.4694,9.2898,162.8199],[6.4603,9.2816,172.6649],[6.4578,9.2763,191.1543],[6.4612,9.2669,197.8288],[6.4743,9.2534,212.7087],[6.4782,9.2461,208.334],[6.4749,9.2393,213.8474],[6.4803,9.2379,214.1036],[6.4916,9.2276,219.3934],[6.5117,9.2171,229.7724],[6.5631,9.2198,209.694],[6.5978,9.2235,219.0894],[6.616,9.2138,234.5556],[6.6346,9.2094,237.9309],[6.6575,9.2245,222.9691],[6.6709,9.2374,229.8753],[6.679,9.2414,235.2658],[6.6965,9.2554,227.375],[6.6984,9.2626,238.6735],[6.6974,9.2707,246.5139],[6.6901,9.2964,264.671],[6.6898,9.3065,274.105],[6.6996,9.3299,347.2751],[6.7158,9.3472,330.1214],[6.7572,9.3602,331.7946],[6.7696,9.362,338.109],[6.7841,9.3663,346.5216],[6.7992,9.3798,338.4924],[6.8159,9.3822,345.2278],[6.8386,9.3768,360.942],[6.867,9.3765,349.7709],[6.8866,9.3581,382.6844],[6.894,9.3549,362.3689],[6.9084,9.358,363.799],[6.9196,9.3638,375.0167],[6.9284,9.3722,438.6786],[6.9668,9.4,455.0256],[6.9829,9.4017,459.1889],[6.993,9.3992,449.7853],[7.0015,9.3945,441.8956],[7.0128,9.397,446.8532],[7.0183,9.4058,454.3033],[7.0297,9.4125,468.3632],[7.0551,9.4215,468.0156],[7.0935,9.4301,469.9681],[7.0986,9.4392,480.834],[7.0937,9.4475,493.8586],[7.0723,9.4505,483.9667],[7.0654,9.4552,497.6517],[7.0634,9.4598,498.3175],[7.0646,9.4664,501.8196],[7.0733,9.4721,491.6523],[7.103,9.4796,485.3537],[7.1085,9.4834,493.0795],[7.1302,9.4832,479.8473],[7.1511,9.4893,497.4479],[7.1704,9.4898,494.3934],[7.181,9.4973,497.2086],[7.1999,9.5005,499.797],[7.2344,9.4835,508.3559],[7.2661,9.4771,524.7396],[7.2689,9.4782,530.8232],[7.2816,9.4922,522.7239],[7.2913,9.5369,516.1542],[7.3005,9.5485,520.1265],[7.3261,9.5684,512.9272],[7.3412,9.5877,515.2451],[7.3398,9.606,541.023],[7.3319,9.6179,532.4581],[7.3189,9.6259,519.2082],[7.3017,9.6311,490.3878],[7.2833,9.6438,511.9814],[7.2872,9.6582,510.18],[7.2942,9.6661,492.3683],[7.2984,9.683,496.6437],[7.2968,9.6923,503.8655],[7.2839,9.7015,504.1383],[7.2561,9.7079,508.3113],[7.2383,9.7141,497.7683],[7.2201,9.7264,476.1238],[7.2173,9.741,453.7769],[7.2219,9.751,459.106]]]]}
,"properties": {"GID_2": "NGA.27.19_1","GID_0": "NGA","country": "Nigeria","GID_1": "NGA.27_1","province": "Niger","NL_NAME_1": "NA","county": "Paikoro","VARNAME_2": "NA","NL_NAME_2": "NA","TYPE_2": "LocalAuthority","ENGTYPE_2": "LocalAuthority","CC_2": "NA","HASC_2": "NA","name": "Paikoro.county","area_km2": 2215.726,"hist_schema_id": "Elevation0-9000","hist_area_km2": {"150": 3.828,"175": 59.032,"200": 151.104,"225": 184.06,"250": 173.476,"275": 154.482,"300": 176.022,"325": 144.907,"350": 150.347,"375": 86.548,"400": 35.616,"425": 36.294,"450": 92.901,"475": 158.197,"500": 280.356,"525": 280.446,"550": 47.962,"575": 0.105,"600": 0.042}}}