{"type": "Feature","bbox": [7.9124,5.7654,8.1288,6.0071],"geometry": {"type": "MultiPolygon","coordinates": [[[[8.0146,5.7953,26.9855],[8.025,5.8179,34.7382],[8.0411,5.8282,45.0028],[8.0449,5.8362,41.031],[8.0428,5.8602,62.3792],[8.0457,5.8986,12.0],[8.0631,5.9053,23.2184],[8.0707,5.9028,24.643],[8.0797,5.9054,17.052],[8.0803,5.9114,19.3998],[8.0878,5.9196,104.8399],[8.0909,5.9128,12.0],[8.1041,5.9158,49.2013],[8.1156,5.915,63.3454],[8.1219,5.9167,60.5339],[8.1249,5.9199,65.9884],[8.1286,5.935,78.7885],[8.1264,5.9387,60.25],[8.1288,5.9465,43.5219],[8.1234,5.9662,26.189],[8.1188,5.9688,21.8584],[8.1186,5.9708,25.9029],[8.1153,5.9712,25.0946],[8.1071,5.9669,25.6295],[8.1029,5.9615,20.4378],[8.0962,5.9471,20.1295],[8.0949,5.9406,17.4116],[8.0854,5.9334,25.2652],[8.0805,5.9353,20.4505],[8.0758,5.9412,22.2115],[8.0675,5.9572,29.5973],[8.058,5.9858,31.9932],[8.0491,6.0012,37.5564],[8.042,6.0061,37.47],[8.0353,6.0055,34.1169],[8.0272,6.0071,34.0288],[7.9997,6.0032,26.4013],[7.9838,5.9944,21.18],[7.9681,5.9899,17.6223],[7.9629,5.9858,21.4832],[7.9601,5.981,24.054],[7.9599,5.9699,37.2336],[7.9759,5.9475,42.5723],[7.9784,5.9408,18.9706],[7.9804,5.9246,25.0411],[7.9798,5.9131,13.7617],[7.9769,5.9078,19.1548],[7.977,5.9016,62.999],[7.974,5.897,159.0105],[7.945,5.8645,59.1394],[7.9385,5.8482,14.4152],[7.9396,5.8427,12.6852],[7.9351,5.8372,12.2241],[7.9265,5.8346,61.5669],[7.9253,5.8314,35.0761],[7.916,5.8223,26.3365],[7.9173,5.7909,40.6003],[7.9217,5.7793,42.0178],[7.9124,5.7699,36.5975],[7.9241,5.7703,30.5999],[7.9386,5.7654,39.1151],[7.9581,5.772,13.7827],[7.9674,5.7783,19.5872],[7.9827,5.7979,72.8677],[7.9943,5.8016,45.0911],[8.0146,5.7953,26.9855]]]]}
,"properties": {"GID_2": "NGA.9.1_1","GID_0": "NGA","country": "Nigeria","GID_1": "NGA.9_1","province": "CrossRiver","NL_NAME_1": "NA","county": "Abi","VARNAME_2": "NA","NL_NAME_2": "NA","TYPE_2": "LocalAuthority","ENGTYPE_2": "LocalAuthority","CC_2": "NA","HASC_2": "NA","name": "Abi.county","area_km2": 285.9401,"hist_schema_id": "Elevation0-9000","hist_area_km2": {"0": 17.8225,"25": 172.6173,"50": 55.5529,"75": 21.4925,"100": 12.1276,"125": 5.1884,"150": 1.0967,"175": 0.0422}}}