{"type":"Feature","properties":{"GID_2":"NGA.20.33_1","GID_0":"NGA","country":"Nigeria","GID_1":"NGA.20_1","province":"Kano","NL_NAME_1":"NA","county":"RiminGado","VARNAME_2":"NA","NL_NAME_2":"NA","TYPE_2":"LocalAuthority","ENGTYPE_2":"LocalAuthority","CC_2":"NA","HASC_2":"NA","name":"Rimin_Gado.county"},
"geometry":{"type": "MultiPolygon","coordinates": [[[[8.1357,11.9651,518.0],[8.1362,11.9625,518.0],[8.1395,11.9593,520.2322],[8.1533,11.9569,525.3669],[8.1594,11.9528,530.807],[8.1724,11.936,517.2638],[8.1836,11.9147,511.4816],[8.188,11.9095,513.8824],[8.1964,11.905,510.5545],[8.202,11.903,504.6271],[8.2101,11.9056,502.2008],[8.2286,11.922,503.9911],[8.2373,11.9233,501.2879],[8.2489,11.919,494.026],[8.2538,11.9136,490.0455],[8.2575,11.9056,492.2168],[8.2643,11.8748,478.7737],[8.2562,11.8427,470.6138],[8.2806,11.8352,463.6821],[8.2937,11.8285,455.4842],[8.2991,11.831,456.0155],[8.3014,11.8345,461.5456],[8.314,11.8402,455.2067],[8.3374,11.8705,454.14],[8.3538,11.8848,450.238],[8.3707,11.896,452.0132],[8.3832,11.907,446.4994],[8.3844,11.9103,446.2172],[8.383,11.9162,449.4355],[8.3676,11.9107,451.4288],[8.3454,11.9107,461.0545],[8.3203,11.9138,466.8199],[8.311,11.9273,472.3297],[8.3009,11.946,480.5598],[8.28,11.972,511.3733],[8.2734,11.9832,513.6437],[8.249,12.0045,510.1528],[8.2159,12.0083,516.0572],[8.2053,11.9975,525.2228],[8.1805,11.9835,533.1014],[8.151,11.9723,533.649],[8.1424,11.9708,523.0784],[8.1357,11.9651,518.0]]]]}}