{"type":"Feature","properties":{"GID_2":"NGA.20.9_1","GID_0":"NGA","country":"Nigeria","GID_1":"NGA.20_1","province":"Kano","NL_NAME_1":"NA","county":"DawakinKudu","VARNAME_2":"NA","NL_NAME_2":"NA","TYPE_2":"LocalAuthority","ENGTYPE_2":"LocalAuthority","CC_2":"NA","HASC_2":"NA","name":"Dawakin_Kudu.county"},
"geometry":{"type": "MultiPolygon","coordinates": [[[[8.7269,11.7265,430.5652],[8.7305,11.7325,425.353],[8.7457,11.7424,421.2142],[8.7676,11.7523,423.8049],[8.7896,11.78,412.2689],[8.7969,11.7929,412.774],[8.7721,11.8013,419.9532],[8.7439,11.8064,425.6362],[8.7168,11.8174,445.2943],[8.7045,11.8277,462.4898],[8.6868,11.8529,451.6212],[8.6721,11.8687,454.394],[8.6623,11.8733,460.4465],[8.6358,11.8901,466.8099],[8.6213,11.9045,480.8323],[8.6047,11.9158,482.838],[8.5992,11.8868,470.2457],[8.5791,11.8674,454.5522],[8.5489,11.8608,453.6918],[8.5408,11.8607,454.2831],[8.5331,11.8581,454.617],[8.5233,11.8579,447.6068],[8.5249,11.8562,450.8509],[8.507,11.8498,430.6184],[8.4916,11.8414,439.231],[8.491,11.8384,444.8769],[8.4933,11.8382,444.882],[8.492,11.8326,443.9847],[8.504,11.8222,444.8925],[8.506,11.8181,443.1028],[8.5188,11.8102,439.8265],[8.578,11.7979,432.0737],[8.593,11.7876,424.9272],[8.602,11.7766,424.2016],[8.6069,11.7568,420.8465],[8.6133,11.7442,421.8086],[8.617,11.7308,448.5607],[8.6309,11.6963,434.1904],[8.6334,11.6871,441.5326],[8.634,11.6709,444.1797],[8.6375,11.6626,445.3959],[8.6435,11.656,445.3973],[8.6475,11.6539,446.7921],[8.6546,11.6526,446.7357],[8.6641,11.6578,438.1656],[8.6675,11.6661,437.6816],[8.6705,11.6962,438.9401],[8.6847,11.7347,418.0826],[8.6941,11.7461,427.8534],[8.7038,11.7496,421.4454],[8.7092,11.7492,422.5071],[8.7129,11.7472,427.0551],[8.7269,11.7265,430.5652]]]]}}