{"type": "Feature","bbox": [5.5057,7.3063,5.8202,7.504],"geometry": {"type": "MultiPolygon","coordinates": [[[[5.5057,7.3276,327.2175],[5.5164,7.3226,321.9151],[5.5337,7.3189,313.8268],[5.5508,7.3211,328.5245],[5.5924,7.3142,267.2936],[5.626,7.3106,245.4233],[5.6364,7.3079,235.2327],[5.6622,7.3063,211.7201],[5.692,7.309,235.8658],[5.7159,7.3201,219.0445],[5.7274,7.3287,235.3556],[5.7294,7.3377,252.5025],[5.7415,7.3464,283.7731],[5.7832,7.3713,295.4205],[5.8001,7.3876,330.5302],[5.8053,7.3947,451.2772],[5.8202,7.407,334.9327],[5.8131,7.424,385.244],[5.8133,7.4374,496.1766],[5.8062,7.4672,575.6587],[5.8062,7.504,397.588],[5.7726,7.498,518.5568],[5.7548,7.4976,459.9708],[5.718,7.4925,414.2778],[5.6741,7.4847,347.735],[5.6503,7.4837,327.2424],[5.6363,7.4885,325.5979],[5.5915,7.4882,328.1598],[5.5858,7.465,325.7467],[5.5583,7.4017,311.6989],[5.5348,7.3636,311.2199],[5.5057,7.3276,327.2175]]]]}
,"properties": {"GID_2": "NGA.29.3_1","GID_0": "NGA","country": "Nigeria","GID_1": "NGA.29_1","province": "Ondo","NL_NAME_1": "NA","county": "AkokoSouth-West","VARNAME_2": "NA","NL_NAME_2": "NA","TYPE_2": "LocalAuthority","ENGTYPE_2": "LocalAuthority","CC_2": "NA","HASC_2": "NA","name": "Akoko_South-West.county","area_km2": 507.2813,"hist_schema_id": "Elevation0-9000","hist_area_km2": {"200": 1.1566,"225": 7.1921,"250": 38.2298,"275": 81.1242,"300": 133.0741,"325": 128.8172,"350": 49.9731,"375": 18.185,"400": 9.6914,"425": 5.8653,"450": 5.6761,"475": 6.3279,"500": 6.2858,"525": 7.0426,"550": 4.9192,"575": 2.4806,"600": 1.1142,"625": 0.1261}}}