{"type": "Feature","bbox": [8.9753,12.3697,9.3847,12.84],"geometry": {"type": "MultiPolygon","coordinates": [[[[9.0119,12.8391,379.4889],[8.9918,12.84,379.3463],[8.9873,12.8302,379.5761],[8.9884,12.8128,377.48],[8.9869,12.792,381.7291],[8.9895,12.7793,379.7054],[8.9915,12.7712,381.8285],[9.0,12.7582,380.7943],[9.006,12.7331,381.1622],[9.0139,12.7156,380.3575],[9.0175,12.6996,379.2956],[9.0181,12.6865,380.2663],[9.0176,12.6782,380.2867],[9.01,12.6547,380.6735],[9.0085,12.645,382.0621],[8.9977,12.6246,384.5697],[8.9903,12.615,383.1921],[8.984,12.5897,382.6918],[8.9801,12.5841,383.4624],[8.9781,12.568,383.9351],[8.976,12.5661,383.675],[8.9771,12.5661,384.1035],[8.9753,12.5585,384.908],[8.9789,12.5468,384.4168],[8.9857,12.5355,383.4972],[8.9865,12.5269,383.4322],[8.9926,12.5168,382.7246],[8.9965,12.5127,382.0811],[9.0103,12.5072,381.244],[9.0168,12.5009,380.7417],[9.0253,12.4957,379.9714],[9.0495,12.4892,378.3103],[9.0633,12.4879,378.3036],[9.1042,12.4915,377.1175],[9.1187,12.4892,375.6746],[9.1488,12.4791,376.122],[9.1666,12.4624,376.2645],[9.1697,12.4488,375.447],[9.193,12.4349,375.8161],[9.2077,12.4166,374.5639],[9.2192,12.408,376.4338],[9.2386,12.4065,375.1746],[9.259,12.408,373.5381],[9.2849,12.3998,374.4555],[9.3232,12.3962,372.3854],[9.3442,12.3825,375.8694],[9.3588,12.3769,371.1936],[9.3654,12.3697,372.3602],[9.3733,12.3946,370.8021],[9.3795,12.4228,369.1176],[9.3847,12.468,368.6961],[9.3838,12.4832,368.044],[9.3754,12.5092,368.8848],[9.3609,12.5159,367.6791],[9.3467,12.5128,368.415],[9.3407,12.5137,367.9096],[9.3253,12.5241,370.8053],[9.3091,12.5414,369.714],[9.2984,12.5607,369.7957],[9.2891,12.5717,373.1181],[9.276,12.5924,372.8195],[9.2705,12.6099,372.7827],[9.2804,12.6244,372.4131],[9.2925,12.6351,369.6852],[9.3001,12.6455,368.3186],[9.3041,12.6601,369.8038],[9.2881,12.6972,368.8513],[9.2848,12.717,368.9881],[9.2935,12.7465,367.703],[9.3073,12.755,368.1491],[9.3196,12.7719,366.1933],[9.325,12.7823,365.7024],[9.3235,12.8123,366.3738],[9.3056,12.8112,366.8504],[9.292,12.813,366.5437],[9.288,12.8121,366.6355],[9.2804,12.8151,366.9445],[9.2583,12.8198,367.2575],[9.2513,12.8238,367.5997],[9.2298,12.8245,369.2855],[9.2205,12.8284,369.4266],[9.1789,12.8279,370.2019],[9.16,12.8338,371.8078],[9.1471,12.834,370.9454],[9.1433,12.8326,372.467],[9.1382,12.8343,374.2314],[9.0933,12.8364,373.4975],[9.0812,12.835,373.8819],[9.0734,12.8374,376.0464],[9.0119,12.8391,379.4889]]]]}
,"properties": {"GID_2": "NGA.18.25_1","GID_0": "NGA","country": "Nigeria","GID_1": "NGA.18_1","province": "Jigawa","NL_NAME_1": "NA","county": "SuleTankarkar","VARNAME_2": "NA","NL_NAME_2": "NA","TYPE_2": "LocalAuthority","ENGTYPE_2": "LocalAuthority","CC_2": "NA","HASC_2": "NA","name": "Sule_Tankarkar.county","area_km2": 1487.88,"hist_schema_id": "Elevation0-9000","hist_area_km2": {"375": 1487.88}}}