{"type": "Feature","bbox": [4.9782,6.0386,5.4614,6.877],"geometry": {"type": "MultiPolygon","coordinates": [[[[5.2324,6.0386,15.5914],[5.2509,6.0527,12.1365],[5.2535,6.0586,18.2738],[5.2525,6.0653,14.6897],[5.246,6.0633,9.8068],[5.2414,6.066,16.4766],[5.2379,6.0738,10.9505],[5.2375,6.081,17.0039],[5.2449,6.0924,13.043],[5.2465,6.109,15.0972],[5.2509,6.1211,20.8458],[5.2553,6.1272,11.596],[5.2658,6.1303,16.2673],[5.2773,6.1317,11.6089],[5.2821,6.1268,17.8397],[5.2958,6.1319,16.0081],[5.3124,6.1468,13.4746],[5.3209,6.1575,13.9351],[5.3254,6.1668,12.2383],[5.3281,6.1762,8.5765],[5.3273,6.1811,12.9227],[5.3215,6.1957,16.0094],[5.3184,6.2066,15.7504],[5.3192,6.2114,14.9401],[5.3145,6.2226,21.0336],[5.3218,6.228,18.9005],[5.3452,6.2513,20.4238],[5.3523,6.2618,19.91],[5.3567,6.264,13.0309],[5.3671,6.2654,5.8655],[5.3819,6.2643,6.2258],[5.4007,6.2589,9.5817],[5.4038,6.2625,13.0789],[5.4049,6.2736,3.5515],[5.4092,6.2859,11.1363],[5.4241,6.3039,12.3094],[5.4312,6.3185,17.795],[5.4327,6.3252,14.0799],[5.419,6.3365,24.401],[5.413,6.3469,20.3778],[5.4091,6.3661,32.0142],[5.4097,6.37,31.8394],[5.4072,6.3765,74.2982],[5.409,6.3845,97.9139],[5.4079,6.3903,100.9701],[5.4101,6.3972,74.9039],[5.4076,6.4113,74.7439],[5.4102,6.4189,94.5886],[5.4109,6.429,94.5225],[5.4343,6.45,40.4533],[5.4346,6.4703,82.004],[5.437,6.4737,28.5888],[5.4385,6.4829,97.3348],[5.4485,6.4998,58.7364],[5.4563,6.498,22.6868],[5.4614,6.5164,54.4566],[5.4613,6.5228,54.107],[5.4436,6.543,46.6474],[5.4374,6.5456,43.1025],[5.4281,6.5557,68.0929],[5.4289,6.5584,70.8362],[5.426,6.5661,109.3762],[5.4143,6.5734,143.2536],[5.4104,6.5739,134.1083],[5.405,6.5784,107.2552],[5.3977,6.588,139.3585],[5.3913,6.6056,83.3524],[5.3858,6.6315,66.7993],[5.3795,6.6415,37.4562],[5.3738,6.6605,38.0487],[5.362,6.6768,31.7529],[5.3507999999999996,6.6978,45.0675],[5.3505,6.7058,43.5933],[5.3554,6.7246,78.9415],[5.3608,6.7305,100.4771],[5.3723,6.7386,82.369],[5.3844,6.7599,95.2839],[5.3923,6.7678,87.3466],[5.407,6.8187,82.7875],[5.4216,6.8512,114.8782],[5.4251,6.8693,136.2343],[5.3937,6.8726,121.1338],[5.3713,6.872,124.7464],[5.3491,6.8735,118.7201],[5.3265,6.8709,114.3659],[5.2993,6.8767,129.7659],[5.2829,6.8751,144.9195],[5.2625,6.8706,152.3681],[5.2448,6.8716,161.2583],[5.2282,6.877,139.2201],[5.2031,6.868,131.3184],[5.1926,6.8608,161.2814],[5.1853,6.8482,135.9359],[5.1872,6.8262,87.5225],[5.1838,6.8166,92.3855],[5.1736,6.8133,85.623],[5.1684,6.8056,95.6477],[5.1613,6.7916,70.6337],[5.1556,6.7689,58.5343],[5.1389,6.7648,65.5052],[5.1277,6.756,80.7878],[5.1205,6.7393,56.3572],[5.1043,6.7264,63.7817],[5.0921,6.7132,22.1173],[5.0843,6.6977,60.4752],[5.0823,6.6742,65.5565],[5.084,6.6688,56.3641],[5.0821,6.6622,27.2681],[5.0858,6.6619,24.7855],[5.0755,6.6554,29.0244],[5.0728,6.6459,21.8614],[5.0754,6.6367,16.5154],[5.0723,6.613,17.1617],[5.0728,6.6,19.5136],[5.0927,6.5898,17.9255],[5.1004,6.5802,14.2259],[5.1032,6.5668,46.9528],[5.1152,6.5529,62.1781],[5.1245,6.5295,37.0295],[5.1187,6.5017,44.5614],[5.1053,6.4701,51.9525],[5.0771,6.4424,29.9114],[5.0736,6.4069,17.3397],[5.0635,6.3819,16.4933],[5.0344,6.3688,12.903],[5.025,6.3715,26.4733],[5.0159,6.368,22.0972],[5.0135,6.359,22.117],[5.0065,6.358,20.4541],[4.9992,6.3471,16.8226],[4.9971,6.3201,14.9976],[4.991,6.2994,13.5789],[4.9832,6.297,16.9759],[4.9782,6.2881,11.8879],[4.9827,6.2952,15.5962],[4.9786,6.2856,5.6701],[4.981,6.2782,3.8808],[4.9857,6.2709,5.0967],[4.997,6.27,4.2827],[5.0093,6.2583,5.4547],[5.0283,6.2481,7.733],[5.0323,6.2406,7.7267],[5.0387,6.2343,10.6067],[5.0502,6.2177,3.1564],[5.0503,6.208,8.7859],[5.055,6.2005,6.8921],[5.0737,6.2007,7.4431],[5.0802,6.199,7.8554],[5.0925,6.1916,6.9332],[5.1016,6.1822,8.7616],[5.1068,6.1729,10.2572],[5.1078,6.1643,12.2671],[5.1215,6.1456,13.3436],[5.1152,6.127,14.606],[5.2029,6.0817,14.153],[5.2149,6.0665,12.9366],[5.2298,6.0548,15.6857],[5.2326,6.045,17.3651],[5.2324,6.0386,15.5914]]]]}
,"properties": {"GID_2": "NGA.12.15_1","GID_0": "NGA","country": "Nigeria","GID_1": "NGA.12_1","province": "Edo","NL_NAME_1": "NA","county": "OviaSouth-West","VARNAME_2": "NA","NL_NAME_2": "NA","TYPE_2": "LocalAuthority","ENGTYPE_2": "LocalAuthority","CC_2": "NA","HASC_2": "NA","name": "Ovia_South-West.county","area_km2": 2840.324,"hist_schema_id": "Elevation0-9000","hist_area_km2": {"0": 333.449,"25": 997.744,"50": 431.15,"75": 493.445,"100": 335.107,"125": 191.423,"150": 53.797,"175": 3.894,"200": 0.295}}}