{"type":"Feature","properties":{"GID_2":"NGA.23.10_1","GID_0":"NGA","country":"Nigeria","GID_1":"NGA.23_1","province":"Kogi","NL_NAME_1":"NA","county":"Kabba/Bunu","VARNAME_2":"NA","NL_NAME_2":"NA","TYPE_2":"LocalAuthority","ENGTYPE_2":"LocalAuthority","CC_2":"NA","HASC_2":"NA","name":"Kabba_Bunu.county"},
"geometry":{"type": "MultiPolygon","coordinates": [[[[6.113,7.6545,395.2001],[6.1279,7.6579,411.4992],[6.1569,7.6717,400.2228],[6.1706,7.6763,403.7652],[6.2096,7.6738,315.7283],[6.2298,7.6679,201.7222],[6.2343,7.6628,195.1579],[6.2455,7.6697,193.8419],[6.249,7.6759,215.2993],[6.249,7.6869,237.9069],[6.2451,7.7163,188.2924],[6.2485,7.7422,203.8776],[6.2512,7.7507,210.338],[6.2541,7.758,222.0718],[6.2604,7.7674,262.8735],[6.2932,7.7956,277.4034],[6.2963,7.8011,225.8274],[6.3002,7.8174,246.9821],[6.2974,7.8274,244.0315],[6.3033,7.8501,306.5241],[6.3006,7.8573,353.332],[6.306,7.8765,382.0102],[6.2925,7.8954,401.0824],[6.2931,7.9016,430.4263],[6.2682,7.9209,431.7833],[6.2418,7.9295,406.0659],[6.2272,7.9389,401.655],[6.2244,7.9489,396.7345],[6.2247,7.9549,406.6167],[6.2219,7.9653,465.1852],[6.2197,7.9844,416.1165],[6.2025,8.0071,431.5868],[6.1967,8.0185,434.8553],[6.1917,8.0372,468.295],[6.1958,8.0489,482.4261],[6.2052,8.0584,435.1053],[6.2232,8.0634,419.7981],[6.2356,8.0604,439.9598],[6.256,8.0506,410.4321],[6.2799,8.029,386.63],[6.342,7.978,324.7281],[6.3573,7.9671,392.0015],[6.3915,7.9241,282.9945],[6.412,7.9107,325.2232],[6.429,7.903,215.9891],[6.4455,7.9154,185.9843],[6.4495,7.9317,166.2361],[6.4329,7.9746,301.0907],[6.4261,7.9853,284.4096],[6.4163,8.0207,360.6926],[6.4253,8.0351,377.8092],[6.43,8.0555,204.3912],[6.4452,8.0802,307.1781],[6.45,8.0921,289.6109],[6.4663,8.1141,227.7674],[6.467,8.1413,268.2163],[6.4521,8.1655,169.6168],[6.4268,8.1964,129.6038],[6.4066,8.2336,163.0642],[6.3903,8.2523,196.3825],[6.3708,8.2851,190.4553],[6.359,8.3,183.8874],[6.3397,8.3174,219.5154],[6.3245,8.3345,223.1634],[6.2788,8.3742,191.4102],[6.2543,8.3981,170.5169],[6.2211,8.4153,201.2258],[6.2049,8.4146,169.5091],[6.1547,8.4208,245.1605],[6.1345,8.4082,254.0218],[6.1271,8.4058,214.0069],[6.1092,8.4086,221.4633],[6.1013,8.3933,202.4797],[6.0981,8.3816,183.3706],[6.0655,8.3747,290.4435],[6.048,8.3736,273.5157],[6.0402,8.3428,271.0288],[6.0412,8.3315,294.1671],[6.044,8.3163,264.8354],[6.0518,8.3057,264.4019],[6.056,8.2932,283.5384],[6.0512,8.2652,370.1124],[6.0427,8.2522,451.4427],[6.0381,8.2394,303.3033],[6.0344,8.2136,317.8312],[6.0356,8.1869,322.1525],[6.0257,8.1723,294.5352],[6.0269,8.1485,383.0251],[6.0334,8.121,457.7685],[6.0307,8.1121,514.8101],[6.0018,8.1062,468.3987],[6.0017,8.0994,463.6493],[6.0068,8.0878,462.1413],[6.0096,8.0749,502.0487],[6.0239,8.0467,569.1542],[6.0381,8.0288,579.2863],[6.0494,7.9993,580.705],[6.052,7.9589,542.4082],[6.0239,7.847,463.6917],[6.0178,7.83,427.0045],[6.0089,7.817,456.6477],[6.0031,7.8052,426.9124],[6.0132,7.7863,432.6331],[6.0128,7.7734,388.6826],[6.0342,7.7449,393.777],[6.0436,7.7376,375.1226],[6.0665,7.7303,463.4421],[6.0767,7.7184,411.5323],[6.0818,7.7036,395.1992],[6.0858,7.6973,396.177],[6.0871,7.6904,401.9657],[6.0861,7.6844,394.3047],[6.0891,7.6728,379.243],[6.113,7.6545,395.2001]]]]}}