{"type":"Feature","properties":{"ISO3166-1-Alpha-3":"NGA","country":"Nigeria","fill":"#0F0","id":"2872","name":"Zamfara"},
"geometry":{"type": "Polygon","coordinates": [[[6.97051,12.99184,479.571],[6.93713,12.99541,472.5794],[6.90664,13.00686,439.368],[6.87418,13.0305,452.7642],[6.83791,13.06349,442.6116],[6.77869,13.13028,409.9487],[6.75388,13.1749,408.8209],[6.75352,13.17462,408.8209],[6.7036,13.13599,401.6252],[6.62588,13.09228,428.3856],[6.52852,13.09225,323.4738],[6.43106,13.11558,323.5859],[6.41432,13.13096,320.6164],[6.39892,13.1494,321.697],[6.38114,13.15571,322.5048],[6.36233,13.16018,323.8514],[6.34073,13.16294,330.1888],[6.29401,13.16284,331.7206],[6.27934,13.15044,332.3842],[6.27458,13.12535,344.4527],[6.27324,13.09889,349.0587],[6.26208,13.05768,358.5717],[6.23696,13.05117,347.569],[6.198,13.06621,325.5064],[6.12524,13.05724,325.8541],[6.06209,13.02231,331.0678],[6.05072,12.99438,342.3253],[6.06829,12.82325,314.4879],[6.03863,12.76894,340.8892],[6.00277,12.75323,329.0369],[5.96546,12.7431,323.0169],[5.74025,12.72178,313.1686],[5.68971,12.68261,302.4153],[5.6524,12.62373,290.4918],[5.5999,12.55892,286.3278],[5.55266,12.5274,293.9518],[5.54667,12.46167,308.0879],[5.56682,12.3879,321.0736],[5.57075,12.30971,309.6024],[5.52083,12.25786,285.314],[5.21522,12.24545,257.6205],[5.06815,12.26928,265.5714],[5.03125,12.14944,218.2861],[5.0235,11.68061,271.0126],[5.06453,11.68797,271.9027],[5.10546,11.67236,315.9668],[5.12168,11.65869,312.0711],[5.14246,11.65482,322.544],[5.19496,11.66763,375.1653],[5.21821,11.66921,389.7448],[5.2363,11.67905,385.3199],[5.24395,11.70285,359.6242],[5.26152,11.71993,354.785],[5.28343,11.72122,394.1061],[5.30482,11.7114,361.9811],[5.3286,11.70993,360.4279],[5.38534,11.71835,350.2474],[5.40921,11.69869,351.5247],[5.42378,11.6698,374.6046],[5.5106,11.63314,371.7797],[5.56982,11.62048,394.8568],[5.72216,11.63076,403.3698],[5.73767,11.6395,400.6262],[5.75431,11.6434,419.675],[5.82831,11.631,398.9162],[5.86634,11.61823,384.9295],[5.91326,11.57312,407.6303],[5.9082,11.50491,421.4698],[5.88319,11.42982,456.2577],[5.9021,11.39938,469.2884],[5.94158,11.38398,488.9877],[6.01817,11.26417,469.3611],[6.02705,11.11121,479.4387],[6.06974,11.05635,455.9792],[6.14643,10.92926,433.9707],[6.16193,10.86275,393.0262],[6.20771,10.87799,408.3801],[6.22239,10.89117,407.2206],[6.22642,10.90466,405.576],[6.22642,10.91747,409.9341],[6.22787,10.93016,414.3698],[6.23593,10.94318,410.2867],[6.24606,10.95013,410.6182],[6.27014,10.95889,427.2525],[6.28027,10.96499,412.3726],[6.29236,10.98067,421.9572],[6.31065,11.01791,426.9426],[6.32285,11.0322,449.0561],[6.34269,11.03964,427.7498],[6.36378,11.03747,450.0159],[6.4293,11.01426,444.7689],[6.45152,11.00954,454.8987],[6.47405,11.00946,448.1488],[6.53979,11.02811,451.3066],[6.55064,11.02928,456.2841],[6.56718,11.02765,465.2155],[6.57596,11.02938,464.9635],[6.58475,11.03385,467.9364],[6.66856,11.06566,495.5704],[6.68644,11.0763,504.8896],[6.70184,11.0895,511.96],[6.71466,11.10635,497.1199],[6.72458,11.12772,517.0413],[6.74329,11.2182,531.0076],[6.75445,11.24802,539.8724],[6.77471,11.27316,545.5193],[6.8454,11.31693,571.877],[6.86566,11.33616,573.4268],[6.88178,11.3661,570.42],[6.89739,11.41083,604.5615],[6.90659,11.45729,600.7719],[6.90349,11.49245,630.7302],[6.90989,11.52576,655.3719],[6.87537,11.5872,679.0477],[6.91341,11.76628,559.4664],[6.97139,11.79292,591.434],[7.0457,11.79295,616.7676],[7.0518,11.79096,625.1522],[7.06058,11.78153,634.5308],[7.06627,11.77923,642.7318],[7.08239,11.78719,652.9813],[7.12476,11.81974,610.4516],[7.14854,11.84246,583.7366],[7.1537,11.87506,596.6018],[7.17179,11.89235,596.1331],[7.20342,11.88413,547.9491],[7.23318,11.89519,571.6578],[7.22202,11.95446,504.1266],[7.16704,11.99847,507.8356],[7.13272,12.01431,493.9631],[7.11298,12.03841,468.8778],[7.12911,12.06983,466.0155],[7.15091,12.12799,493.9436],[7.15753,12.15399,491.9973],[7.15174,12.18424,490.835],[7.14223,12.21318,513.1689],[7.13634,12.26465,487.5449],[7.12177,12.31486,463.9604],[7.09438,12.36775,443.1421],[7.09934,12.42761,448.9479],[7.07795,12.47846,453.579],[7.04632,12.89032,468.9102],[7.06292,12.99514,435.794],[7.04492,12.99221,427.5103],[6.97051,12.99184,479.571]]]}}