{"type": "Feature","bbox": [5.0235,10.856,7.2419,13.1907],"geometry": {"type": "MultiPolygon","coordinates": [[[[6.8218,11.2948,570.5404],[6.8483,11.3104,575.3455],[6.8712,11.33,575.7943],[6.8862,11.3484,590.6792],[6.9025,11.3479,609.5679],[6.904,11.3631,600.6691],[6.9028,11.3851,586.6025],[6.9113,11.4105,598.4548],[6.9129,11.4341,617.0967],[6.9231,11.4822,610.1492],[6.9145,11.502,638.2835],[6.9084,11.541,672.1054],[6.8893,11.5574,655.3559],[6.8775,11.5713,677.204],[6.8751,11.5884,679.0477],[6.8765,11.6106,685.0584],[6.8833,11.6293,660.8187],[6.8823,11.6483,640.9213],[6.9075,11.7141,612.4599],[6.9134,11.7663,559.4664],[6.918,11.7777,545.6491],[6.9293,11.7873,561.6036],[6.9422,11.7911,564.2903],[6.9604,11.7876,582.39],[7.0031,11.7918,608.6437],[7.0491,11.7932,624.4205],[7.0629,11.7793,637.9061],[7.0696,11.7793,645.8607],[7.1181,11.8156,618.3449],[7.1234,11.8256,608.333],[7.1386,11.8332,583.053],[7.1409,11.8378,582.2316],[7.1486,11.8425,583.7366],[7.1574,11.8934,563.4999],[7.1719,11.8924,596.1331],[7.1966,11.8818,563.6737],[7.2113,11.8806,563.6404],[7.2241,11.8872,574.2499],[7.2368,11.8991,554.7268],[7.2418,11.9063,542.7894],[7.2419,11.9209,531.8834],[7.2337,11.9374,524.4182],[7.215,11.96,498.964],[7.1895,11.9799,512.0684],[7.1717,11.9965,504.9201],[7.1309,12.015,497.7731],[7.1106,12.0342,470.138],[7.1321,12.0709,473.571],[7.1399,12.092,503.2846],[7.1416,12.1026,499.8077],[7.1575,12.1541,491.9973],[7.1576,12.1739,493.926],[7.1422,12.2132,513.1689],[7.1443,12.2398,510.4957],[7.1387,12.2596,489.0591],[7.1356,12.2808,469.7883],[7.1275,12.3055,460.8936],[7.0928,12.371,443.6034],[7.097,12.3927,431.9533],[7.0993,12.4277,448.9479],[7.0818,12.4644,453.1966],[7.078,12.4785,453.579],[7.0718,12.554,438.467],[7.062,12.592,459.1505],[7.0556,12.6361,470.5795],[7.0605,12.6678,492.6012],[7.0574,12.6989,507.8085],[7.0567,12.732,500.6731],[7.0517,12.7728,493.3742],[7.0407,12.8297,482.308],[7.0455,12.8616,528.8433],[7.0503,12.9273,445.1922],[7.064,13.0012,432.6015],[7.0101,12.9915,476.2226],[6.9466,12.9914,479.5293],[6.9341,12.9886,465.2968],[6.928,12.9899,466.7292],[6.9135,13.0057,443.0065],[6.9048,13.0187,449.0771],[6.8916,13.0318,455.3901],[6.8186,13.118,422.6164],[6.792,13.1586,394.4061],[6.7744,13.1907,394.2403],[6.7602,13.1803,404.2081],[6.7444,13.1647,412.9958],[6.7254,13.1497,402.6793],[6.7056,13.139,402.4788],[6.6439,13.1006,406.7208],[6.6108,13.0862,386.3178],[6.5969,13.0889,360.7296],[6.5673,13.0908,332.8809],[6.5186,13.0997,323.1273],[6.4939,13.0991,322.3789],[6.4715,13.1052,322.9053],[6.4572,13.1065,322.4295],[6.4445,13.112,324.3632],[6.4265,13.1169,323.0343],[6.3989,13.1495,321.697],[6.386,13.1529,321.9881],[6.3806,13.1526,323.7554],[6.3755,13.156,322.271],[6.3624,13.1602,323.8514],[6.3341,13.1638,331.1041],[6.2984,13.1613,328.9348],[6.282,13.1632,339.5737],[6.2755,13.1389,337.0719],[6.2776,13.1235,344.5045],[6.2733,13.0989,349.0587],[6.2724,13.0765,354.4652],[6.2626,13.0616,358.5686],[6.2607,13.0466,361.41],[6.2526,13.043,354.8548],[6.2443,13.0522,351.7313],[6.2295,13.0552,345.7827],[6.2177,13.0625,341.159],[6.2091,13.0659,334.95],[6.164,13.0658,328.6937],[6.1256,13.0552,327.2355],[6.0856,13.0411,331.5186],[6.0515,13.0123,332.9106],[6.0497,13.0012,331.2982],[6.0514,12.9811,321.6121],[6.0603,12.9448,295.3584],[6.0623,12.9199,299.8935],[6.06,12.8977,307.2551],[6.064,12.879,310.3583],[6.0636,12.8257,311.04],[6.0664,12.7938,330.4553],[6.0634,12.786,337.0169],[6.0417,12.7702,341.0864],[5.9901,12.7482,325.5546],[5.9764,12.7441,324.5045],[5.9242,12.7396,306.2527],[5.8999,12.739,289.9066],[5.8437,12.7315,282.3552],[5.8145,12.7316,301.1696],[5.729,12.7202,315.6573],[5.7162,12.7166,314.5397],[5.709,12.7098,312.5726],[5.6711,12.6477,308.2819],[5.6438,12.6133,294.042],[5.6221,12.5804,302.0561],[5.5916,12.5508,281.1492],[5.58,12.546,284.3855],[5.5421,12.5204,294.6147],[5.5382,12.5125,292.5406],[5.5427,12.492,305.5037],[5.5429,12.4747,303.3437],[5.5508,12.4603,310.6335],[5.5661,12.4011,319.7317],[5.5676,12.3748,326.8295],[5.5766,12.3336,321.6405],[5.5716,12.3088,310.9855],[5.5647,12.2854,310.9759],[5.5249,12.2584,278.3027],[5.499,12.2553,299.3932],[5.4775,12.2569,317.3602],[5.4262,12.2501,299.4426],[5.4056,12.2547,317.7665],[5.3666,12.2517,292.4919],[5.328,12.2446,274.8421],[5.2853,12.2494,242.1754],[5.2131,12.2442,257.946],[5.1598,12.2512,234.247],[5.0937,12.2629,251.1429],[5.0624,12.2707,270.5671],[5.0476,12.2613,256.1967],[5.0413,12.2457,235.1918],[5.0341,12.2128,219.1575],[5.0325,12.1895,224.476],[5.0322,12.1498,218.2861],[5.0352,12.1052,240.3839],[5.0337,12.0687,243.1477],[5.0347,12.0316,229.641],[5.0311,11.9953,255.5837],[5.0308,11.9364,265.7882],[5.0342,11.8999,296.0823],[5.0311,11.817,299.0825],[5.0266,11.7897,289.4761],[5.0282,11.7604,284.0838],[5.0274,11.7302,237.2838],[5.0235,11.6806,271.0126],[5.0373,11.6883,294.412],[5.0668,11.6884,270.0056],[5.1055,11.6724,315.9668],[5.1134,11.6612,337.0705],[5.1331,11.6524,342.9821],[5.195,11.6677,375.1653],[5.2081,11.6669,452.3282],[5.2355,11.6758,385.3122],[5.2404,11.6971,363.5154],[5.2488,11.7126,355.2373],[5.266,11.7225,357.4438],[5.2788,11.725,407.1173],[5.2934,11.7147,370.146],[5.3089,11.7103,358.2626],[5.3271,11.7099,360.44],[5.3855,11.7201,351.474],[5.3925,11.7182,349.7293],[5.403,11.7111,348.8865],[5.4114,11.6944,365.1628],[5.4176,11.6736,375.5399],[5.4302,11.6586,377.7388],[5.4625,11.6588,362.0372],[5.4766,11.6568,361.0375],[5.499,11.6471,356.2802],[5.5174,11.6278,372.0095],[5.5355,11.6184,374.6284],[5.557,11.6174,386.5818],[5.5744,11.6216,393.8448],[5.5988,11.6239,375.3539],[5.6239,11.6305,376.7421],[5.6407,11.6275,383.0395],[5.6672,11.6267,395.9962],[5.6852,11.6225,388.9597],[5.7047,11.625,379.7484],[5.7253,11.6319,402.4829],[5.7451,11.6448,403.2533],[5.8233,11.6349,400.2467],[5.8936,11.6067,394.5779],[5.9072,11.5907,403.4662],[5.9165,11.5725,406.6537],[5.9163,11.5332,420.1049],[5.8985,11.476,436.6743],[5.8929,11.4487,445.9697],[5.8832,11.4299,456.2577],[5.8831,11.4107,473.9784],[5.9454,11.3825,495.3131],[5.9701,11.3675,504.3658],[5.988,11.3459,490.4147],[6.0013,11.3195,497.0006],[6.0103,11.2919,497.8988],[6.0179,11.2298,480.4351],[6.0235,11.1987,491.9764],[6.0232,11.18,474.2685],[6.0271,11.1574,495.7819],[6.027,11.1113,479.4387],[6.0531,11.0752,483.7201],[6.0806,11.041,461.0634],[6.119,10.9725,442.0175],[6.142,10.9351,434.7792],[6.1676,10.8698,394.1013],[6.1665,10.8563,401.1288],[6.1773,10.856,414.207],[6.1937,10.8582,413.673],[6.2056,10.8632,409.192],[6.2143,10.8704,407.796],[6.2325,10.89,414.8601],[6.2504,10.9244,424.3574],[6.2605,10.9367,423.2205],[6.2908,10.9585,432.8065],[6.3137,10.9895,438.7359],[6.3306,11.0035,441.3808],[6.3456,11.012,442.0766],[6.366,11.0196,420.5092],[6.4368,11.0271,453.5573],[6.5168,11.0173,454.6639],[6.5651,11.018,467.3358],[6.6411,11.0279,520.6752],[6.6787,11.052,493.4942],[6.7002,11.0721,490.9154],[6.7279,11.1015,514.2997],[6.7523,11.153,525.3039],[6.7625,11.2097,557.5013],[6.7748,11.2415,572.2216],[6.804,11.2822,566.7578],[6.8218,11.2948,570.5404]]]]}
,"properties": {"GID_1": "NGA.37_1","GID_0": "NGA","country": "Nigeria","province": "Zamfara","VARNAME_1": "NA","NL_NAME_1": "NA","TYPE_1": "State","ENGTYPE_1": "State","CC_1": "NA","HASC_1": "NG.ZA","ISO_1": "NG-ZA","name": "Zamfara.province","area_km2": 34659.58,"hist_schema_id": "Elevation0-9000","hist_area_km2": {"225": 307.42,"250": 585.58,"275": 845.67,"300": 1941.19,"325": 3241.16,"350": 3322.99,"375": 3160.32,"400": 3397.33,"425": 3822.9,"450": 3976.02,"475": 3211.3,"500": 2125.49,"525": 1308.86,"550": 1132.74,"575": 920.71,"600": 610.18,"625": 333.32,"650": 184.28,"675": 121.26,"700": 76.92,"725": 27.58,"750": 4.4,"775": 1.12,"800": 0.44,"825": 0.39}}}