{"type": "Feature","bbox": [8.8902,6.6542,9.1876,6.9835],"geometry": {"type": "MultiPolygon","coordinates": [[[[8.9507,6.7925,112.3784],[8.9729,6.7793,130.6201],[8.9794,6.769,159.2496],[8.9819,6.7528,179.4753],[8.976,6.7038,144.6908],[8.9776,6.694,139.2034],[8.9725,6.6919,130.1534],[8.9713,6.6757,126.9488],[8.9908,6.6613,113.2111],[9.0266,6.6543,136.148],[9.0616,6.6542,157.2606],[9.0878,6.6611,152.5782],[9.109,6.6629,167.3232],[9.1219,6.6676,178.6133],[9.1307,6.6686,176.0085],[9.13,6.6923,187.7571],[9.1329,6.7162,192.0391],[9.1378,6.7307,211.6104],[9.1387,6.7395,188.0802],[9.1455,6.7644,189.9911],[9.1462,6.7732,182.3283],[9.1503,6.782,185.1389],[9.1517,6.7913,188.2784],[9.1631,6.8099,187.2101],[9.1687,6.8363,211.855],[9.174,6.8428,220.9062],[9.1764,6.851,235.9749],[9.1876,6.8719,213.337],[9.1837,6.9095,182.2775],[9.1775,6.9244,200.4324],[9.1732,6.9404,188.9651],[9.1698,6.9436,199.762],[9.1587,6.9488,201.5822],[9.1516,6.957,198.2349],[9.1438,6.9631,203.9034],[9.1348,6.9674,182.746],[9.0984,6.9706,142.8787],[9.0892,6.9687,137.8767],[9.0759,6.9704,145.0126],[9.0516,6.9694,153.5857],[9.0447,6.9709,161.3362],[8.9918,6.9674,147.2481],[8.9793,6.9718,161.0127],[8.9741,6.9704,157.6463],[8.974,6.9726,151.9165],[8.9252,6.9759,132.8],[8.9115,6.9835,113.4736],[8.896,6.9801,103.6725],[8.8902,6.9824,112.4029],[8.8931,6.9748,121.7826],[8.9115,6.9573,125.7802],[8.9341,6.9301,133.1133],[8.9413,6.916,120.0713],[8.9562,6.8685,93.3853],[8.9627,6.8555,109.4257],[8.9624,6.8502,116.6602],[8.9568,6.8334,115.8778],[8.9523,6.8245,115.3104],[8.9497,6.8112,108.7271],[8.9518,6.7953,106.6247],[8.9507,6.7925,112.3784]]]]}
,"properties": {"GID_2": "NGA.7.23_1","GID_0": "NGA","country": "Nigeria","GID_1": "NGA.7_1","province": "Benue","NL_NAME_1": "NA","county": "VandeIkya","VARNAME_2": "NA","NL_NAME_2": "NA","TYPE_2": "LocalAuthority","ENGTYPE_2": "LocalAuthority","CC_2": "NA","HASC_2": "NA","name": "Vande_Ikya.county","area_km2": 766.8495,"hist_schema_id": "Elevation0-9000","hist_area_km2": {"75": 0.2736,"100": 41.5309,"125": 192.2337,"150": 215.1312,"175": 186.636,"200": 110.2461,"225": 20.0398,"250": 0.3369,"275": 0.1264,"300": 0.1685,"325": 0.0632,"350": 0.0632}}}