{"type": "Feature","bbox": [10.3316,11.6459,10.8872,12.3609],"geometry": {"type": "MultiPolygon","coordinates": [[[[10.8872,11.7733,399.9207],[10.877,11.7891,395.0837],[10.8605,11.8308,387.74],[10.8406,11.8878,381.8217],[10.8356,11.9185,377.9532],[10.8373,11.9493,366.6246],[10.822,11.9924,366.1857],[10.8167,12.0353,364.5182],[10.8173,12.088,366.7912],[10.8133,12.1425,363.6867],[10.791,12.1785,360.293],[10.7623,12.2165,358.9333],[10.7653,12.2453,359.0529],[10.7611,12.3067,349.6588],[10.7564,12.3363,349.6086],[10.7391,12.3364,350.9545],[10.7033,12.3466,348.5383],[10.6882,12.3488,348.7944],[10.6764,12.3537,349.3803],[10.6691,12.3539,350.1194],[10.6538,12.3525,350.308],[10.6313,12.3448,350.4992],[10.6086,12.3323,350.9527],[10.5809,12.3275,355.1086],[10.5663,12.3358,350.5732],[10.5606,12.3466,352.6396],[10.5568,12.3585,350.3104],[10.548,12.3609,351.0524],[10.5259,12.3458,351.6363],[10.4883,12.3326,353.5705],[10.4683,12.328,353.287],[10.4534,12.3219,354.048],[10.4223,12.3027,352.8494],[10.4003,12.2763,355.5071],[10.3645,12.219,356.9584],[10.3435,12.1926,359.1593],[10.3316,12.1707,360.3979],[10.3413,12.1575,360.7868],[10.3549,12.1555,361.8263],[10.3743,12.1632,360.801],[10.397,12.1658,360.4467],[10.4102,12.157,360.0788],[10.429,12.1312,361.9891],[10.4336,12.1096,362.0355],[10.4272,12.0815,363.4898],[10.4142,12.0562,364.0806],[10.4066,12.0346,368.1217],[10.4191,11.9923,367.9743],[10.4341,11.9573,368.5987],[10.434,11.9233,375.0609],[10.4321,11.9059,377.9189],[10.4427,11.8817,380.7498],[10.4905,11.8811,382.03],[10.5056,11.8751,380.6083],[10.5166,11.8618,381.705],[10.4927,11.8486,381.4115],[10.4791,11.8448,381.1597],[10.4649,11.8289,383.4504],[10.4539,11.8099,383.5062],[10.4607,11.797,385.136],[10.475,11.788,386.412],[10.4799,11.7711,388.7295],[10.4929,11.7553,391.4065],[10.5291,11.7181,393.2488],[10.5454,11.7089,393.5283],[10.5483,11.6976,394.9462],[10.5558,11.6876,390.3922],[10.5641,11.6801,382.0516],[10.5723,11.665,390.2],[10.5882,11.6459,391.9741],[10.5956,11.6485,392.1504],[10.6048,11.6495,391.4111],[10.6219,11.6601,390.0175],[10.646,11.6657,394.8708],[10.6514,11.6712,395.9177],[10.6685,11.682,396.2921],[10.7116,11.7065,382.3485],[10.7843,11.7375,396.2716],[10.8337,11.7487,396.1579],[10.8872,11.7733,399.9207]]]]}
,"properties": {"GID_2": "NGA.5.7_1","GID_0": "NGA","country": "Nigeria","GID_1": "NGA.5_1","province": "Bauchi","NL_NAME_1": "NA","county": "Gamawa","VARNAME_2": "NA","NL_NAME_2": "NA","TYPE_2": "LocalAuthority","ENGTYPE_2": "LocalAuthority","CC_2": "NA","HASC_2": "NA","name": "Gamawa.county","area_km2": 2979.811,"hist_schema_id": "Elevation0-9000","hist_area_km2": {"350": 1027.817,"375": 1657.559,"400": 294.435}}}