{"type": "Feature","bbox": [8.9506,9.6912,9.2034,10.0216],"geometry": {"type": "MultiPolygon","coordinates": [[[[9.1949,9.8152,1173.9518],[9.1997,9.8235,1029.7798],[9.2034,9.8423,1165.5437],[9.199,9.8755,1253.649],[9.1981,9.8993,1100.6198],[9.1992,9.9375,950.6629],[9.195,9.9612,1197.2797],[9.1835,9.9875,1046.5488],[9.1696,10.0063,1138.1218],[9.1545,10.0183,1055.3936],[9.1374,10.0216,938.4356],[9.1133,10.0188,919.2932],[9.0411,10.0032,917.927],[8.9947,9.9973,890.6083],[8.9602,9.9865,983.7682],[8.9609,9.8739,1292.6259],[8.9506,9.854,1277.6069],[8.9539,9.85,1275.4253],[8.9527,9.8406,1262.1862],[8.9535,9.8233,1236.8257],[8.951,9.8175,1248.0577],[8.9569,9.8022,1228.8766],[8.9609,9.7795,1235.7612],[8.9599,9.7461,1247.0916],[8.9714,9.7162,1192.8374],[8.9789,9.708,1179.2388],[8.9789,9.7048,1205.9336],[9.0017,9.6946,1152.4508],[9.0175,9.6912,1127.3185],[9.0404,9.6954,1050.9214],[9.0556,9.6953,1052.6621],[9.0785,9.7199,1005.8782],[9.1023,9.7378,976.5438],[9.1488,9.7568,952.4509],[9.1639,9.7586,935.3568],[9.1779,9.7889,1169.4308],[9.1949,9.8152,1173.9518]]]]}
,"properties": {"GID_2": "NGA.32.4_1","GID_0": "NGA","country": "Nigeria","GID_1": "NGA.32_1","province": "Plateau","NL_NAME_1": "NA","county": "JosEast","VARNAME_2": "NA","NL_NAME_2": "NA","TYPE_2": "LocalAuthority","ENGTYPE_2": "LocalAuthority","CC_2": "NA","HASC_2": "NA","name": "Jos_East.county","area_km2": 803.2323,"hist_schema_id": "Elevation0-9000","hist_area_km2": {"875": 0.188,"900": 10.1481,"925": 40.9296,"950": 50.1845,"975": 29.5554,"1000": 28.5779,"1025": 28.7894,"1050": 29.3318,"1075": 31.5455,"1100": 29.9566,"1125": 39.7561,"1150": 50.5147,"1175": 63.9889,"1200": 71.0274,"1225": 61.2923,"1250": 51.1388,"1275": 41.9863,"1300": 42.6103,"1325": 24.0615,"1350": 10.6516,"1375": 7.6021,"1400": 7.4975,"1425": 6.0774,"1450": 6.3071,"1475": 5.9729,"1500": 4.8034,"1525": 5.0124,"1550": 4.5947,"1575": 4.532,"1600": 3.9263,"1625": 4.1351,"1650": 3.6339,"1675": 1.9005,"1700": 0.6892,"1725": 0.2924,"1750": 0.0209}}}