{"type": "Feature","bbox": [8.4989,8.8037,8.8879,9.2048],"geometry": {"type": "MultiPolygon","coordinates": [[[[8.5005,9.0003,369.7022],[8.4989,8.9295,331.2403],[8.5042,8.8879,327.4836],[8.5001,8.835,232.123],[8.5261,8.8124,239.8563],[8.5506,8.8037,228.2625],[8.5788,8.8062,214.9727],[8.6428,8.8291,196.3987],[8.6715,8.8335,171.59],[8.6989,8.8291,201.572],[8.7296,8.829,184.5644],[8.7628,8.8315,169.8198],[8.7782,8.8393,163.4487],[8.813,8.8668,203.4482],[8.8304,8.8863,220.3649],[8.8462,8.91,231.0099],[8.8597,8.9324,231.2041],[8.8709,8.9651,290.8347],[8.8826,8.991,294.1289],[8.8871,9.003,438.9504],[8.8879,9.0171,618.6014],[8.8599,9.0203,511.0416],[8.8362,9.0206,518.4485],[8.824,9.0273,302.4691],[8.8178,9.0283,320.392],[8.8013,9.0364,291.0339],[8.7825,9.0667,477.4109],[8.7702,9.0911,1176.3037],[8.7666,9.1074,1025.9363],[8.7689,9.1205,917.8477],[8.7674,9.1364,1090.9811],[8.7645,9.1534,1081.7163],[8.7601,9.1629,1139.7832],[8.7502,9.1688,1177.76],[8.7264,9.1767,1172.3574],[8.7112,9.1787,1186.0007],[8.6987,9.1765,1228.4675],[8.6872,9.1783,1169.6644],[8.6781,9.1833,1221.4878],[8.6646,9.1957,1023.6859],[8.66,9.2048,1110.2321],[8.6507,9.2047,739.6998],[8.6424,9.1958,866.5852],[8.6245,9.1621,551.6811],[8.6207,9.1485,568.4359],[8.5995,9.1056,501.3677],[8.57,9.0618,430.4629],[8.5462,9.0189,412.0737],[8.5329,9.0074,404.3969],[8.5201,9.0033,389.4866],[8.5005,9.0003,369.7022]]]]}
,"properties": {"GID_2": "NGA.26.13_1","GID_0": "NGA","country": "Nigeria","GID_1": "NGA.26_1","province": "Nasarawa","NL_NAME_1": "NA","county": "Wamba","VARNAME_2": "NA","NL_NAME_2": "NA","TYPE_2": "LocalAuthority","ENGTYPE_2": "LocalAuthority","CC_2": "NA","HASC_2": "NA","name": "Wamba.county","area_km2": 1184.0672,"hist_schema_id": "Elevation0-9000","hist_area_km2": {"150": 1.1104,"175": 29.4554,"200": 104.3625,"225": 134.2867,"250": 106.8629,"275": 74.9858,"300": 55.2347,"325": 47.2941,"350": 52.1095,"375": 70.2038,"400": 85.2772,"425": 82.7796,"450": 85.7657,"475": 76.0852,"500": 38.9201,"525": 15.7854,"550": 15.5961,"575": 20.3472,"600": 12.4974,"625": 8.4993,"650": 4.4381,"675": 3.6216,"700": 3.3495,"725": 3.0145,"750": 2.9517,"775": 2.5539,"800": 2.5329,"825": 2.4491,"850": 2.177,"875": 2.3235,"900": 2.7421,"925": 2.4072,"950": 2.4491,"975": 2.4072,"1000": 2.156,"1025": 2.5747,"1050": 2.47,"1075": 2.4909,"1100": 2.6375,"1125": 3.2655,"1150": 3.7678,"1175": 3.4956,"1200": 2.4071,"1225": 0.921,"1250": 0.4814,"1275": 0.4186,"1300": 0.1047}}}