{"type": "Feature","bbox": [8.0913,4.6432,8.219,4.7834],"geometry": {"type": "MultiPolygon","coordinates": [[[[8.1421,4.6432,23.9338],[8.1491,4.6462,27.4734],[8.1517,4.6512,27.712],[8.1564,4.6546,29.6665],[8.1841,4.6596,20.1586],[8.1978,4.664,2.541],[8.2058,4.6713,2.066],[8.2054,4.6784,19.9354],[8.2102,4.6866,4.8373],[8.214,4.6978,10.5886],[8.2136,4.7004,6.5858],[8.2017,4.705,15.6532],[8.219,4.7109,11.3972],[8.2103,4.712,28.609],[8.1996,4.7191,26.2225],[8.1963,4.7258,26.1349],[8.1982,4.7327,25.6728],[8.2053,4.7441,29.702],[8.2069,4.7556,21.3426],[8.2038,4.7655,14.3699],[8.196,4.7806,20.0015],[8.1908,4.7834,19.694],[8.175,4.7785,12.3209],[8.1691,4.7744,21.1009],[8.1647,4.7703,14.223],[8.1644,4.7643,37.249],[8.1594,4.7594,41.9464],[8.1279,4.7523,39.4498],[8.123,4.7464,27.8935],[8.1155,4.7417,26.7956],[8.1096,4.7312,30.606],[8.1085,4.7194,31.5684],[8.1019,4.694,33.0876],[8.0986,4.6908,31.6218],[8.0913,4.6725,26.9547],[8.1032,4.6751,29.385],[8.1137,4.6726,25.9547],[8.1213,4.6674,24.6185],[8.1278,4.6592,28.9159],[8.1372,4.6537,29.4219],[8.1421,4.6432,23.9338]]]]}
,"properties": {"GID_2": "NGA.3.30_1","GID_0": "NGA","country": "Nigeria","GID_1": "NGA.3_1","province": "AkwaIbom","NL_NAME_1": "NA","county": "UrueOffong","VARNAME_2": "Oruko","NL_NAME_2": "NA","TYPE_2": "LocalAuthority","ENGTYPE_2": "LocalAuthority","CC_2": "NA","HASC_2": "NA","name": "Urue_Offong.county","area_km2": 127.90349,"hist_schema_id": "Elevation0-9000","hist_area_km2": {"0": 5.70545,"25": 115.8168,"50": 6.38123}}}