{"type":"Feature","properties":{"GID_2":"NGA.17.14_1","GID_0":"NGA","country":"Nigeria","GID_1":"NGA.17_1","province":"Imo","NL_NAME_1":"NA","county":"Nkwerre","VARNAME_2":"NA","NL_NAME_2":"NA","TYPE_2":"LocalAuthority","ENGTYPE_2":"LocalAuthority","CC_2":"NA","HASC_2":"NA","name":"Nkwerre.county"},
"geometry":{"type": "MultiPolygon","coordinates": [[[[7.1239,5.7639,160.6863],[7.114,5.7566,170.5071],[7.0956,5.7497,201.5938],[7.0902,5.7452,208.3819],[7.0775,5.7393,216.872],[7.082,5.735,217.4031],[7.0814,5.729,221.47559999999999],[7.0842,5.7269,222.1071],[7.0829,5.72,205.5652],[7.0863,5.7135,192.7148],[7.0865,5.6986,165.0721],[7.0991,5.7096,165.0468],[7.1154,5.7169,138.9285],[7.123,5.7152,174.1817],[7.1361,5.7154,184.7558],[7.1456,5.716,212.0525],[7.1519,5.7188,203.2884],[7.1552,5.7218,197.487],[7.1573,5.727,186.1768],[7.156,5.731,172.9531],[7.1577,5.7374,167.6369],[7.166,5.7396,158.1373],[7.1701,5.7432,154.2413],[7.1469,5.7544,147.3833],[7.1445,5.7595,148.1344],[7.1364,5.7633,140.4707],[7.1239,5.7639,160.6863]]]]}}