{"type":"Feature","properties":{"GID_2":"NGA.18.5_1","GID_0":"NGA","country":"Nigeria","GID_1":"NGA.18_1","province":"Jigawa","NL_NAME_1":"NA","county":"Buji","VARNAME_2":"NA","NL_NAME_2":"NA","TYPE_2":"LocalAuthority","ENGTYPE_2":"LocalAuthority","CC_2":"NA","HASC_2":"NA","name":"Buji.county"},
"geometry":{"type": "MultiPolygon","coordinates": [[[[9.689,11.7018,390.6308],[9.6771,11.6889,391.4231],[9.6678,11.6621,393.9435],[9.6678,11.6425,393.5085],[9.6652,11.6305,394.5165],[9.666,11.6123,396.0922],[9.6602,11.5784,397.3333],[9.655,11.5656,399.1572],[9.6505,11.5459,404.5551],[9.6551,11.5268,413.3937],[9.6566,11.509,413.4141],[9.6464,11.5026,403.5766],[9.643,11.4969,401.3715],[9.6516,11.4841,405.1157],[9.6583,11.4824,416.6776],[9.658,11.4734,412.4943],[9.6509,11.4553,409.2637],[9.6506,11.4474,408.1601],[9.6529,11.4348,417.1438],[9.6483,11.4233,418.0577],[9.6526,11.3958,425.7747],[9.6494,11.3892,426.429],[9.6495,11.371,431.9921],[9.6461,11.3497,432.3888],[9.6602,11.3589,438.4779],[9.6846,11.3793,437.4651],[9.6941,11.4003,429.5854],[9.6976,11.4157,437.9011],[9.7076,11.4218,434.9148],[9.7123,11.4279,429.8527],[9.7184,11.4309,426.8189],[9.7485,11.4354,418.9515],[9.7791,11.4486,418.4608],[9.7898,11.4486,415.0076],[9.813,11.455,412.3178],[9.7989,11.4681,413.4861],[9.7901,11.4957,416.7366],[9.799,11.5181,421.0224],[9.8307,11.5755,417.4791],[9.828,11.6138,413.4533],[9.8223,11.6442,420.6906],[9.8134,11.679,411.6647],[9.8051,11.7038,401.3315],[9.7987,11.7146,400.0502],[9.7694,11.7225,402.658],[9.725,11.7183,398.1823],[9.689,11.7018,390.6308]]]]}}