{"type":"Feature","properties":{"GID_2":"NGA.13.3_1","GID_0":"NGA","country":"Nigeria","GID_1":"NGA.13_1","province":"Ekiti","NL_NAME_1":"NA","county":"EkitiEast","VARNAME_2":"NA","NL_NAME_2":"NA","TYPE_2":"LocalAuthority","ENGTYPE_2":"LocalAuthority","CC_2":"NA","HASC_2":"NA","name":"Ekiti_East.county"},
"geometry":{"type": "MultiPolygon","coordinates": [[[[5.6638,7.6624,476.2766],[5.6704,7.67,513.4974],[5.6848,7.6755,513.9133],[5.6935,7.6811,494.4911],[5.7057,7.6934,488.5482],[5.7193,7.7266,556.2855],[5.7377,7.7341,539.3077],[5.7386,7.7313,531.447],[5.7495,7.7328,546.6746],[5.7653,7.7249,501.7334],[5.7736,7.7128,498.6275],[5.7869,7.7176,479.0209],[5.7925,7.7256,513.4977],[5.795,7.7352,502.5477],[5.8032,7.7432,470.1556],[5.8114,7.7561,536.6599],[5.8016,7.7575,521.2953],[5.7633,7.7771,527.7672],[5.7498,7.7801,522.3209],[5.7431,7.7795,538.1578],[5.7195,7.7916,518.462],[5.7094,7.7946,532.6866],[5.7013,7.7947,542.6664],[5.6715,7.822,521.8622],[5.6687,7.8234,524.7185],[5.6577,7.8211,479.8242],[5.6508,7.8139,505.4571],[5.6414,7.7905,508.3231],[5.6391,7.7882999999999996,513.9516],[5.6386,7.7756,520.6041],[5.6347,7.7612,552.3079],[5.6268,7.7445,554.437],[5.6146,7.7272,513.5032],[5.5969,7.7201,480.1805],[5.5823,7.7012,452.6175],[5.5757,7.6957,453.7115],[5.5809,7.6886,427.9992],[5.588,7.6838,434.6188],[5.5982,7.6698,415.9118],[5.6041,7.6667,418.7069],[5.6133,7.6661,418.4678],[5.6202,7.6637,411.5064],[5.6638,7.6624,476.2766]]]]}}