{"type": "Feature","bbox": [8.4415,6.7925,8.9627,7.3629],"geometry": {"type": "MultiPolygon","coordinates": [[[[8.6136,7.3629,157.2068],[8.6045,7.3558,155.8038],[8.5787,7.321,151.5148],[8.5577,7.3017,166.3586],[8.5203,7.2581,168.0743],[8.4932,7.2123,120.9027],[8.4876,7.1886,120.58],[8.4858,7.1534,133.4086],[8.4771,7.1257,120.5784],[8.4745,7.0951,117.1529],[8.4628,7.0303,150.2732],[8.4589,7.0147,152.1068],[8.4415,6.9842,137.8669],[8.4618,6.9672,132.3478],[8.4792,6.9561,166.3223],[8.4901,6.9455,177.0957],[8.4938,6.9344,111.0411],[8.5082,6.9118,91.2596],[8.5124,6.9018,87.1536],[8.5318,6.8833,78.8954],[8.5487,6.8768,72.587],[8.5818,6.8564,73.9377],[8.5931,6.8516,58.0372],[8.6165,6.8431,54.9465],[8.6155,6.8548,60.4623],[8.6401,6.8742,66.7713],[8.6577,6.8783,67.8341],[8.6955,6.8913,78.4903],[8.7115,6.8944,77.9068],[8.7314,6.8955,79.7719],[8.7457,6.8934,63.1445],[8.7645,6.8857,89.6922],[8.8139,6.874,113.8379],[8.8334,6.8661,97.3429],[8.8583,6.8506,110.6197],[8.8712,6.8449,79.245],[8.9507,6.7925,112.3784],[8.9518,6.7953,106.6247],[8.9497,6.8112,108.7271],[8.9523,6.8245,115.3104],[8.9568,6.8334,115.8778],[8.9624,6.8502,116.6602],[8.9627,6.8555,109.4257],[8.9562,6.8685,93.3853],[8.9413,6.916,120.0713],[8.9341,6.9301,133.1133],[8.9115,6.9573,125.7802],[8.8931,6.9748,121.7826],[8.8902,6.9824,112.4029],[8.8682,6.9896,108.26],[8.8556,6.9962,125.129],[8.815,7.0264,147.605],[8.7948,7.0461,132.4138],[8.7779,7.0669,127.4935],[8.7657,7.0903,139.8953],[8.752,7.092,135.3388],[8.7274,7.0982,108.1967],[8.7132,7.106,91.0464],[8.7021,7.1315,80.2453],[8.6904,7.1479,89.9925],[8.6596,7.1684,101.5618],[8.6516,7.1872,122.6784],[8.6457,7.2226,121.5776],[8.6276,7.2441,116.3068],[8.6296,7.2593,127.9991],[8.6277,7.2687,116.0191],[8.629,7.2759,107.6093],[8.6233,7.2916,119.9738],[8.6246,7.305,117.8006],[8.6211,7.3172,120.6055],[8.6209,7.3345,136.6882],[8.6132,7.3549,141.6477],[8.6136,7.3629,157.2068]]]]}
,"properties": {"GID_2": "NGA.7.10_1","GID_0": "NGA","country": "Nigeria","GID_1": "NGA.7_1","province": "Benue","NL_NAME_1": "NA","county": "Konshisha","VARNAME_2": "NA","NL_NAME_2": "NA","TYPE_2": "LocalAuthority","ENGTYPE_2": "LocalAuthority","CC_2": "NA","HASC_2": "NA","name": "Konshisha.county","area_km2": 1542.183,"hist_schema_id": "Elevation0-9000","hist_area_km2": {"50": 13.682,"75": 339.528,"100": 564.695,"125": 440.083,"150": 161.583,"175": 22.443,"200": 0.063,"225": 0.063,"250": 0.042}}}