{"type":"Feature","properties":{"GID_2":"NGA.27.1_1","GID_0":"NGA","country":"Nigeria","GID_1":"NGA.27_1","province":"Niger","NL_NAME_1":"NA","county":"Agaie","VARNAME_2":"NA","NL_NAME_2":"NA","TYPE_2":"LocalAuthority","ENGTYPE_2":"LocalAuthority","CC_2":"NA","HASC_2":"NA","name":"Agaie.county"},
"geometry":{"type": "MultiPolygon","coordinates": [[[[6.3823,8.5848,52.0504],[6.4012,8.5841,50.7399],[6.4099,8.5812,53.3612],[6.4171,8.565,48.5],[6.4362,8.5626,51.6089],[6.4572,8.5634,70.5308],[6.4644,8.5667,65.4496],[6.4716,8.5737,60.6412],[6.4727,8.5829,153.0702],[6.4777,8.5946,149.5381],[6.4984,8.6189,124.0134],[6.5086,8.6355,127.142],[6.5111,8.6452,106.6353],[6.5039,8.684,104.5644],[6.489,8.7223,93.6394],[6.4906,8.7331,112.8243],[6.5001,8.7514,114.0184],[6.5121,8.7622,123.4634],[6.5437,8.7853,83.4383],[6.5531,8.8007,115.0577],[6.5557,8.8085,128.156],[6.5687,8.8258,127.0182],[6.5742,8.839,130.0876],[6.5745,8.8425,123.7932],[6.5701,8.8541,128.6332],[6.5593,8.8752,158.525],[6.5605,8.8907,158.5278],[6.5565,8.8979,143.6868],[6.5497,8.9219,128.2057],[6.5503,8.9275,142.0887],[6.555,8.9325,132.2215],[6.5602,8.945,156.8538],[6.5604,8.9575,148.1726],[6.5626,8.9604,138.3391],[6.5602,8.9831,161.2312],[6.5527,8.9913,164.3817],[6.5462,9.0031,197.4046],[6.5415,9.0169,195.6821],[6.5344,9.0244,179.8371],[6.5339,9.0392,200.3038],[6.5372,9.0482,196.1587],[6.5312,9.0555,181.151],[6.5152,9.082,169.6261],[6.5113,9.0923,170.6433],[6.5118,9.0958,179.1544],[6.5085,9.1018,165.8285],[6.5067,9.1139,175.9763],[6.5065,9.1335,167.702],[6.5139,9.1648,214.2709],[6.5161,9.1809,231.2973],[6.5046,9.2077,249.8048],[6.5003,9.2229,214.561],[6.4916,9.2276,219.3934],[6.4803,9.2379,214.1036],[6.4627,9.2425,204.1935],[6.4442,9.2406,158.2457],[6.3788,9.2421,92.7431],[6.3639,9.2361,90.8973],[6.3517,9.2196,85.2498],[6.3389,9.2139,100.4994],[6.3217,9.219,82.1626],[6.3017,9.204,93.7453],[6.2897,9.1905,121.9359],[6.2823,9.1727,123.704],[6.2707,9.1638,121.2178],[6.2654,9.1538,136.6581],[6.267,9.1411,145.6286],[6.2714,9.1273,130.2215],[6.2907,9.0904,122.0219],[6.2924,9.0828,129.7759],[6.2906,9.0715,112.5062],[6.2795,9.0667,116.6285],[6.2711,9.065,107.9212],[6.2602,9.0596,110.0401],[6.2468,9.0414,121.9956],[6.2412,9.0234,90.2771],[6.2401,9.0037,100.3849],[6.2433,8.9887,97.4993],[6.2428,8.97,133.991],[6.2493,8.9611,115.0807],[6.2534,8.9461,144.282],[6.2515,8.9408,136.6168],[6.2531,8.9277,136.3225],[6.2519,8.9251,133.1754],[6.2588,8.9048,99.5642],[6.2593,8.8808,89.1692],[6.2466,8.8635,105.425],[6.2517,8.8533,74.1625],[6.2509,8.8491,70.9212],[6.2585,8.8435,77.3767],[6.2755,8.8436,110.9595],[6.2837,8.8463,114.9043],[6.297,8.8414,109.9528],[6.3005,8.8331,106.8405],[6.3026,8.8222,116.7411],[6.3008,8.8084,90.3084],[6.3027,8.7992,109.9988],[6.301,8.7888,78.6127],[6.3015,8.7821,67.8703],[6.31,8.7613,60.0274],[6.3105,8.7523,52.9366],[6.3141,8.7444,58.8825],[6.3173,8.7303,51.7931],[6.3227,8.7219,54.0664],[6.3303,8.7204,53.2655],[6.3306,8.713,57.6445],[6.3336,8.7079,53.9954],[6.3384,8.7099,56.032],[6.345,8.7019,57.987],[6.348,8.6876,49.7115],[6.3581,8.657,55.4376],[6.3628,8.6343,50.826],[6.3577,8.6237,53.46],[6.3791,8.5945,50.5582],[6.3823,8.5848,52.0504]]]]}}