{"type":"Feature","properties":{"GID_2":"NGA.13.12_1","GID_0":"NGA","country":"Nigeria","GID_1":"NGA.13_1","province":"Ekiti","NL_NAME_1":"NA","county":"Ilejemeje","VARNAME_2":"NA","NL_NAME_2":"NA","TYPE_2":"LocalAuthority","ENGTYPE_2":"LocalAuthority","CC_2":"NA","HASC_2":"NA","name":"Ilejemeje.county"},
"geometry":{"type": "MultiPolygon","coordinates": [[[[5.2471,7.87,598.8542],[5.2572,7.8798,561.5095],[5.2591,7.8869,549.6516],[5.2617,7.9184,555.3976],[5.2586,7.9281,546.6343],[5.2622,7.9352,548.7878],[5.2633,7.9469,537.2841],[5.2683,7.9565,562.5777],[5.2698,7.9724,574.8743],[5.2618,7.9755,545.8466],[5.2241,7.9717,536.6349],[5.2088,7.9796,530.2708],[5.2051,7.9852,516.5048],[5.2017,7.9763,527.1355],[5.1973,7.9716,512.4689],[5.1742,7.9544,512.6767],[5.1694,7.9474,529.1521],[5.1555,7.9423,536.3288],[5.1415,7.9321,566.0836],[5.1444,7.9266,559.8],[5.1645,7.9124,548.2507],[5.1778,7.9065,545.1145],[5.1906,7.9032,568.0328],[5.2048,7.8966,532.3975],[5.2222,7.8834,539.4429],[5.2471,7.87,598.8542]]]]}}