{"type": "Feature","bbox": [7.7108,5.9537,8.0108,6.2359],"geometry": {"type": "MultiPolygon","coordinates": [[[[8.0108,6.0052,25.0763],[8.0063,6.0161,26.7783],[8.0057,6.0219,27.9729],[7.9912,6.0408,24.7312],[7.9645,6.0452,28.5292],[7.9542,6.0444,21.5602],[7.9413,6.0366,38.0179],[7.9274,6.0313,46.744],[7.9177,6.0296,53.1954],[7.9103,6.0304,42.5764],[7.9047,6.037,44.5862],[7.8967,6.0415,41.5931],[7.8923,6.0593,68.8798],[7.8995,6.0723,52.0353],[7.8992,6.097,52.7342],[7.9009,6.1009,54.2935],[7.8987,6.1246,72.2496],[7.8935,6.1328,88.7303],[7.88,6.1383,73.1783],[7.8708,6.1537,71.3792],[7.87,6.1583,92.185],[7.8724,6.167,70.1558],[7.8786,6.1787,47.3711],[7.8778,6.1893,49.7304],[7.8715,6.1986,54.4617],[7.8727,6.1994,46.3834],[7.8695,6.2021,53.9528],[7.8433,6.2097,60.1159],[7.8294,6.2187,62.7379],[7.8263,6.2233,55.1594],[7.8182,6.2262,57.3023],[7.8026,6.2316,72.4733],[7.7757,6.2359,51.9152],[7.7406,6.2331,64.0804],[7.7116,6.2258,60.5324],[7.7179,6.2113,65.9319],[7.7238,6.1808,61.3093],[7.7246,6.1407,43.9096],[7.7317,6.1245,44.9755],[7.7339,6.1039,53.626],[7.721,6.076,38.4227],[7.7108,6.0674,45.1982],[7.722,6.0652,46.3619],[7.7298,6.0618,32.409],[7.7632,6.059,54.014],[7.7728,6.0558,48.8356],[7.7855,6.0542,55.1781],[7.8192,6.0421,41.6959],[7.8409,6.0302,64.6754],[7.859,6.0235,50.5847],[7.8693,6.0171,44.9885],[7.8858,6.0099,49.0021],[7.8933,6.0049,42.1963],[7.9003,5.9937,39.9559],[7.9013,5.9873,36.6217],[7.9077,5.9828,24.9708],[7.9141,5.9755,23.0836],[7.913,5.9693,19.4432],[7.9178,5.9628,26.1836],[7.9173,5.959,23.7024],[7.9207,5.9588,28.6239],[7.9202,5.9547,34.7485],[7.9239,5.9537,53.845],[7.9479,5.959,35.4782],[7.9668,5.9606,43.7308],[7.9599,5.9699,37.2336],[7.9601,5.981,24.054],[7.9629,5.9858,21.4832],[7.9725,5.9921,18.7489],[7.9838,5.9944,21.18],[7.9997,6.0032,26.4013],[8.0108,6.0052,25.0763]]]]}
,"properties": {"GID_2": "NGA.11.13_1","GID_0": "NGA","country": "Nigeria","GID_1": "NGA.11_1","province": "Ebonyi","NL_NAME_1": "NA","county": "Onicha","VARNAME_2": "NA","NL_NAME_2": "NA","TYPE_2": "LocalAuthority","ENGTYPE_2": "LocalAuthority","CC_2": "NA","HASC_2": "NA","name": "Onicha.county","area_km2": 448.2636,"hist_schema_id": "Elevation0-9000","hist_area_km2": {"25": 73.1462,"50": 169.4528,"75": 188.5257,"100": 17.0756,"125": 0.0632}}}