{"type":"Feature","properties":{"GID_2":"NGA.35.12_1","GID_0":"NGA","country":"Nigeria","GID_1":"NGA.35_1","province":"Taraba","NL_NAME_1":"NA","county":"Takum","VARNAME_2":"NA","NL_NAME_2":"NA","TYPE_2":"LocalAuthority","ENGTYPE_2":"LocalAuthority","CC_2":"NA","HASC_2":"NA","name":"Takum.county"},
"geometry":{"type": "MultiPolygon","coordinates": [[[[9.8757,7.282,226.5168],[9.879,7.2514,231.4981],[9.922,7.2602,210.0224],[9.9592,7.2608,235.6952],[9.9727,7.2598,251.0555],[9.9923,7.2515,254.4631],[10.0067,7.2498,270.4369],[10.0328,7.2554,255.8077],[10.0499,7.2546,238.8669],[10.0596,7.2522,238.4725],[10.0819,7.2566,229.7995],[10.1015,7.2559,213.5005],[10.1326,7.2653,197.7572],[10.1418,7.2655,197.2513],[10.1489,7.2695,209.4642],[10.16,7.2698,197.2719],[10.1856,7.2777,211.0226],[10.2081,7.2802,215.8601],[10.224,7.2776,232.0974],[10.228,7.2822,212.8212],[10.2413,7.2813,194.0705],[10.2489,7.2833,175.6038],[10.284,7.2814,179.4638],[10.2995,7.3025,216.4286],[10.2939,7.3165,430.8583],[10.2946,7.3247,562.7281],[10.2918,7.3352,649.642],[10.2898,7.3548,231.4216],[10.2973,7.3926,174.7811],[10.2972,7.4118,163.4388],[10.292,7.4211,177.9857],[10.2958,7.4274,192.9156],[10.2958,7.4312,185.573],[10.2899,7.4376,164.109],[10.2879,7.4572,183.9638],[10.2893,7.4645,184.8745],[10.286,7.4723,205.9682],[10.2702,7.4842,184.6705],[10.2435,7.4939,181.1074],[10.2328,7.4963,179.905],[10.2222,7.5022,158.7469],[10.2129,7.5113,155.333],[10.201599999999999,7.5137,150.8135],[10.1964,7.5215,135.7658],[10.1811,7.5363,129.3617],[10.1725,7.54,145.4941],[10.1695,7.5495,154.4997],[10.1629,7.5557,161.5704],[10.1446,7.5667,155.7112],[10.0969,7.6025,142.1352],[10.0819,7.6057,157.0472],[10.0547,7.6226,148.4671],[10.0221,7.6294,136.8146],[10.0118,7.6278,151.2952],[9.9809,7.6339,162.4501],[9.9597,7.6333,185.366],[9.9534,7.6347,185.4694],[9.9089,7.634,204.1824],[9.906,7.6321,211.7714],[9.8942,7.6323,217.9138],[9.8641,7.6271,211.1186],[9.8564,7.6275,215.3873],[9.8473,7.6203,201.1053],[9.8301,7.6137,214.7318],[9.8232,7.6088,200.8414],[9.8444,7.5931,184.914],[9.9014,7.5386,188.9645],[9.8992,7.5281,179.7971],[9.9181,7.5062,158.6747],[9.9138,7.4895,157.1741],[9.9227,7.4762,185.1774],[9.9228,7.4607,186.8351],[9.9204,7.4414,167.3772],[9.9161,7.4311,175.4257],[9.9134,7.4087,178.171],[9.8972,7.3641,187.7827],[9.887,7.3472,227.5356],[9.8814,7.3266,211.5597],[9.875,7.3137,244.5383],[9.8757,7.282,226.5168]]]]}}