{"type":"Feature","properties":{"GID_2":"NGA.2.17_1","GID_0":"NGA","country":"Nigeria","GID_1":"NGA.2_1","province":"Adamawa","NL_NAME_1":"NA","county":"Shelleng","VARNAME_2":"NA","NL_NAME_2":"NA","TYPE_2":"LocalAuthority","ENGTYPE_2":"LocalAuthority","CC_2":"NA","HASC_2":"NA","name":"Shelleng.county"},
"geometry":{"type": "MultiPolygon","coordinates": [[[[12.355,9.6584,439.4029],[12.3181,9.7301,323.7288],[12.3093,9.7598,465.4008],[12.3034,9.8002,487.3367],[12.3065,9.832,531.0271],[12.3229,9.8813,502.6282],[12.3319,9.9153,636.5402],[12.3373,9.9526,580.9245],[12.3357,9.9907,706.3674],[12.3492,10.0226,717.8311],[12.3539,10.0444,701.587],[12.3674,10.0675,662.6928],[12.3733,10.0969,671.0109],[12.3681,10.1122,648.1131],[12.3676,10.1284,642.6495],[12.385,10.1606,551.0527],[12.3909,10.193,475.4769],[12.4229,10.2388,429.7333],[12.4242,10.2556,394.4619],[12.4274,10.2692,376.8895],[12.4266,10.281,357.6456],[12.4231,10.2955,342.3307],[12.4156,10.3144,322.5143],[12.3813,10.3026,343.9083],[12.3428,10.2645,481.8907],[12.3147,10.2281,502.2739],[12.2812,10.1897,538.3025],[12.2428,10.1396,610.6771],[12.2209,10.1009,657.9507],[12.1935,10.0705,691.9568],[12.1653,10.0534,571.0099],[12.1313,10.041,499.2338],[12.0916,10.0322,268.0556],[12.0485,10.0293,206.3748],[12.0482,10.0253,206.1112],[12.0595,9.9961,245.746],[12.0615,9.9605,261.1054],[12.0613,9.9285,271.7641],[12.0699,9.8539,221.6456],[12.0843,9.7983,197.6653],[12.0878,9.7069,205.1028],[12.0977,9.6698,162.2761],[12.1141,9.6603,181.4049],[12.1123,9.6423,174.0467],[12.1134,9.6346,173.9553],[12.1408,9.6312,207.1145],[12.1704,9.6347,271.3281],[12.1893,9.6406,258.9792],[12.2141,9.64,295.5548],[12.238,9.6428,304.0812],[12.27,9.6501,295.375],[12.3285,9.6535,323.0101],[12.355,9.6584,439.4029]]]]}}