{"type":"Feature","properties":{"GID_2":"NGA.10.2_1","GID_0":"NGA","country":"Nigeria","GID_1":"NGA.10_1","province":"Delta","NL_NAME_1":"NA","county":"AniochaSouth","VARNAME_2":"NA","NL_NAME_2":"NA","TYPE_2":"LocalAuthority","ENGTYPE_2":"LocalAuthority","CC_2":"NA","HASC_2":"NA","name":"Aniocha_South.county"},
"geometry":{"type": "MultiPolygon","coordinates": [[[[6.3717,6.2394,244.2576],[6.384,6.1943,135.4679],[6.3872,6.1926,124.5748],[6.3919,6.1856,125.15],[6.3621,6.1666,125.8903],[6.362,6.1603,88.7541],[6.357,6.1517,146.4166],[6.3446,6.1514,162.0172],[6.3389,6.1444,157.0719],[6.3399,6.1344,177.1699],[6.3433,6.133,177.6955],[6.3464,6.1258,180.2424],[6.3474,6.1129,180.2548],[6.3494,6.1089,181.5199],[6.347,6.1009,179.0738],[6.3293,6.08,139.645],[6.3307,6.0664,75.3895],[6.3297,6.0613,76.4278],[6.3319,6.0544,82.2571],[6.3279,6.0457,80.3183],[6.3236,6.0257,72.6673],[6.3175,6.0162,73.6909],[6.3137,6.013,79.2031],[6.3218,6.0112,65.0017],[6.3339,5.994,44.4549],[6.3408,5.9874,44.5788],[6.3485,5.9836,42.5735],[6.3562,5.9867,43.7171],[6.3684,6.0012,46.241],[6.377,6.0163,45.287],[6.3835,6.0217,47.807],[6.3877,6.0223,48.0483],[6.3965,6.0137,51.0951],[6.4034,5.9841,45.6096],[6.4156,5.9804,44.7207],[6.4398,5.9795,33.1937],[6.4863,5.9896,24.1088],[6.5081,5.9924,22.9777],[6.5385,5.9905,18.7514],[6.5498,5.9919,25.2591],[6.5656,5.9907,21.0556],[6.5751,6.0293,21.4138],[6.5736,6.0379,24.3829],[6.5652,6.0564,24.933],[6.5652,6.0601,22.7564],[6.5728,6.0711,27.8981],[6.58,6.0765,24.8448],[6.5951,6.0794,21.3136],[6.6111,6.0729,29.9473],[6.6206,6.0631,20.9773],[6.6316,6.058,24.0903],[6.6389,6.0826,29.3694],[6.639,6.0874,23.7013],[6.6445,6.1013,29.965699999999998],[6.6413,6.1017,29.7814],[6.6304,6.1116,22.9328],[6.6275,6.1192,38.412],[6.6207,6.1239,34.7632],[6.6104,6.143,56.4362],[6.6152,6.1547,65.0276],[6.6156,6.1664,84.2034],[6.6218,6.2036,99.1259],[6.6296,6.2153,104.1491],[6.632,6.2228,113.4637],[6.6303,6.2325,133.4036],[6.6267,6.2383,146.3415],[6.614,6.2495,157.6351],[6.6065,6.2456,200.7256],[6.5925,6.2474,199.6592],[6.5893,6.25,201.1153],[6.5834,6.2589,201.7924],[6.5735,6.2856,94.8821],[6.5632,6.2913,146.7348],[6.5432,6.2969,145.3007],[6.5321,6.2966,208.59],[6.5197,6.2998,255.4183],[6.4901,6.2812,253.3627],[6.4733,6.2663,213.4236],[6.457,6.2567,243.4732],[6.4256,6.2417,141.4327],[6.4007,6.2426,175.9207],[6.3835,6.2372,235.4203],[6.3717,6.2394,244.2576]]]]}}