{"type": "Feature","bbox": [8.0525,12.9816,8.3915,13.3032],"geometry": {"type": "MultiPolygon","coordinates": [[[[8.0606,13.3032,412.0122],[8.0578,13.2767,428.4495],[8.0535,13.2644,443.5212],[8.0525,13.2441,454.165],[8.0577,13.234,434.6552],[8.0701,13.1956,455.7074],[8.0831,13.1683,466.7397],[8.1003,13.1256,456.655],[8.1026,13.1111,455.1841],[8.1062,13.1023,453.2896],[8.1069,13.0832,467.8936],[8.1144,13.072,452.9531],[8.1293,13.0604,460.192],[8.1406,13.0461,436.6471],[8.1434,13.0527,442.7583],[8.1621,13.0573,446.051],[8.1739,13.0676,458.5129],[8.1937,13.0763,472.0096],[8.2057,13.0852,478.808],[8.2167,13.089,478.6524],[8.2221,13.0854,474.0735],[8.2299,13.0843,478.1898],[8.2428,13.0764,477.9916],[8.2808,13.0415,481.0355],[8.2911,13.0359,481.0647],[8.3027,13.0341,479.177],[8.3321,13.0391,460.0786],[8.3391,13.0373,466.5536],[8.3442,13.0205,464.7817],[8.3496,12.9908,482.41],[8.3578,12.9849,486.6431],[8.3765,12.9858,475.2962],[8.38,12.9838,476.2674],[8.3915,12.9816,483.2267],[8.3906,12.9929,484.4881],[8.3865,13.009,486.5686],[8.3882,13.0194,488.2337],[8.3827,13.0595,486.8683],[8.3826,13.0676,482.4596],[8.3894,13.0786,475.5452],[8.388,13.0807,479.6764],[8.3811,13.0838,485.6074],[8.3658,13.0977,475.4924],[8.3563,13.1144,466.2638],[8.3279,13.1328,459.3644],[8.3158,13.1465,439.5919],[8.3076,13.1611,458.793],[8.2938,13.1672,468.6893],[8.2874,13.1718,466.6938],[8.2559,13.2075,447.4166],[8.2117,13.219,464.4069],[8.1996,13.2259,472.3235],[8.1812,13.2417,455.1589],[8.1645,13.2587,457.269],[8.1581,13.261,462.1431],[8.1454,13.2713,458.1416],[8.1067,13.2893,442.4483],[8.0676,13.3025,434.0848],[8.0606,13.3032,412.0122]]]]}
,"properties": {"GID_2": "NGA.21.24_1","GID_0": "NGA","country": "Nigeria","GID_1": "NGA.21_1","province": "Katsina","NL_NAME_1": "NA","county": "Mai'Adua","VARNAME_2": "NA","NL_NAME_2": "NA","TYPE_2": "LocalAuthority","ENGTYPE_2": "LocalAuthority","CC_2": "NA","HASC_2": "NA","name": "Mai'Adua.county","area_km2": 576.6823,"hist_schema_id": "Elevation0-9000","hist_area_km2": {"400": 1.0317,"425": 66.3237,"450": 204.0324,"475": 283.7544,"500": 21.5401}}}