{"type":"Feature","properties":{"GID_2":"NGA.30.9_1","GID_0":"NGA","country":"Nigeria","GID_1":"NGA.30_1","province":"Osun","NL_NAME_1":"NA","county":"Egbedore","VARNAME_2":"NA","NL_NAME_2":"NA","TYPE_2":"LocalAuthority","ENGTYPE_2":"LocalAuthority","CC_2":"NA","HASC_2":"NA","name":"Egbedore.county"},
"geometry":{"type": "MultiPolygon","coordinates": [[[[4.5392,7.7526,317.8909],[4.5402,7.7541,308.0671],[4.539,7.7617,303.5478],[4.5346,7.7759,294.669],[4.5361,7.7839,322.709],[4.5404,7.7901,307.2372],[4.5544,7.8011,331.0988],[4.56,7.8036,329.0735],[4.5628,7.809,344.7415],[4.5629,7.8431,355.9848],[4.561,7.866,336.2873],[4.5574,7.8603,360.3275],[4.5342,7.8392,340.1396],[4.5272,7.8306,310.3058],[4.4991,7.809,313.7487],[4.4863,7.7871,320.3394],[4.4843,7.7779,291.5685],[4.4704,7.7836,283.7219],[4.4648,7.795,328.5894],[4.4673,7.8063,331.1422],[4.4762,7.8247,303.3204],[4.471,7.8233,320.5847],[4.465,7.8252,324.285],[4.4525,7.834,325.8801],[4.4334,7.8541,332.8928],[4.4185,7.8737,356.4276],[4.4086,7.8523,362.8657],[4.3893,7.845,321.9849],[4.3879,7.8371,330.0817],[4.3851,7.8319,334.8715],[4.3696,7.816,319.7695],[4.3606,7.803,295.017],[4.3671,7.7884,309.4213],[4.3699,7.7757,304.7449],[4.349,7.7523,301.3248],[4.3364,7.7325,293.4114],[4.3296,7.7098,268.2065],[4.332,7.704,286.3429],[4.3415,7.6918,259.2584],[4.3448,7.6802,250.0233],[4.3614,7.6489,243.0947],[4.3674,7.6419,265.8802],[4.3697,7.6487,247.1273],[4.3758,7.656,246.8169],[4.377,7.6597,241.8815],[4.3852,7.6657,243.9783],[4.4157,7.671,270.3485],[4.4301,7.6781,296.4577],[4.4355,7.6829,315.0776],[4.4374,7.686,300.4757],[4.4356,7.7054,277.0455],[4.4392,7.7252,305.0354],[4.4518,7.7363,305.178],[4.4864,7.7331,315.4731],[4.4966,7.7357,306.0358],[4.5212,7.7468,317.1439],[4.5392,7.7526,317.8909]]]]}}