{"type":"Feature","properties":{"GID_2":"NGA.27.8_1","GID_0":"NGA","country":"Nigeria","GID_1":"NGA.27_1","province":"Niger","NL_NAME_1":"NA","county":"Gbako","VARNAME_2":"NA","NL_NAME_2":"NA","TYPE_2":"LocalAuthority","ENGTYPE_2":"LocalAuthority","CC_2":"NA","HASC_2":"NA","name":"Gbako.county"},
"geometry":{"type": "MultiPolygon","coordinates": [[[[6.0281,9.1003,121.3659],[6.0367,9.1052,97.5742],[6.0415,9.1112,113.7551],[6.0424,9.1161,126.0358],[6.0405,9.1336,138.3049],[6.0454,9.1371,150.309],[6.0621,9.1299,124.4228],[6.0639,9.1203,131.2199],[6.0729,9.1107,123.8706],[6.0786,9.1078,111.9554],[6.0887,9.1065,97.0847],[6.1219,9.0944,73.2557],[6.1298,9.0954,67.642],[6.1423,9.1087,69.9511],[6.1512,9.1231,70.489],[6.1674,9.1612,71.2444],[6.1727,9.1661,71.8743],[6.2035,9.1766,84.6252],[6.2083,9.1965,74.703],[6.192,9.2254,78.5018],[6.1788,9.2331,77.0496],[6.148,9.241,115.7038],[6.1319,9.248,122.4918],[6.1187,9.269,120.6109],[6.1242,9.2809,115.1958],[6.135,9.2953,84.4432],[6.1203,9.3071,119.7656],[6.1117,9.3186,119.8974],[6.1179,9.3297,112.0673],[6.1174,9.3472,94.8355],[6.1079,9.3591,104.3119],[6.1032,9.3692,105.4482],[6.1073,9.3755,103.0238],[6.1219,9.3842,114.656],[6.137,9.3895,92.204],[6.144,9.4145,122.4693],[6.1441,9.4424,115.1292],[6.151,9.4554,110.6787],[6.1924,9.5105,136.63],[6.1824,9.5252,147.0768],[6.1782,9.527,146.551],[6.1528,9.527,149.931],[6.139,9.5329,144.312],[6.1291,9.5445,121.6966],[6.1088,9.5621,120.1749],[6.0969,9.5682,128.8681],[6.0932,9.5679,147.4463],[6.0798,9.5535,160.1627],[6.0682,9.5478,155.4993],[6.0537,9.5486,133.4694],[6.0304,9.546,99.1682],[6.0249,9.5402,108.5589],[6.0152,9.5368,121.7559],[5.9994,9.5454,122.2627],[5.9838,9.5492,98.4555],[5.94,9.5457,76.625],[5.9239,9.5409,80.9562],[5.9089,9.5272,79.822],[5.903,9.5181,84.2004],[5.9015,9.5026,82.4487],[5.8888,9.4891,114.2375],[5.8864,9.4791,113.8376],[5.8872,9.4687,96.3928],[5.8794,9.4548,136.1993],[5.8763,9.434,108.7247],[5.8736,9.4266,92.501],[5.8744,9.418,79.6164],[5.8717,9.4102,93.7205],[5.8709,9.3998,74.7062],[5.8657,9.384,74.4148],[5.8698,9.3667,76.4764],[5.8666,9.36,76.6844],[5.8512,9.3416,89.2926],[5.8434,9.3256,110.7355],[5.8424,9.3157,98.7331],[5.8351,9.3031,118.9515],[5.8261,9.2702,88.4768],[5.8195,9.2565,91.5961],[5.8211,9.2367,73.8261],[5.8163,9.2203,72.5196],[5.8151,9.2039,79.0964],[5.818,9.1963,94.3601],[5.8183,9.1905,99.4653],[5.8142,9.1796,114.5501],[5.8159,9.172,113.6625],[5.8155,9.1674,110.707],[5.8107,9.1567,127.0121],[5.8095,9.1387,97.8726],[5.8114,9.1341,108.8373],[5.8103,9.1248,121.7921],[5.8023,9.0922,112.751],[5.7991,9.0652,96.1458],[5.7977,9.04,70.747],[5.7982,9.004,206.6804],[5.8204,8.9716,71.6252],[5.8288,8.9613,75.2645],[5.834,8.9575,77.7728],[5.8839,9.0019,103.8908],[5.908,9.0175,153.2065],[5.9135,9.0234,189.3209],[5.9421,9.0602,161.6144],[5.9545,9.0837,186.9632],[5.9525,9.0927,205.8688],[5.9549,9.1015,182.3593],[5.964,9.1085,172.8668],[5.9831,9.1173,153.7219],[5.995,9.1199,130.0868],[6.0049,9.1175,128.98],[6.0094,9.1136,131.8793],[6.0158,9.1031,140.9187],[6.0281,9.1003,121.3659]]]]}}