{"type": "Feature","bbox": [6.0788,7.3243,6.4854,7.5464],"geometry": {"type": "MultiPolygon","coordinates": [[[[6.1216,7.5118,370.7499],[6.1335,7.5094,368.7128],[6.1397,7.5045,354.4972],[6.1507,7.5009,379.3018],[6.147,7.4947,365.9494],[6.1605,7.4923,393.5139],[6.1617,7.4825,540.6906],[6.1703,7.48,497.1372],[6.185,7.4825,440.2618],[6.196,7.4764,432.5784],[6.2082,7.458,396.0882],[6.2094,7.4531,377.0479],[6.2241,7.4507,373.1818],[6.2278,7.4531,430.183],[6.2341,7.4531,538.4617],[6.2435,7.4565,498.285],[6.2589,7.4669,238.2909],[6.2641,7.4633,241.5192],[6.2661,7.4575,268.7644],[6.2842,7.433,229.4525],[6.2946,7.4342,218.1965],[6.3137,7.417,349.1213],[6.315,7.4115,216.6447],[6.3238,7.4125,239.4534],[6.3327,7.404,231.0173],[6.3398,7.3898,320.7261],[6.3464,7.3809,283.3343],[6.3555,7.3764,213.2198],[6.3829,7.3805,192.7276],[6.3921,7.3795,178.9191],[6.3963,7.3863,176.5885],[6.404,7.3878,169.5009],[6.4102,7.3851,170.2968],[6.43,7.3839,173.7023],[6.4453,7.3852,171.1355],[6.4495,7.3732,179.2381],[6.4542,7.368,164.8554],[6.4564,7.3576,151.487],[6.4625,7.3529,140.7377],[6.4636,7.3333,338.872],[6.4708,7.3248,245.2653],[6.4775,7.3243,164.5266],[6.4811,7.3335,159.9038],[6.4812,7.3408,144.4374],[6.4854,7.3596,136.4386],[6.4806,7.3874,160.3811],[6.4696,7.4212,172.6754],[6.4649,7.4284,188.1842],[6.4569,7.4346,176.8342],[6.4428,7.4495,168.3848],[6.4375,7.46,186.2556],[6.4193,7.4804,241.1993],[6.4061,7.4886,253.9586],[6.3928,7.4948,223.5652],[6.3898,7.4806,247.942],[6.3853,7.4738,230.6456],[6.3797,7.4688,189.9395],[6.363,7.4626,207.0893],[6.3452,7.4604,194.0055],[6.3178,7.4636,220.4729],[6.2935,7.4714,223.2785],[6.256,7.5045,266.7512],[6.2318,7.5213,581.1738],[6.196,7.5334,457.9348],[6.1796,7.5337,414.2728],[6.1615,7.5384,386.7637],[6.136,7.5317,377.9299],[6.1302,7.5341,374.792],[6.1221,7.5428,378.1184],[6.1225,7.5464,379.5425],[6.0793,7.5392,397.5956],[6.0788,7.538,400.2802],[6.0862,7.5275,381.9374],[6.1024,7.526,395.0322],[6.1214,7.5315,378.0787],[6.1259,7.5243,392.0886],[6.1258,7.5187,373.5501],[6.1216,7.5118,370.7499]]]]}
,"properties": {"GID_2": "NGA.23.17_1","GID_0": "NGA","country": "Nigeria","GID_1": "NGA.23_1","province": "Kogi","NL_NAME_1": "NA","county": "Okene","VARNAME_2": "NA","NL_NAME_2": "NA","TYPE_2": "LocalAuthority","ENGTYPE_2": "LocalAuthority","CC_2": "NA","HASC_2": "NA","name": "Okene.county","area_km2": 290.7933,"hist_schema_id": "Elevation0-9000","hist_area_km2": {"125": 5.0466,"150": 33.9775,"175": 64.1875,"200": 45.6429,"225": 28.0453,"250": 15.7671,"275": 9.9226,"300": 6.7483,"325": 4.7092,"350": 5.718,"375": 13.7473,"400": 16.2487,"425": 12.2761,"450": 9.3752,"475": 6.6845,"500": 5.5914,"525": 3.5314,"550": 1.6606,"575": 1.1771,"600": 0.6937,"625": 0.042}}}