{"type":"Feature","properties":{"GID_2":"NGA.12.5_1","GID_0":"NGA","country":"Nigeria","GID_1":"NGA.12_1","province":"Edo","NL_NAME_1":"NA","county":"EsanSouth-East","VARNAME_2":"NA","NL_NAME_2":"NA","TYPE_2":"LocalAuthority","ENGTYPE_2":"LocalAuthority","CC_2":"NA","HASC_2":"NA","name":"Esan_South-East.county"},
"geometry":{"type": "MultiPolygon","coordinates": [[[[6.6644,6.5275,17.0],[6.6629,6.5337,17.5],[6.664,6.5448,17.5],[6.6556,6.5841,29.7862],[6.6546,6.6031,21.3217],[6.6477,6.6249,26.8751],[6.6342,6.6422,26.016],[6.6249,6.6573,26.7077],[6.6233,6.6687,28.4346],[6.6158,6.6803,28.0344],[6.6106,6.6993,18.0],[6.6131,6.727,23.7663],[6.6169,6.746,26.5739],[6.622,6.7586,25.4031],[6.6238,6.7781,26.151],[6.5769,6.7701,33.6705],[6.5546,6.7693,36.3691],[6.535,6.7699,55.4577],[6.5204,6.7798,103.1393],[6.5047,6.7787,110.9769],[6.4704,6.7696,188.8076],[6.4514,6.7667,174.8737],[6.4427,6.7714,166.2536],[6.4314,6.7684,165.101],[6.413,6.7599,197.3295],[6.4097,6.754,213.4971],[6.4092,6.7397,199.6091],[6.4135,6.7327,168.1767],[6.4128,6.7215,205.5589],[6.4151,6.7168,183.8996],[6.4165,6.7025,167.222],[6.3984,6.6961,213.186],[6.3855,6.7019,247.7303],[6.3589,6.6947,351.3206],[6.3493,6.6896,350.1606],[6.3439,6.6837,346.0852],[6.3413,6.6745,343.7849],[6.3292,6.657,300.3284],[6.3209,6.6503,285.6987],[6.3237,6.6435,258.8788],[6.3284,6.6192,202.2034],[6.329,6.6038,209.0529],[6.3255,6.5863,163.3474],[6.3179,6.5742,246.1982],[6.3105,6.5677,281.5215],[6.2822,6.5578,313.5072],[6.2698,6.5511,295.6486],[6.2637,6.5436,295.6423],[6.2615,6.5335,288.1315],[6.2564,6.5216,278.2119],[6.2525,6.4942,250.5643],[6.2583,6.4798,247.5965],[6.2735,6.4651,277.8271],[6.274,6.4556,264.9332],[6.2702,6.446,250.6482],[6.2655,6.4408,232.2691],[6.264,6.4185,209.1978],[6.2659,6.4097,218.2122],[6.2746,6.4058,210.8495],[6.283,6.3988,202.0716],[6.2816,6.3806,174.719],[6.2762,6.3752,161.6813],[6.275,6.371,163.2042],[6.267,6.3601,161.6806],[6.2691,6.3556,146.8606],[6.3145,6.374,211.4816],[6.3461,6.3889,218.2848],[6.3547,6.3904,227.7466],[6.3765,6.4004,250.5284],[6.4174,6.4281,186.7498],[6.4467,6.44,189.6298],[6.4635,6.4511,140.8269],[6.4827,6.4678,89.7404],[6.5088,6.483,62.3032],[6.5267,6.4899,44.2184],[6.569,6.4961,36.6781],[6.5884,6.4958,40.4543],[6.622,6.4867,35.8298],[6.6352,6.4899,28.7478],[6.6461,6.4971,26.819],[6.6655,6.5228,17.0],[6.6644,6.5275,17.0]]]]}}