{"type":"Feature","properties":{"GID_1":"NGA.15_1","GID_0":"NGA","country":"Nigeria","province":"FederalCapitalTerritory","VARNAME_1":"Abuja","NL_NAME_1":"NA","TYPE_1":"State","ENGTYPE_1":"State","CC_1":"NA","HASC_1":"NG.FC","ISO_1":"NA","name":"Federal_Capital_Territory.province"},
"geometry":{"type": "MultiPolygon","coordinates": [[[[6.9649,8.4104,230.0744],[7.0072,8.415,187.7708],[7.0214,8.4219,185.2689],[7.0637,8.4237,171.711],[7.0912,8.4306,136.3409],[7.1579,8.4398,187.8336],[7.1799,8.4471,241.6297],[7.2048,8.4591,225.1215],[7.2634,8.4715,191.7592],[7.2797,8.4763,179.3065],[7.2874,8.4833,185.5187],[7.3158,8.496,388.0145],[7.3566,8.5209,185.0453],[7.3733,8.5252,191.9182],[7.3921,8.5348,207.5914],[7.4029,8.5432,227.3463],[7.4086,8.5532,213.3434],[7.4374,8.5933,270.0677],[7.4531,8.609,494.3791],[7.4699,8.6355,610.4686],[7.4802,8.6717,586.4095],[7.4875,8.6901,601.1501],[7.5002,8.6959,623.5465],[7.5027,8.7193,672.0722],[7.507,8.7262,704.4594],[7.5134,8.7528,712.2536],[7.5179,8.7901,651.6361],[7.5238,8.8097,605.2021],[7.5247,8.8237,512.4995],[7.5344,8.8402,481.7856],[7.5379,8.8558,435.9088],[7.5429,8.8633,426.4874],[7.5464,8.8819,456.3207],[7.5568,8.9083,385.5052],[7.5597,8.9325,410.0626],[7.5572,8.9521,385.2185],[7.5628,8.9689,393.9269],[7.5619,8.9982,416.9536],[7.5629,9.004,427.5314],[7.5652,9.0075,423.1462],[7.5657,9.0207,432.2261],[7.5574,9.0559,594.4218],[7.5581,9.0786,590.1347],[7.5562,9.0975,734.7361],[7.5599,9.1207,715.2936],[7.5586,9.1461,676.5641],[7.5644,9.1662,716.9624],[7.5711,9.1815,752.5859],[7.5762,9.204,694.0603],[7.5928,9.2508,685.3655],[7.6012,9.2606,646.4353],[7.6179,9.2617,651.7369],[7.6248,9.2717,666.9725],[7.6285,9.2911,690.0038],[7.6265,9.2973,699.8089],[7.6258,9.3107,724.0782],[7.6169,9.3026,714.8311],[7.6069,9.2981,692.1422],[7.5916,9.303,708.2635],[7.5898,9.3069,714.5124],[7.5832,9.3133,735.0256],[7.5744,9.3426,725.0309],[7.5679,9.3529,707.0122],[7.5572,9.3586,707.7588],[7.5506,9.3599,716.3333],[7.5416,9.3569,737.9473],[7.5334,9.3512,684.2615],[7.5043,9.3024,674.955],[7.4956,9.2924,673.8641],[7.486,9.2889,646.929],[7.4753,9.292,643.2358],[7.4614,9.3025,640.377],[7.4516,9.3045,625.2537],[7.4097,9.3076,622.9423],[7.3946,9.3081,672.6373],[7.3634,9.3034,549.5425],[7.3387,9.3043,549.5755],[7.3253,9.3001,533.5497],[7.3221,9.2973,524.9137],[7.3088,9.2974,515.2849],[7.304,9.2934,517.5255],[7.2841,9.2588,502.8801],[7.276,9.2525,496.8747],[7.2521,9.2137,533.0178],[7.2351,9.1918,483.7105],[7.224,9.1739,585.0454],[7.1974,9.1411,426.3052],[7.171,9.0994,311.7746],[7.156,9.0956,258.9577],[7.1459,9.099,247.7771],[7.1177,9.1299,220.5555],[7.0901,9.1505,331.7018],[7.0738,9.1663,241.1945],[7.0631,9.1794,231.4317],[7.0162,9.2146,263.5822],[7.0075,9.2256,264.5297],[6.979,9.2357,241.2336],[6.9632,9.2324,237.8286],[6.9408,9.2313,258.1118],[6.9309,9.2327,261.3593],[6.9206,9.2297,245.6274],[6.8876,9.2286,236.75],[6.8667,9.2311,274.9876],[6.8569,9.2292,256.3908],[6.801,9.2281,250.9843],[6.7576,9.2228,250.0926],[6.7521,9.2167,234.2422],[6.7496,9.1857,247.633],[6.7515,9.1188,270.4249],[6.7496,9.0815,225.4547],[6.7502,9.0604,217.0443],[6.7468,9.009,202.4327],[6.7476,8.9975,209.5219],[6.7463,8.9975,212.1552],[6.7482,8.9911,220.7138],[6.7482,8.9809,204.5585],[6.7513,8.9714,208.6519],[6.7585,8.5119,126.4607],[6.7523,8.5037,225.556],[6.751,8.4899,137.0496],[6.7825,8.411,113.4053],[6.8054,8.4034,72.0355],[6.8378,8.4072,80.1654],[6.8743,8.4043,119.0063],[6.8826,8.4072,128.0405],[6.8963,8.4088,149.3456],[6.9239,8.4044,170.9614],[6.9555,8.4043,223.2778],[6.9649,8.4104,230.0744]]]]}}