{"type":"Feature","properties":{"ISO3166-1-Alpha-3":"NGA","country":"Nigeria","fill":"#F0F","id":"3470","name":"Federal Capital Territory"},
"geometry":{"type": "Polygon","coordinates": [[[7.59419,9.30419,707.0565],[7.5758,9.33806,743.0751],[7.54004,9.35142,670.5958],[7.5082,9.30806,683.4829],[7.4865,9.29199,654.77],[7.46138,9.30243,640.377],[7.43379,9.30674,611.3485],[7.40578,9.30765,608.8121],[7.3108,9.29744,521.2463],[7.17024,9.09919,311.7746],[7.16394,9.09758,265.284],[7.11681,9.12368,210.5857],[7.02338,9.21375,267.2287],[6.96312,9.23236,237.8286],[6.77833,9.22517,249.7858],[6.75404,9.21391,236.2879],[6.74959,9.18564,247.633],[6.759,8.47225,185.8279],[6.7651,8.45437,150.5078],[6.78938,8.4121,112.3614],[6.83496,8.40677,70.2723],[6.89625,8.40874,155.773],[6.93346,8.40471,196.4034],[6.96922,8.4108,228.5204],[6.97811,8.41176,217.5898],[7.12228,8.43377,209.5148],[7.26346,8.47145,191.7592],[7.39214,8.53478,207.5914],[7.43586,8.5832,266.3802],[7.4711,8.63916,596.1987],[7.5143,8.7589,688.768],[7.56112,8.96075,407.772],[7.5574,9.05841,594.7629],[7.55988,9.12061,715.2936],[7.58293,9.22773,684.8331],[7.60122,9.26055,646.4353],[7.6128,9.26398,674.6587],[7.62479,9.27163,666.9725],[7.6282,9.2908,690.0038],[7.62582,9.3107,724.0782],[7.59419,9.30419,707.0565]]]}}