{"type":"Feature","properties":{"GID_2":"NGA.8.3_1","GID_0":"NGA","country":"Nigeria","GID_1":"NGA.8_1","province":"Borno","NL_NAME_1":"NA","county":"Bama","VARNAME_2":"NA","NL_NAME_2":"NA","TYPE_2":"LocalAuthority","ENGTYPE_2":"LocalAuthority","CC_2":"NA","HASC_2":"NA","name":"Bama.county"},
"geometry":{"type": "MultiPolygon","coordinates": [[[[14.5951,11.7573,294.9813],[14.6013,11.766,294.5722],[14.5592,11.7775,295.0633],[14.5353,11.7875,295.1224],[14.5164,11.7934,294.8121],[14.4615,11.8185,293.9036],[14.4104,11.8471,292.8178],[14.4014,11.8479,292.3377],[14.3872,11.8463,293.2194],[14.2903,11.8135,293.9075],[14.2569,11.8094,294.3894],[14.2086,11.7963,296.4525],[14.1835,11.782,296.4117],[14.1671,11.767,297.9263],[14.1533,11.7391,296.0984],[14.132,11.718,296.9185],[14.1116,11.7075,298.6371],[14.0859,11.7095,297.6075],[14.0798,11.7142,297.05],[14.0593,11.7173,296.9287],[14.038,11.7237,298.0155],[13.9714,11.7261,299.781],[13.951,11.7232,300.3212],[13.9304,11.724,302.6663],[13.9058,11.7306,301.6101],[13.8759,11.7439,300.2868],[13.8636,11.7515,300.5158],[13.8509,11.7697,299.9764],[13.8475,11.7628,300.7522],[13.8298,11.7468,302.5075],[13.8202,11.7292,303.4012],[13.8143,11.7223,304.1187],[13.8078,11.7008,304.9559],[13.8113,11.6867,306.5204],[13.7959,11.6721,306.9261],[13.7822,11.6558,307.5513],[13.7652,11.6422,308.0857],[13.7598,11.6252,309.304],[13.7591,11.6006,311.7577],[13.7618,11.5666,313.2802],[13.7679,11.5477,317.2763],[13.7759,11.5372,316.0131],[13.7693,11.525,316.8853],[13.7594,11.516,318.4807],[13.7487,11.5102,319.4922],[13.7317,11.516,318.6408],[13.7186,11.5164,318.535],[13.6824,11.5137,330.9901],[13.6741,11.5307,322.715],[13.6528,11.5377,319.1542],[13.6187,11.5408,321.3374],[13.6001,11.5335,323.7702],[13.5828,11.522,325.9976],[13.5498,11.5105,331.4088],[13.5172,11.479,336.2579],[13.5258,11.4775,336.0106],[13.5545,11.4657,336.2233],[13.5918,11.4587,334.8305],[13.6427,11.4457,334.396],[13.7128,11.4178,332.5703],[13.7643,11.3926,331.6949],[13.7929,11.3716,331.9571],[13.8195,11.3566,331.2762],[13.8396,11.3342,332.9542],[13.854,11.3079,339.6194],[13.8661,11.2922,344.7463],[13.8947,11.285,345.1754],[13.9165,11.2842,344.1404],[13.9451,11.2957,336.6593],[13.9721,11.3018,333.502],[13.9732,11.3067,331.5177],[13.9783,11.3156,333.2388],[13.9806,11.3188,332.724],[13.9856,11.3204,324.5077],[13.9949,11.3137,326.1071],[14.0102,11.3085,329.6947],[14.0149,11.3037,332.6418],[14.0334,11.296,331.8857],[14.0424,11.2941,330.6703],[14.0678,11.2822,330.7036],[14.0818,11.2827,329.1007],[14.1008,11.2788,328.3272],[14.1101,11.2699,330.6351],[14.1107,11.2628,332.5345],[14.125,11.2581,331.3621],[14.1493,11.254,331.2219],[14.1639,11.2494,327.397],[14.169,11.2456,326.3528],[14.1755,11.2482,325.2507],[14.1827,11.2547,323.6233],[14.1891,11.2556,321.9297],[14.1947,11.2527,321.8326],[14.1988,11.2528,320.3669],[14.2021,11.2547,319.4401],[14.2046,11.2603,318.9283],[14.2136,11.2643,318.5864],[14.2164,11.2699,317.3126],[14.2357,11.2887,313.6087],[14.2397,11.2889,312.8274],[14.2453,11.2926,312.1517],[14.2565,11.2958,311.5898],[14.266,11.3031,310.1794],[14.3223,11.3328,309.207],[14.3571,11.3556,308.7156],[14.3901,11.3813,306.054],[14.4067,11.3978,308.7939],[14.4141,11.4018,306.7134],[14.4232,11.4154,306.5014],[14.4283,11.4199,304.7193],[14.4463,11.4186,303.7946],[14.4583,11.4239,302.5693],[14.4661,11.425,303.4622],[14.4775,11.4395,302.9898],[14.4921,11.4488,302.2195],[14.5012,11.4599,301.5215],[14.5077,11.4642,301.183],[14.5161,11.4728,300.983],[14.5312,11.4749,300.5545],[14.5549,11.482,300.7],[14.5696,11.494,299.7053],[14.5774,11.4955,299.6273],[14.5827,11.4985,299.5258],[14.5955,11.4998,299.5898],[14.6018,11.5061,299.609],[14.6145,11.513,299.5352],[14.62,11.5365,299.1385],[14.6282,11.5569,299.6652],[14.6323,11.5638,298.0307],[14.6402,11.5707,298.0213],[14.6426,11.576,297.8401],[14.6439,11.5827,297.78],[14.6428,11.5976,297.9482],[14.6502,11.6092,297.7443],[14.6471,11.618,297.7054],[14.6393,11.6233,297.3154],[14.6373,11.6284,297.0249],[14.6384,11.6371,296.8295],[14.6362,11.6416,296.813],[14.6397,11.6465,296.9727],[14.6407,11.6508,297.2229],[14.6343,11.6588,296.7432],[14.626,11.6635,296.662],[14.623,11.6713,296.6327],[14.6188,11.6757,296.6493],[14.6096,11.6783,296.6156],[14.6076,11.6859,296.4938],[14.6039,11.6903,296.5088],[14.5991,11.7006,296.3051],[14.5941,11.702,296.4266],[14.5798,11.6997,295.9075],[14.5661,11.709,296.0912],[14.5568,11.7089,295.9865],[14.5531,11.7109,296.1699],[14.5527,11.715,295.9143],[14.5485,11.723,295.9599],[14.5719,11.7353,295.5072],[14.574,11.7382,295.2563],[14.5744,11.7453,295.3107],[14.5767,11.7504,295.67],[14.5841,11.7505,294.9977],[14.5871,11.7552,295.1091],[14.5951,11.7573,294.9813]]]]}}