{"type": "Feature","id": "2855","bbox": [4.0341,6.97911,5.06412,8.08147],"geometry": {"type": "Polygon","coordinates": [[[4.99197,8.02628,583.7966],[4.96221,8.04602,521.377],[4.94092,8.08044,449.6021],[4.89927,8.08147,504.1337],[4.85968,8.06509,460.6256],[4.80377,8.06046,458.4928],[4.79684,8.05271,439.7776],[4.79509,8.05951,437.1522],[4.7676,8.05364,408.3442],[4.74134,8.04269,431.5964],[4.68533,8.03065,365.3317],[4.62001,8.03749,378.6652],[4.55562,8.03411,389.2986],[4.56306,8.00011,341.405],[4.56099,7.96592,346.4138],[4.55252,7.95336,327.0],[4.54735,7.94722,341.6711],[4.52523,7.94352,379.0881],[4.50735,7.93657,358.6406],[4.48854,7.92497,357.3214],[4.47139,7.91156,389.4072],[4.46922,7.91471,381.4525],[4.46157,7.9075,388.0664],[4.45547,7.89846,393.2478],[4.44948,7.89246,428.2914],[4.42054,7.87159,347.909],[4.39987,7.85058,334.4664],[4.35904,7.85867,339.1374],[4.32235,7.9176,368.981],[4.29476,7.94202,376.1105],[4.26354,7.95404,442.3673],[4.24236,7.93189,381.3065],[4.22406,7.90577,350.2475],[4.21269,7.89755,340.2496],[4.20412,7.88895,326.7594],[4.20515,7.86655,295.6096],[4.15389,7.82986,268.8246],[4.0864,7.84769,283.137],[4.06996,7.80219,254.1744],[4.06645,7.737,243.7016],[4.06128,7.70759,259.5837],[4.05229,7.6794,242.5269],[4.03544,7.65431,274.4008],[4.0341,7.62512,249.9588],[4.05477,7.6023,262.5598],[4.08247,7.58545,245.0518],[4.10428,7.55755,206.2174],[4.1203,7.52592,210.8271],[4.13993,7.50213,212.3348],[4.14551,7.47435,167.3757],[4.0771,7.11243,122.21],[4.14789,7.14618,159.1842],[4.16877,7.10414,165.0746],[4.17693,7.0589,122.5632],[4.21735,7.06365,97.767],[4.25517,7.08778,148.858],[4.30158,7.08975,154.6172],[4.33455,7.06189,111.5097],[4.34674,7.03704,123.0742],[4.35615,7.01125,109.6257],[4.35884,6.99534,84.9881],[4.36411,6.9805,75.3855],[4.39263,6.97911,74.9487],[4.42777,6.99849,100.65],[4.44875,6.99226,100.9823],[4.47035,6.99115,132.5209],[4.48699,6.99854,140.415],[4.50508,7.0036,132.9784],[4.54549,7.00738,192.2152],[4.5611,6.98828,89.7505],[4.59975,7.00833,135.1627],[4.61546,7.02967,155.0103],[4.6229,7.05544,165.6851],[4.65008,7.10169,184.463],[4.69256,7.13546,242.7628],[4.73215,7.14652,238.0094],[4.76956,7.13091,247.637],[4.81989,7.09822,241.5469],[4.83229,7.09251,247.8405],[4.85886,7.09042,312.0135],[4.86929,7.0982,245.8746],[4.87198,7.1198,251.6584],[4.86971,7.14272,274.9489],[4.8726,7.16954,368.4698],[4.87229,7.24467,240.3109],[4.88056,7.29232,284.2411],[4.89823,7.33914,291.2954],[4.94185,7.36146,306.4302],[4.99073,7.37485,332.5705],[4.99146,7.41484,343.6632],[4.91239,7.62721,600.2651],[4.90723,7.67901,473.0848],[4.91797,7.72304,504.9532],[4.92614,7.84306,435.4844],[4.97234,7.90376,493.3434],[5.01058,7.92182,518.1721],[5.04138,7.94928,556.3021],[5.06412,8.03057,579.2304],[5.04934,8.03398,550.6824],[4.99197,8.02628,583.7966]]]}
,"properties": {"ISO3166-1-Alpha-3": "NGA","country": "Nigeria","fill": "#00F","name": "Osun","area_km2": 9262.783,"hist_schema_id": "Elevation0-9000","hist_area_km2": {"75": 12.184,"100": 80.883,"125": 258.459,"150": 404.16,"175": 611.29,"200": 811.232,"225": 1009.029,"250": 1111.722,"275": 845.593,"300": 724.654,"325": 681.127,"350": 731.117,"375": 726.44,"400": 366.395,"425": 183.104,"450": 134.66,"475": 150.898,"500": 132.421,"525": 102.292,"550": 78.666,"575": 44.544,"600": 22.411,"625": 13.108,"650": 11.62,"675": 8.911,"700": 4.75,"725": 0.862,"750": 0.21}}}