{"type": "Feature","bbox": [4.0286,6.9668,5.0644,8.0847],"geometry": {"type": "MultiPolygon","coordinates": [[[[4.1134,7.287,158.6237],[4.1148,7.2713,155.8343],[4.1105,7.2502,127.1879],[4.0965,7.2121,113.9181],[4.0901,7.1864,114.6251],[4.0771,7.1125,122.21],[4.085,7.1117,95.2287],[4.0936,7.1185,100.9703],[4.1213,7.13,147.8514],[4.1361,7.1457,141.0668],[4.144,7.1479,174.1608],[4.1591,7.1416,167.6086],[4.1675,7.1281,163.3775],[4.1718,7.1128,168.4646],[4.1712,7.0863,142.1123],[4.1728,7.0701,110.2969],[4.177,7.0589,122.5632],[4.1942,7.0547,94.2759],[4.2088,7.0591,97.3758],[4.2233,7.0699,110.3234],[4.2482,7.0824,157.8458],[4.2552,7.0878,148.858],[4.271,7.091,177.1986],[4.2982,7.0906,148.3019],[4.3258,7.0815,157.8919],[4.3533,7.0243,154.1375],[4.3577,7.0012,96.8096],[4.3641,6.9805,75.3855],[4.3738,6.9668,69.1666],[4.3801,6.9703,76.6504],[4.3871,6.9781,74.1345],[4.4018,6.9859,93.3545],[4.4072,6.9925,91.0474],[4.4233,6.9984,81.3311],[4.441,6.9988,88.2451],[4.4506,6.9888,106.6065],[4.4596,6.9877,131.4914],[4.4728,6.9921,132.7783],[4.4779,6.9964,172.2246],[4.4937,7.0026,133.9638],[4.5164,7.0047,131.8324],[4.5288,7.0003,149.8911],[4.546,7.007,181.9097],[4.561,7.0067,94.5851],[4.566,7.0046,106.0705],[4.5611,6.9883,89.7505],[4.5625,6.9882,89.7505],[4.5733,6.9973,152.8793],[4.5826,6.9987,117.9929],[4.5949,7.0052,147.3513],[4.6042,7.0113,155.4129],[4.6118,7.0218,147.8545],[4.6194,7.0373,150.0628],[4.623,7.0555,165.6851],[4.6283,7.072,162.5945],[4.639,7.0914,212.2209],[4.6704,7.1211,220.4322],[4.6926,7.1355,242.7628],[4.6954,7.1403,207.9402],[4.7082,7.147,229.2258],[4.7249,7.1497,235.7888],[4.7456,7.1473,222.982],[4.7615,7.141,226.5422],[4.763,7.1343,254.454],[4.7696,7.131,247.637],[4.7862,7.1272,260.5471],[4.8199,7.0983,241.5469],[4.8332,7.0914,254.1147],[4.85,7.0892,270.6446],[4.8625,7.0909,248.5998],[4.8707,7.0997,242.2028],[4.8727,7.1112,238.4965],[4.869,7.1376,272.2225],[4.8756,7.1716,258.3021],[4.8695,7.2114,235.2575],[4.8681,7.2359,251.4535],[4.8775,7.2604,327.4144],[4.878,7.283,251.9679],[4.8836,7.2993,266.3381],[4.8933,7.3413,277.4949],[4.9068,7.3506,348.8426],[4.9706,7.3693,330.6144],[4.9924,7.3717,324.2868],[5.0015,7.3762,308.9878],[4.9993,7.4,338.7295],[4.978,7.4423,348.2908],[4.9728,7.4618,389.6092],[4.9693,7.4902,436.4542],[4.9317,7.5758,423.1654],[4.9185,7.6021,664.7786],[4.9073,7.6791,473.0848],[4.9221,7.7222,476.1808],[4.9266,7.7433,475.1672],[4.9134,7.7885,549.6168],[4.9154,7.8111,514.5174],[4.9235,7.8283,394.5102],[4.9311,7.8535,475.0276],[4.9461,7.8796,380.8099],[4.9723,7.9038,493.3434],[4.9914,7.9141,496.0988],[5.0074,7.9189,519.444],[5.0252,7.9315,498.3383],[5.0397,7.9453,530.9072],[5.0462,7.9607,572.7114],[5.0498,7.9819,569.4726],[5.0644,8.028,576.4841],[5.0636,8.0372,564.1479],[5.0578,8.0394,576.1439],[5.0309,8.0265,535.1492],[5.0041,8.0283,624.9315],[4.9745,8.0244,533.6589],[4.9617,8.0463,521.377],[4.9506,8.0754,483.4651],[4.9376,8.0823,453.0318],[4.9216,8.0828,468.716],[4.9154,8.0847,467.6182],[4.892,8.0805,491.9987],[4.8597,8.0651,460.6256],[4.8388,8.0574,431.4368],[4.8162,8.0574,451.5653],[4.8001,8.0646,457.075],[4.7961,8.0635,450.0073],[4.7974,8.0494,439.0468],[4.7954,8.053,436.2209],[4.7944,8.063,436.0123],[4.7885,8.0615,429.8844],[4.7658,8.0536,404.4072],[4.7525,8.0437,441.0201],[4.7313,8.0357,399.6947],[4.6892,8.0307,375.0534],[4.6645,8.0309,388.5514],[4.6514,8.0355,381.5944],[4.62,8.0362,364.4627],[4.5969,8.0336,396.0934],[4.5737,8.0377,384.7527],[4.5556,8.0342,389.2986],[4.5589,8.0214,365.5141],[4.56,8.0052,361.452],[4.563,7.9948,338.7729],[4.5642,7.9828,343.1016],[4.5593,7.9621,353.0155],[4.55,7.9547,327.9924],[4.5485,7.948,341.6711],[4.5432,7.9405,356.8112],[4.5391,7.9466,334.0916],[4.5132,7.9361,355.4974],[4.5023,7.9344,354.3714],[4.4885,7.9268,357.7903],[4.4726,7.91,395.3888],[4.4681,7.9163,394.6286],[4.4612,7.9086,388.0664],[4.4522,7.894,518.4023],[4.4428,7.8884,355.1323],[4.4413,7.8926,381.1615],[4.4191,7.8752,345.6893],[4.4086,7.8523,362.8657],[4.3842,7.8428,333.9914],[4.3742,7.8372,330.48],[4.3653,7.845,330.6624],[4.3568,7.8636,333.834],[4.3384,7.895,366.2675],[4.3163,7.9268,370.848],[4.2902,7.942,365.7132],[4.2779,7.9516,406.5856],[4.2676,7.9564,459.1498],[4.2594,7.9517,391.3011],[4.2466,7.931,369.2259],[4.2222,7.903,334.9937],[4.2173,7.8985,332.8784],[4.2052,7.8938,317.5536],[4.2032,7.8842,317.2913],[4.2052,7.8666,295.6096],[4.203,7.8567,312.3763],[4.1984,7.8469,294.9052],[4.1905,7.8408,276.0896],[4.1773,7.8385,275.9103],[4.1628,7.8295,273.9437],[4.1529,7.8287,269.7751],[4.1101,7.838,264.6882],[4.0894,7.8453,282.367],[4.0835,7.8502,267.5562],[4.0737,7.8458,244.7786],[4.0684,7.8302,242.1441],[4.0683,7.7787,251.0632],[4.0699,7.7658,236.7142],[4.0687,7.7476,228.8377],[4.0624,7.7182,266.0776],[4.0598,7.6965,272.5581],[4.0471,7.6681,243.4439],[4.0286,7.6504,272.7099],[4.0353,7.6213,263.1344],[4.0582,7.601,244.0116],[4.0854,7.5837,235.6778],[4.1112,7.5478,207.3771],[4.1174,7.5299,217.3032],[4.1347,7.5051,220.7763],[4.1487,7.4973,186.9284],[4.1387,7.4225,177.3968],[4.1278,7.3894,175.3441],[4.1217,7.3566,160.5442],[4.1207,7.3229,151.5559],[4.1156,7.3061,156.9183],[4.1134,7.287,158.6237]]]]}
,"properties": {"GID_1": "NGA.30_1","GID_0": "NGA","country": "Nigeria","province": "Osun","VARNAME_1": "NA","NL_NAME_1": "NA","TYPE_1": "State","ENGTYPE_1": "State","CC_1": "NA","HASC_1": "NG.OS","ISO_1": "NG-OS","name": "Osun.province","area_km2": 9230.787,"hist_schema_id": "Elevation0-9000","hist_area_km2": {"50": 0.126,"75": 13.3,"100": 78.317,"125": 255.662,"150": 398.564,"175": 607.42,"200": 808.918,"225": 1004.695,"250": 1111.318,"275": 842.19,"300": 721.714,"325": 679.469,"350": 729.941,"375": 725.643,"400": 364.275,"425": 181.949,"450": 134.051,"475": 153.103,"500": 135.131,"525": 101.515,"550": 77.869,"575": 45.09,"600": 21.739,"625": 12.94,"650": 11.389,"675": 8.511,"700": 4.813,"725": 0.925,"750": 0.21}}}