{"type":"Feature","properties":{"GID_2":"NGA.32.3_1","GID_0":"NGA","country":"Nigeria","GID_1":"NGA.32_1","province":"Plateau","NL_NAME_1":"NA","county":"Bokkos","VARNAME_2":"NA","NL_NAME_2":"NA","TYPE_2":"LocalAuthority","ENGTYPE_2":"LocalAuthority","CC_2":"NA","HASC_2":"NA","name":"Bokkos.county"},
"geometry":{"type": "MultiPolygon","coordinates": [[[[8.66,9.2048,1110.2321],[8.6646,9.1957,1023.6859],[8.6781,9.1833,1221.4878],[8.6872,9.1783,1169.6644],[8.6987,9.1765,1228.4675],[8.7112,9.1787,1186.0007],[8.7264,9.1767,1172.3574],[8.7502,9.1688,1177.76],[8.7601,9.1629,1139.7832],[8.7645,9.1534,1081.7163],[8.7674,9.1364,1090.9811],[8.7689,9.1205,917.8477],[8.7666,9.1074,1025.9363],[8.7702,9.0911,1176.3037],[8.7759,9.079,1055.3051],[8.8013,9.0364,291.0339],[8.8178,9.0283,320.392],[8.824,9.0273,302.4691],[8.8362,9.0206,518.4485],[8.8599,9.0203,511.0416],[8.8811,9.0181,574.9357],[8.9108,9.0123,376.6423],[8.9222,9.0116,691.7174],[8.9511,9.0135,849.9724],[8.982,9.0117,792.1182],[8.9819,9.0154,832.6832],[8.9849,9.0173,865.9694],[9.0118,9.0302,776.2909],[9.0267,9.0333,759.913],[9.0436,9.0242,454.632],[9.0552,9.0122,373.8166],[9.0593,9.0212,394.1114],[9.0716,9.0375,410.8016],[9.088,9.0518,438.6404],[9.0842,9.0616,470.35],[9.0891,9.0659,632.4029],[9.0895,9.0699,655.2803],[9.0899,9.0666,632.4029],[9.0951,9.0711,798.8574],[9.0917,9.0961,673.829],[9.0896,9.1355,1014.7678],[9.082,9.1643,1151.0173],[9.0812,9.1871,1152.9268],[9.0667,9.2568,1289.2491],[9.0317,9.3346,1336.5867],[9.0247,9.3575,1330.7626],[9.0101,9.393,1321.4889],[9.0036,9.4048,1350.6384],[8.995,9.4152,1348.9399],[8.9779,9.4288,1334.0291],[8.9733,9.428,1342.3809],[8.9696,9.4234,1336.3672],[8.9389,9.4153,1372.4128],[8.9263,9.4093,1370.4001],[8.8494,9.4014,1347.3005],[8.8263,9.3921,1273.504],[8.8172,9.3839,1288.4243],[8.7994,9.3737,1314.5336],[8.7939,9.3635,1320.605],[8.7535,9.3449,1338.2722],[8.7459,9.3369,1327.9097],[8.7145,9.3284,1194.8489],[8.6864,9.3167,1123.7084],[8.6901,9.2886,990.4434],[8.687,9.2681,911.8953],[8.6793,9.2498,1356.386],[8.668,9.231,1060.2252],[8.6612,9.2124,1250.8237],[8.66,9.2048,1110.2321]]]]}}