{"type": "Feature","bbox": [9.9514,11.2289,10.2544,11.6026],"geometry": {"type": "MultiPolygon","coordinates": [[[[10.2155,11.5818,429.3801],[10.2028,11.5864,419.0625],[10.1912,11.5974,414.0732],[10.1694,11.6026,419.8397],[10.1583,11.6,411.6437],[10.1321,11.5589,405.9576],[10.1223,11.5611,410.7131],[10.0925,11.5733,409.0281],[10.081,11.5859,399.0005],[10.0595,11.5944,400.4854],[10.0388,11.5977,398.3714],[10.0268,11.59,400.7067],[10.0157,11.5731,402.0245],[10.0005,11.5449,400.7538],[9.9787,11.5228,404.5043],[9.9641,11.5032,405.5785],[9.9648,11.4894,409.2853],[9.9589,11.4604,403.8518],[9.973,11.4132,413.1275],[9.9791,11.3981,426.4658],[9.9858,11.3881,431.3588],[9.9774,11.3695,426.8914],[9.9774,11.3566,418.4944],[9.962,11.3476,422.766],[9.9599,11.3312,431.4072],[9.9514,11.318,429.2978],[9.9902,11.2662,492.3279],[10.0386,11.2368,463.1301],[10.0895,11.2325,462.7087],[10.113,11.2289,446.1699],[10.1746,11.3751,471.4149],[10.1929,11.3919,461.0392],[10.2224,11.4067,467.0106],[10.2388,11.421,452.0732],[10.2477,11.4322,441.7517],[10.2544,11.4558,443.4363],[10.2439,11.4787,436.7296],[10.2319,11.4812,442.1155],[10.2261,11.4884,434.0673],[10.2247,11.508,429.6123],[10.2173,11.5319,416.9915],[10.2178,11.5503,411.0674],[10.215,11.5653,421.4476],[10.2155,11.5818,429.3801]]]]}
,"properties": {"GID_2": "NGA.5.16_1","GID_0": "NGA","country": "Nigeria","GID_1": "NGA.5_1","province": "Bauchi","NL_NAME_1": "NA","county": "Shira","VARNAME_2": "NA","NL_NAME_2": "NA","TYPE_2": "LocalAuthority","ENGTYPE_2": "LocalAuthority","CC_2": "NA","HASC_2": "NA","name": "Shira.county","area_km2": 908.8158,"hist_schema_id": "Elevation0-9000","hist_area_km2": {"400": 178.7066,"425": 344.4652,"450": 305.6146,"475": 70.1173,"500": 5.403,"525": 1.8493,"550": 1.3091,"575": 0.852,"600": 0.3948,"625": 0.1039}}}