{"type":"Feature","properties":{"GID_1":"NGA.12_1","GID_0":"NGA","country":"Nigeria","province":"Edo","VARNAME_1":"NA","NL_NAME_1":"NA","TYPE_1":"State","ENGTYPE_1":"State","CC_1":"NA","HASC_1":"NG.ED","ISO_1":"NG-ED","name":"Edo.province"},
"geometry":{"type": "MultiPolygon","coordinates": [[[[5.6633,6.04,16.0193],[5.6721,6.0283,28.1657],[5.6988,6.0191,30.1916],[5.7233,6.008,26.674],[5.7988,5.9657,33.5142],[5.8133,5.9486,27.5867],[5.8248,5.9323,31.7237],[5.8311,5.9199,26.6029],[5.8692,5.8941,29.7793],[5.8942,5.8819,33.9547],[5.9018,5.8684,33.2818],[5.8948,5.8485,27.7755],[5.882,5.8245,20.0043],[5.8742,5.8165,18.1678],[5.8689,5.8032,12.037],[5.8948,5.7772,13.561],[5.8874,5.7626,8.8958],[5.8835,5.7481,6.2461],[5.8933,5.7419,10.4537],[5.918,5.739,8.4449],[6.0025,5.7557,17.1385],[6.0318,5.7654,16.8607],[6.0766,5.7976,10.5081],[6.0967,5.8287,24.9163],[6.1137,5.8473,29.9509],[6.1345,5.8642,33.1067],[6.1634,5.8801,35.4298],[6.1717,5.8924,32.6669],[6.1897,5.9069,33.6707],[6.1916,5.9129,35.1874],[6.2146,5.9378,38.0704],[6.2107,5.9368,38.4659],[6.2259,5.9902,52.8294],[6.2245,6.0053,59.4802],[6.2212,6.0185,113.1166],[6.2059,6.027,144.4126],[6.1958,6.0272,140.6215],[6.1852,6.0315,138.8263],[6.1755,6.0437,139.0382],[6.1668,6.0515,138.3658],[6.1549,6.0551,131.9024],[6.1232,6.0942,98.835],[6.0904,6.1522,135.2272],[6.088,6.1744,135.3408],[6.089,6.191,134.0315],[6.0874,6.2095,149.1841],[6.0817,6.2301,150.0403],[6.0582,6.2432,145.0962],[6.0517,6.2553,141.6074],[6.0515,6.2705,147.9144],[6.0541,6.2935,101.4909],[6.0635,6.3183,51.1466],[6.0685,6.3263,73.1822],[6.0831,6.3429,141.9238],[6.0973,6.3519,110.4326],[6.1063,6.3533,74.7161],[6.1243,6.3468,93.8955],[6.1405,6.3401,128.022],[6.1822,6.2764,165.7202],[6.1926,6.2771,112.5539],[6.2103,6.2992,184.815],[6.2241,6.313,168.3905],[6.2355,6.3318,180.8583],[6.2428,6.3392,165.944],[6.2578,6.3503,138.9704],[6.3461,6.3889,218.2848],[6.3547,6.3904,227.7466],[6.3765,6.4004,250.5284],[6.4174,6.4281,186.7498],[6.4467,6.44,189.6298],[6.4635,6.4511,140.8269],[6.4827,6.4678,89.7404],[6.5088,6.483,62.3032],[6.5267,6.4899,44.2184],[6.5394,6.4927,42.3735],[6.569,6.4961,36.6781],[6.5884,6.4958,40.4543],[6.622,6.4867,35.8298],[6.6352,6.4899,28.7478],[6.6461,6.4971,26.819],[6.6655,6.5228,17.0],[6.6629,6.5337,17.5],[6.664,6.5448,17.5],[6.6556,6.5841,29.7862],[6.6546,6.6031,21.3217],[6.6477,6.6249,26.8751],[6.6342,6.6422,26.016],[6.6249,6.6573,26.7077],[6.6233,6.6687,28.4346],[6.6158,6.6803,28.0344],[6.6106,6.6993,18.0],[6.6131,6.727,23.7663],[6.6169,6.746,26.5739],[6.622,6.7586,25.4031],[6.6221,6.7695,26.7717],[6.6257,6.7883,21.0],[6.6208,6.7993,21.0],[6.6125,6.8043,32.7086],[6.605,6.8231,21.4225],[6.6211,6.8461,23.0081],[6.6273,6.8635,21.5],[6.6399,6.8804,21.5],[6.6468,6.8953,21.5],[6.6507,6.9118,21.5],[6.6566,6.9168,25.7526],[6.6707,6.9583,28.7401],[6.6733,6.9933,27.0],[6.6697,7.0254,32.3297],[6.6814,7.0497,27.0],[6.6844,7.0642,27.0799],[6.6958,7.0889,27.0],[6.6963,7.1027,45.8437],[6.701,7.12,39.8661],[6.697,7.1477,55.2055],[6.6984,7.1749,27.0],[6.6907,7.1854,34.6805],[6.6858,7.2074,31.5939],[6.6623,7.2249,35.6729],[6.6564,7.2358,61.8637],[6.6559,7.2481,63.1318],[6.6533,7.259,97.6779],[6.6251,7.2818,153.389],[6.6181,7.2785,157.8891],[6.595,7.2752,231.8576],[6.5889,7.2695,126.3681],[6.5801,7.2676,226.4362],[6.5714,7.2592,234.1144],[6.5643,7.2653,266.5402],[6.5307,7.2551,77.5939],[6.5112,7.2508,289.8362],[6.5038,7.2518,255.3604],[6.4932,7.2781,156.0237],[6.4979,7.2815,156.2321],[6.497,7.2863,323.748],[6.4851,7.2953,173.1782],[6.4773,7.3233,158.4958],[6.4708,7.3248,245.2653],[6.4636,7.3333,338.872],[6.4625,7.3529,140.7377],[6.4564,7.3576,151.487],[6.4542,7.368,164.8554],[6.4495,7.3732,179.2381],[6.4453,7.3852,171.1355],[6.43,7.3839,173.7023],[6.4102,7.3851,170.2968],[6.404,7.3878,169.5009],[6.3963,7.3863,176.5885],[6.3921,7.3795,178.9191],[6.3829,7.3805,192.7276],[6.3555,7.3764,213.2198],[6.3464,7.3809,283.3343],[6.3398,7.3898,320.7261],[6.3327,7.404,231.0173],[6.3238,7.4125,239.4534],[6.315,7.4115,216.6447],[6.3137,7.417,349.1213],[6.2946,7.4342,218.1965],[6.2842,7.433,229.4525],[6.2661,7.4575,268.7644],[6.2641,7.4633,241.5192],[6.2589,7.4669,238.2909],[6.2435,7.4565,498.285],[6.2337,7.453,459.6255],[6.2248,7.4467,500.5012],[6.1984,7.4384,389.3568],[6.1661,7.4251,328.7393],[6.163,7.4196,319.5674],[6.1458,7.4266,314.419],[6.1363,7.4253,309.835],[6.1285,7.4282,315.3323],[6.1233,7.4334,319.3253],[6.1112,7.4408,342.417],[6.1066,7.4577,354.5392],[6.1066,7.475,394.634],[6.1103,7.4888,389.7544],[6.1258,7.5187,373.5501],[6.1259,7.5243,392.0886],[6.1214,7.5315,378.0787],[6.1024,7.526,395.0322],[6.0862,7.5275,381.9374],[6.0788,7.538,400.2802],[6.085,7.5524,407.9326],[6.0846,7.5568,399.6915],[6.0804,7.5633,391.6226],[6.0691,7.5691,366.1221],[6.0409,7.5631,315.8232],[6.0284,7.5734,347.7229],[6.0174,7.5559,330.8186],[6.0055,7.5464,345.9636],[6.0021,7.5368,312.8543],[5.9889,7.5171,314.6322],[5.9826,7.5124,306.821],[5.9777,7.5109,329.5118],[5.9744,7.5075,356.5767],[5.955,7.5073,288.9106],[5.9493,7.5097,293.3764],[5.946,7.5075,301.1523],[5.9434,7.5011,322.1866],[5.9312,7.4888,340.1119],[5.9264,7.482,358.8143],[5.9235,7.4597,328.0562],[5.93,7.4462,318.2593],[5.9337,7.4454,317.2843],[5.9387,7.44,321.9397],[5.9578,7.4374,317.0911],[5.9626,7.4329,296.9503],[5.9617,7.4237,295.8671],[5.9577,7.4143,289.5789],[5.953,7.4102,283.9728],[5.9489,7.399,303.4575],[5.9484,7.3863,307.6471],[5.9504,7.3775,302.5692],[5.9595,7.3561,328.0399],[5.961,7.3462,305.4593],[5.9678,7.3417,275.7751],[5.9607,7.3321,260.4541],[5.9528,7.299,264.7319],[5.9447,7.2847,220.1909],[5.935,7.2816,234.2344],[5.92,7.2717,215.2951],[5.9101,7.2677,191.591],[5.9035,7.2604,203.6672],[5.8967,7.2562,212.6053],[5.8816,7.2382,240.405],[5.874,7.2215,186.5492],[5.874,7.2086,223.3526],[5.8783,7.2048,199.4788],[5.8764,7.1991,183.2961],[5.865,7.1827,242.6774],[5.8599,7.1631,153.6629],[5.8396,7.1245,146.1454],[5.8323,7.1002,142.9103],[5.8269,7.0952,179.7741],[5.8243,7.0878,137.159],[5.8244,7.0821,128.1484],[5.8281,7.0806,133.2505],[5.8294,7.0744,124.9989],[5.8234,7.0606,133.6308],[5.8174,7.0617,112.0355],[5.7989,7.0488,161.1149],[5.7872,7.035,121.2446],[5.7845,7.0276,141.1321],[5.7789,7.0219,157.9053],[5.7787,7.0111,160.7934],[5.7754,7.0038,151.7119],[5.7696,6.9783,138.8487],[5.7697,6.9686,134.5832],[5.774,6.9653,151.883],[5.7689,6.9471,136.5425],[5.788,6.9265,72.7712],[5.7906,6.9191,79.9303],[5.7905,6.9132999999999996,156.0377],[5.7851,6.9083,149.063],[5.781,6.9079,125.4056],[5.7763,6.905,139.5467],[5.7761,6.8937,144.5997],[5.7785,6.8861,122.551],[5.7761,6.8787,106.2862],[5.7711,6.8832,123.3533],[5.7569,6.8869,138.6002],[5.7529,6.8828,130.088],[5.7476,6.8686,118.8519],[5.7375,6.8028,52.7234],[5.7329,6.7895,50.1745],[5.7212,6.7675,38.1695],[5.7131,6.7481,38.4995],[5.6794,6.7378,55.8431],[5.6698,6.7315,57.027],[5.6568,6.7373,51.3435],[5.6448,6.7545,39.1114],[5.6375,6.7611,36.7141],[5.6159,6.7631,36.8626],[5.6005,6.7541,35.6075],[5.5887,6.74,31.6579],[5.5798,6.7333,30.2359],[5.5731,6.7325,26.1285],[5.555,6.712,37.7101],[5.543,6.7115,33.2786],[5.539,6.7227,41.3836],[5.5307,6.736,42.5606],[5.5256,6.763,105.827],[5.5163,6.7761,112.9523],[5.5091,6.7998,101.7918],[5.514,6.8057,85.5584],[5.5337,6.8217,41.0283],[5.5396,6.8304,45.0662],[5.5416,6.8361,48.478],[5.5292,6.8564,98.5327],[5.5135,6.8698,126.6539],[5.487,6.8754,123.3707],[5.4747,6.8726,129.7105],[5.4338,6.8691,127.8185],[5.4146,6.8694,135.6032],[5.3937,6.8726,121.1338],[5.3713,6.872,124.7464],[5.3491,6.8735,118.7201],[5.3265,6.8709,114.3659],[5.2993,6.8767,129.7659],[5.2829,6.8751,144.9195],[5.2625,6.8706,152.3681],[5.2448,6.8716,161.2583],[5.2282,6.877,139.2201],[5.2031,6.868,131.3184],[5.1926,6.8608,161.2814],[5.1853,6.8482,135.9359],[5.1872,6.8262,87.5225],[5.1838,6.8166,92.3855],[5.1736,6.8133,85.623],[5.1684,6.8056,95.6477],[5.1613,6.7916,70.6337],[5.1556,6.7689,58.5343],[5.1389,6.7648,65.5052],[5.1277,6.756,80.7878],[5.1205,6.7393,56.3572],[5.1043,6.7264,63.7817],[5.0921,6.7132,22.1173],[5.0843,6.6977,60.4752],[5.0823,6.6742,65.5565],[5.084,6.6688,56.3641],[5.0821,6.6622,27.2681],[5.0858,6.6619,24.7855],[5.0755,6.6554,29.0244],[5.0728,6.6459,21.8614],[5.0754,6.6367,16.5154],[5.0723,6.613,17.1617],[5.0728,6.6,19.5136],[5.0927,6.5898,17.9255],[5.1004,6.5802,14.2259],[5.1032,6.5668,46.9528],[5.1152,6.5529,62.1781],[5.1245,6.5295,37.0295],[5.1187,6.5017,44.5614],[5.1053,6.4701,51.9525],[5.0771,6.4424,29.9114],[5.0736,6.4069,17.3397],[5.0635,6.3819,16.4933],[5.0344,6.3688,12.903],[5.025,6.3715,26.4733],[5.0159,6.368,22.0972],[5.0135,6.359,22.117],[5.0065,6.358,20.4541],[4.9992,6.3471,16.8226],[4.9971,6.3201,14.9976],[4.991,6.2994,13.5789],[4.9832,6.297,16.9759],[4.9782,6.2881,11.8879],[4.9827,6.2952,15.5962],[4.9786,6.2856,5.6701],[4.981,6.2782,3.8808],[4.9857,6.2709,5.0967],[4.997,6.27,4.2827],[5.0093,6.2583,5.4547],[5.0283,6.2481,7.733],[5.0323,6.2406,7.7267],[5.0387,6.2343,10.6067],[5.0502,6.2177,3.1564],[5.0503,6.208,8.7859],[5.055,6.2005,6.8921],[5.0737,6.2007,7.4431],[5.0802,6.199,7.8554],[5.0925,6.1916,6.9332],[5.1016,6.1822,8.7616],[5.1068,6.1729,10.2572],[5.1078,6.1643,12.2671],[5.1215,6.1456,13.3436],[5.1152,6.127,14.606],[5.2029,6.0817,14.153],[5.2149,6.0665,12.9366],[5.2298,6.0548,15.6857],[5.2326,6.045,17.3651],[5.2322,6.0316,8.7037],[5.2208,5.9843,14.5511],[5.2314,5.9431,14.5405],[5.2322,5.9031,19.1395],[5.259,5.9043,8.6067],[5.3027,5.9402,4.6678],[5.3251,5.9565,9.9157],[5.3335,5.9736,13.0756],[5.3191,5.999,8.3359],[5.3201,6.0156,13.2105],[5.3303,6.0205,13.8355],[5.3463,6.0255,13.5016],[5.3656,6.0171,12.3789],[5.3944,6.0139,7.0446],[5.4065,6.0181,12.4048],[5.4456,6.0248,14.0583],[5.4679,6.02,2.5618],[5.5046,5.988,3.1592],[5.5331,5.9815,17.211],[5.5435,5.9959,14.9893],[5.5459,6.0035,14.0795],[5.563,6.02,8.1005],[5.586,6.0265,16.1855],[5.5976,6.0326,14.7951],[5.6167,6.038,21.122],[5.6292,6.0445,18.0872],[5.6457,6.05,19.0143],[5.6537,6.0471,17.9053],[5.6633,6.04,16.0193]]]]}}