{"type": "Feature","id": "2861","bbox": [4.97926,5.74037,6.71941,7.57336],"geometry": {"type": "Polygon","coordinates": [[[6.04555,7.56414,318.1472],[6.0284,7.57336,347.7229],[6.01021,7.54274,324.0115],[5.98726,7.51572,327.5318],[5.97496,7.51011,338.5285],[5.94799,7.50352,306.8373],[5.93455,7.49215,323.0151],[5.92515,7.45727,320.326],[5.95481,7.43784,310.5837],[5.95998,7.42048,279.8762],[5.94882,7.39895,303.4575],[5.95295,7.36777,315.514],[5.95884,7.35376,323.0096],[5.96204,7.3317,274.515],[5.95274,7.29899,264.7319],[5.9391,7.28483,217.1771],[5.92277,7.27403,204.8445],[5.89838,7.25256,225.5882],[5.87657,7.22809,162.0831],[5.87554,7.21496,207.2722],[5.87833,7.20475,199.4788],[5.83234,7.10011,142.9103],[5.82665,7.07611,134.1696],[5.81291,7.05859,119.3998],[5.78614,7.03099,127.6003],[5.77353,6.99477,137.6332],[5.77126,6.95978,168.2452],[5.78562,6.9296,92.9622],[5.78914,6.91741,65.6862],[5.7849,6.90829,149.063],[5.78056,6.90612,120.1036],[5.77622,6.89932,126.3141],[5.77663,6.88382,123.9704],[5.75389,6.87839,137.0411],[5.74449,6.85317,93.09],[5.73291,6.78943,50.1745],[5.72764,6.7761,38.6321],[5.71358,6.75215,34.3558],[5.70273,6.7445,56.477],[5.68578,6.73897,48.4159],[5.65395,6.7462,39.1328],[5.64113,6.75778,39.4295],[5.61261,6.7599,32.416],[5.56321,6.72044,30.4682],[5.54099,6.71706,38.1673],[5.51473,6.78266,133.0543],[5.52466,6.81113,73.1503],[5.5415,6.83607,48.478],[5.49561,6.87229,123.7651],[5.21563,6.87242,155.1182],[5.19909,6.86472,137.2543],[5.1871,6.85139,125.9643],[5.18721,6.8262,87.5225],[5.17078,6.80452,100.4175],[5.15786,6.77744,78.0785],[5.1223,6.74344,69.1613],[5.09119,6.70525,75.7921],[5.07993,6.68435,87.7813],[5.076,6.65169,26.4294],[5.07249,6.63768,20.2979],[5.07249,6.60644,19.9719],[5.07734,6.59805,17.8734],[5.08603,6.59376,20.03],[5.10318,6.56671,46.9528],[5.12075,6.5141,28.6078],[5.09739,6.4616,46.7573],[5.08065,6.43651,39.3897],[5.07352,6.40687,17.3397],[5.05967,6.3824,13.7104],[5.03435,6.36878,12.903],[5.01223,6.36155,24.4768],[4.99859,6.34044,18.8463],[4.99363,6.31114,16.3244],[4.98743,6.29861,11.6169],[4.98112,6.29181,14.8617],[4.97926,6.28437,8.0913],[4.98474,6.2746,4.4829],[5.005,6.26293,4.1171],[5.02949,6.24236,7.2775],[5.05016,6.21763,3.1564],[5.05264,6.20422,10.3992],[5.06225,6.20066,5.9627],[5.07373,6.20063,7.4431],[5.08613,6.19497,7.4255],[5.09708,6.18686,7.7734],[5.11558,6.15825,14.1036],[5.11517,6.12691,14.606],[5.18504,6.09317,14.8387],[5.23237,6.03855,15.5914],[5.22318,5.97279,14.8401],[5.23134,5.9207,10.1448],[5.25108,5.90566,14.8086],[5.26875,5.91277,0.0],[5.32632,5.96238,15.2753],[5.32115,5.9954,9.1189],[5.33139,6.01979,13.3856],[5.39608,6.01651,7.0526],[5.42606,6.02136,14.7102],[5.46326,6.01855,7.0698],[5.50212,5.99095,2.8889],[5.52042,5.98431,12.2789],[5.53013,5.98214,9.3222],[5.53995,5.98997,17.2547],[5.54595,6.00341,14.0795],[5.60186,6.03749,17.4175],[5.66335,6.03994,16.0193],[5.77994,5.97684,28.6945],[5.83451,5.91755,25.5402],[5.86799,5.89941,33.9067],[5.89611,5.87838,32.4592],[5.89176,5.8415,25.3578],[5.87027,5.80662,14.1185],[5.87502,5.79528,10.3267],[5.88608,5.78538,10.0614],[5.89145,5.77381,12.4477],[5.88742,5.76249,8.8958],[5.88877,5.74624,8.0703],[5.90561,5.74037,17.4089],[5.92349,5.7411,9.0882],[6.02147,5.76195,19.0333],[6.07274,5.79879,20.0067],[6.11366,5.84724,29.9509],[6.16947,5.88918,31.5334],[6.21071,5.93669,38.4659],[6.22249,5.97457,53.8959],[6.22239,6.01354,94.807],[6.20906,6.02516,141.4918],[6.19045,6.02932,139.6196],[6.13051,6.08444,87.2058],[6.09992,6.13474,131.5845],[6.08803,6.17435,135.3408],[6.08493,6.20799,148.0367],[6.05279,6.26391,146.1372],[6.0561,6.29936,83.2928],[6.07026,6.32788,86.6471],[6.09361,6.34948,125.6773],[6.12772,6.34623,89.0519],[6.15294,6.32018,191.3453],[6.17319,6.28755,187.5491],[6.20131,6.28706,159.6676],[6.24275,6.3392,165.944],[6.26911,6.35563,146.8606],[6.36378,6.39455,215.7501],[6.48542,6.46738,108.1379],[6.54599,6.49332,44.9823],[6.58185,6.4941,44.1151],[6.6172,6.48782,34.9501],[6.64562,6.49738,26.819],[6.67673,6.53511,22.9755],[6.67673,6.54919,24.0737],[6.67477,6.56422,24.4802],[6.65472,6.62076,18.0],[6.65058,6.66324,18.0],[6.65503,6.79129,28.1973],[6.64924,6.84382,29.2756],[6.65037,6.86056,26.595],[6.66123,6.89955,22.8621],[6.68738,6.95516,27.0],[6.68934,6.96407,27.0],[6.68882,7.00815,31.4794],[6.68975,7.01843,29.8],[6.69833,7.04197,31.6644],[6.70319,7.09373,27.0],[6.71538,7.13042,27.0],[6.71941,7.14892,29.609],[6.71807,7.16835,27.0],[6.71538,7.17747,27.0],[6.69936,7.21189,27.0],[6.69719,7.22033,27.5],[6.67084,7.22834,36.4022],[6.6573,7.23625,61.8637],[6.65461,7.25346,82.3477],[6.64355,7.26739,96.049],[6.62836,7.27904,175.8815],[6.6018,7.27684,138.2031],[6.56118,7.25989,265.3275],[6.51116,7.25072,289.8362],[6.49783,7.26956,115.0001],[6.4939,7.2885,255.3314],[6.48067,7.30612,178.3871],[6.45804,7.36172,142.4846],[6.43271,7.38425,180.0626],[6.41184,7.38676,166.0408],[6.37411,7.3772,189.9587],[6.35096,7.37862,311.7897],[6.32254,7.41076,221.2721],[6.28936,7.43353,225.5912],[6.27479,7.44595,242.8539],[6.26415,7.46327,241.5192],[6.24461,7.45903,330.811],[6.22487,7.44663,500.5012],[6.17826,7.42769,411.033],[6.13237,7.42673,308.7328],[6.10767,7.46063,356.4623],[6.11862,7.50471,372.6571],[6.11108,7.52714,379.2733],[6.07873,7.53794,400.2802],[6.08255,7.55758,413.635],[6.06571,7.56838,352.0934],[6.04555,7.56414,318.1472]]]}
,"properties": {"ISO3166-1-Alpha-3": "NGA","country": "Nigeria","fill": "#00F","name": "Edo","area_km2": 19853.32,"hist_schema_id": "Elevation0-9000","hist_area_km2": {"0": 634.61,"25": 3601.71,"50": 2379.05,"75": 2261.29,"100": 2084.11,"125": 1729.47,"150": 1306.71,"175": 1022.5,"200": 890.86,"225": 785.69,"250": 666.11,"275": 596.15,"300": 530.0,"325": 385.96,"350": 323.63,"375": 245.73,"400": 140.39,"425": 75.28,"450": 62.73,"475": 54.69,"500": 34.7,"525": 19.66,"550": 12.49,"575": 5.93,"600": 2.48,"625": 0.8,"650": 0.44}}}