{"type":"Feature","properties":{"GID_2":"NGA.20.12_1","GID_0":"NGA","country":"Nigeria","GID_1":"NGA.20_1","province":"Kano","NL_NAME_1":"NA","county":"Fagge","VARNAME_2":"NA","NL_NAME_2":"NA","TYPE_2":"LocalAuthority","ENGTYPE_2":"LocalAuthority","CC_2":"NA","HASC_2":"NA","name":"Fagge.county"},
"geometry":{"type": "MultiPolygon","coordinates": [[[[8.5661,12.0114,477.2757],[8.5499,12.014099999999999,474.9376],[8.5405,12.0081,481.1454],[8.5364,12.0011,480.4955],[8.5308,11.9965,478.532],[8.5263,11.9867,487.2916],[8.5275,11.9719,476.8224],[8.5324,11.9719,476.3325],[8.5319,11.9636,477.5782],[8.5381,11.9595,475.5838],[8.5622,11.9612,475.386],[8.5715,11.9662,485.5899],[8.5776,11.9663,486.3893],[8.5779,11.9752,485.7995],[8.5814,11.9785,481.7539],[8.5808,11.9882,476.1639],[8.5781,11.9921,472.6656],[8.5777,12.0009,474.7596],[8.5698,12.0064,476.9862],[8.5661,12.0114,477.2757]]]]}}