{"type": "Feature","bbox": [5.3457,6.5275,7.8815,8.7255],"geometry": {"type": "MultiPolygon","coordinates": [[[[6.8843,6.7459,27.148],[6.9003,6.7652,26.7984],[6.9057,6.7753,31.4791],[6.9072,6.7824,33.4243],[6.9169,6.7919,32.1919],[6.9222,6.805,26.0951],[6.9319,6.8219,29.2472],[6.9433,6.8533,30.3208],[6.95,6.8571,27.6332],[6.9647,6.8529,31.5111],[6.9684,6.8465,32.7613],[6.9691,6.8395,26.9001],[6.9676,6.8162,37.5869],[6.9796,6.8154,42.8102],[6.9804,6.8107,41.1944],[6.99,6.8024,35.5471],[7.001,6.7829,42.9665],[7.0122,6.7774,45.2779],[7.021,6.7784,54.1513],[7.0322,6.7828,47.1797],[7.049,6.7991,54.4543],[7.0719,6.8248,87.0666],[7.0816,6.8396,102.1064],[7.1087,6.8634,107.4531],[7.1125,6.8698,115.3524],[7.1602,6.9036,125.6685],[7.1839,6.9143,162.8442],[7.2091,6.932,175.8504],[7.216,6.9437,164.588],[7.2265,6.9518,199.6051],[7.2599,6.9909,173.7316],[7.2705,7.0009,233.3996],[7.2752,7.0071,251.2098],[7.2788,7.0153,232.7939],[7.2981,7.0408,210.3771],[7.3089,7.0519,208.1686],[7.3484,7.0665,307.9964],[7.3777,7.0937,209.7383],[7.3829,7.1005,272.9842],[7.4364,7.1127,275.9545],[7.4451,7.1073,302.6169],[7.4511,7.1072,319.4937],[7.4688,7.099,377.0651],[7.4757,7.1005,391.0205],[7.4948,7.0788,374.1479],[7.4937,7.0745,359.9587],[7.4977,7.0757,371.0652],[7.4989,7.082,379.5131],[7.5004,7.0826,388.0552],[7.5138,7.0731,384.1717],[7.5365,7.0494,399.4534],[7.555,7.0357,421.136],[7.5684,7.02,416.8214],[7.5816,7.0217,402.9377],[7.6035,7.0047,379.8473],[7.6319,7.0047,317.1117],[7.6392,7.0424,411.9828],[7.6374,7.0761,421.7095],[7.6528,7.0994,431.1131],[7.7361,7.1383,252.3935],[7.7568,7.1497,211.7869],[7.7855,7.1711,178.6797],[7.8102,7.1998,167.5416],[7.8208,7.2248,206.1658],[7.8415,7.2938,169.2332],[7.8483,7.3572,231.789],[7.8558,7.378,242.8874],[7.8758,7.3975,240.2892],[7.8815,7.4267,249.3428],[7.8576,7.4343,240.5277],[7.8234,7.4282,254.7539],[7.8042,7.4292,270.6556],[7.7837,7.4462,266.8533],[7.7637,7.5353,281.7498],[7.7622,7.5695,283.2618],[7.7574,7.6035,187.7178],[7.7544,7.6451,203.5321],[7.7576,7.6868,217.3375],[7.7579,7.7211,215.5992],[7.7543,7.7563,159.8929],[7.7426,7.786,178.8994],[7.7234,7.8025,193.9532],[7.6989,7.828,243.3369],[7.6686,7.88,256.5203],[7.6631,7.9126,149.8018],[7.6651,7.9502,113.6324],[7.6597,7.9745,99.3432],[7.6609,8.004,69.0095],[7.665,8.0202,44.9205],[7.6178,8.0223,51.3003],[7.5405,8.0294,56.1007],[7.5083,8.0373,49.1793],[7.4828,8.0403,49.2858],[7.4537,8.0396,55.4056],[7.3685,8.0291,46.7343],[7.3321,8.0175,46.7428],[7.2635,8.0013,46.9406],[7.2357,7.9963,44.5809],[7.1881,7.9823,42.0],[7.1682,7.9748,42.0],[7.1156,7.9499,43.5385],[7.0847,7.9382,47.2537],[7.0656,7.9274,44.2363],[7.0187,7.9093,42.0],[6.9977,7.8981,42.0],[6.9656,7.8675,43.7665],[6.9498,7.8618,41.5],[6.9386,7.8708,41.5],[6.9372,7.8945,44.2142],[6.9414,7.9309,65.6856],[6.9552,7.9651,85.0484],[6.9812,7.9921,110.9377],[6.9832,8.0426,141.0018],[6.9817,8.0675,116.172],[7.0007,8.1433,263.2347],[6.9974,8.1627,140.3233],[7.0004,8.1779,143.4032],[7.0004,8.1948,248.606],[6.991,8.2118,196.5589],[6.9931,8.2272,197.6313],[6.9919,8.2427,230.432],[6.9779,8.2604,237.7956],[6.9754,8.2609,234.216],[6.9719,8.273,245.3455],[6.9566,8.2855,200.1239],[6.9494,8.2964,149.4869],[6.9479,8.305,153.397],[6.9434,8.3127,149.3986],[6.9434,8.3265,88.6788],[6.96,8.3514,144.0977],[6.9684,8.3693,164.9744],[6.9782,8.4118,217.5898],[6.9649,8.4104,230.0744],[6.9555,8.4043,223.2778],[6.9239,8.4044,170.9614],[6.8963,8.4088,149.3456],[6.8826,8.4072,128.0405],[6.8743,8.4043,119.0063],[6.8349,8.4068,70.2723],[6.8342,8.3985,68.3101],[6.8272,8.3779,108.6444],[6.8218,8.3701,69.7929],[6.8169,8.3545,52.2403],[6.7924,8.3393,100.0765],[6.7898,8.3382,131.607],[6.7864,8.3403,97.3266],[6.7839,8.3394,111.6537],[6.7592,8.3265,136.5226],[6.7556,8.3164,73.0242],[6.7582,8.2787,90.2421],[6.7508,8.2772,147.8004],[6.7463,8.2835,156.0612],[6.7348,8.2913,122.564],[6.7318,8.2872,63.9101],[6.7117,8.2465,45.1063],[6.7073,8.2148,45.6154],[6.7017,8.2001,45.5265],[6.6963,8.1944,44.759],[6.6874,8.198,41.5],[6.6701,8.1983,49.8682],[6.6545,8.2076,52.3184],[6.6262,8.2392,90.9912],[6.6108,8.2577,125.3108],[6.5903,8.2903,46.8488],[6.5378,8.3563,51.3774],[6.513,8.3779,48.7386],[6.5017,8.3926,49.7288],[6.4939,8.3995,48.1093],[6.4557,8.4209,50.374],[6.434,8.4365,49.7918],[6.4315,8.4485,50.2191],[6.4153,8.4929,51.9931],[6.4044,8.5321,52.1296],[6.396,8.5537,51.4796],[6.3928,8.5692,50.8804],[6.389,8.578,51.9606],[6.3824,8.5843,52.0504],[6.3791,8.5945,50.5582],[6.3705,8.6046,54.2649],[6.3482,8.6387,53.3509],[6.3384,8.6492,53.9795],[6.3161,8.6687,57.3209],[6.3073,8.68,53.8748],[6.2913,8.6909,55.534],[6.2757,8.699,56.2051],[6.2613,8.7096,56.4499],[6.2357,8.7204,57.4783],[6.2239,8.7236,58.7049],[6.2109,8.7255,54.7411],[6.1942,8.6964,56.8293],[6.1843,8.686,64.078],[6.1759,8.6799,60.6712],[6.1712,8.6717,62.9287],[6.1621,8.6375,92.9538],[6.1417,8.5778,78.8084],[6.1338,8.5464,99.3558],[6.1317,8.5277,143.1196],[6.1328,8.5095,178.1113],[6.1278,8.4761,228.3113],[6.1216,8.4635,242.2594],[6.1236,8.442,263.7339],[6.1179,8.4336,267.0099],[6.1151,8.432,315.9684],[6.1097,8.4095,205.522],[6.1013,8.3933,202.4797],[6.0981,8.3816,183.3706],[6.0655,8.3747,290.4435],[6.0493,8.3734,277.6428],[6.0114,8.3833,247.1947],[5.9598,8.3911,202.6035],[5.9474,8.398,212.6297],[5.9124,8.3997,226.8169],[5.8841,8.396,189.5315],[5.8754,8.3971,183.5088],[5.8644,8.4058,197.1082],[5.8497,8.407,200.0315],[5.7898,8.4037,225.5863],[5.7737,8.4072,226.0128],[5.7588,8.4159,228.8796],[5.7453,8.421,234.7431],[5.7155,8.4224,199.1799],[5.7021,8.4305,234.9169],[5.6611,8.4411,194.5556],[5.6337,8.4552,179.3562],[5.6167,8.4608,201.1367],[5.5751,8.4899,242.6027],[5.5563,8.511,247.6935],[5.5543,8.5186,238.8763],[5.5448,8.5313,243.0181],[5.5433,8.5384,244.6508],[5.5381,8.5413,259.345],[5.5227,8.5353,282.5276],[5.4963,8.5125,285.1156],[5.48,8.5044,283.7902],[5.4712,8.4901,288.6219],[5.4443,8.4661,296.1859],[5.4201,8.4395,291.3031],[5.383,8.3764,294.3573],[5.3485,8.3374,224.8376],[5.3457,8.3215,259.8011],[5.3704,8.2775,315.5795],[5.3768,8.2619,291.9438],[5.3926,8.2411,308.2281],[5.4156,8.2225,292.8997],[5.4147,8.2199,279.7869],[5.4169,8.2118,282.1438],[5.4303,8.1992,306.701],[5.4559,8.1826,354.8782],[5.458,8.1731,331.5836],[5.4726,8.1634,348.1442],[5.497,8.1542,357.3682],[5.5168,8.1391,377.8388],[5.5349,8.1316,339.7289],[5.5415,8.1223,306.4865],[5.5482,8.0929,320.1072],[5.5447,8.077,329.9335],[5.5348,8.0686,324.4158],[5.5184,8.0629,338.696],[5.5196,8.0546,345.9396],[5.5173,8.0226,422.4407],[5.5179,7.9939,401.4113],[5.5218,7.99,393.6784],[5.5268,7.9866,394.025],[5.5289,7.9871,399.408],[5.5376,7.9957,402.6166],[5.5606,8.0073,384.8116],[5.5792,8.0134,384.4113],[5.6262,8.0198,368.7311],[5.641,8.0207,377.8539],[5.6635,8.0155,358.5198],[5.6726,8.0042,362.0872],[5.6742,7.9911,365.4134],[5.6681,7.9822,354.9681],[5.6464,7.9719,416.1271],[5.6361,7.9599,419.1482],[5.6291,7.9448,480.6294],[5.6219,7.9393,456.7293],[5.6094,7.9234,467.9532],[5.6081,7.8983,513.4266],[5.6158,7.8795,510.2479],[5.6172,7.861,501.3365],[5.6209,7.8503,494.3902],[5.6295,7.8379,510.0669],[5.639,7.8281,510.7103],[5.6507,7.8224,503.4641],[5.656,7.8209,479.8242],[5.6687,7.8234,524.7185],[5.6715,7.822,521.8622],[5.7013,7.7947,542.6664],[5.7094,7.7946,532.6866],[5.7195,7.7916,518.462],[5.7431,7.7795,538.1578],[5.7498,7.7801,522.3209],[5.7633,7.7771,527.7672],[5.8016,7.7575,521.2953],[5.817,7.7554,512.2026],[5.8508,7.7633,498.9342],[5.8682,7.7651,438.0151],[5.8766,7.7689,416.5986],[5.8861,7.7704,417.0478],[5.9094,7.7695,415.2092],[5.9204,7.7672,453.3458],[5.9266,7.7634,433.9243],[5.9228,7.7563,424.8542],[5.9193,7.7255,372.2022],[5.9159,7.7179,370.0247],[5.9151,7.6967,371.1469],[5.9318,7.6736,395.5724],[5.9423,7.6635,390.9422],[5.9481,7.6533,362.5589],[5.9597,7.6427,357.6031],[5.9803,7.6285,353.1788],[6.0198,7.5907,367.6433],[6.0246,7.586,354.0714],[6.0225,7.5844,362.0225],[6.0292,7.5718,338.0764],[6.0409,7.5631,315.8232],[6.0691,7.5691,366.1221],[6.0804,7.5633,391.6226],[6.0846,7.5568,399.6915],[6.085,7.5524,407.9326],[6.0788,7.538,400.2802],[6.0862,7.5275,381.9374],[6.1024,7.526,395.0322],[6.1214,7.5315,378.0787],[6.1259,7.5243,392.0886],[6.1258,7.5187,373.5501],[6.1103,7.4888,389.7544],[6.1066,7.475,394.634],[6.1066,7.4577,354.5392],[6.1112,7.4408,342.417],[6.1233,7.4334,319.3253],[6.1285,7.4282,315.3323],[6.1363,7.4253,309.835],[6.1458,7.4266,314.419],[6.163,7.4196,319.5674],[6.1661,7.4251,328.7393],[6.1984,7.4384,389.3568],[6.2248,7.4467,500.5012],[6.2337,7.453,459.6255],[6.2435,7.4565,498.285],[6.2589,7.4669,238.2909],[6.2641,7.4633,241.5192],[6.2661,7.4575,268.7644],[6.2842,7.433,229.4525],[6.2946,7.4342,218.1965],[6.3137,7.417,349.1213],[6.315,7.4115,216.6447],[6.3238,7.4125,239.4534],[6.3327,7.404,231.0173],[6.3398,7.3898,320.7261],[6.3464,7.3809,283.3343],[6.3555,7.3764,213.2198],[6.3829,7.3805,192.7276],[6.3921,7.3795,178.9191],[6.3963,7.3863,176.5885],[6.404,7.3878,169.5009],[6.4102,7.3851,170.2968],[6.43,7.3839,173.7023],[6.4453,7.3852,171.1355],[6.4495,7.3732,179.2381],[6.4542,7.368,164.8554],[6.4564,7.3576,151.487],[6.4625,7.3529,140.7377],[6.4636,7.3333,338.872],[6.4708,7.3248,245.2653],[6.4773,7.3233,158.4958],[6.4851,7.2953,173.1782],[6.497,7.2863,323.748],[6.4979,7.2815,156.2321],[6.4932,7.2781,156.0237],[6.5038,7.2518,255.3604],[6.5112,7.2508,289.8362],[6.5307,7.2551,77.5939],[6.5643,7.2653,266.5402],[6.5714,7.2592,234.1144],[6.5801,7.2676,226.4362],[6.5889,7.2695,126.3681],[6.595,7.2752,231.8576],[6.6181,7.2785,157.8891],[6.6251,7.2818,153.389],[6.6533,7.259,97.6779],[6.6559,7.2481,63.1318],[6.6564,7.2358,61.8637],[6.6623,7.2249,35.6729],[6.6858,7.2074,31.5939],[6.6907,7.1854,34.6805],[6.6984,7.1749,27.0],[6.697,7.1477,55.2055],[6.701,7.12,39.8661],[6.6963,7.1027,45.8437],[6.6958,7.0889,27.0],[6.6844,7.0642,27.0799],[6.6814,7.0497,27.0],[6.6697,7.0254,32.3297],[6.6733,6.9933,27.0],[6.6707,6.9583,28.7401],[6.6566,6.9168,25.7526],[6.6507,6.9118,21.5],[6.6468,6.8953,21.5],[6.6399,6.8804,21.5],[6.6273,6.8635,21.5],[6.6211,6.8461,23.0081],[6.605,6.8231,21.4225],[6.6125,6.8043,32.7086],[6.6208,6.7993,21.0],[6.6257,6.7883,21.0],[6.6221,6.7695,26.7717],[6.622,6.7586,25.4031],[6.6169,6.746,26.5739],[6.6131,6.727,23.7663],[6.6106,6.6993,18.0],[6.6158,6.6803,28.0344],[6.6233,6.6687,28.4346],[6.6249,6.6573,26.7077],[6.6342,6.6422,26.016],[6.6477,6.6249,26.8751],[6.6546,6.6031,21.3217],[6.6556,6.5841,29.7862],[6.664,6.5448,17.5],[6.6629,6.5337,17.5],[6.6644,6.5275,17.0],[6.6914,6.5399,27.8582],[6.7116,6.5347,25.0194],[6.7494,6.5292,27.5659],[6.7631,6.5362,24.2298],[6.7725,6.5436,23.8276],[6.7789,6.5523,24.8271],[6.7966,6.5706,21.6125],[6.8022,6.5842,22.4349],[6.8046,6.6143,20.7684],[6.8032,6.6282,22.4692],[6.8057,6.6406,22.2094],[6.8112,6.6541,24.6734],[6.8232,6.6948,24.6228],[6.8366,6.7086,33.1638],[6.8397,6.7155,28.146],[6.8593,6.732,27.4339],[6.8751,6.7389,28.672],[6.8843,6.7459,27.148]]]]}
,"properties": {"GID_1": "NGA.23_1","GID_0": "NGA","country": "Nigeria","province": "Kogi","VARNAME_1": "NA","NL_NAME_1": "NA","TYPE_1": "State","ENGTYPE_1": "State","CC_1": "NA","HASC_1": "NG.KO","ISO_1": "NG-KO","name": "Kogi.province","area_km2": 29063.9,"hist_schema_id": "Elevation0-9000","hist_area_km2": {"25": 1959.89,"50": 2076.37,"75": 1158.71,"100": 1317.96,"125": 1518.4,"150": 1580.62,"175": 1666.41,"200": 1842.02,"225": 1974.2,"250": 1949.82,"275": 1752.83,"300": 1613.5,"325": 1486.13,"350": 1463.29,"375": 1525.41,"400": 1350.3,"425": 932.14,"450": 630.88,"475": 481.04,"500": 387.32,"525": 244.78,"550": 92.0,"575": 35.32,"600": 15.69,"625": 6.59,"650": 2.08}}}