{"type":"Feature","properties":{"ISO3166-1-Alpha-3":"NGA","country":"Nigeria","fill":"#F00","id":"2865","name":"Kogi"},
"geometry":{"type": "Polygon","coordinates": [[[6.69141,8.20694,42.7864],[6.68851,8.21353,44.8688],[6.67394,8.22647,45.4301],[6.67291,8.23182,46.3999],[6.66061,8.238,45.7525],[6.62288,8.27792,49.0575],[6.58392,8.34021,46.8551],[6.57224,8.35357,50.0026],[6.47333,8.4277,47.7785],[6.46537,8.43173,49.5706],[6.44264,8.47809,48.6632],[6.42972,8.5262,47.5],[6.42713,8.55555,50.6242],[6.42496,8.56421,52.4003],[6.42124,8.57278,48.5],[6.41576,8.57397,48.5],[6.41339,8.58201,49.0114],[6.39788,8.61325,56.1514],[6.39602,8.62136,50.5022],[6.3953,8.63963,49.0],[6.3705,8.68094,53.1352],[6.35768,8.69394,52.7782],[6.34166,8.70254,61.056399999999996],[6.32171,8.70564,49.0],[6.28451,8.73058,52.3118],[6.27737,8.73668,51.3323],[6.25991,8.73838,50.0],[6.21588,8.72996,53.7702],[6.1735,8.67575,59.704],[6.13258,8.53705,119.7284],[6.11707,8.4339,246.3573],[6.10715,8.40458,218.4082],[6.08679,8.38037,190.7482],[6.05341,8.3737,272.3253],[5.94354,8.39804,221.226],[5.80505,8.40517,250.7067],[5.70614,8.42788,235.2775],[5.60579,8.46563,206.2964],[5.55525,8.51475,238.4199],[5.51566,8.53069,282.5215],[5.47122,8.49,288.6219],[5.35691,8.34817,256.581],[5.34916,8.31533,277.0486],[5.37924,8.25857,314.1609],[5.39391,8.24094,308.2281],[5.41128,8.22596,303.6983],[5.42141,8.20756,291.2],[5.46182,8.17051,344.1714],[5.52879,8.12948,346.2301],[5.53602,8.06959,325.3622],[5.51608,8.04168,378.5893],[5.51763,7.99946,400.9153],[5.53664,7.99241,400.1143],[5.56372,8.00835,391.3108],[5.59979,8.01675,384.58],[5.63679,8.02036,366.1196],[5.6554,8.01781,420.5702],[5.67018,8.00711,344.6303],[5.66863,7.98489,353.3169],[5.64641,7.97187,416.1271],[5.61757,7.9359,442.7201],[5.61002,7.89334,518.3726],[5.6248,7.85035,496.3183],[5.65777,7.82107,485.7167],[5.67142,7.82195,521.8622],[5.68764,7.80784,527.5848],[5.76619,7.7695,529.9385],[5.81136,7.75609,536.6599],[5.89207,7.77043,416.6207],[5.92236,7.75692,424.8542],[5.91585,7.71788,370.0247],[5.96577,7.64083,361.4603],[6.0284,7.57336,347.7229],[6.04555,7.56414,318.1472],[6.06571,7.56838,352.0934],[6.08255,7.55758,413.635],[6.07873,7.53794,400.2802],[6.11108,7.52714,379.2733],[6.11862,7.50471,372.6571],[6.10767,7.46063,356.4623],[6.13237,7.42673,308.7328],[6.17826,7.42769,411.033],[6.22487,7.44663,500.5012],[6.24461,7.45903,330.811],[6.26415,7.46327,241.5192],[6.27479,7.44595,242.8539],[6.28936,7.43353,225.5912],[6.32254,7.41076,221.2721],[6.35096,7.37862,311.7897],[6.37411,7.3772,189.9587],[6.41184,7.38676,166.0408],[6.43271,7.38425,180.0626],[6.45804,7.36172,142.4846],[6.48067,7.30612,178.3871],[6.4939,7.2885,255.3314],[6.49783,7.26956,115.0001],[6.51116,7.25072,289.8362],[6.56118,7.25989,265.3275],[6.6018,7.27684,138.2031],[6.62836,7.27904,175.8815],[6.64355,7.26739,96.049],[6.65461,7.25346,82.3477],[6.6573,7.23625,61.8637],[6.67084,7.22834,36.4022],[6.69719,7.22033,27.5],[6.69936,7.21189,27.0],[6.71538,7.17747,27.0],[6.71807,7.16835,27.0],[6.71941,7.14892,29.609],[6.71538,7.13042,27.0],[6.70319,7.09373,27.0],[6.69833,7.04197,31.6644],[6.68975,7.01843,29.8],[6.68882,7.00815,31.4794],[6.68934,6.96407,27.0],[6.68738,6.95516,27.0],[6.66123,6.89955,22.8621],[6.65037,6.86056,26.595],[6.64924,6.84382,29.2756],[6.65503,6.79129,28.1973],[6.65058,6.66324,18.0],[6.65472,6.62076,18.0],[6.67477,6.56422,24.4802],[6.67673,6.54919,24.0737],[6.67673,6.53511,22.9755],[6.68551,6.53678,24.2732],[6.70784,6.5358,25.2331],[6.73409,6.53035,29.6256],[6.75952,6.5343,24.0484],[6.79238,6.56681,24.0021],[6.8144,6.66463,25.3929],[6.83806,6.71199,24.9773],[6.90597,6.77612,33.988],[6.93273,6.82904,29.5245],[6.96591,6.85031,27.6462],[6.96849,6.84217,28.1473],[6.9686,6.8331,25.943],[6.97325,6.81891,42.1932],[6.97997,6.81297,39.576],[6.99588,6.78956,33.9225],[7.021,6.77832,54.1513],[7.06523,6.81232,82.4464],[7.10285,6.85813,107.004],[7.18647,6.91606,170.602],[7.23618,6.96203,202.0346],[7.29344,7.03621,182.3499],[7.31183,7.05298,214.4452],[7.34305,7.06386,285.6947],[7.37519,7.08887,200.8011],[7.41167,7.10784,283.6129],[7.46056,7.10489,365.7323],[7.49373,7.07445,359.9587],[7.53208,7.0559,393.0258],[7.57497,7.02081,399.4681],[7.60701,7.00616,355.7592],[7.63378,7.01438,369.4212],[7.63667,7.05967,455.5833],[7.65279,7.09931,431.1131],[7.7855,7.17109,178.6797],[7.82725,7.24002,188.6863],[7.84493,7.32004,194.5287],[7.8473,7.35211,235.2745],[7.85888,7.38105,239.8032],[7.87924,7.41616,238.0549],[7.85402,7.4336,240.9784],[7.81599,7.42854,264.0987],[7.78374,7.44611,266.8533],[7.77175,7.48492,239.7888],[7.75615,7.60455,188.471],[7.75852,7.72005,211.5819],[7.75429,7.75622,159.8929],[7.73455,7.79206,183.2857],[7.70519,7.82136,247.3922],[7.67574,7.86492,280.9247],[7.66323,7.91536,146.1127],[7.66044,7.9682,106.3235],[7.66602,8.02571,48.7616],[7.65331,8.02886,47.7173],[7.63667,8.03005,50.7288],[7.49518,8.01636,71.769],[7.31927,8.03163,42.5],[7.28579,8.02809,46.1573],[7.08404,7.96008,43.1677],[7.03268,7.92952,42.0],[7.03144,7.92394,42.0],[7.02431,7.92063,42.0],[7.00498,7.90352,42.0],[6.97046,7.88215,41.5],[6.94679,7.87228,42.9513],[6.93842,7.87443,41.5],[6.94018,7.91613,41.8176],[6.95155,7.95616,177.6389],[6.96984,7.98445,107.6838],[6.98183,8.01579,105.8018],[6.99733,8.16271,137.0995],[6.99309,8.2281,197.6313],[6.94483,8.31296,163.0537],[6.96963,8.37771,174.2062],[6.97811,8.41176,217.5898],[6.96922,8.4108,228.5204],[6.93346,8.40471,196.4034],[6.89625,8.40874,155.773],[6.83496,8.40677,70.2723],[6.82163,8.36716,64.8443],[6.79217,8.33913,100.0765],[6.77161,8.33208,99.0795],[6.75559,8.31631,73.0242],[6.75755,8.29404,106.9645],[6.75311,8.27763,115.9525],[6.73895,8.28564,114.9806],[6.72644,8.27567,48.8084],[6.71538,8.25089,45.8999],[6.70856,8.22456,46.2514],[6.69141,8.20694,42.7864]]]}}