{"type":"Feature","properties":{"featurecla":"River","scalerank":4,"rivernum":137,"dissolve":"137River","name":"Benue2","name_alt":null,"note":null,"min_zoom":4.0,"strokeweig":0.45,"name_en":"Benue","min_label":5.0},
"geometry":{"type": "LineString","coordinates": [[7.828857421875,7.9900088562441169,51.1985],[7.7811523437500227,8.00604889530662,46.3465],[7.716796875,8.01312897343162,46.533],[7.6533203125,8.0289248718691084,47.7173],[7.63671875,8.03009674686912,50.7288],[7.4951171875,8.01642487186912,71.769],[7.3192382812500227,8.03168366093162,42.5],[7.2857910156250227,8.02814362186912,46.1573],[7.083984375,7.96015045780662,43.1677],[7.03271484375,7.9295596374941084,42.0],[7.031494140625,7.92401764530662,42.0],[7.0243164062500227,7.9206729187441169,42.0],[7.0050292968750227,7.9035830749941169,42.0],[6.970458984375,7.8821963562441084,41.5],[6.8600097656250227,7.8362002624941169,41.5753],[6.816162109375,7.82977936405662,39.0],[6.8011718750000227,7.82391998905662,38.5],[6.784423828125,7.81378815311912,38.0],[6.771240234375,7.8006533874941084,37.5],[6.7672363281250227,7.78571198124412,37.0]]}}