{"type":"Feature","properties":{"featurecla":"River","scalerank":3,"rivernum":59,"dissolve":"59River","name":"Niger18","name_alt":null,"note":null,"min_zoom":3.0,"strokeweig":0.8,"name_en":"Niger","min_label":4.0},
"geometry":{"type": "LineString","coordinates": [[5.8023925781250227,8.7418154968691084,56.0],[5.8556152343750227,8.74262116093162,55.0],[5.899658203125,8.7358584656191169,57.4872],[5.91455078125,8.7354678406191084,55.5876],[5.926513671875,8.7380557312441169,55.9833],[5.9581542968750227,8.75287506718162,54.0],[5.982666015625,8.7575869812441169,54.0],[6.0924316406250227,8.75861237186912,54.8146],[6.10791015625,8.7562197937441084,58.002],[6.1227050781250227,8.75055573124412,56.9418],[6.1529785156250227,8.72199127811912,52.0],[6.16064453125,8.7193545593691084,51.5],[6.2599121093750227,8.7383975281191084,50.0],[6.27734375,8.73676178593162,51.3323],[6.2845703125000227,8.73065827030662,52.3118],[6.3216796875000227,8.7056826843691084,49.0],[6.3416992187500227,8.70258209843162,61.056399999999996],[6.357666015625,8.6939639343691084,52.7782],[6.3705078125000227,8.68097565311912,53.1352],[6.395263671875,8.6396670593691169,49.0],[6.39599609375,8.62140534061912,50.5022],[6.3978515625000227,8.6132998718691169,56.1514],[6.413330078125,8.5820498718691169,49.0114],[6.415771484375,8.57404205936912,48.5],[6.4212890625000227,8.57282135624412,48.5],[6.4249511718750227,8.56427643436912,52.4003],[6.4271484375000227,8.55560944218162,50.6242],[6.4296875,8.5262393249941084,47.5],[6.442626953125,8.4781436218691084,48.6632],[6.46533203125,8.4317569031191084,49.5706],[6.473388671875,8.4277529968691169,47.7785],[6.572265625,8.3536319031191084,50.0026],[6.5838867187500227,8.34027741093162,46.8551],[6.6229492187500227,8.2779483093691084,49.0575],[6.66064453125,8.2380557312441169,45.7525],[6.6728515625,8.23187897343162,46.3999],[6.6739746093750227,8.22650787968162,45.4301],[6.6884765625,8.21356842655662,44.8688],[6.7041015625,8.17755768436912,44.6882],[6.7145019531250227,8.16083405155662,44.7112],[6.740478515625,8.1296572937441169,45.291],[6.7626953125,8.0954776062441169,42.2886],[6.7706542968750227,8.0787295593691084,39.5],[6.7762695312500227,8.06281159061912,43.0355],[6.798095703125,7.9366397156191084,44.7662],[6.7967773437500227,7.91998932499412,39.4592],[6.7921386718750227,7.9035830749941169,39.1038],[6.773193359375,7.8654971374941169,41.8715],[6.7705078125,7.85761139530662,40.7687],[6.7579589843750227,7.77033112186912,37.0],[6.7489257812500227,7.74042389530662,36.5],[6.7481933593750227,7.7340029968691084,44.4428],[6.7489257812500227,7.7268252624941169,37.1852],[6.7547851562500227,7.71063873905662,36.0],[6.7567382812500227,7.7026553406191169,35.5],[6.755859375,7.6933779968691169,35.0],[6.7511230468750227,7.68317291874412,34.125],[6.7293945312500227,7.65668366093162,40.8498],[6.725,7.64813873905662,32.0],[6.7123046875000227,7.60553619999412,30.5],[6.709716796875,7.5916690124941084,33.8972],[6.7098632812500227,7.57794830936912,40.7011],[6.7162109375000227,7.5432315124941169,31.6521],[6.707275390625,7.3941592468691084,30.3737],[6.709716796875,7.37299225468162,31.94],[6.7098632812500227,7.36200592655662,28.5]]}}