{"type":"Feature","properties":{"GID_2":"NGA.34.13_1","GID_0":"NGA","country":"Nigeria","GID_1":"NGA.34_1","province":"Sokoto","NL_NAME_1":"NA","county":"SabonBirni","VARNAME_2":"NA","NL_NAME_2":"NA","TYPE_2":"LocalAuthority","ENGTYPE_2":"LocalAuthority","CC_2":"NA","HASC_2":"NA","name":"Sabon_Birni.county"},
"geometry":{"type": "MultiPolygon","coordinates": [[[[6.3039,13.6597,310.2548],[6.2834,13.6667,299.8799],[6.2689,13.6666,294.6886],[6.2611,13.6686,294.8735],[6.2244,13.6664,295.5771],[6.2056,13.6619,293.0792],[6.1944,13.6567,292.6125],[6.1494,13.6428,291.6786],[6.0848,13.68,305.301],[6.0274,13.7004,287.1872],[6.0022,13.6668,286.1971],[5.9997,13.6587,301.8492],[5.9935,13.6512,297.2798],[5.9764,13.6411,292.9615],[5.9585,13.6171,289.1477],[5.9313,13.5924,283.4472],[5.9325,13.5889,284.6989],[5.9277,13.5805,284.7177],[5.9251,13.5675,284.1351],[5.9266,13.5583,283.0949],[5.9396,13.5345,283.0],[5.9438,13.5225,283.0],[5.955,13.5088,288.0001],[5.9634,13.4951,295.3238],[5.9663,13.4868,294.7865],[5.9787,13.4763,290.5071],[5.9925,13.4596,294.5552],[6.0074,13.4192,299.538],[6.0184,13.4036,301.5818],[6.0407,13.382,311.5061],[6.0613,13.3686,339.7633],[6.0691,13.3652,333.8005],[6.0793,13.354,322.121],[6.1088,13.3408,322.1958],[6.1497,13.3304,341.5151],[6.1702,13.3304,340.6599],[6.1823,13.3329,344.5484],[6.1929,13.333,343.2799],[6.2086,13.3267,343.2733],[6.2214,13.3306,345.679],[6.2331,13.3238,343.8974],[6.2465,13.3194,341.9702],[6.2563,13.3225,342.4522],[6.2805,13.326,341.1419],[6.323,13.3293,322.247],[6.3266,13.324,320.9722],[6.3376,13.317,317.1635],[6.344,13.3108,316.7371],[6.361,13.2993,316.1506],[6.3685,13.2973,314.2675],[6.3874,13.298,311.1342],[6.4087,13.2964,312.1396],[6.4321,13.2911,315.0027],[6.4627,13.2931,333.0025],[6.4769,13.2944,346.5001],[6.5629,13.3108,351.0266],[6.5715,13.3166,346.5836],[6.5879,13.3208,330.0685],[6.6163,13.3394,339.5948],[6.6587,13.3739,351.4212],[6.5792,13.4527,357.1003],[6.5718,13.4584,351.9549],[6.4336,13.592,308.1019],[6.4213,13.6016,300.8123],[6.4147,13.6028,300.0888],[6.3443,13.641,322.1241],[6.3039,13.6597,310.2548]]]]}}