{"type": "Feature","bbox": [6.7678,6.0079,6.9617,6.0983],"geometry": {"type": "MultiPolygon","coordinates": [[[[6.9613,6.094,149.4147],[6.9476,6.0983,88.3395],[6.9398,6.0982,114.9049],[6.9338,6.0965,141.5862],[6.9172,6.086,154.1475],[6.8938,6.0813,124.9639],[6.8696,6.0796,95.1898],[6.852,6.0732,156.4848],[6.8444,6.0757,139.559],[6.8296,6.0771,100.0288],[6.8123,6.0762,41.4016],[6.7789,6.0918,23.961],[6.7678,6.0807,23.7769],[6.769,6.06,23.359],[6.773,6.0503,21.3583],[6.783,6.0456,21.5867],[6.7953,6.0366,22.5937],[6.8091,6.0329,66.574],[6.8193,6.0342,71.0939],[6.8346,6.0394,68.2553],[6.8542,6.0541,120.4117],[6.8616,6.0556,149.4158],[6.8845,6.0485,167.4148],[6.9106,6.0312,171.5584],[6.9105,6.0248,158.6992],[6.9134,6.0236,151.9076],[6.9159,6.0182,143.5197],[6.9249,6.0079,113.13],[6.938,6.0094,135.6135],[6.9552,6.0247,201.0297],[6.9586,6.0329,215.2068],[6.9575,6.0401,215.548],[6.9617,6.0557,252.7371],[6.9609,6.0633,263.2075],[6.9567,6.0717,216.5963],[6.9613,6.094,149.4147]]]]}
,"properties": {"GID_2": "NGA.4.11_1","GID_0": "NGA","country": "Nigeria","GID_1": "NGA.4_1","province": "Anambra","NL_NAME_1": "NA","county": "IdemiliSouth","VARNAME_2": "NA","NL_NAME_2": "NA","TYPE_2": "LocalAuthority","ENGTYPE_2": "LocalAuthority","CC_2": "NA","HASC_2": "NA","name": "Idemili_South.county","area_km2": 110.85854,"hist_schema_id": "Elevation0-9000","hist_area_km2": {"25": 21.86367,"50": 8.0118,"75": 13.51458,"100": 10.35193,"125": 14.6953,"150": 18.46964,"175": 13.97885,"200": 5.90357,"225": 3.43669,"250": 0.63251}}}