{"type": "Feature","bbox": [3.9606,7.9387,4.3665,8.6482],"geometry": {"type": "MultiPolygon","coordinates": [[[[4.2125,8.6482,309.0273],[4.1811,8.6266,324.7893],[4.1664,8.6031,325.5654],[4.1587,8.5952,318.6981],[4.148,8.591,342.6805],[4.1334,8.588,365.7015],[4.1182,8.5885,371.5873],[4.0766,8.583,362.64],[4.0437,8.5872,408.4964],[4.0291,8.5861,442.9125],[4.0139,8.5882,450.1897],[3.9916,8.5945,439.9679],[3.9777,8.5888,426.8666],[3.9703,8.5836,396.3328],[3.9674,8.5797,401.9892],[3.9662,8.5579,462.5226],[3.9606,8.543,403.2416],[3.9607,8.5087,385.9822],[3.9694,8.4891,392.5068],[3.9876,8.484,404.4731],[3.9905,8.4805,386.5872],[3.9971,8.4631,369.6823],[4.0001,8.4485,375.967],[4.0164,8.4123,410.4675],[4.0151,8.4057,409.8622],[4.0207,8.3959,415.5594],[4.0274,8.3942,412.1526],[4.0346,8.3846,405.2503],[4.04,8.3891,394.8835],[4.0484,8.3797,398.6166],[4.0686,8.3441,402.9868],[4.0684,8.3354,398.8675],[4.063,8.3265,393.2706],[4.0293,8.2953,352.1682],[4.0228,8.2816,350.2684],[4.0129,8.2679,349.7347],[4.003,8.2568,367.2911],[3.9836,8.2398,347.8815],[3.9774,8.2109,364.8407],[3.9769,8.1819,359.4637],[3.9843,8.1516,350.632],[4.0177,8.124,363.647],[4.0268,8.1135,353.7533],[4.0335,8.0871,311.6515],[4.0428,8.0206,341.7326],[4.0525,8.0092,301.3344],[4.069,7.984,291.2463],[4.0738,7.9708,265.0534],[4.0811,7.9612,263.2274],[4.0832,7.9485,288.6645],[4.0874,7.9387,250.653],[4.0972,7.9473,275.0829],[4.1217,7.9637,293.5857],[4.1276,7.9703,283.3969],[4.1397,7.9941,294.9739],[4.1555,8.0118,317.9164],[4.1583,8.0173,304.4514],[4.1679,8.0406,292.4191],[4.1681,8.0533,315.2819],[4.1762,8.0822,308.4871],[4.1836,8.1228,303.9029],[4.1929,8.146,286.3994],[4.2054,8.1616,320.5899],[4.2156,8.193,331.1059],[4.2234,8.206,325.5341],[4.2307,8.2128,314.6059],[4.2519,8.2258,339.497],[4.3056,8.2509,376.3528],[4.3309,8.2773,385.2455],[4.3378,8.2871,372.9847],[4.3665,8.302,375.1191],[4.3592,8.3111,382.7361],[4.3395,8.3663,370.4806],[4.3362,8.3899,355.1707],[4.338,8.4003,358.8276],[4.3353,8.4063,345.4558],[4.3342,8.4195,323.3284],[4.3253,8.4448,328.9461],[4.3078,8.4619,350.3194],[4.3021,8.4779,363.4367],[4.2935,8.4871,367.7952],[4.2762,8.5314,330.8524],[4.2551,8.5724,295.2067],[4.245,8.6014,334.2376],[4.2362,8.6135,325.3859],[4.2266,8.6199,323.5814],[4.2182,8.6321,310.6112],[4.2125,8.6482,309.0273]]]]}
,"properties": {"GID_2": "NGA.31.28_1","GID_0": "NGA","country": "Nigeria","GID_1": "NGA.31_1","province": "Oyo","NL_NAME_1": "NA","county": "Ori-Ire","VARNAME_2": "NA","NL_NAME_2": "NA","TYPE_2": "LocalAuthority","ENGTYPE_2": "LocalAuthority","CC_2": "NA","HASC_2": "NA","name": "Ori-Ire.county","area_km2": 1911.493,"hist_schema_id": "Elevation0-9000","hist_area_km2": {"250": 6.068,"275": 50.933,"300": 119.908,"325": 275.631,"350": 459.955,"375": 497.409,"400": 348.912,"425": 126.846,"450": 23.273,"475": 1.887,"500": 0.419,"525": 0.252}}}