{"type": "Feature","bbox": [8.5557,12.676,8.977,12.9166],"geometry": {"type": "MultiPolygon","coordinates": [[[[8.6992,12.9166,407.0097],[8.7009,12.9135,409.1601],[8.6979,12.9087,411.4585],[8.7001,12.9027,413.4476],[8.7042,12.8986,412.4335],[8.7124,12.8828,411.8445],[8.7126,12.8692,406.371],[8.7064,12.8569,407.2925],[8.6982,12.8542,407.5697],[8.662,12.8483,417.8793],[8.6554,12.8539,420.4769],[8.6382,12.8544,436.2512],[8.631,12.8523,441.2784],[8.6041,12.8328,437.531],[8.5833,12.8259,427.8352],[8.5557,12.8071,437.7054],[8.5695,12.7616,422.6479],[8.5749,12.7496,417.8469],[8.5771,12.7377,416.5346],[8.5827,12.7292,413.9904],[8.5881,12.7228,413.884],[8.6054,12.711,410.7435],[8.6241,12.6997,406.6757],[8.6439,12.6918,405.7124],[8.6657,12.688,404.2702],[8.6854,12.701599999999999,401.1758],[8.7055,12.712,400.5247],[8.7094,12.7003,398.4494],[8.7151,12.6919,400.374],[8.7159,12.6873,400.8584],[8.7302,12.678,398.9939],[8.74,12.676,397.2397],[8.7719,12.6788,394.8704],[8.7994,12.6849,394.816],[8.835,12.698,390.7469],[8.8669,12.7125,388.6005],[8.8728,12.7186,388.0663],[8.8923,12.732,386.5065],[8.8957,12.7366,386.7558],[8.9184,12.7533,384.2888],[8.9207,12.7561,385.7987],[8.922,12.7658,383.2994],[8.9318,12.7818,382.3079],[8.9338,12.7922,384.0004],[8.9445,12.8069,381.8958],[8.9767,12.8208,382.4193],[8.977,12.8345,380.6964],[8.9698,12.8331,379.8015],[8.9565,12.8399,382.5636],[8.8824,12.8631,388.6379],[8.8707,12.8704,393.2527],[8.8606,12.8705,393.7053],[8.8303,12.8811,395.8984],[8.8245,12.8808,397.0858],[8.8096,12.8878,397.0905],[8.7879,12.8931,398.9771],[8.7812,12.8967,400.9263],[8.7726,12.8967,402.032],[8.7603,12.8992,403.4215],[8.7258,12.9126,405.667],[8.7149,12.9144,408.2957],[8.7098,12.9136,405.7139],[8.6992,12.9166,407.0097]]]]}
,"properties": {"GID_2": "NGA.21.4_1","GID_0": "NGA","country": "Nigeria","GID_1": "NGA.21_1","province": "Katsina","NL_NAME_1": "NA","county": "Baure","VARNAME_2": "NA","NL_NAME_2": "NA","TYPE_2": "LocalAuthority","ENGTYPE_2": "LocalAuthority","CC_2": "NA","HASC_2": "NA","name": "Baure.county","area_km2": 736.1805,"hist_schema_id": "Elevation0-9000","hist_area_km2": {"375": 83.1795,"400": 561.801,"425": 88.864,"450": 2.2327,"475": 0.1034}}}