{"type": "Feature","bbox": [3.3396,6.569,3.4626,6.6485],"geometry": {"type": "MultiPolygon","coordinates": [[[[3.3396,6.5887,37.7223],[3.3422,6.5783,24.8274],[3.3435,6.5751,26.1994],[3.3454,6.5746,29.4608],[3.3643,6.5761,30.5438],[3.379,6.5715,2.3124],[3.388,6.5711,3.4476],[3.4007,6.5762,2.4753],[3.406,6.5719,1.2614],[3.4161,6.569,1.1266],[3.4212,6.5698,1.6708],[3.4247,6.5718,2.1718],[3.4285,6.5785,2.3966],[3.4298,6.5867,2.0397],[3.4469,6.5929,2.3922],[3.4626,6.6095,3.8342],[3.4546,6.6121,5.5171],[3.4448,6.621,1.3402],[3.4363,6.6327,1.941],[3.4331,6.6397,4.3904],[3.4321,6.6485,6.9157],[3.3698,6.6434,28.7156],[3.3691,6.6447,42.3925],[3.372,6.6244,10.6233],[3.3677,6.6131,38.8483],[3.3653,6.6093,43.4184],[3.3585,6.6055,25.5967],[3.3489,6.5946,29.9121],[3.3396,6.5887,37.7223]]]]}
,"properties": {"GID_2": "NGA.25.13_1","GID_0": "NGA","country": "Nigeria","GID_1": "NGA.25_1","province": "Lagos","NL_NAME_1": "NA","county": "Kosofe","VARNAME_2": "NA","NL_NAME_2": "NA","TYPE_2": "LocalAuthority","ENGTYPE_2": "LocalAuthority","CC_2": "NA","HASC_2": "NA","name": "Kosofe.county","area_km2": 74.30463,"hist_schema_id": "Elevation0-9000","hist_area_km2": {"0": 52.61117,"25": 18.80806,"50": 2.8854}}}