{"type": "Feature","id": "2852","bbox": [2.67169,6.31685,4.595,7.95796],"geometry": {"type": "Polygon","coordinates": [[[2.93742,7.73762,208.9587],[2.90921,7.74167,167.6277],[2.89215,7.79622,223.742],[2.88678,7.90781,244.8663],[2.86177,7.95473,208.0065],[2.76482,7.95796,186.1454],[2.67832,7.89732,127.3646],[2.67169,7.89343,124.2332],[2.67222,7.8896,136.1732],[2.68028,7.87735,143.9607],[2.69155,7.84867,134.5176],[2.71552,7.82206,169.2668],[2.72441,7.80769,211.2037],[2.7272,7.79332,196.4546],[2.71764,7.65855,215.074],[2.71532,7.62579,220.1046],[2.72059,7.58657,203.8942],[2.74064,7.54936,173.4041],[2.7702,7.51427,147.6751],[2.79231,7.47763,117.7259],[2.78963,7.43583,109.1418],[2.78725,7.42689,116.162],[2.78653,7.42125,125.0336],[2.78332,7.41924,136.905],[2.76172,7.42353,195.9338],[2.75128,7.42363,191.7889],[2.74364,7.41924,190.0838],[2.74116,7.40818,177.4881],[2.76214,7.1622,68.0317],[2.7611,7.14835,66.9372],[2.7578,7.13889,83.7491],[2.74984,7.12856,62.3982],[2.74064,7.10959,46.8734],[2.7363,7.10293,42.8047],[2.73526,7.096,40.8306],[2.73909,7.08298,45.0794],[2.74767,7.07223,44.2982],[2.77392,7.05079,35.7976],[2.77971,7.04133,34.0614],[2.77578,7.03053,37.7386],[2.76555,7.0251,43.3003],[2.75273,7.02133,47.3183],[2.74105,7.0158,54.1398],[2.71511,6.97983,72.836],[2.71842,6.94356,75.2182],[2.73196,6.90521,131.0031],[2.73692,6.8633,115.1477],[2.72627,6.82137,85.5697],[2.72359,6.79972,96.8229],[2.72865,6.78,89.8093],[2.7363,6.76985,95.2636],[2.74477,6.76377,96.9257],[2.755,6.76073,93.3942],[2.76741,6.75956,90.7923],[2.7733,6.75504,90.9447],[2.77526,6.74489,83.7279],[2.77857,6.69877,61.9891],[2.77299,6.68747,61.7247],[2.76069,6.67939,68.4163],[2.7426,6.66334,45.1045],[2.73113,6.64184,15.5458],[2.73082,6.62135,28.0369],[2.7394,6.57919,23.8512],[2.73733,6.55802,8.0061],[2.7188,6.5043,9.504],[2.71542,6.49449,3.9703],[2.71192,6.47405,6.5787],[2.7178,6.47346,3.2408],[2.75118,6.47066,5.9663],[2.78477,6.47379,6.4976],[2.81071,6.46557,6.0355],[2.83593,6.46694,6.8152],[2.86249,6.48462,18.8699],[2.88161,6.50653,10.7884],[2.8813,6.52053,10.0173],[2.89205,6.52573,0.0],[3.11013,6.51619,19.9374],[3.16883,6.52446,9.9115],[3.18361,6.5411,13.7447],[3.19425,6.58957,25.948],[3.20903,6.61029,38.9761],[3.22454,6.62704,31.193],[3.2389,6.67833,49.7966],[3.24531,6.69259,66.6591],[3.27673,6.70473,68.801],[3.30019,6.69763,67.0169],[3.34556,6.67396,46.7106],[3.36892,6.64471,42.3925],[3.40447,6.64316,3.206],[3.42422,6.64631,4.0166],[3.436,6.66347,5.6173],[3.4392,6.67771,5.0419],[3.44799,6.68683,6.4516],[4.03214,6.68995,13.6648],[4.09177,6.67437,10.3506],[4.08102,6.64807,10.5662],[4.05663,6.62931,9.3593],[4.04805,6.60422,9.8976],[4.05839,6.57991,12.2483],[4.05922,6.5673,10.8459],[4.08764,6.54433,0.0],[4.11792,6.55939,0.0],[4.14841,6.57986,0.0],[4.18107,6.58673,0.8321],[4.20959,6.57686,0.0],[4.21983,6.5557,0.0],[4.21094,6.53485,0.0],[4.15327,6.50307,0.0],[4.15482,6.4786,0.0],[4.17817,6.46436,0.0],[4.20629,6.45671,0.0],[4.22003,6.44369,0.0],[4.23688,6.43359,13.6499],[4.26024,6.43899,7.599],[4.31718,6.43692,6.6895],[4.34478,6.42746,15.0276],[4.34633,6.40075,4.921],[4.3424,6.37315,4.5081],[4.34199,6.37059,0.0],[4.40553,6.35887,3.3017],[4.493,6.32055,0.5149],[4.49402,6.32189,2.4562],[4.55438,6.31685,2.3067],[4.57019,6.33576,6.2895],[4.56864,6.36266,10.6847],[4.51304,6.38648,0.0],[4.48307,6.38625,7.8708],[4.46601,6.40638,14.6823],[4.48182,6.41274,12.2936],[4.51459,6.4171,5.3909],[4.56523,6.45408,13.1648],[4.58125,6.45909,7.0204],[4.59231,6.47183,8.3388],[4.595,6.48529,5.6628],[4.5858,6.53177,26.7135],[4.586,6.60306,55.8753],[4.56709,6.62885,73.6051],[4.54208,6.61693,60.8338],[4.52616,6.59407,34.2366],[4.48307,6.56738,31.1181],[4.43129,6.56916,26.8114],[4.41465,6.57198,46.3528],[4.38302,6.58213,61.7598],[4.36958,6.59167,20.4762],[4.35491,6.6174,15.5096],[4.35522,6.64768,17.5222],[4.37951,6.71375,77.6474],[4.42922,6.76667,33.8059],[4.51924,6.83219,68.2651],[4.53846,6.85731,86.1981],[4.5611,6.98828,89.7505],[4.54549,7.00738,192.2152],[4.50508,7.0036,132.9784],[4.48699,6.99854,140.415],[4.47035,6.99115,132.5209],[4.44875,6.99226,100.9823],[4.42777,6.99849,100.65],[4.39263,6.97911,74.9487],[4.36411,6.9805,75.3855],[4.35884,6.99534,84.9881],[4.35615,7.01125,109.6257],[4.34674,7.03704,123.0742],[4.33455,7.06189,111.5097],[4.30158,7.08975,154.6172],[4.25517,7.08778,148.858],[4.21735,7.06365,97.767],[4.17693,7.0589,122.5632],[4.16877,7.10414,165.0746],[4.14789,7.14618,159.1842],[4.0771,7.11243,122.21],[4.04712,7.10722,144.7995],[4.01725,7.1052,115.5709],[3.9849,7.09432,92.6594],[3.95741,7.07624,104.1954],[3.89581,7.0597,73.531],[3.77231,7.04463,87.3206],[3.71205,7.04709,67.0279],[3.73913,7.09334,92.7029],[3.77623,7.14367,121.5606],[3.76435,7.20354,142.9138],[3.75784,7.21809,158.4288],[3.75505,7.23354,155.7242],[3.75525,7.25263,134.1249],[3.74885,7.26997,152.104],[3.7196,7.28576,184.2664],[3.69056,7.30687,168.2875],[3.68787,7.32431,183.7014],[3.68828,7.37976,219.1016],[3.65428,7.42867,170.0668],[3.55434,7.43117,117.7],[3.52405,7.41838,111.9503],[3.49522,7.40208,86.2353],[3.46587,7.41867,84.9586],[3.44881,7.4675,138.9819],[3.41202,7.49479,128.6127],[3.37068,7.46693,115.4852],[3.32996,7.36777,93.7937],[3.29017,7.33338,88.9225],[3.23394,7.33152,114.8793],[3.17937,7.34978,95.4545],[3.10909,7.41329,69.3527],[3.06403,7.49494,131.5736],[3.03116,7.5368,137.5809],[2.98962,7.57124,133.0421],[2.96977,7.62313,121.1168],[2.96895,7.644,151.0468],[3.00574,7.74544,149.5627],[2.99943,7.83368,158.0721],[2.96161,7.83224,185.0701],[2.94745,7.78878,189.2473],[2.93742,7.73762,208.9587]]]}
,"properties": {"ISO3166-1-Alpha-3": "NGA","country": "Nigeria","fill": "#F00","name": "Ogun","area_km2": 16277.86,"hist_schema_id": "Elevation0-9000","hist_area_km2": {"0": 1082.43,"25": 3159.09,"50": 2903.16,"75": 2632.77,"100": 2094.19,"125": 1429.59,"150": 1113.84,"175": 991.84,"200": 598.9,"225": 233.38,"250": 37.19,"275": 1.05,"300": 0.23,"325": 0.19}}}