{"type": "Feature","bbox": [2.6684,6.3154,4.596,7.9706],"geometry": {"type": "MultiPolygon","coordinates": [[[[4.3431,6.3938,6.0053],[4.3424,6.3732,4.5081],[4.3435,6.3726,6.3849],[4.3551,6.3707,8.1687],[4.3579,6.3726,3.9255],[4.3599,6.3693,4.9094],[4.3743,6.3651,3.3007],[4.3776,6.3654,1.7557],[4.3807,6.3685,2.0637],[4.3812,6.3637,1.8662],[4.3907,6.3626,4.3956],[4.3993,6.3593,3.7445],[4.401,6.3601,3.0379],[4.404,6.3576,3.1473],[4.4068,6.3582,2.9979],[4.4076,6.3565,3.2898],[4.4118,6.3563,2.8294],[4.4132,6.3582,5.8793],[4.4185,6.3529,4.1565],[4.4479,6.3435,2.4201],[4.4729,6.3326,2.4374],[4.4921,6.3224,3.4016],[4.5181,6.323,4.593],[4.542,6.3154,2.8292],[4.5587,6.3174,8.3596],[4.5626,6.3197,6.9551],[4.572,6.3453,15.1018],[4.5686,6.3627,10.6847],[4.5387,6.3801,3.9987],[4.5153,6.3908,1.0247],[4.494,6.3905,0.0],[4.4702,6.3868,10.7734],[4.4544,6.3937,8.2787],[4.4636,6.4051,5.2399],[4.4757,6.4155,10.1735],[4.4917,6.418,0.1539],[4.5146,6.4171,5.3909],[4.5325,6.4281,5.55],[4.545,6.4466,8.9065],[4.5653,6.4541,13.1648],[4.5845,6.4572,7.9277],[4.5923,6.4719,8.3388],[4.596,6.4866,14.261],[4.5856,6.5138,7.7718],[4.5824,6.5443,15.1271],[4.5864,6.5601,28.6832],[4.5864,6.5793,35.5579],[4.586,6.6072,65.6253],[4.5826,6.6165,32.4603],[4.5722,6.6291,55.7819],[4.5595,6.6286,34.2766],[4.5437,6.6208,32.4199],[4.5336,6.6099,39.1599],[4.5262,6.5941,34.2366],[4.517,6.5841,19.9422],[4.5002,6.5731,36.9699],[4.4941,6.567,20.498],[4.4883,6.5662,18.3119],[4.4798,6.5677,36.9189],[4.4717,6.5651,34.3088],[4.4645,6.565,28.2404],[4.457,6.5676,40.7353],[4.4314,6.5692,36.6318],[4.4056,6.5759,29.2405],[4.3869,6.578,53.1329],[4.3605,6.5983,19.2068],[4.3544,6.6097,13.3106],[4.3523,6.6234,11.8139],[4.3558,6.6344,15.7084],[4.3539,6.6649,43.7163],[4.3633,6.685,26.5616],[4.3839,6.7179,36.481],[4.3968,6.7331,21.3755],[4.4021,6.7444,48.7776],[4.4292,6.7667,33.8059],[4.4607,6.7973,38.8766],[4.4746,6.8056,53.957],[4.4939,6.8129,43.6256],[4.5087,6.8258,62.3158],[4.5208,6.8335,58.2428],[4.5385,6.8574,86.1981],[4.5416,6.8762,101.1958],[4.5491,6.8994,102.3089],[4.5513,6.9224,109.2815],[4.5508,6.931,107.9288],[4.5526,6.933,97.927],[4.5556,6.9457,91.3543],[4.5597,6.9546,91.4147],[4.5582,6.9768,92.7906],[4.566,7.0046,106.0705],[4.561,7.0067,94.5851],[4.546,7.007,181.9097],[4.5288,7.0003,149.8911],[4.5164,7.0047,131.8324],[4.4937,7.0026,133.9638],[4.4779,6.9964,172.2246],[4.4728,6.9921,132.7783],[4.4596,6.9877,131.4914],[4.4506,6.9888,106.6065],[4.441,6.9988,88.2451],[4.4233,6.9984,81.3311],[4.4072,6.9925,91.0474],[4.4018,6.9859,93.3545],[4.3871,6.9781,74.1345],[4.3801,6.9703,76.6504],[4.3738,6.9668,69.1666],[4.3641,6.9805,75.3855],[4.3577,7.0012,96.8096],[4.3533,7.0243,154.1375],[4.3258,7.0815,157.8919],[4.2982,7.0906,148.3019],[4.271,7.091,177.1986],[4.2552,7.0878,148.858],[4.2482,7.0824,157.8458],[4.2233,7.0699,110.3234],[4.2088,7.0591,97.3758],[4.1942,7.0547,94.2759],[4.177,7.0589,122.5632],[4.1728,7.0701,110.2969],[4.1712,7.0863,142.1123],[4.1718,7.1128,168.4646],[4.1675,7.1281,163.3775],[4.1591,7.1416,167.6086],[4.144,7.1479,174.1608],[4.1361,7.1457,141.0668],[4.1213,7.13,147.8514],[4.0936,7.1185,100.9703],[4.085,7.1117,95.2287],[4.0762,7.1126,122.21],[4.0667,7.109,112.6225],[4.0288,7.1035,121.7397],[4.0172,7.1053,115.5709],[3.9818,7.0983,75.6526],[3.9678,7.0881,68.4054],[3.9574,7.0763,104.1954],[3.9451,7.071,110.0062],[3.9324,7.0684,78.9595],[3.9223,7.0614,86.7183],[3.9061,7.0562,70.9604],[3.8981,7.0586,80.9393],[3.8809,7.0568,102.4468],[3.857,7.0584,121.4425],[3.8395,7.0527,100.7656],[3.8331,7.0553,82.4918],[3.8312,7.051,85.8626],[3.8134,7.049,84.4082],[3.7695,7.0488,95.9214],[3.751,7.0464,90.3647],[3.7349,7.048,82.2175],[3.715,7.0449,72.3574],[3.709,7.0494,72.3997],[3.7144,7.0677,73.9138],[3.7576,7.1106,94.8724],[3.7686,7.1173,90.7376],[3.7785,7.1324,104.2975],[3.7719,7.1787,126.5443],[3.7635,7.2065,125.6442],[3.7541,7.2223,161.0151],[3.7558,7.2581,127.5757],[3.7455,7.2758,147.915],[3.7321,7.2776,149.5024],[3.6973,7.2955,182.8517],[3.6906,7.3069,172.7726],[3.6921,7.3177,168.9748],[3.6926,7.3468,203.8249],[3.6917,7.362,192.9648],[3.6853,7.3981,192.7108],[3.6798,7.4112,190.1618],[3.6664,7.4287,166.3176],[3.652,7.4322,164.2122],[3.6164,7.4342,169.2261],[3.6021,7.4321,198.1536],[3.5663,7.4322,142.8414],[3.541,7.4271,126.765],[3.5264,7.4225,100.6184],[3.5217,7.4143,186.3892],[3.5081,7.4046,82.5402],[3.4917,7.4005,79.7732],[3.4786,7.4051,85.9726],[3.4659,7.4187,84.9586],[3.4581,7.4389,111.5218],[3.4522,7.4605,109.8119],[3.4451,7.4765,151.6404],[3.4377,7.4886,126.4675],[3.4253,7.4942,119.4428],[3.4172,7.4952,133.2815],[3.3957,7.4933,135.396],[3.3869,7.487,95.9343],[3.3695,7.4695,118.3367],[3.3663,7.4573,118.3847],[3.355,7.4289,115.1783],[3.3511,7.4011,121.9777],[3.3394,7.3914,131.8969],[3.3279,7.3639,98.0718],[3.3139,7.3438,92.9137],[3.3062,7.337,109.7886],[3.2944,7.3349,100.1159],[3.2781,7.3292,97.532],[3.262,7.3336,104.8234],[3.2479,7.3306,98.4373],[3.2126,7.3338,75.1447],[3.1748,7.3519,87.2069],[3.1664,7.3592,71.7561],[3.1367,7.3787,77.0033],[3.1263,7.3899,71.1615],[3.122,7.3978,87.7431],[3.0883,7.4399,85.5205],[3.0873,7.4522,79.6194],[3.0746,7.4628,92.3399],[3.0727,7.4785,87.1313],[3.0624,7.498,123.0363],[3.058,7.5117,118.1693],[3.039,7.5319,122.8207],[3.0088,7.5516,119.1411],[3.0043,7.5599,111.0722],[2.987,7.5734,144.3796],[2.9746,7.592,136.0411],[2.9691,7.6111,139.2009],[2.9684,7.6388,142.0161],[2.9661,7.651,162.0135],[2.9743,7.6601,166.3652],[2.9809,7.6563,150.7005],[2.9817,7.6727,151.5244],[2.9883,7.6809,129.6175],[2.9955,7.7117,141.0639],[3.0035,7.727,136.6035],[3.009,7.7527,157.9438],[3.0117,7.8025,150.259],[3.0099,7.8203,160.2356],[3.0029,7.8306,156.8836],[2.9961,7.8369,160.4793],[2.9888,7.8405,170.7577],[2.9666,7.8404,199.3941],[2.9591,7.8332,184.0139],[2.9557,7.8231,167.7806],[2.9498,7.813,178.3016],[2.9436,7.7608,238.8729],[2.9347,7.7235,165.8056],[2.9211,7.7256,155.5151],[2.9109,7.7382,169.2509],[2.9,7.7606,196.3128],[2.8909,7.7986,220.5009],[2.8879,7.8263,214.7348],[2.8892,7.8535,229.0391],[2.8884,7.9029,244.3095],[2.8819,7.9261,265.9635],[2.8722,7.9426,226.3344],[2.8618,7.9548,208.0065],[2.8311,7.9698,235.8848],[2.7999,7.9706,227.232],[2.7747,7.9664,231.2864],[2.7581,7.9531,178.6881],[2.739,7.9417,164.9414],[2.7088,7.92,143.0366],[2.7008,7.9109,142.0499],[2.6783,7.8974,127.3646],[2.6758,7.8932,124.7084],[2.6684,7.8898,141.4015],[2.6958,7.8548,147.9706],[2.7063,7.8327,148.147],[2.7093,7.8171,177.2724],[2.7113,7.8132,183.4881],[2.7203,7.8109,200.3428],[2.7247,7.8076,211.2037],[2.7295,7.7922,196.8062],[2.7324,7.7722,192.3985],[2.728,7.7449,198.156],[2.7304,7.6992,179.1274],[2.7254,7.648,214.5864],[2.729,7.6229,216.89],[2.7281,7.61,215.3737],[2.7303,7.5802,183.6773],[2.7362,7.5652,177.3262],[2.7461,7.5558,178.4305],[2.7477,7.547,169.0939],[2.7461,7.5403,152.2228],[2.7496,7.5273,172.5297],[2.7548,7.5213,169.3573],[2.7621,7.5189,145.0255],[2.7752,7.5107,138.0845],[2.786,7.4987,131.5148],[2.7929,7.4945,118.844],[2.7982,7.4826,136.5144],[2.7992,7.4265,153.3209],[2.7957,7.4233,113.1705],[2.7858,7.4187,136.3508],[2.7628,7.4192,191.9579],[2.757,7.4172,190.1583],[2.7476,7.4174,188.9209],[2.7474,7.366,135.1898],[2.7501,7.311,110.689],[2.7495,7.2612,76.1286],[2.7506,7.2575,73.72],[2.7566,7.251,93.3262],[2.7621,7.2482,93.7057],[2.7743,7.2344,85.1028],[2.7836,7.1824,66.336],[2.7849,7.1592,50.7975],[2.7753,7.1282,64.9173],[2.7673,7.117,60.9282],[2.7507,7.1058,45.4995],[2.7451,7.0991,45.2996],[2.7451,7.0927,41.0167],[2.7529,7.0773,36.6142],[2.763,7.0666,34.9061],[2.7671,7.0653,34.3611],[2.7818,7.0537,31.4731],[2.7926,7.0413,33.3688],[2.7855,7.0365,41.3793],[2.7751,7.0335,37.3414],[2.7666,7.0264,43.7567],[2.7433,7.0125,55.4275],[2.7292,6.998,51.0753],[2.7206,6.9865,57.557],[2.7182,6.9403,75.5257],[2.72,6.9348,97.8001],[2.7269,6.9304,126.8519],[2.7479,6.9283,106.5443],[2.7515,6.9124,101.7569],[2.7505,6.8851,111.0501],[2.7438,6.8566,112.517],[2.7447,6.8471,103.5792],[2.7492,6.8393,94.7776],[2.7298,6.8085,90.732],[2.728,6.8017,101.4034],[2.7293,6.7902,98.6463],[2.7326,6.7792,94.534],[2.7392,6.7653,98.6764],[2.7518,6.7591,92.2204],[2.7629,6.7577,84.1158],[2.7787,6.7592,90.6202],[2.7863,6.7546,87.0678],[2.7895,6.7481,83.7945],[2.7897,6.7389,79.5069],[2.786,6.7233,51.0693],[2.7866,6.6948,29.7801],[2.77,6.6799,60.2187],[2.7608,6.6742,63.2491],[2.7525,6.6657,58.9667],[2.7314,6.6308,15.3813],[2.736,6.6087,15.2364],[2.7446,6.5838,9.0734],[2.7531,6.5705,8.7224],[2.7506,6.5574,17.0117],[2.7429,6.5454,29.9245],[2.7293,6.5344,12.8063],[2.7247,6.5264,20.5615],[2.7203,6.5078,22.5875],[2.7179,6.4735,3.2408],[2.7381,6.467,4.3119],[2.774,6.4736,6.5864],[2.7931,6.4739,7.1905],[2.805,6.4668,4.859],[2.8131,6.4648,3.9115],[2.8142,6.4625,7.3351],[2.8245,6.4596,10.7388],[2.8336,6.4645,9.2274],[2.8395,6.4713,6.6316],[2.8528,6.4817,8.3027],[2.8747,6.4942,25.902],[2.8803,6.499,5.0444],[2.8819,6.5116,9.3108],[2.8796,6.5218,24.2437],[2.8803,6.5251,9.4814],[2.887,6.5268,0.0],[2.8965,6.5245,9.3831],[2.9211,6.5237,13.1596],[2.9404,6.5183,22.6693],[2.9444,6.5182,20.4288],[2.9557,6.5222,17.5679],[2.9687,6.5219,11.8999],[2.9806,6.519,17.2478],[2.9915,6.5206,16.7855],[3.0344,6.5183,21.3719],[3.0804,6.5228,21.7742],[3.1035,6.5222,16.7053],[3.112,6.5195,13.3401],[3.1178,6.521,11.7037],[3.1344,6.5184,7.4998],[3.155,6.5195,8.1928],[3.1628,6.5221,17.0186],[3.1658,6.5213,17.4991],[3.1808,6.5333,7.2866],[3.183,6.5377,12.4868],[3.19,6.5601,12.53],[3.1906,6.5811,13.2628],[3.1953,6.6014,30.8375],[3.2165,6.6146,38.8481],[3.229,6.628,37.3545],[3.2318,6.6453,49.2469],[3.2303,6.6515,51.187],[3.2315,6.6561,50.8672],[3.2305,6.666,41.762],[3.2524,6.7065,71.0147],[3.2521,6.7054,72.7392],[3.2679,6.7069,45.1675],[3.2823,6.7025,65.9521],[3.3374,6.6794,16.5932],[3.3568,6.6664,38.7112],[3.3586,6.6616,27.9381],[3.362,6.6594,6.6208],[3.3633,6.6546,24.8116],[3.3681,6.6487,39.0664],[3.3698,6.6434,28.7156],[3.4376,6.6489,5.3838],[3.4436,6.6511,4.7412],[3.4397,6.6537,7.2901],[3.4366,6.6593,7.1105],[3.4342,6.6695,9.0819],[3.4354,6.6745,6.8371],[3.4493,6.6872,5.1479],[3.4562,6.691,12.5113],[3.4611,6.6916,8.8192],[3.4599,6.6905,10.2753],[4.0682,6.6854,15.2438],[4.0855,6.6819,7.234],[4.0918,6.6744,10.3506],[4.0942,6.6675,11.9956],[4.0791,6.6458,10.937],[4.0749,6.6422,10.9385],[4.0635,6.6385,6.687],[4.0501,6.6209,7.0791],[4.0464,6.6058,11.2756],[4.0506,6.5935,12.076],[4.0549,6.5913,7.5583],[4.0581,6.5857,7.4169],[4.0588,6.5622,11.0533],[4.0763,6.5575,0.1277],[4.0811,6.5523,11.9908],[4.0837,6.5465,0.0],[4.0876,6.5444,0.0],[4.0941,6.5445,0.0],[4.1076,6.5526,13.8358],[4.131,6.5732,6.0322],[4.1462,6.5794,2.2948],[4.1723,6.5859,0.0],[4.1968,6.5871,1.4466],[4.2019,6.586,1.1188],[4.2146,6.5704,1.0502],[4.2191,6.5622,1.4671],[4.2209,6.5467,0.0],[4.211,6.5349,0.0],[4.2028,6.5297,0.0],[4.1577,6.5086,0.0],[4.1513,6.5004,0.0],[4.1487,6.4919,0.0],[4.1522,6.4805,0.0],[4.167,6.4685,0.0],[4.1748,6.4668,0.0],[4.1782,6.4644,0.0],[4.2019,6.4601,0.0],[4.2063,6.4568,0.0],[4.2118,6.4562,0.0],[4.2204,6.4425,0.0],[4.2299,6.4349,7.8024],[4.2394,6.4327,14.7832],[4.2575,6.4421,5.6611],[4.2845,6.4386,7.8563],[4.2925,6.4336,10.7652],[4.2955,6.4333,10.3265],[4.3163,6.4376,0.0],[4.3329,6.4366,3.2598],[4.3426,6.4316,7.1351],[4.347,6.4235,1.8213],[4.3482,6.4114,0.0],[4.3469,6.4011,4.921],[4.3431,6.3938,6.0053]]]]}
,"properties": {"GID_1": "NGA.28_1","GID_0": "NGA","country": "Nigeria","province": "Ogun","VARNAME_1": "NA","NL_NAME_1": "NA","TYPE_1": "State","ENGTYPE_1": "State","CC_1": "NA","HASC_1": "NG.OG","ISO_1": "NG-OG","name": "Ogun.province","area_km2": 16164.66,"hist_schema_id": "Elevation0-9000","hist_area_km2": {"0": 1070.64,"25": 3145.4,"50": 2867.61,"75": 2596.82,"100": 2079.82,"125": 1414.87,"150": 1128.47,"175": 995.28,"200": 590.31,"225": 235.45,"250": 38.13,"275": 1.43,"300": 0.23,"325": 0.19}}}