{"type":"Feature","properties":{"featurecla":"River","scalerank":9,"rivernum":1038,"dissolve":"1038River","name":"Ogun1","name_alt":null,"note":null,"min_zoom":7.1,"strokeweig":0.2,"name_en":"Ogun","min_label":8.1},
"geometry":{"type": "LineString","coordinates": [[3.7552734375000232,8.5264834656191084,333.0517],[3.784912109375,8.4802432312441169,332.9722],[3.7916503906250232,8.4639834656191084,327.7792],[3.79248046875,8.45404694218162,316.0236],[3.787841796875,8.43280670780662,320.9166],[3.7872558593750232,8.4219912781191084,301.9674],[3.801025390625,8.35321686405662,308.2739],[3.8026367187500232,8.3282412781191084,309.4637],[3.797119140625,8.29108307499412,283.5385],[3.787841796875,8.25446198124412,307.7711],[3.771240234375,8.21454498905662,265.0],[3.74951171875,8.17670319218162,265.0],[3.7323242187500232,8.1377139343691169,244.9284],[3.72998046875,8.0942569031191169,252.6475],[3.7420898437500232,7.9997744812441169,232.9308],[3.73974609375,7.97247955936912,213.1299],[3.724853515625,7.93659088749412,219.7489],[3.7267089843750232,7.85187409061912,210.986],[3.730224609375,7.8353213562441084,188.1428],[3.750732421875,7.8012881531191169,217.3763],[3.7548828125,7.7901553406191084,213.2704],[3.7557617187500232,7.77448151249412,181.2186],[3.7513671875000232,7.77228424686912,183.8695],[3.7418457031250232,7.77448151249412,175.1631],[3.727783203125,7.7722354187441169,203.979],[3.71484375,7.7647647156191084,172.418],[3.593017578125,7.65961334843162,160.9481],[3.5731445312500232,7.6207217468691084,160.8047],[3.571533203125,7.5979190124941169,144.9826],[3.577392578125,7.5800967468691169,141.1548],[3.5849609375,7.56391022343162,122.5741],[3.5882812500000232,7.54608795780662,120.6475],[3.582275390625,7.5157412781191084,132.7828],[3.5689941406250232,7.48834869999412,116.1793],[3.55029296875,7.4637393249941084,117.5171],[3.5284667968750232,7.44196198124412,85.9398],[3.47119140625,7.40521881718162,76.755],[3.457763671875,7.39215729374412,93.4199],[3.4273925781250232,7.34686920780662,87.5625],[3.3984375,7.3218936218691084,64.4924],[3.3629394531250232,7.30158112186912,84.6305],[3.333984375,7.27802155155662,73.9453],[3.3248535156250232,7.2435244812441084,73.5005],[3.329345703125,7.2268252624941169,71.2173],[3.3424316406250232,7.19501373905662,59.1434],[3.344482421875,7.17706940311912,61.6571],[3.3387695312500232,7.1546572937441084,63.6785],[3.31875,7.11273834843162,46.9405],[3.3163085937500232,7.09003327030662,40.1942],[3.324462890625,7.06537506718162,30.6231],[3.3355957031250232,7.0488467468691169,25.8186],[3.341552734375,7.03156159061912,23.3742],[3.334228515625,7.00446198124412,17.1504]]}}