{"type": "Feature","bbox": [5.0235,11.6524,5.5668,12.2777],"geometry": {"type": "MultiPolygon","coordinates": [[[[5.3936,11.7174,349.7293],[5.403,11.7111,348.8865],[5.4114,11.6944,365.1628],[5.4176,11.6736,375.5399],[5.4302,11.6586,377.7388],[5.4435,11.6587,368.7121],[5.4449,11.6608,363.353],[5.4475,11.6836,366.6385],[5.4475,11.701599999999999,349.2957],[5.4626,11.7528,384.66],[5.4719,11.799,352.5999],[5.4838,11.9514,312.4702],[5.4797,11.9884,320.0341],[5.4859,11.9978,330.0682],[5.4945,11.9995,325.7487],[5.5044,11.9991,324.8912],[5.5163,12.0035,326.8874],[5.5301,12.0118,324.3023],[5.5439,12.0262,335.5333],[5.5538,12.0738,297.4084],[5.5533,12.1061,274.7157],[5.5628,12.1464,259.3628],[5.5668,12.1772,288.2318],[5.5638,12.2131,304.7131],[5.5563,12.2678,306.0921],[5.5533,12.2777,305.6309],[5.5249,12.2584,278.3027],[5.499,12.2553,299.3932],[5.4775,12.2569,317.3602],[5.4262,12.2501,299.4426],[5.4056,12.2547,317.7665],[5.3666,12.2517,292.4919],[5.328,12.2446,274.8421],[5.2853,12.2494,242.1754],[5.2131,12.2442,257.946],[5.1598,12.2512,234.247],[5.0937,12.2629,251.1429],[5.0624,12.2707,270.5671],[5.0476,12.2613,256.1967],[5.0413,12.2457,235.1918],[5.0341,12.2128,219.1575],[5.0322,12.1498,218.2861],[5.0352,12.1052,240.3839],[5.0337,12.0687,243.1477],[5.0347,12.0316,229.641],[5.0311,11.9953,255.5837],[5.0308,11.9364,265.7882],[5.0342,11.8999,296.0823],[5.0311,11.817,299.0825],[5.0266,11.7897,289.4761],[5.0282,11.7604,284.0838],[5.0274,11.7302,237.2838],[5.0235,11.6806,271.0126],[5.0373,11.6883,294.412],[5.0668,11.6884,270.0056],[5.1055,11.6724,315.9668],[5.1134,11.6612,337.0705],[5.1331,11.6524,342.9821],[5.195,11.6677,375.1653],[5.2081,11.6669,452.3282],[5.2355,11.6758,385.3122],[5.2404,11.6971,363.5154],[5.2488,11.7126,355.2373],[5.266,11.7225,357.4438],[5.2788,11.725,407.1173],[5.2934,11.7147,370.146],[5.3089,11.7103,358.2626],[5.3271,11.7099,360.44],[5.3855,11.7201,351.474],[5.3936,11.7174,349.7293]]]]}
,"properties": {"GID_2": "NGA.37.6_1","GID_0": "NGA","country": "Nigeria","GID_1": "NGA.37_1","province": "Zamfara","NL_NAME_1": "NA","county": "Gummi","VARNAME_2": "NA","NL_NAME_2": "NA","TYPE_2": "LocalAuthority","ENGTYPE_2": "LocalAuthority","CC_2": "NA","HASC_2": "NA","name": "Gummi.county","area_km2": 3263.427,"hist_schema_id": "Elevation0-9000","hist_area_km2": {"225": 307.028,"250": 579.427,"275": 695.256,"300": 593.199,"325": 435.543,"350": 368.275,"375": 190.376,"400": 58.302,"425": 25.453,"450": 9.53,"475": 1.038}}}