{"type":"Feature","properties":{"GID_2":"NGA.28.1_1","GID_0":"NGA","country":"Nigeria","GID_1":"NGA.28_1","province":"Ogun","NL_NAME_1":"NA","county":"AbeokutaSouth","VARNAME_2":"NA","NL_NAME_2":"NA","TYPE_2":"LocalAuthority","ENGTYPE_2":"LocalAuthority","CC_2":"NA","HASC_2":"NA","name":"Abeokuta_South.county"},
"geometry":{"type": "MultiPolygon","coordinates": [[[[3.3029,7.1268,34.5645],[3.34,7.1295,79.1917],[3.3686,7.1435,82.2726],[3.3735,7.1432,93.3164],[3.3869,7.1488,173.693],[3.3918,7.1491,156.2805],[3.4018,7.1561,159.004],[3.4056,7.1638,161.5787],[3.4051,7.1701,140.0678],[3.389,7.1893,115.6403],[3.3769,7.2139,107.8863],[3.3613,7.2204,84.9215],[3.3534,7.2285,59.5354],[3.3431,7.2067,97.7657],[3.3389,7.2007,52.4258],[3.3374,7.1945,36.2863],[3.3209,7.175,60.6544],[3.3058,7.1494,60.8442],[3.3031,7.1435,45.5804],[3.305,7.1317,37.9601],[3.3029,7.1268,34.5645]]]]}}