{"type":"Feature","properties":{"GID_2":"NGA.22.8_1","GID_0":"NGA","country":"Nigeria","GID_1":"NGA.22_1","province":"Kebbi","NL_NAME_1":"NA","county":"Dandi","VARNAME_2":"NA","NL_NAME_2":"NA","TYPE_2":"LocalAuthority","ENGTYPE_2":"LocalAuthority","CC_2":"NA","HASC_2":"NA","name":"Dandi.county"},
"geometry":{"type": "MultiPolygon","coordinates": [[[[3.5912,11.6733,155.0121],[3.6097,11.6476,162.2352],[3.6298,11.651,154.6049],[3.6436,11.6618,154.9316],[3.6474,11.6674,154.8369],[3.6688,11.651,154.3869],[3.7052,11.6094,154.0019],[3.7144,11.6044,153.2091],[3.7261,11.6038,153.5355],[3.738,11.5901,152.9869],[3.7525,11.5773,153.577],[3.7685,11.5734,153.5758],[3.7866,11.5664,153.299],[3.8209,11.5435,210.3403],[3.8476,11.5313,189.9053],[3.8908,11.5443,151.8049],[3.9096,11.5433,152.0903],[3.9374,11.5448,151.3382],[3.9731,11.5521,151.7395],[4.0085,11.5634,157.1047],[4.031,11.5727,155.6952],[4.0417,11.5815,158.5612],[4.0485,11.5909,159.0504],[4.0556,11.6069,161.1604],[4.0631,11.634,188.0205],[4.0657,11.6922,274.8602],[4.0635,11.7137,264.451],[4.0584,11.7395,284.4878],[4.0518,11.7599,271.5554],[4.0393,11.7852,242.4071],[4.0323,11.8091,226.2974],[4.0238,11.8448,230.288],[4.0187,11.8753,239.7798],[3.9987,11.9293,236.8914],[3.9834,11.9504,224.2805],[3.9756,11.9692,231.3211],[3.9662,11.9857,232.5419],[3.9551,11.9971,226.9291],[3.9316,12.0135,227.8018],[3.9141,12.0147,225.9533],[3.8652,12.0291,220.604],[3.8579,12.0328,223.0697],[3.8454,12.0352,221.314],[3.832,12.0424,220.9263],[3.8237,12.0508,223.892],[3.8117,12.0793,234.9515],[3.8041,12.0869,240.2384],[3.8044,12.0969,239.0049],[3.7537,12.0796,234.4348],[3.7363,12.0711,233.4047],[3.7245,12.0624,226.4294],[3.6961,12.0494,242.0797],[3.6872,12.0475,259.7983],[3.6496,12.054,212.8174],[3.6679,11.9916,231.5476],[3.6688,11.9779,229.0469],[3.6667,11.9733,225.7826],[3.6261,11.9305,179.9019],[3.6193,11.9254,175.149],[3.6177,11.9169,170.5455],[3.6226,11.8528,164.1669],[3.6268,11.8394,162.0208],[3.6344,11.8311,159.2807],[3.6659,11.8105,175.9745],[3.6712,11.7994,180.2077],[3.6794,11.7636,175.4109],[3.6792,11.7585,171.0845],[3.6102,11.7021,155.4909],[3.6002,11.692,155.2483],[3.5912,11.6733,155.0121]]]]}}