{"type":"Feature","properties":{"GID_2":"NGA.28.10_1","GID_0":"NGA","country":"Nigeria","GID_1":"NGA.28_1","province":"Ogun","NL_NAME_1":"NA","county":"IjebuNorth","VARNAME_2":"NA","NL_NAME_2":"NA","TYPE_2":"LocalAuthority","ENGTYPE_2":"LocalAuthority","CC_2":"NA","HASC_2":"NA","name":"Ijebu_North.county"},
"geometry":{"type": "MultiPolygon","coordinates": [[[[3.9303,6.8916,57.4463],[3.9658,6.9085,53.3086],[3.9896,6.9155,70.4813],[3.9983,6.9234,74.9965],[4.0182,6.9279,89.9694],[4.0292,6.937,101.1501],[4.0423,6.9367,104.2595],[4.051,6.9412,87.1186],[4.068,6.9391,74.5022],[4.0814,6.9421,73.9876],[4.1124,6.9441,72.8072],[4.1355,6.9612,72.2899],[4.1513,6.9706,64.7702],[4.1689,6.9906,79.0072],[4.1791,7.0042,90.5666],[4.1839,7.0143,84.9951],[4.1892,7.0193,87.7534],[4.1968,7.0304,96.5383],[4.2011,7.041,96.8888],[4.2038,7.0576,93.5121],[4.1942,7.0547,94.2759],[4.177,7.0589,122.5632],[4.1728,7.0701,110.2969],[4.1712,7.0863,142.1123],[4.1718,7.1128,168.4646],[4.1675,7.1281,163.3775],[4.1591,7.1416,167.6086],[4.144,7.1479,174.1608],[4.1361,7.1457,141.0668],[4.1213,7.13,147.8514],[4.0936,7.1185,100.9703],[4.085,7.1117,95.2287],[4.0762,7.1126,122.21],[4.0667,7.109,112.6225],[4.0288,7.1035,121.7397],[4.0172,7.1053,115.5709],[3.9818,7.0983,75.6526],[3.9678,7.0881,68.4054],[3.9574,7.0763,104.1954],[3.9451,7.071,110.0062],[3.9324,7.0684,78.9595],[3.9223,7.0614,86.7183],[3.9061,7.0562,70.9604],[3.8981,7.0586,80.9393],[3.8809,7.0568,102.4468],[3.857,7.0584,121.4425],[3.8395,7.0527,100.7656],[3.8331,7.0553,82.4918],[3.8312,7.051,85.8626],[3.8134,7.049,84.4082],[3.7821,7.0491,89.6234],[3.7833,7.0206,73.1361],[3.7779,7.0039,58.76],[3.7771,6.9935,53.7636],[3.7739,6.9864,81.5191],[3.7678,6.9787,77.0228],[3.7653,6.9659,63.9914],[3.7589,6.9574,56.3149],[3.7436,6.9244,95.2662],[3.7588,6.9197,113.8053],[3.7781,6.9034,88.8232],[3.7862,6.8998,95.8986],[3.7958,6.8981,57.3853],[3.8191,6.8958,24.4774],[3.8368,6.8911,59.189],[3.8536,6.8927,23.7459],[3.8651,6.8911,27.2528],[3.8924,6.895,34.1837],[3.9014,6.8926,43.5904],[3.9303,6.8916,57.4463]]]]}}