{"type":"Feature","properties":{"GID_2":"NGA.33.19_1","GID_0":"NGA","country":"Nigeria","GID_1":"NGA.33_1","province":"Rivers","NL_NAME_1":"NA","county":"Omumma","VARNAME_2":"NA","NL_NAME_2":"NA","TYPE_2":"LocalAuthority","ENGTYPE_2":"LocalAuthority","CC_2":"NA","HASC_2":"NA","name":"Omumma.county"},
"geometry":{"type": "MultiPolygon","coordinates": [[[[7.2515,5.1947,32.5859],[7.2465,5.1952,38.9337],[7.2248,5.1835,42.4031],[7.21,5.1794,56.5297],[7.1899,5.1825,58.1063],[7.1785,5.1876,57.9346],[7.1692,5.1882,54.8034],[7.149,5.1952,52.7695],[7.1502,5.1866,53.9736],[7.1447,5.1777,50.6634],[7.1446,5.1719,50.0035],[7.1379,5.1566,52.3429],[7.1313,5.1475,45.0095],[7.1241,5.1414,46.0673],[7.1228,5.1341,44.4324],[7.1192,5.1279,45.1782],[7.122,5.115,41.0682],[7.1198,5.1053,42.2316],[7.1203,5.0811,43.53],[7.1167,5.0699,42.3741],[7.1145,5.0351,40.0465],[7.1099,5.0184,37.897],[7.116,4.9849,32.5696],[7.1248,4.9748,25.173],[7.1407,4.9739,28.6128],[7.163,4.9836,21.6988],[7.1694,4.9886,18.7505],[7.1863,4.992,18.2743],[7.2003,5.0068,35.9763],[7.2063,5.0205,37.536],[7.2331,5.0533,48.1545],[7.2463,5.0833,52.7586],[7.2562,5.0976,53.2152],[7.2642,5.1054,59.5336],[7.2718,5.1211,62.0804],[7.2697,5.1463,63.4126],[7.2709,5.1661,58.333],[7.2603,5.194,51.8296],[7.2515,5.1947,32.5859]]]]}}