{"type":"Feature","properties":{"GID_2":"NGA.19.13_1","GID_0":"NGA","country":"Nigeria","GID_1":"NGA.19_1","province":"Kaduna","NL_NAME_1":"NA","county":"Kaura","VARNAME_2":"NA","NL_NAME_2":"NA","TYPE_2":"LocalAuthority","ENGTYPE_2":"LocalAuthority","CC_2":"NA","HASC_2":"NA","name":"Kaura.county"},
"geometry":{"type": "MultiPolygon","coordinates": [[[[8.5458,9.5252,588.8102],[8.5455,9.5284,584.3077],[8.5624,9.551,744.9776],[8.5561,9.608,1093.7001],[8.559,9.6269,937.7631],[8.5876,9.6474,911.0755],[8.5934,9.6656,908.6363],[8.59,9.6824,901.8691],[8.594,9.6967,900.0212],[8.6165,9.7143,1180.1377],[8.5768,9.7096,914.7192],[8.5479,9.7094,913.0009],[8.5255,9.7145,901.3981],[8.5016,9.7222,901.2675],[8.5015,9.7146,906.1873],[8.5139,9.6763,902.1713],[8.5121,9.6684,905.4332],[8.4975,9.6661,914.8431],[8.4758,9.6707,944.2496],[8.4217,9.6705,936.788],[8.3956,9.6688,868.8099],[8.381,9.6651,826.3049],[8.3678,9.6574,807.807],[8.3576,9.6452,790.3264],[8.3344,9.6007,764.5406],[8.3305,9.5868,767.3041],[8.3128,9.5664,761.0566],[8.3166,9.5656,755.2896],[8.3259,9.5572,777.8066],[8.353,9.505,603.319],[8.3712,9.4782,581.6852],[8.3816,9.4724,525.1734],[8.3962,9.4728,531.8507],[8.4236,9.4846,510.3954],[8.4507,9.4919,520.8722],[8.4603,9.4983,532.3578],[8.5293,9.5215,572.9427],[8.5458,9.5252,588.8102]]]]}}