{"type": "Feature","bbox": [7.5876,10.0139,8.1993,10.534],"geometry": {"type": "MultiPolygon","coordinates": [[[[7.6387,10.1588,604.8567],[7.6718,10.1031,644.5705],[7.6899,10.088,668.4197],[7.7144,10.0556,703.9355],[7.7303,10.04,693.2717],[7.7421,10.0258,684.3613],[7.7651,10.0168,734.9156],[7.7767,10.0139,751.1821],[7.8331,10.0271,800.7456],[7.8557,10.0361,756.2427],[7.8749,10.049,735.4431],[7.8946,10.0563,767.277],[7.9185,10.0614,782.881],[7.961,10.076599999999999,783.0348],[8.0283,10.0893,740.0223],[8.0404,10.0859,760.141],[8.0438,10.0819,748.8336],[8.102,10.0985,793.4267],[8.1132,10.1062,766.3616],[8.1383,10.1164,769.2579],[8.1993,10.1345,725.277],[8.1862,10.1744,707.4277],[8.1325,10.2617,701.3199],[8.1173,10.2763,699.4465],[8.0909,10.289,687.5104],[8.0314,10.3062,679.151],[8.0368,10.3497,661.0524],[8.0384,10.4461,675.8318],[8.0337,10.4805,679.6946],[8.0323,10.5047,675.356],[8.0183,10.5319,647.793],[8.0002,10.529,651.7734],[7.9854,10.5307,648.6049],[7.9728,10.534,649.7855],[7.9632,10.5305,636.7076],[7.9532,10.5207,655.9464],[7.9426,10.518,650.1368],[7.9309,10.5223,636.5463],[7.9186,10.5234,644.5988],[7.908,10.5175,625.0549],[7.8765,10.4856,629.943],[7.8452,10.4793,635.8823],[7.8386,10.4815,622.7994],[7.839,10.4892,612.1335],[7.8303,10.4956,606.4968],[7.8174,10.4961,624.6333],[7.803,10.4893,625.8462],[7.802,10.4789,625.5358],[7.7959,10.4708,630.556],[7.7926,10.4562,641.7923],[7.7658,10.4208,634.3013],[7.7604,10.4062,645.7084],[7.7556,10.3992,637.5281],[7.7157,10.3538,701.7466],[7.7009,10.34,689.8271],[7.6511,10.3109,655.0764],[7.6143,10.2847,647.3484],[7.5974,10.266,659.1506],[7.5876,10.2616,651.2126],[7.5995,10.2332,673.142],[7.6083,10.2196,605.834],[7.6201,10.1958,579.3998],[7.6249,10.1787,608.9781],[7.6351,10.167,605.6677],[7.6387,10.1588,604.8567]]]]}
,"properties": {"GID_2": "NGA.19.12_1","GID_0": "NGA","country": "Nigeria","GID_1": "NGA.19_1","province": "Kaduna","NL_NAME_1": "NA","county": "Kajuru","VARNAME_2": "NA","NL_NAME_2": "NA","TYPE_2": "LocalAuthority","ENGTYPE_2": "LocalAuthority","CC_2": "NA","HASC_2": "NA","name": "Kajuru.county","area_km2": 2235.059,"hist_schema_id": "Elevation0-9000","hist_area_km2": {"575": 5.593,"600": 54.126,"625": 229.724,"650": 437.928,"675": 440.416,"700": 400.937,"725": 332.069,"750": 216.193,"775": 89.77,"800": 24.4,"825": 2.755,"850": 1.022,"875": 0.125}}}