{"type": "Feature","bbox": [4.9688,12.9271,5.2705,13.1735],"geometry": {"type": "MultiPolygon","coordinates": [[[[4.9695,13.086,278.3568],[4.9688,13.0809,279.0136],[4.9725,13.0712,281.7209],[4.9931,13.0519,285.234],[5.0109,13.0248,242.4262],[5.0133,13.0071,292.8775],[5.0127,12.9819,290.4832],[5.0076,12.9634,293.7562],[5.02,12.9356,299.2817],[5.0213,12.9294,297.487],[5.0229,12.9287,298.8801],[5.0372,12.9271,301.7445],[5.0568,12.9289,308.3874],[5.0752,12.9342,307.4068],[5.0964,12.9448,322.3096],[5.1343,12.9605,273.3412],[5.1628,12.9798,271.1323],[5.1728,12.9808,263.0397],[5.1858,12.9745,283.6739],[5.1915,12.9647,282.0903],[5.212,12.9411,288.9361],[5.2206,12.9343,307.8164],[5.2276,12.9342,308.2795],[5.2399,12.9387,310.1384],[5.2487,12.9448,310.6883],[5.2568,12.9527,301.5606],[5.2705,12.976,282.6571],[5.263,12.992,297.055],[5.2414,13.0245,302.5255],[5.2429,13.031,302.6337],[5.2491,13.0399,301.8958],[5.2353,13.069,280.265],[5.233,13.0824,244.6568],[5.2353,13.0879,244.3039],[5.2355,13.1046,243.1576],[5.2328,13.1133,266.1957],[5.2282,13.1209,279.4203],[5.2234,13.127,279.9445],[5.179,13.1378,279.7276],[5.1637,13.1448,312.5215],[5.1566,13.1493,307.6208],[5.1391,13.1735,308.051],[5.1378,13.1719,310.6095],[5.1385,13.1696,310.3393],[5.1112,13.1509,301.8846],[5.0925,13.1506,295.5839],[5.0802,13.1572,292.5983],[5.0687,13.1612,286.2195],[5.0631,13.1558,283.5132],[5.054,13.1423,265.2742],[5.0385,13.1276,279.146],[4.9695,13.086,278.3568]]]]}
,"properties": {"GID_2": "NGA.34.21_1","GID_0": "NGA","country": "Nigeria","GID_1": "NGA.34_1","province": "Sokoto","NL_NAME_1": "NA","county": "Wamako","VARNAME_2": "Wamakko","NL_NAME_2": "NA","TYPE_2": "LocalAuthority","ENGTYPE_2": "LocalAuthority","CC_2": "NA","HASC_2": "NA","name": "Wamako.county","area_km2": 571.8986,"hist_schema_id": "Elevation0-9000","hist_area_km2": {"225": 5.4536,"250": 146.0928,"275": 181.757,"300": 230.0237,"325": 8.5715}}}