{"type":"Feature","properties":{"GID_2":"NGA.27.24_1","GID_0":"NGA","country":"Nigeria","GID_1":"NGA.27_1","province":"Niger","NL_NAME_1":"NA","county":"Tafa","VARNAME_2":"NA","NL_NAME_2":"NA","TYPE_2":"LocalAuthority","ENGTYPE_2":"LocalAuthority","CC_2":"NA","HASC_2":"NA","name":"Tafa.county"},
"geometry":{"type": "MultiPolygon","coordinates": [[[[7.3109,9.2975,521.2463],[7.3075,9.3015,507.7673],[7.2909,9.3041,501.4381],[7.2572,9.2939,487.545],[7.2512,9.2945,491.154],[7.2503,9.2975,486.5911],[7.2573,9.3103,498.2945],[7.2666,9.3417,529.9825],[7.2587,9.3378,527.7949],[7.241,9.3398,521.1124],[7.2291,9.3329,502.8429],[7.2222,9.3246,518.1266],[7.2193,9.2973,524.2412],[7.222,9.2897,520.3307],[7.2264,9.2627,504.3459],[7.2252,9.2596,505.2604],[7.2208,9.2554,487.7905],[7.2025,9.2548,507.8037],[7.1832,9.2491,485.3951],[7.1797,9.2435,488.1725],[7.1789,9.2077,465.0359],[7.1816,9.1918,431.3484],[7.1806,9.1689,400.0922],[7.1841,9.1513,416.6908],[7.1853,9.1218,456.9609],[7.1974,9.1411,426.3052],[7.2107,9.1562,446.5125],[7.224,9.1739,585.0454],[7.2351,9.1918,483.7105],[7.2521,9.2137,533.0178],[7.276,9.2525,496.8747],[7.2841,9.2588,502.8801],[7.304,9.2934,517.5255],[7.3109,9.2975,521.2463]]]]}}