{"type": "Feature","bbox": [13.3568,12.4378,14.197,13.7136],"geometry": {"type": "MultiPolygon","coordinates": [[[[14.0855,13.0774,280.4203],[14.0677,13.0974,280.1177],[14.0519,13.1217,280.2957],[14.0484,13.1238,280.1762],[14.025,13.1599,280.1695],[13.9798,13.2214,279.9963],[13.977,13.2276,279.567],[13.9744,13.229,279.4819],[13.9669,13.2391,279.4037],[13.8893,13.3461,278.8482],[13.8843,13.3567,279.995],[13.8702,13.3734,279.9979],[13.8659,13.3829,280.5919],[13.8612,13.3863,281.0986],[13.8497,13.4028,282.3377],[13.8034,13.4703,281.447],[13.7994,13.4791,276.4564],[13.7845,13.4965,276.4044],[13.781,13.5059,276.2083],[13.7744,13.5117,276.0293],[13.7626,13.5284,275.5846],[13.7611,13.5332,275.4751],[13.7555,13.5378,281.5283],[13.7519,13.545,281.7465],[13.7155,13.5961,274.5197],[13.7122,13.6056,283.3719],[13.7028,13.6143,282.1657],[13.6832,13.6414,281.9061],[13.6621,13.6666,274.0618],[13.6621,13.6693,273.9669],[13.6378,13.7015,281.795],[13.6345,13.7107,273.4942],[13.6166,13.7106,273.4976],[13.6128,13.7087,273.6265],[13.5921,13.7107,273.5828],[13.5869,13.7093,273.4801],[13.5549,13.7113,272.8205],[13.4653,13.7094,271.8047],[13.4568,13.7112,273.684],[13.4162,13.7092,273.4731],[13.3924,13.7118,276.79],[13.3762,13.7104,281.1908],[13.3705,13.7136,280.4686],[13.3625,13.7117,279.3214],[13.359,13.7128,280.7364],[13.3614,13.7048,282.1785],[13.3595,13.6963,278.8956],[13.3604,13.6698,277.0991],[13.3667,13.6504,277.2951],[13.3703,13.6236,273.2658],[13.3663,13.6071,275.8957],[13.3602,13.5991,276.4922],[13.3568,13.5761,278.7422],[13.3646,13.5571,278.9341],[13.4052,13.4957,277.4929],[13.4132,13.4772,276.9981],[13.4099,13.4374,278.5969],[13.4026,13.4296,278.4336],[13.4045,13.4358,280.7946],[13.4071,13.4639,278.3895],[13.397,13.4553,278.9476],[13.3904,13.443,280.4307],[13.3868,13.4126,282.3486],[13.4092,13.3876,282.7164],[13.4252,13.3723,282.5464],[13.4418,13.3641,282.5945],[13.4521,13.3652,281.4308],[13.465,13.3626,279.8301],[13.4603,13.3564,281.3645],[13.4544,13.3521,282.1304],[13.4589,13.3435,282.3747],[13.4715,13.3404,279.4972],[13.4777,13.3307,281.8295],[13.483,13.3134,282.0811],[13.4942,13.2945,280.6445],[13.5159,13.2622,280.6769],[13.531,13.2454,277.7034],[13.5436,13.2213,282.2119],[13.5503,13.2214,279.632],[13.571,13.1923,281.196],[13.5893,13.1725,281.9196],[13.601,13.1678,281.3983],[13.6063,13.1691,282.0587],[13.6226,13.153,281.6755],[13.634,13.1539,281.4626],[13.6467,13.1462,281.6391],[13.6604,13.1349,282.8522],[13.6898,13.1306,282.275],[13.705,13.1267,282.8489],[13.7153,13.1266,281.9297],[13.7229,13.123,281.9153],[13.7271,13.1094,282.0727],[13.7178,13.1095,281.8748],[13.7146,13.0964,283.3051],[13.7087,13.0921,283.0229],[13.7058,13.095,283.3796],[13.7054,13.1085,282.567],[13.7026,13.1077,282.6652],[13.6948,13.0995,283.8241],[13.6878,13.1035,284.0466],[13.6828,13.1001,284.269],[13.6891,13.0931,282.9552],[13.6918,13.0871,282.8151],[13.6992,13.087,282.7469],[13.7062,13.0747,282.4404],[13.7074,13.0678,282.7143],[13.7068,13.0521,283.1082],[13.7105,13.0468,282.5352],[13.7732,13.0652,286.3694],[13.7916,13.0889,283.993],[13.8105,13.1066,280.5909],[13.8307,13.1203,280.9838],[13.8503,13.1385,279.3829],[13.8634,13.1463,279.2007],[13.8762,13.1491,279.4087],[13.876,13.1418,279.2736],[13.8588,13.1213,284.2469],[13.8612,13.1142,282.7677],[13.8717,13.1172,283.2666],[13.8746,13.108,282.7423],[13.873,13.102,281.3912],[13.8769,13.0914,279.9302],[13.881,13.0853,280.3655],[13.8808,13.0801,280.2744],[13.8756,13.0767,281.6569],[13.8647,13.0985,281.4453],[13.851,13.0908,282.3654],[13.8487,13.0789,282.7781],[13.8418,13.0714,283.5126],[13.8092,13.0624,283.6424],[13.8105,13.0544,283.3476],[13.82,13.0326,283.6057],[13.811,13.0224,282.8097],[13.8008,13.0147,282.8375],[13.7708,12.9555,281.9676],[13.7725,12.9484,282.9916],[13.7773,12.9435,283.5071],[13.783,12.9441,281.2596],[13.7942,12.9508,282.476],[13.7994,12.9505,283.0514],[13.7978,12.9439,282.2245],[13.7999,12.9275,283.1603],[13.7983,12.9119,282.6689],[13.7889,12.8936,282.9009],[13.7915,12.8947,283.0527],[13.8028,12.893,280.9151],[13.7972,12.8714,280.312],[13.7887,12.8653,283.2875],[13.7786,12.8471,282.5914],[13.7851,12.838,283.2625],[13.8105,12.8448,281.1665],[13.8151,12.8362,282.5752],[13.8109,12.831,281.5411],[13.8016,12.8253,282.8662],[13.7902,12.822,281.0755],[13.7809,12.8213,281.7563],[13.7727,12.814,283.7356],[13.7753,12.8112,283.2186],[13.785,12.8145,282.2257],[13.7999,12.8095,282.5583],[13.8044,12.8062,283.0067],[13.7988,12.7943,280.3129],[13.8021,12.792,280.9742],[13.8215,12.7912,282.2092],[13.8208,12.7869,280.3379],[13.8094,12.7778,282.2593],[13.797,12.7778,282.6683],[13.788,12.7726,280.8474],[13.79,12.7659,282.718],[13.81,12.7695,282.0477],[13.8119,12.7601,280.3718],[13.8041,12.7531,281.7582],[13.8005,12.7589,280.5601],[13.7896,12.7581,282.7333],[13.7841,12.7552,282.1314],[13.7837,12.7485,281.6129],[13.788,12.7434,281.0219],[13.7999,12.7453,281.4496],[13.7971,12.7352,282.4493],[13.7863,12.7188,281.678],[13.8047,12.719,282.6636],[13.8106,12.7155,282.6176],[13.8055,12.7075,281.6809],[13.7955,12.7046,281.3623],[13.7822,12.697,281.8665],[13.787,12.693,281.5165],[13.8141,12.6942,281.1672],[13.8049,12.6824,282.2981],[13.7807,12.6761,282.627],[13.7755,12.6709,283.2168],[13.7827,12.6689,281.4241],[13.7946,12.6704,280.8282],[13.8086,12.6697,282.3591],[13.8092,12.6626,282.5437],[13.8182,12.6631,281.4721],[13.8249,12.6591,282.5878],[13.8302,12.6512,281.84],[13.8334,12.6399,282.0546],[13.8295,12.6218,282.3401],[13.835,12.6222,282.1617],[13.8462,12.6172,281.1406],[13.8524,12.6192,282.3953],[13.861,12.6131,283.0627],[13.8665,12.5897,282.9033],[13.8763,12.5816,282.3817],[13.8849,12.5814,282.3722],[13.9024,12.5966,281.6006],[13.9098,12.5935,281.881],[13.9213,12.5632,283.0558],[13.9261,12.5574,281.7494],[13.9409,12.5519,281.758],[13.9461,12.5348,281.6156],[13.9518,12.5324,281.6073],[13.9745,12.5282,280.8435],[13.981,12.5226,281.9994],[13.9818,12.5106,283.1483],[13.9804,12.5051,282.8488],[13.984,12.4947,282.7553],[13.9912,12.4893,283.1265],[13.9852,12.4703,282.8084],[13.9967,12.4602,282.9243],[14.0029,12.4606,283.4261],[14.0089,12.4545,283.4913],[14.0147,12.4515,282.9889],[14.0204,12.4521,282.8217],[14.0284,12.4572,282.3659],[14.0375,12.4594,281.8092],[14.0461,12.4597,281.8945],[14.0697,12.4552,282.332],[14.0689,12.4439,282.9825],[14.0648,12.4398,283.3659],[14.0653,12.4387,283.4069],[14.0787,12.4378,283.6806],[14.085,12.4488,283.0924],[14.0941,12.4502,282.8415],[14.1144,12.4499,283.1495],[14.1177,12.454,282.1582],[14.1381,12.4627,282.5145],[14.1729,12.4642,285.8367],[14.1778,12.464,285.8508],[14.1789,12.4615,285.6241],[14.1783,12.4648,285.8508],[14.1734,12.4739,286.3202],[14.1741,12.4796,286.0418],[14.1845,12.4822,289.0536],[14.1866,12.4854,288.3851],[14.1879,12.4989,284.7711],[14.1927,12.5019,284.6515],[14.1951,12.5016,283.4728],[14.197,12.5039,283.7598],[14.1942,12.5137,283.3275],[14.1854,12.5243,282.5551],[14.1837,12.5292,282.2878],[14.1229,12.8791,280.9686],[14.0855,13.0774,280.4203]]]]}
,"properties": {"GID_2": "NGA.8.19_1","GID_0": "NGA","country": "Nigeria","GID_1": "NGA.8_1","province": "Borno","NL_NAME_1": "NA","county": "LakeChad","VARNAME_2": "NA","NL_NAME_2": "NA","TYPE_2": "Waterbody","ENGTYPE_2": "Waterbody","CC_2": "NA","HASC_2": "NA","name": "Lake_Chad.county","area_km2": 5225.802,"hist_schema_id": "Elevation0-9000","hist_area_km2": {"275": 5224.685,"300": 1.118}}}