{"type": "Feature","bbox": [6.7429,6.08,6.8188,6.1355],"geometry": {"type": "MultiPolygon","coordinates": [[[[6.7538,6.1236,14.0],[6.7496,6.1101,14.0],[6.7429,6.0988,18.2205],[6.7555,6.1007,14.0],[6.7647,6.0989,21.9162],[6.8039,6.08,23.3674],[6.8079,6.0885,24.9613],[6.8088,6.1007,75.8203],[6.8188,6.1229,82.4746],[6.8076,6.1261,131.0749],[6.7934,6.1355,53.7626],[6.7841,6.1288,29.6383],[6.7791,6.1305,30.0751],[6.7538,6.1236,14.0]]]]}
,"properties": {"GID_2": "NGA.4.17_1","GID_0": "NGA","country": "Nigeria","GID_1": "NGA.4_1","province": "Anambra","NL_NAME_1": "NA","county": "OnitshaNorth","VARNAME_2": "NA","NL_NAME_2": "NA","TYPE_2": "LocalAuthority","ENGTYPE_2": "LocalAuthority","CC_2": "NA","HASC_2": "NA","name": "Onitsha_North.county","area_km2": 28.37606,"hist_schema_id": "Elevation0-9000","hist_area_km2": {"25": 18.84722,"50": 4.08982,"75": 2.52978,"100": 2.02381,"125": 0.86433,"150": 0.02108}}}