{"type":"Feature","properties":{"GID_2":"NGA.3.10_1","GID_0":"NGA","country":"Nigeria","GID_1":"NGA.3_1","province":"AkwaIbom","NL_NAME_1":"NA","county":"IbionoIbom","VARNAME_2":"NA","NL_NAME_2":"NA","TYPE_2":"LocalAuthority","ENGTYPE_2":"LocalAuthority","CC_2":"NA","HASC_2":"NA","name":"Ibiono_Ibom.county"},
"geometry":{"type": "MultiPolygon","coordinates": [[[[7.8292,5.0368,68.9554],[7.8331,5.0345,66.6738],[7.8355,5.0294,61.18],[7.8523,5.0246,73.5258],[7.8553,5.0366,67.1126],[7.8612,5.0462,70.5667],[7.8686,5.065,74.5457],[7.8687,5.0694,76.8986],[7.8799,5.0761,81.2082],[7.8827,5.0804,78.4911],[7.8819,5.0869,56.78],[7.8965,5.1064,54.0896],[7.899,5.1156,21.7749],[7.9013,5.1186,21.157],[7.9224,5.135,44.2257],[7.9362,5.1507,40.1461],[7.9364,5.1751,63.3324],[7.9397,5.1824,62.4161],[7.9493,5.1913,27.9289],[7.9584,5.2075,7.613],[7.9693,5.2124,3.2863],[7.9733,5.2169,2.5],[7.9752,5.2203,5.3598],[7.9719,5.2301,3.0],[7.9764,5.2374,3.0],[7.9829,5.2414,10.0801],[7.9885,5.256,14.1087],[7.9952,5.2606,7.0083],[7.9786,5.2674,6.6847],[7.934,5.264,23.3454],[7.9168,5.2571,64.8793],[7.9016,5.2583,70.2644],[7.8932,5.2707,84.1513],[7.8889,5.2896,19.4312],[7.8754,5.2947,13.3062],[7.8648,5.3237,5.8123],[7.8766,5.3441,19.4753],[7.8773,5.3501,21.3143],[7.8688,5.3482,23.2738],[7.8514,5.3395,7.2476],[7.8442,5.3378,15.3034],[7.8249,5.3155,17.1892],[7.8187,5.3006,26.3853],[7.8133,5.2929,44.8476],[7.8093,5.2931,32.8003],[7.8067,5.2842,31.5568],[7.8092,5.2688,41.6022],[7.8226,5.2542,98.5822],[7.8304,5.2368,85.7361],[7.8305,5.2163,81.9731],[7.8343,5.1939,60.115],[7.8365,5.1893,70.5023],[7.8343,5.1794,49.6766],[7.8337,5.1559,80.7915],[7.8356,5.1469,95.9049],[7.8345,5.1365,94.2965],[7.8369,5.1017,77.7959],[7.8347,5.0603,67.9806],[7.8318,5.0433,69.7363],[7.8292,5.0368,68.9554]]]]}}