{"type": "Feature","bbox": [8.353,7.6401,9.1694,8.1421],"geometry": {"type": "MultiPolygon","coordinates": [[[[9.0362,7.6565,120.3547],[9.0402,7.6611,125.106],[9.041,7.6809,134.4875],[9.0379,7.6922,113.1114],[9.0387,7.7029,128.0283],[9.0283,7.7271,116.6312],[9.0272,7.7518,161.2417],[9.0161,7.7951,112.1207],[9.0112,7.8026,92.4292],[9.0079,7.8144,82.379],[9.0038,7.8213,80.6445],[9.0033,7.8278,74.805],[9.0125,7.8437,76.1055],[9.0116,7.8488,75.2025],[9.0161,7.8563,77.7524],[9.0167,7.8626,80.6138],[9.0237,7.8677,77.2115],[9.0246,7.8723,78.9957],[9.0484,7.8954,86.0426],[9.0611,7.9052,77.3171],[9.0652,7.9102,76.9646],[9.0725,7.9129,77.1549],[9.0957,7.9171,96.6998],[9.1099,7.9168,97.2796],[9.1229,7.9185,104.285],[9.1476,7.9121,73.0744],[9.1583,7.9144,76.0367],[9.1694,7.9145,72.7246],[9.0466,8.0122,189.392],[8.979,8.0583,186.3965],[8.9789,8.0471,191.7524],[8.9149,8.0435,122.5228],[8.8697,8.0452,139.7183],[8.8025,8.0559,143.4467],[8.7733,8.0651,122.2047],[8.7252,8.0752,119.7879],[8.6035,8.1165,134.1363],[8.5622,8.1349,171.9701],[8.5367,8.1402,176.5516],[8.519,8.1421,166.7237],[8.4959,8.1421,163.7663],[8.4549,8.1347,202.7596],[8.3911,8.0993,164.6393],[8.3711,8.0766,176.6817],[8.3669,8.0647,180.5337],[8.3579,8.0482,182.4431],[8.3546,8.0305,164.0742],[8.353,8.0125,140.9828],[8.3558,7.9899,155.1904],[8.3655,7.9738,108.1005],[8.3721,7.9515,99.7596],[8.3868,7.9206,80.9939],[8.3913,7.9016,76.0413],[8.4121,7.8574,83.1656],[8.4286,7.8107,81.5591],[8.4415,7.8226,78.3528],[8.4532,7.8305,91.116],[8.4825,7.844,97.0071],[8.499,7.85,102.0194],[8.5101,7.8519,92.0121],[8.5493,7.8553,85.2331],[8.5627,7.8547,101.7285],[8.5769,7.8516,145.1209],[8.6106,7.8336,138.9974],[8.6372,7.8144,98.2055],[8.6488,7.8004,94.3758],[8.6542,7.7916,109.3825],[8.6559,7.7826,98.3989],[8.6624,7.7739,104.2887],[8.6698,7.7563,76.4925],[8.6752,7.7343,70.2816],[8.6771,7.7142,90.3372],[8.6827,7.689,77.3313],[8.6777,7.6598,113.1055],[8.6749,7.6523,121.1898],[8.6891,7.6564,114.1126],[8.6966,7.6611,107.9662],[8.716,7.6606,79.684],[8.7678,7.6533,127.5557],[8.7791,7.6726,142.8888],[8.7927,7.6849,132.8465],[8.8037,7.6911,125.5321],[8.8245,7.6956,116.479],[8.8413,7.6942,140.8844],[8.8491,7.692,142.9608],[8.8647,7.6857,152.1802],[8.8768,7.6786,145.9723],[8.8952,7.6778,146.9848],[8.9131,7.6807,127.3089],[8.9396,7.6817,113.7438],[8.9499,7.6794,95.112],[8.9591,7.6749,90.4485],[8.9667,7.6623,88.0215],[8.9774,7.6525,82.2495],[8.9824,7.6445,81.5517],[8.991,7.6418,78.3144],[8.991,7.6456,76.6029],[9.0051,7.6401,89.8576],[9.0164,7.6406,99.1368],[9.0307,7.6501,97.1411],[9.0362,7.6565,120.3547]]]]}
,"properties": {"GID_2": "NGA.7.6_1","GID_0": "NGA","country": "Nigeria","GID_1": "NGA.7_1","province": "Benue","NL_NAME_1": "NA","county": "Guma","VARNAME_2": "NA","NL_NAME_2": "NA","TYPE_2": "LocalAuthority","ENGTYPE_2": "LocalAuthority","CC_2": "NA","HASC_2": "NA","name": "Guma.county","area_km2": 2815.381,"hist_schema_id": "Elevation0-9000","hist_area_km2": {"75": 565.486,"100": 834.751,"125": 791.14,"150": 463.072,"175": 128.536,"200": 27.085,"225": 5.081,"250": 0.105,"275": 0.042,"300": 0.084}}}