{"type": "Feature","bbox": [4.5675,7.4013,4.6537,7.5197],"geometry": {"type": "MultiPolygon","coordinates": [[[[4.5835,7.5197,278.7227],[4.5868,7.5102,282.3071],[4.5893,7.4904,274.0657],[4.5855,7.4702,298.3513],[4.5675,7.444,258.2985],[4.5676,7.4336,266.6252],[4.5717,7.416,254.5006],[4.5709,7.4032,258.4053],[4.5729,7.4013,248.6733],[4.5917,7.4013,246.4615],[4.6106,7.4126,293.9003],[4.6332,7.4465,262.7033],[4.6485,7.4389,296.9231],[4.6457,7.4452,302.2596],[4.6513,7.4444,303.7381],[4.6537,7.4515,311.598],[4.641,7.4773,273.7415],[4.6279,7.4973,387.1633],[4.6108,7.5094,381.1174],[4.5959,7.5156,293.326],[4.5931,7.515,285.3359],[4.5835,7.5197,278.7227]]]]}
,"properties": {"GID_2": "NGA.30.14_1","GID_0": "NGA","country": "Nigeria","GID_1": "NGA.30_1","province": "Osun","NL_NAME_1": "NA","county": "IfeCentral","VARNAME_2": "NA","NL_NAME_2": "NA","TYPE_2": "LocalAuthority","ENGTYPE_2": "LocalAuthority","CC_2": "NA","HASC_2": "NA","name": "Ife_Central.county","area_km2": 70.36372,"hist_schema_id": "Elevation0-9000","hist_area_km2": {"225": 0.14718,"250": 18.85883,"275": 29.17983,"300": 15.91367,"325": 3.09009,"350": 1.34533,"375": 1.19818,"400": 0.37837,"425": 0.12613,"450": 0.12613}}}