{"type": "Feature","bbox": [7.4191,10.4711,7.4844,10.6369],"geometry": {"type": "MultiPolygon","coordinates": [[[[7.4804,10.4889,628.4001],[7.476,10.5116,589.9721],[7.4795,10.5174,597.3997],[7.4789,10.5241,602.2586],[7.4735,10.5244,590.0544],[7.4718,10.5265,582.6703],[7.4712,10.5378,591.0503],[7.4778,10.5388,579.7484],[7.479,10.5476,582.4658],[7.478,10.5554,597.428],[7.4731,10.5549,604.1582],[7.4734,10.5602,600.3831],[7.4779,10.5614,593.806],[7.4819,10.5651,585.2966],[7.4829,10.57,589.5279],[7.4807,10.5868,585.2663],[7.4844,10.5983,606.9348],[7.4792,10.6105,592.7516],[7.4827,10.6216,602.7615],[7.482,10.6327,593.2134],[7.4549,10.6369,631.6545],[7.4383,10.6362,632.1961],[7.4317,10.6313,640.9008],[7.432,10.6078,639.9311],[7.4313,10.6025,636.3741],[7.4276,10.5985,636.3975],[7.4267,10.5951,625.6808],[7.4313,10.5871,642.2325],[7.4314,10.5801,621.4114],[7.4295,10.5739,612.2719],[7.4206,10.5606,611.3108],[7.4191,10.5525,613.9947],[7.4212,10.5426,613.8964],[7.4286,10.5538,625.2285],[7.4364,10.5523,617.9053],[7.4402,10.5498,625.6201],[7.4424,10.5457,629.5641],[7.4428,10.5243,619.6465],[7.4385,10.5219,608.8705],[7.4334,10.5119,600.7504],[7.4365,10.5083,584.9862],[7.4346,10.5032,580.6914],[7.4363,10.4928,571.3461],[7.4302,10.49,582.5653],[7.4345,10.4817,591.3633],[7.4381,10.4809,587.5215],[7.4398,10.4747,585.6488],[7.4436,10.4726,588.5105],[7.454,10.4711,606.2791],[7.4581,10.4781,585.1049],[7.4644,10.4838,608.6154],[7.4804,10.4889,628.4001]]]]}
,"properties": {"GID_2": "NGA.19.9_1","GID_0": "NGA","country": "Nigeria","GID_1": "NGA.19_1","province": "Kaduna","NL_NAME_1": "NA","county": "KadunaNorth","VARNAME_2": "NA","NL_NAME_2": "NA","TYPE_2": "LocalAuthority","ENGTYPE_2": "LocalAuthority","CC_2": "NA","HASC_2": "NA","name": "Kaduna_North.county","area_km2": 88.49955,"hist_schema_id": "Elevation0-9000","hist_area_km2": {"575": 12.40341,"600": 34.74691,"625": 35.30535,"650": 6.04388}}}