{"type": "Feature","bbox": [2.7179,6.4596,2.9125,6.8652],"geometry": {"type": "MultiPolygon","coordinates": [[[[2.7179,6.4735,3.2408],[2.7381,6.467,4.3119],[2.774,6.4736,6.5864],[2.7931,6.4739,7.1905],[2.805,6.4668,4.859],[2.8131,6.4648,3.9115],[2.8142,6.4625,7.3351],[2.8245,6.4596,10.7388],[2.8336,6.4645,9.2274],[2.8395,6.4713,6.6316],[2.8615,6.4878,18.7706],[2.8747,6.4942,25.902],[2.8803,6.499,5.0444],[2.8819,6.5116,9.3108],[2.8811,6.5161,8.1907],[2.8749,6.5245,31.9658],[2.8582,6.5612,29.7462],[2.8571,6.5679,27.8065],[2.8596,6.5777,38.0103],[2.8744,6.5934,16.1788],[2.8834,6.5962,26.9909],[2.8916,6.6053,31.4516],[2.9063,6.6136,25.4584],[2.9124,6.6213,38.6671],[2.9125,6.6275,39.3311],[2.9091,6.6304,39.0888],[2.9057,6.6452,41.0496],[2.8852,6.6494,48.3569],[2.8806,6.649,50.2793],[2.87,6.6524,56.9687],[2.8577,6.6607,54.8232],[2.8516,6.6693,53.7275],[2.8416,6.6787,55.409],[2.8409,6.6907,61.0106],[2.8339,6.7008,60.7096],[2.8301,6.7096,60.1538],[2.8108,6.7283,73.5569],[2.8115,6.7428,77.1934],[2.8047,6.7669,93.702],[2.8069,6.7724,90.3226],[2.8036,6.7842,90.8855],[2.8071,6.8007,84.5499],[2.8073,6.8097,75.4947],[2.7978,6.8596,40.9626],[2.7797,6.8567,50.3508],[2.7695,6.8581,59.7221],[2.7458,6.8652,94.8991],[2.7438,6.8566,112.517],[2.7447,6.8471,103.5792],[2.7492,6.8393,94.7776],[2.7298,6.8085,90.732],[2.728,6.8017,101.4034],[2.7326,6.7792,94.534],[2.7392,6.7653,98.6764],[2.7518,6.7591,92.2204],[2.7629,6.7577,84.1158],[2.7787,6.7592,90.6202],[2.7863,6.7546,87.0678],[2.7895,6.7481,83.7945],[2.7897,6.7389,79.5069],[2.786,6.7233,51.0693],[2.7866,6.6948,29.7801],[2.77,6.6799,60.2187],[2.7608,6.6742,63.2491],[2.7525,6.6657,58.9667],[2.7314,6.6308,15.3813],[2.736,6.6087,15.2364],[2.7446,6.5838,9.0734],[2.7531,6.5705,8.7224],[2.7506,6.5574,17.0117],[2.7429,6.5454,29.9245],[2.7293,6.5344,12.8063],[2.7247,6.5264,20.5615],[2.7203,6.5078,22.5875],[2.7179,6.4735,3.2408]]]]}
,"properties": {"GID_2": "NGA.28.14_1","GID_0": "NGA","country": "Nigeria","GID_1": "NGA.28_1","province": "Ogun","NL_NAME_1": "NA","county": "Ipokia","VARNAME_2": "NA","NL_NAME_2": "NA","TYPE_2": "LocalAuthority","ENGTYPE_2": "LocalAuthority","CC_2": "NA","HASC_2": "NA","name": "Ipokia.county","area_km2": 474.7911,"hist_schema_id": "Elevation0-9000","hist_area_km2": {"0": 44.1333,"25": 180.2643,"50": 144.7025,"75": 53.6694,"100": 51.2006,"125": 0.821}}}