{"type": "Feature","bbox": [6.6462,4.7718,6.9093,5.2732],"geometry": {"type": "MultiPolygon","coordinates": [[[[6.8964,4.7718,7.8106],[6.9093,4.7729,5.0084],[6.901,4.7935,1.8378],[6.899,4.7918,4.0995],[6.901,4.7874,3.6681],[6.8996,4.786,3.7543],[6.8985,4.7896,3.8445],[6.8949,4.7893,0.0],[6.8946,4.7918,0.0],[6.8896,4.7929,6.419],[6.8885,4.7957,1.3984],[6.8862,4.7963,0.0],[6.8768,4.7874,0.9819],[6.8716,4.7846,0.0],[6.876,4.7793,3.0309],[6.8964,4.7718,7.8106]]],
[[[6.793,4.7943,5.3638],[6.8018,4.7999,10.6138],[6.8018,4.8018,6.6815],[6.7924,4.7963,2.896],[6.7899,4.7963,5.0305],[6.7824,4.8021,0.0],[6.7793,4.8026,0.0],[6.7774,4.8004,0.907],[6.7707,4.799,0.0],[6.7699,4.7974,0.2964],[6.7621,4.7939,0.0],[6.7627,4.7939,0.0],[6.7688,4.7954,1.231],[6.7773,4.7968,5.3804],[6.793,4.7943,5.3638]]],
[[[6.8541,4.7916,10.8941],[6.8687,4.7865,0.7521],[6.8812,4.7949,6.1718],[6.8843,4.7999,0.0],[6.8812,4.8021,0.0],[6.8518,4.8074,1.0844],[6.8396,4.819,0.0],[6.8257,4.8243,0.0],[6.8224,4.8115,0.0],[6.8249,4.8032,6.6705],[6.8215,4.7987,1.5355],[6.8271,4.7918,1.0573],[6.8541,4.7916,10.8941]]],
[[[6.7443,4.8126,0.0],[6.7432,4.8132,0.1694],[6.7435,4.8024,4.2774],[6.7446,4.8015,1.3409],[6.7435,4.801,0.0],[6.7438,4.7946,0.0],[6.7443,4.7926,0.5292],[6.746,4.7926,0.5292],[6.7501,4.7974,1.0552],[6.7554,4.799,0.4391],[6.756,4.8021,0.2866],[6.7482,4.8071,3.1322],[6.7443,4.8126,0.0]]],
[[[6.7371,4.8079,0.58],[6.7365,4.809,0.1741],[6.736,4.8068,0.0],[6.7376,4.8051,0.0],[6.7379,4.8057,0.8641],[6.7371,4.8079,0.58]]],
[[[6.7217,4.8116,10.4434],[6.7323,4.8007,1.7659],[6.7338,4.8012,1.7659],[6.7329,4.8121,0.0],[6.7307,4.8174,0.0],[6.7204,4.8213,0.0],[6.7199,4.8174,1.2798],[6.7174,4.8151,2.2364],[6.7217,4.8116,10.4434]]],
[[[6.771,5.2434,35.9373],[6.7637,5.2671,37.9671],[6.7602,5.2732,37.1434],[6.7559,5.2714,34.4625],[6.713,5.2671,15.7332],[6.7071,5.2623,14.9112],[6.7002,5.2502,13.8388],[6.6952,5.2116,15.5008],[6.696,5.2049,14.1702],[6.705,5.1902,15.7116],[6.7085,5.1759,17.9887],[6.7071,5.1635,13.4085],[6.7018,5.1486,13.9553],[6.6973,5.1268,16.4229],[6.6788,5.0646,9.7405],[6.6717,5.0539,10.3715],[6.6715,5.0447,8.3004],[6.6685,5.042,9.3969],[6.6662,5.0307,10.6884],[6.6656,5.0238,12.1372],[6.6671,5.0164,9.9069],[6.6625,5.0004,6.8512],[6.6592,4.9972,9.5617],[6.6575,4.992,7.4998],[6.6504,4.981,10.0118],[6.6482,4.9698,7.4132999999999996],[6.6547,4.9607,7.0942],[6.656,4.9546,7.1894],[6.6552,4.9457,8.7565],[6.6518,4.9395,8.4654],[6.6489,4.9269,7.986],[6.6495,4.9216,9.8497],[6.648,4.9156,6.3628],[6.6503,4.9024,12.248],[6.6462,4.8924,11.9648],[6.6498,4.8879,11.9098],[6.6614,4.8907,15.5831],[6.6732,4.8903,7.6561],[6.6648,4.872,7.2073],[6.6564,4.8671,10.239],[6.6538,4.8616,5.2458],[6.6572,4.8585,7.176],[6.673,4.8523,6.4765],[6.6834,4.8406,13.0259],[6.6864,4.8405,11.5026],[6.6899,4.8375,5.5053],[6.694,4.8358,6.4538],[6.7079,4.8376,8.704],[6.712,4.8364,2.5864],[6.7135,4.8318,1.751],[6.7133,4.8196,1.9262],[6.7159,4.816,0.8875],[6.7182,4.8171,0.0],[6.7174,4.8229,2.5346],[6.7215,4.8263,0.0],[6.7271,4.8249,0.0],[6.7326,4.8263,0.1272],[6.7371,4.824,4.0026],[6.7407,4.8249,0.6203],[6.7421,4.8315,2.537],[6.7404,4.8363,1.7065],[6.7426,4.8399,12.3746],[6.741,4.8357,1.7065],[6.744,4.8315,0.1816],[6.7426,4.8218,0.0477],[6.7463,4.8188,0.3921],[6.7535,4.8074,0.232],[6.7651,4.8082,0.0],[6.7654,4.8104,0.1723],[6.7629,4.8135,0.0],[6.764,4.8193,2.8137],[6.7629,4.8218,2.1766],[6.764,4.8215,2.1766],[6.7649,4.819,11.1237],[6.7649,4.8118,0.0],[6.7682,4.8132,0.0],[6.7754,4.8113,0.0],[6.7771,4.819,1.8261],[6.7796,4.8249,3.3963],[6.7782,4.8204,0.9978],[6.7793,4.8149,0.0],[6.7871,4.816,0.5752],[6.7901,4.8182,3.2557],[6.7899,4.8157,4.186],[6.7857,4.814,0.0],[6.7807,4.8076,0.0],[6.781,4.8057,0.0],[6.7888,4.7982,0.0],[6.7929,4.7979,1.7287],[6.7996,4.8035,2.4759],[6.803,4.8021,0.5953],[6.8047,4.8054,3.1104],[6.81,4.808,12.7378],[6.8157,4.8047,5.9524],[6.8204,4.7995,0.5175],[6.8232,4.8043,0.0],[6.8201,4.8121,2.4319],[6.8215,4.8129,0.0],[6.8221,4.821,2.0773],[6.8265,4.826,0.433],[6.8379,4.8221,4.6181],[6.8549,4.8079,0.0],[6.8826,4.8046,3.7433],[6.8862,4.8015,0.0],[6.8874,4.7971,2.1214],[6.8926,4.7932,0.0],[6.896,4.7946,1.5506],[6.8957,4.7987,2.7341],[6.8985,4.8021,5.516],[6.8976,4.7979,0.0],[6.9019,4.7951,0.3572],[6.9004,4.821,3.3361],[6.9028,4.8258,8.7137],[6.8973,4.8296,8.3865],[6.887,4.8323,11.3458],[6.8829,4.8361,10.747],[6.8832,4.8407,13.6282],[6.8805,4.8462,13.2428],[6.8828,4.8568,14.41],[6.8689,4.8566,11.4386],[6.8593,4.8604,9.6204],[6.8474,4.8673,7.7602],[6.827,4.8845,9.8771],[6.8211,4.8922,17.5983],[6.8133,4.9117,9.9726],[6.8112,4.9391,6.4585],[6.8126,4.9642,12.3895],[6.8196,4.9749,10.283],[6.8151,5.0047,19.267],[6.8108,5.0108,19.8879],[6.8021,5.0172,17.0977],[6.7838,5.0253,17.8087],[6.776,5.0305,22.5743],[6.7563,5.052,21.7996],[6.7567,5.061,23.698],[6.7655,5.0809,21.8134],[6.778,5.0954,27.9209],[6.7857,5.1011,27.155],[6.7965,5.1152,30.519],[6.8032,5.1296,34.027],[6.8091,5.1518,32.2011],[6.804,5.1648,33.1976],[6.8026,5.1731,32.9044],[6.7961,5.1878,35.1],[6.796,5.1974,36.1497],[6.8044,5.2112,39.2874],[6.7818,5.2289,38.838],[6.771,5.2434,35.9373]]]]}
,"properties": {"GID_2": "NGA.33.10_1","GID_0": "NGA","country": "Nigeria","GID_1": "NGA.33_1","province": "Rivers","NL_NAME_1": "NA","county": "Emuoha","VARNAME_2": "NA","NL_NAME_2": "NA","TYPE_2": "LocalAuthority","ENGTYPE_2": "LocalAuthority","CC_2": "NA","HASC_2": "NA","name": "Emuoha.county","area_km2": 746.2078,"hist_schema_id": "Elevation0-9000","hist_area_km2": {"0": 360.3452,"25": 373.6369,"50": 12.2257}}}