{"type":"Feature","properties":{"GID_2":"NGA.5.6_1","GID_0":"NGA","country":"Nigeria","GID_1":"NGA.5_1","province":"Bauchi","NL_NAME_1":"NA","county":"Dass","VARNAME_2":"NA","NL_NAME_2":"NA","TYPE_2":"LocalAuthority","ENGTYPE_2":"LocalAuthority","CC_2":"NA","HASC_2":"NA","name":"Dass.county"},
"geometry":{"type": "MultiPolygon","coordinates": [[[[9.3905,9.8985,876.0784],[9.4134,9.8996,830.5488],[9.4231,9.8963,816.877],[9.478,9.9014,786.5201],[9.5202,9.9002,643.9653],[9.5345,9.8986,676.3583],[9.5699,9.8889,595.5692],[9.5737,9.8898,588.3411],[9.5858,9.8987,591.1169],[9.596,9.9185,602.6234],[9.6106,9.9711,581.6916],[9.6077,9.9839,562.184],[9.5908,9.9821,576.6389],[9.5665,9.9834,595.356],[9.5549,9.992,587.5068],[9.563,10.0021,581.3936],[9.5661,10.0148,574.4359],[9.5645,10.0204,577.9955],[9.5576,10.0306,583.3605],[9.5571,10.041,595.2338],[9.5609,10.044,601.9557],[9.5676,10.0425,599.6625],[9.5776,10.0439,590.23],[9.5808,10.0469,586.5606],[9.581,10.0568,579.1545],[9.5771,10.0668,571.5344],[9.5723,10.0742,582.7063],[9.5624,10.0816,584.7958],[9.5345,10.0963,597.7679],[9.5006,10.1189,601.6255],[9.4787,10.1256,607.8707],[9.4686,10.1212,623.2157],[9.4573,10.1202,623.8314],[9.4435,10.1153,634.261],[9.4246,10.1079,681.439],[9.411,10.0989,676.637],[9.4004,10.088,675.8637],[9.3815,10.0596,740.2734],[9.353,9.985,776.0105],[9.3555,9.9588,818.5621],[9.3742,9.9322,813.7381],[9.38,9.9118,792.9489],[9.3867,9.9011,838.4332],[9.386,9.8984,862.322],[9.3905,9.8985,876.0784]]]]}}