{"type": "Feature","bbox": [7.1331,12.083,7.5447,12.3314],"geometry": {"type": "MultiPolygon","coordinates": [[[[7.4445,12.2764,512.0755],[7.4455,12.2735,514.11],[7.4371,12.2794,507.1489],[7.4199,12.2808,491.296],[7.4074,12.2731,507.1958],[7.3848,12.2798,510.4766],[7.3594,12.2938,485.6516],[7.3418,12.3121,469.1178],[7.3246,12.3191,454.8277],[7.3134,12.3185,452.2478],[7.2892,12.327,459.5513],[7.2277,12.3314,448.2211],[7.2056,12.3314,460.7907],[7.1943,12.3297,457.3524],[7.1831,12.3252,453.8185],[7.1753,12.3103,457.4933],[7.1624,12.2998,470.9517],[7.1554,12.2954,482.8815],[7.1331,12.2883,469.3333],[7.1443,12.2398,510.4957],[7.143,12.2235,513.4634],[7.1579,12.218,511.604],[7.1675,12.2126,525.4821],[7.1927,12.1902,515.7065],[7.1996,12.1815,523.5627],[7.201,12.1688,533.4873],[7.2051,12.1541,532.8362],[7.211,12.1405,518.9882],[7.2185,12.1307,517.7468],[7.2309,12.1214,528.2101],[7.2419,12.1164,510.2079],[7.2521,12.1179,523.2751],[7.2576,12.1244,536.3385],[7.2792,12.1221,530.1079],[7.2857,12.1194,531.1796],[7.3088,12.1173,525.2885],[7.3151,12.1126,528.8792],[7.3271,12.1171,519.0375],[7.3371,12.1147,527.2354],[7.3544,12.1028,530.8262],[7.3736,12.0857,553.8013],[7.3814,12.083,552.1619],[7.3909,12.0864,547.8146],[7.416,12.0846,563.6038],[7.426,12.0881,574.5117],[7.4686,12.0893,581.4191],[7.4823,12.0977,580.7702],[7.4902,12.1059,590.7726],[7.5222,12.1238,556.4106],[7.5278,12.1285,559.1137],[7.5352,12.1313,547.9994],[7.5447,12.131,545.2183],[7.5294,12.1504,528.9371],[7.5235,12.1686,533.3143],[7.52,12.2237,524.897],[7.5228,12.2393,525.86],[7.5067,12.2347,538.782],[7.4878,12.2331,532.1251],[7.4794,12.2307,524.3539],[7.4627,12.2326,512.68],[7.4538,12.2498,511.8643],[7.4486,12.2671,513.2598],[7.4492,12.2696,513.8528],[7.4445,12.2764,512.0755]]]]}
,"properties": {"GID_2": "NGA.21.9_1","GID_0": "NGA","country": "Nigeria","GID_1": "NGA.21_1","province": "Katsina","NL_NAME_1": "NA","county": "Danmusa","VARNAME_2": "NA","NL_NAME_2": "NA","TYPE_2": "LocalAuthority","ENGTYPE_2": "LocalAuthority","CC_2": "NA","HASC_2": "NA","name": "Danmusa.county","area_km2": 795.5072,"hist_schema_id": "Elevation0-9000","hist_area_km2": {"450": 29.3528,"475": 138.642,"500": 206.5272,"525": 236.8197,"550": 130.8495,"575": 48.1757,"600": 3.1714,"625": 0.7668,"650": 0.6632,"675": 0.456,"700": 0.0829}}}