{"type":"Feature","properties":{"GID_2":"NGA.13.15_1","GID_0":"NGA","country":"Nigeria","GID_1":"NGA.13_1","province":"Ekiti","NL_NAME_1":"NA","county":"Moba","VARNAME_2":"NA","NL_NAME_2":"NA","TYPE_2":"LocalAuthority","ENGTYPE_2":"LocalAuthority","CC_2":"NA","HASC_2":"NA","name":"Moba.county"},
"geometry":{"type": "MultiPolygon","coordinates": [[[[5.1415,7.9321,566.0836],[5.1555,7.9423,536.3288],[5.1694,7.9474,529.1521],[5.1742,7.9544,512.6767],[5.1817,7.9608,535.2792],[5.1905,7.9655,515.1727],[5.2017,7.9763,527.1355],[5.2051,7.9852,516.5048],[5.1903,8.0074,515.2744],[5.1851,8.0128,509.0068],[5.1697,8.0188,501.9004],[5.1573,8.0199,522.6838],[5.1289,8.0054,512.2585],[5.1084,7.9972,519.4253],[5.0974,7.9986,547.768],[5.085,8.0027,558.2303],[5.0806,8.0065,551.4231],[5.075,8.0266,554.2079],[5.0708,8.0334,574.5074],[5.0641,8.0306,579.2304],[5.0498,7.9819,569.4726],[5.0462,7.9607,572.7114],[5.0397,7.9453,530.9072],[5.0275,7.9338,497.896],[5.0546,7.9219,488.3186],[5.0643,7.9192,497.3983],[5.0745,7.9118,531.3024],[5.0827,7.9198,533.8772],[5.1121,7.9382,542.3068],[5.119,7.9383,540.2031],[5.1396,7.9285,566.4104],[5.1415,7.9321,566.0836]]]]}}