{"type":"Feature","properties":{"GID_2":"NGA.17.25_1","GID_0":"NGA","country":"Nigeria","GID_1":"NGA.17_1","province":"Imo","NL_NAME_1":"NA","county":"OwerriNorth","VARNAME_2":"NA","NL_NAME_2":"NA","TYPE_2":"LocalAuthority","ENGTYPE_2":"LocalAuthority","CC_2":"NA","HASC_2":"NA","name":"Owerri_North.county"},
"geometry":{"type": "MultiPolygon","coordinates": [[[[7.1673,5.4748,122.0037],[7.1578,5.4869,125.4284],[7.1478,5.4959,91.2826],[7.1418,5.4967,78.3449],[7.1231,5.5071,112.8849],[7.0896,5.5197,114.2542],[7.085,5.5227,116.2056],[7.0757,5.5338,121.9239],[7.062,5.5273,125.2194],[7.0412,5.5226,124.74],[7.0341,5.5252,112.1344],[7.0298,5.5287,103.1901],[7.026,5.5212,84.2619],[7.0338,5.5056,66.079],[7.0683,5.4864,84.9913],[7.0712,5.4806,83.6277],[7.0678,5.4721,89.4299],[7.0582,5.4612,70.1559],[7.0426,5.4532,69.2363],[7.0414,5.447,68.9016],[7.0592,5.4356,72.859],[7.0625,5.4268,73.4975],[7.0619,5.4211,73.235],[7.0562,5.4096,72.3854],[7.0416,5.3889,67.6086],[7.0351,5.3766,64.9604],[7.0323,5.3591,61.3641],[7.0342,5.3466,59.3567],[7.0302,5.3423,60.3212],[7.0353,5.3285,50.5276],[7.0501,5.3344,58.4411],[7.0653,5.3436,63.9642],[7.0743,5.3575,62.5267],[7.0806,5.3634,67.75],[7.0887,5.378,68.5676],[7.09,5.3849,76.1354],[7.0998,5.3958,77.1654],[7.1063,5.3986,78.5884],[7.1119,5.3988,76.3256],[7.1342,5.3943,86.974],[7.1526,5.3946,96.2978],[7.1615,5.4035,95.7461],[7.1684,5.4142,94.2408],[7.1754,5.4362,102.5879],[7.1763,5.4502,118.0807],[7.1673,5.4748,122.0037]]]]}}