{"type":"Feature","properties":{"GID_2":"NGA.24.16_1","GID_0":"NGA","country":"Nigeria","GID_1":"NGA.24_1","province":"Kwara","NL_NAME_1":"NA","county":"Pategi","VARNAME_2":"NA","NL_NAME_2":"NA","TYPE_2":"LocalAuthority","ENGTYPE_2":"LocalAuthority","CC_2":"NA","HASC_2":"NA","name":"Pategi.county"},
"geometry":{"type": "MultiPolygon","coordinates": [[[[6.1092,8.4086,221.4633],[6.1151,8.432,315.9684],[6.1179,8.4336,267.0099],[6.1236,8.442,263.7339],[6.1216,8.4635,242.2594],[6.1278,8.4761,228.3113],[6.1328,8.5095,178.1113],[6.1317,8.5277,143.1196],[6.1338,8.5464,99.3558],[6.1417,8.5778,78.8084],[6.1621,8.6375,92.9538],[6.1712,8.6717,62.9287],[6.1759,8.6799,60.6712],[6.1843,8.686,64.078],[6.1942,8.6964,56.8293],[6.2109,8.7255,54.7411],[6.1788,8.7285,51.0],[6.1354,8.7433,52.5],[6.1079,8.7443,57.109],[6.0966,8.7463,56.2466],[6.0776,8.7529,53.5176],[6.0203,8.7543,66.1152],[5.9692,8.7459,58.4749],[5.9561,8.748,60.1079],[5.9396,8.7428,54.0],[5.9307,8.7378,55.6625],[5.9013,8.7333,59.492],[5.8688,8.7343,59.1359],[5.8218,8.7385,58.0393],[5.7921,8.748,57.5476],[5.7685,8.7595,56.0],[5.7645,8.7695,56.0],[5.7535,8.7835,56.0],[5.7423,8.792,59.2986],[5.7327,8.7973,60.717],[5.6697,8.8424,60.3373],[5.625,8.8649,61.7799],[5.5882,8.8902,59.5],[5.5436,8.9182,60.4852],[5.5306,8.9097,65.4276],[5.5216,8.8972,66.667],[5.5015,8.8789,68.1803],[5.4883,8.8611,71.2816],[5.4833,8.8372,100.3816],[5.4779,8.8044,169.8148],[5.4828,8.7663,160.3928],[5.4798,8.7491,172.7886],[5.4711,8.7245,199.7698],[5.4734,8.7091,216.4193],[5.471,8.693,211.3985],[5.4811,8.6458,272.2993],[5.4903,8.6187,292.8024],[5.4985,8.6084,302.5714],[5.502,8.6005,300.1315],[5.5033,8.5901,326.4426],[5.5069,8.5845,330.3843],[5.518,8.5749,315.5723],[5.5311,8.5388,270.4888],[5.5381,8.5413,259.345],[5.5433,8.5384,244.6508],[5.5448,8.5313,243.0181],[5.5543,8.5186,238.8763],[5.5563,8.511,247.6935],[5.5751,8.4899,242.6027],[5.6167,8.4608,201.1367],[5.6337,8.4552,179.3562],[5.6611,8.4411,194.5556],[5.7021,8.4305,234.9169],[5.7155,8.4224,199.1799],[5.7453,8.421,234.7431],[5.7588,8.4159,228.8796],[5.7737,8.4072,226.0128],[5.7898,8.4037,225.5863],[5.8497,8.407,200.0315],[5.8644,8.4058,197.1082],[5.8754,8.3971,183.5088],[5.8841,8.396,189.5315],[5.9124,8.3997,226.8169],[5.9474,8.398,212.6297],[5.9598,8.3911,202.6035],[6.0114,8.3833,247.1947],[6.0493,8.3734,277.6428],[6.0655,8.3747,290.4435],[6.0981,8.3816,183.3706],[6.1013,8.3933,202.4797],[6.1092,8.4086,221.4633]]]]}}