{"type":"Feature","properties":{"GID_2":"NGA.1.8_1","GID_0":"NGA","country":"Nigeria","GID_1":"NGA.1_1","province":"Abia","NL_NAME_1":"NA","county":"Isuikwuato","VARNAME_2":"NA","NL_NAME_2":"NA","TYPE_2":"LocalAuthority","ENGTYPE_2":"LocalAuthority","CC_2":"NA","HASC_2":"NA","name":"Isuikwuato.county"},
"geometry":{"type": "MultiPolygon","coordinates": [[[[7.5327,5.8378,79.5921],[7.5266,5.8444,77.2864],[7.5259,5.8562,78.2242],[7.5273,5.869,63.8708],[7.4902,5.8555,82.0342],[7.4706,5.8556,81.4889],[7.4593,5.8579,82.3799],[7.4399,5.8554,85.8066],[7.4101,5.8645,152.9394],[7.3977,5.87,311.4653],[7.385,5.8695,262.4988],[7.3757,5.8657,258.9373],[7.3782,5.864,248.3605],[7.3933,5.825,220.5731],[7.3924,5.7807,205.2497],[7.3943,5.7595,190.1978],[7.4004,5.737,112.7245],[7.3994,5.6879,87.88],[7.3961,5.6854,73.4607],[7.3857,5.6833,72.382],[7.3796,5.6755,95.1041],[7.3802,5.6744,92.2881],[7.3837,5.6744,95.7775],[7.3859,5.6706,87.341],[7.4303,5.6634,90.2718],[7.4755,5.6631,113.2015],[7.4908,5.6649,136.7681],[7.5045,5.67,115.8481],[7.5466,5.6748,118.6417],[7.5459,5.6928,107.2713],[7.5478,5.6962,107.2114],[7.5459,5.7071,127.0399],[7.5428,5.7143,141.3206],[7.5427,5.7389,144.9526],[7.5309,5.7509,98.9144],[7.5224,5.7667,95.3197],[7.5271,5.7729,95.7541],[7.5231,5.7789,105.731],[7.5274,5.7874,103.3744],[7.5272,5.8021,97.5437],[7.5322,5.8133,88.1416],[7.5272,5.8203,77.797],[7.5287,5.8281,68.4909],[7.5277,5.8341,66.9637],[7.5327,5.8378,79.5921]]]]}}