{"type":"Feature","properties":{"GID_2":"NGA.20.21_1","GID_0":"NGA","country":"Nigeria","GID_1":"NGA.20_1","province":"Kano","NL_NAME_1":"NA","county":"Kano","VARNAME_2":"NA","NL_NAME_2":"NA","TYPE_2":"LocalAuthority","ENGTYPE_2":"LocalAuthority","CC_2":"NA","HASC_2":"NA","name":"Kano.county"},
"geometry":{"type": "MultiPolygon","coordinates": [[[[8.434,11.9468,467.7386],[8.4343,11.944,467.0458],[8.4414,11.9408,465.0033],[8.4444,11.9327,461.6069],[8.4485,11.9272,457.6898],[8.4552,11.9226,457.9493],[8.4638,11.9194,468.9063],[8.4725,11.9202,473.9792],[8.5048,11.9265,467.7009],[8.5096,11.9419,471.8987],[8.5095,11.9588,467.9346],[8.5034,11.9656,473.0277],[8.4895,11.9592,487.0084],[8.434,11.9468,467.7386]]]]}}