{"type": "Feature","bbox": [9.4888,12.0704,9.8509,12.3118],"geometry": {"type": "MultiPolygon","coordinates": [[[[9.7012,12.2685,366.5822],[9.6629,12.2961,367.392],[9.6551,12.2983,367.6749],[9.6479,12.3028,367.3446],[9.627,12.3041,368.4244],[9.6128,12.3101,371.0849],[9.5978,12.3085,369.0439],[9.5814,12.3118,367.5027],[9.5776,12.3102,369.3796],[9.5719,12.3068,369.8701],[9.572,12.3037,369.6586],[9.5664,12.2946,369.8193],[9.5542,12.2811,371.8015],[9.5487,12.2718,371.5552],[9.5166,12.202,373.2177],[9.5113,12.1954,371.7026],[9.5099,12.1849,373.7877],[9.4888,12.1714,374.7135],[9.5001,12.1533,374.416],[9.5254,12.1491,372.7147],[9.5408,12.1485,374.8499],[9.5474,12.1501,372.8357],[9.5531,12.1348,373.1166],[9.5566,12.1319,375.1754],[9.5718,12.131,371.5231],[9.5945,12.1329,371.0837],[9.6065,12.1235,372.0419],[9.6386,12.111,371.9404],[9.6477,12.109,371.8845],[9.6655,12.1124,371.0635],[9.6912,12.1134,368.8858],[9.735,12.099,372.1425],[9.7372,12.0927,380.1542],[9.7336,12.0877,367.0223],[9.7349,12.0744,367.0638],[9.7406,12.0704,369.1252],[9.7614,12.072,365.0948],[9.8057,12.0834,381.2447],[9.8179,12.0835,364.1784],[9.8251,12.1065,364.7518],[9.825,12.1175,366.8618],[9.8143,12.1629,365.5971],[9.8204,12.1749,363.3366],[9.8444,12.201,363.1709],[9.8509,12.2173,367.1775],[9.8478,12.2233,362.6702],[9.8429,12.2305,364.3275],[9.8289,12.244,364.7558],[9.8082,12.2468,361.914],[9.7725,12.2393,363.2971],[9.7606,12.2386,363.9701],[9.7446,12.241,365.4181],[9.7303,12.2481,364.4359],[9.7108,12.2634,366.543],[9.7012,12.2685,366.5822]]]]}
,"properties": {"GID_2": "NGA.18.22_1","GID_0": "NGA","country": "Nigeria","GID_1": "NGA.18_1","province": "Jigawa","NL_NAME_1": "NA","county": "Miga","VARNAME_2": "NA","NL_NAME_2": "NA","TYPE_2": "LocalAuthority","ENGTYPE_2": "LocalAuthority","CC_2": "NA","HASC_2": "NA","name": "Miga.county","area_km2": 618.1155,"hist_schema_id": "Elevation0-9000","hist_area_km2": {"350": 3.4606,"375": 614.1988,"400": 0.4561}}}