{"type": "Feature","bbox": [3.0549,6.3996,3.2205,6.5497],"geometry": {"type": "MultiPolygon","coordinates": [[[[3.1864,6.5497,9.9528],[3.1808,6.5333,7.2866],[3.1658,6.5213,17.4991],[3.1628,6.5221,17.0186],[3.155,6.5195,8.1928],[3.1411,6.5183,8.5661],[3.1178,6.521,11.7037],[3.112,6.5195,13.3401],[3.1035,6.5222,16.7053],[3.083,6.522,21.3026],[3.0988,6.5078,7.2189],[3.1037,6.4964,0.7127],[3.1032,6.4927,0.5],[3.085,6.482,1.2146],[3.0812,6.4763,0.5],[3.0812,6.4705,0.5],[3.0899,6.443,3.9038],[3.0913,6.43,3.3741],[3.0881,6.4264,7.6495],[3.0686,6.4205,3.2394],[3.062,6.4135,2.2944],[3.0549,6.3996,4.1751],[3.1854,6.4037,0.0],[3.1846,6.4331,2.6197],[3.1866,6.4418,0.9932],[3.1901,6.4463,1.9645],[3.2045,6.4525,0.0],[3.2106,6.458,7.4254],[3.2163,6.4966,3.3997],[3.2205,6.5129,3.8651],[3.2172,6.5231,4.201],[3.2119,6.5257,5.586],[3.206,6.5327,4.6507],[3.1974,6.5377,9.0183],[3.1864,6.5497,9.9528]]]]}
,"properties": {"GID_2": "NGA.25.17_1","GID_0": "NGA","country": "Nigeria","GID_1": "NGA.25_1","province": "Lagos","NL_NAME_1": "NA","county": "Ojo","VARNAME_2": "NA","NL_NAME_2": "NA","TYPE_2": "LocalAuthority","ENGTYPE_2": "LocalAuthority","CC_2": "NA","HASC_2": "NA","name": "Ojo.county","area_km2": 179.7677,"hist_schema_id": "Elevation0-9000","hist_area_km2": {"0": 173.8274,"25": 5.9404}}}