{"type":"Feature","properties":{"GID_2":"NGA.21.26_1","GID_0":"NGA","country":"Nigeria","GID_1":"NGA.21_1","province":"Katsina","NL_NAME_1":"NA","county":"Mani","VARNAME_2":"NA","NL_NAME_2":"NA","TYPE_2":"LocalAuthority","ENGTYPE_2":"LocalAuthority","CC_2":"NA","HASC_2":"NA","name":"Mani.county"},
"geometry":{"type": "MultiPolygon","coordinates": [[[[7.9654,12.7224,522.4078],[7.9697,12.7152,515.1855],[7.9744,12.7109,510.9367],[7.9906,12.7076,502.1119],[8.0051,12.7096,506.0331],[8.0162,12.7166,517.3799],[8.0282,12.7281,525.8291],[8.0471,12.75,535.3209],[8.0804,12.7714,513.2186],[8.0851,12.7883,512.4518],[8.086,12.7987,509.905],[8.0838,12.8033,520.4102],[8.0893,12.803,509.2103],[8.0874,12.8054,510.1783],[8.0778,12.8074,516.0104],[8.0703,12.8177,521.3677],[8.0695,12.8366,505.582],[8.0779,12.8572,496.2525],[8.0853,12.8668,493.5416],[8.0889,12.8802,498.0504],[8.0925,12.8862,506.097],[8.0943,12.8957,505.093],[8.0875,12.9079,516.5906],[8.084,12.9251,504.8036],[8.075,12.9342,495.8148],[8.066,12.9595,485.7256],[8.0567,12.9749,481.8473],[8.0426,12.9932,504.2303],[8.0407,12.9971,500.8155],[8.0404,13.0038,495.0285],[8.0355,13.0,499.1979],[8.0321,12.9901,504.6996],[8.031,12.9686,489.2714],[8.0244,12.9515,513.0844],[8.0232,12.9404,516.2978],[8.0051,12.9305,522.4035],[7.9994,12.9313,524.405],[7.9907,12.9365,523.4835],[7.9808,12.9376,530.2262],[7.9622,12.9466,520.491],[7.9543,12.9403,525.5779],[7.9498,12.9333,522.2181],[7.9473,12.9213,514.565],[7.9364,12.9136,505.7008],[7.931,12.9207,517.1041],[7.9126,12.9567,509.3173],[7.8945,12.9837,512.2194],[7.8861,12.9924,493.581],[7.879,13.014,503.9796],[7.8695,13.0346,493.451],[7.8665,13.0591,477.1409],[7.8569,13.0742,458.5989],[7.853,13.1003,439.1368],[7.8376,13.077,473.3249],[7.8203,13.0567,488.9808],[7.8122,13.0499,474.6146],[7.8093,13.0363,464.615],[7.7865,13.0203,466.5273],[7.7787,13.0292,459.7472],[7.7756,13.0297,460.1221],[7.7798,12.982,472.7748],[7.7794,12.9704,472.397],[7.7726,12.9263,473.0222],[7.7738,12.9124,486.0636],[7.7687,12.8882,467.3144],[7.7645,12.8341,488.9774],[7.7653,12.8168,495.7777],[7.7631,12.8083,504.0378],[7.7648,12.7951,505.2416],[7.7667,12.7915,506.9975],[7.7746,12.7888,498.8382],[7.7894,12.7929,495.1785],[7.8075,12.8025,481.719],[7.8209,12.8078,477.6646],[7.8423,12.8138,493.1958],[7.8717,12.8155,495.29],[7.8849,12.8117,503.019],[7.9037,12.8211,513.4233],[7.9101,12.8219,515.6921],[7.9143,12.8192,513.9379],[7.9253,12.8064,515.7598],[7.938,12.7971,523.3885],[7.9512,12.7903,521.6221],[7.9618,12.7883,528.0132],[7.9715,12.778,510.8797],[7.9749,12.7709,510.6006],[7.9717,12.7686,506.4163],[7.9693,12.7524,508.9085],[7.9661,12.7443,509.2281],[7.9654,12.7224,522.4078]]]]}}