{"type": "Feature","bbox": [9.6249,11.7012,10.5166,12.0371],"geometry": {"type": "MultiPolygon","coordinates": [[[[10.4427,11.8817,380.7498],[10.4149,11.8901,382.4753],[10.3892,11.8954,381.1734],[10.3417,11.9018,377.6188],[10.2697,11.9081,373.7372],[10.2493,11.9148,376.9185],[10.2398,11.9255,374.3511],[10.2324,11.9438,372.6887],[10.2281,11.9624,371.8239],[10.2101,12.0033,367.55],[10.1899,12.028,366.1493],[10.171,12.0371,369.4628],[10.1712,12.0212,370.335],[10.152,12.0063,370.3564],[10.132,12.0008,372.4831],[10.0514,11.9663,371.4878],[10.0057,11.9515,376.5233],[9.9418,11.9336,375.2073],[9.8747,11.907,378.5739],[9.8261,11.8816,379.4834],[9.7863,11.8586,380.7767],[9.7331,11.8507,384.8388],[9.6868,11.8512,381.5905],[9.6745,11.839,382.098],[9.657,11.8157,384.3495],[9.6346,11.7791,385.9286],[9.6249,11.7328,387.9767],[9.6269,11.7112,389.3741],[9.6486,11.7012,390.3989],[9.6908,11.7019,390.6308],[9.725,11.7183,398.1823],[9.7591,11.7215,397.1299],[9.7802,11.7442,403.9883],[9.8178,11.7583,399.1772],[9.8426,11.7624,391.8909],[9.8955,11.7628,385.3956],[9.9188,11.7604,385.6336],[9.9716,11.7633,387.0807],[9.9853,11.7602,386.4395],[9.9931,11.7616,385.9282],[10.019,11.7758,383.0532],[10.0423,11.7944,383.208],[10.0586,11.8018,381.9139],[10.076,11.8024,380.5542],[10.0956,11.7968,380.0267],[10.1423,11.7785,384.3588],[10.1643,11.7743,388.8395],[10.1992,11.7591,385.5746],[10.2211,11.759,383.7395],[10.2452,11.7698,384.4619],[10.2743,11.7864,389.4255],[10.2873,11.7914,388.4789],[10.3193,11.7989,382.9153],[10.3424,11.7967,385.7613],[10.3757,11.7839,388.5178],[10.3982,11.7734,385.8056],[10.407,11.7722,390.0467],[10.4231,11.78,381.8039],[10.4378,11.7906,385.9944],[10.451599999999999,11.8038,383.6106],[10.4562,11.8157,381.7789],[10.4649,11.8289,383.4504],[10.4791,11.8448,381.1597],[10.4927,11.8486,381.4115],[10.5166,11.8618,381.705],[10.5056,11.8751,380.6083],[10.4905,11.8811,382.03],[10.4427,11.8817,380.7498]]]]}
,"properties": {"GID_2": "NGA.5.10_1","GID_0": "NGA","country": "Nigeria","GID_1": "NGA.5_1","province": "Bauchi","NL_NAME_1": "NA","county": "Itas/Gadau","VARNAME_2": "NA","NL_NAME_2": "NA","TYPE_2": "LocalAuthority","ENGTYPE_2": "LocalAuthority","CC_2": "NA","HASC_2": "NA","name": "Itas_Gadau.county","area_km2": 1546.057,"hist_schema_id": "Elevation0-9000","hist_area_km2": {"375": 1352.649,"400": 193.408}}}