{"type":"Feature","properties":{"GID_2":"NGA.29.12_1","GID_0":"NGA","country":"Nigeria","GID_1":"NGA.29_1","province":"Ondo","NL_NAME_1":"NA","county":"Irele","VARNAME_2":"NA","NL_NAME_2":"NA","TYPE_2":"LocalAuthority","ENGTYPE_2":"LocalAuthority","CC_2":"NA","HASC_2":"NA","name":"Irele.county"},
"geometry":{"type": "MultiPolygon","coordinates": [[[[5.0968,6.7182,20.18],[5.0736,6.7243,39.1725],[5.0688,6.7166,48.5842],[5.0348,6.6833,80.6131],[5.0231,6.6579,45.3111],[5.0165,6.6481,34.1541],[5.0044,6.6449,39.6818],[4.9987,6.6505,37.2256],[4.9952,6.657,45.0442],[4.9846,6.6604,45.5835],[4.945,6.6627,49.7909],[4.9036,6.6597,60.0892],[4.8902,6.6572,45.9891],[4.8792,6.6497,45.9889],[4.8721,6.6374,27.1044],[4.8667,6.6027,15.7907],[4.8619,6.5493,17.7839],[4.8385,6.4988,36.5257],[4.8302,6.4854,2.137],[4.8268,6.4723,24.0606],[4.8283,6.4548,28.9063],[4.8351,6.4433,20.0497],[4.8467,6.4353,16.2451],[4.8538,6.434,2.908],[4.8617,6.4367,1.8947],[4.8694,6.4421,10.8038],[4.879,6.4523,21.5098],[4.8883,6.457,27.0266],[4.9008,6.4586,20.6505],[4.924,6.4501,4.8276],[4.9324,6.4399,24.3912],[4.9326,6.4269,15.4758],[4.9421,6.4028,24.3804],[4.9459,6.3795,17.6944],[4.9664,6.3319,12.5912],[4.9756,6.3195,15.5773],[4.9947,6.313,15.6483],[4.9971,6.3201,14.9976],[4.9992,6.3471,16.8226],[5.0065,6.358,20.4541],[5.0135,6.359,22.117],[5.0159,6.368,22.0972],[5.025,6.3715,26.4733],[5.0344,6.3688,12.903],[5.0635,6.3819,16.4933],[5.0736,6.4069,17.3397],[5.0771,6.4424,29.9114],[5.1053,6.4701,51.9525],[5.1187,6.5017,44.5614],[5.1245,6.5295,37.0295],[5.1152,6.5529,62.1781],[5.1032,6.5668,46.9528],[5.1004,6.5802,14.2259],[5.0927,6.5898,17.9255],[5.0728,6.6,19.5136],[5.0723,6.613,17.1617],[5.0754,6.6367,16.5154],[5.0728,6.6459,21.8614],[5.0755,6.6554,29.0244],[5.0858,6.6619,24.7855],[5.0821,6.6622,27.2681],[5.084,6.6688,56.3641],[5.0823,6.6742,65.5565],[5.0843,6.6977,60.4752],[5.0921,6.7132,22.1173],[5.0968,6.7182,20.18]]]]}}