{"type":"Feature","properties":{"GID_2":"NGA.9.6_1","GID_0":"NGA","country":"Nigeria","GID_1":"NGA.9_1","province":"CrossRiver","NL_NAME_1":"NA","county":"Biase","VARNAME_2":"NA","NL_NAME_2":"NA","TYPE_2":"LocalAuthority","ENGTYPE_2":"LocalAuthority","CC_2":"NA","HASC_2":"NA","name":"Biase.county"},
"geometry":{"type": "MultiPolygon","coordinates": [[[[7.9008,5.5134,56.9683],[7.9399,5.5202,27.8617],[7.9644,5.5212,15.8759],[7.9744,5.5153,18.0492],[7.9801,5.5073,14.8075],[7.9834,5.4969,9.8568],[7.9876,5.4727,10.2224],[7.9826,5.4631,15.6383],[7.9815,5.4523,13.4905],[7.9882,5.4252,19.0538],[7.9942,5.4239,24.8447],[8.0005,5.4139,25.9309],[8.0032,5.3947,19.1612],[8.0023,5.3871,22.0293],[7.9907,5.365,42.6436],[7.9876,5.3443,94.1335],[7.9879,5.3326,28.1298],[7.9912,5.3115,18.5855],[7.9984,5.3003,4.0],[8.0078,5.2944,9.4478],[8.0495,5.2785,52.0985],[8.0743,5.2739,83.1147],[8.1173,5.2806,4.8476],[8.1271,5.2848,1.0],[8.1586,5.3204,50.049],[8.1846,5.3566,80.8598],[8.1928,5.3646,87.0398],[8.1994,5.3741,102.2815],[8.2157,5.3863,103.5952],[8.2171,5.401,99.6626],[8.2146,5.4306,111.6832],[8.2063,5.4441,106.4197],[8.2012,5.458,110.0453],[8.1876,5.4854,123.5546],[8.1792,5.5093,130.2131],[8.1708,5.5207,114.8767],[8.1502,5.5561,143.2764],[8.1391,5.5814,133.961],[8.139,5.5917,146.0108],[8.1343,5.6015,148.0866],[8.1322,5.6142,127.3338],[8.1266,5.6217,108.7871],[8.1235,5.6323,119.4959],[8.1215,5.6485,101.0036],[8.1145,5.6488,77.0089],[8.1035,5.6539,88.5521],[8.099,5.6592,68.8053],[8.0966,5.6687,54.6445],[8.0891,5.6855,25.7675],[8.0818,5.6923,35.4134],[8.0651,5.7158,22.7905],[8.0492,5.729,39.5022],[8.0393,5.7439,27.6038],[8.0333,5.7622,22.1882],[8.0259,5.772,19.7601],[8.0215,5.7843,27.1385],[8.0209,5.7935,31.1616],[7.9943,5.8016,45.0911],[7.9827,5.7979,72.8677],[7.9674,5.7783,19.5872],[7.9581,5.772,13.7827],[7.9386,5.7654,39.1151],[7.9241,5.7703,30.5999],[7.9124,5.7699,36.5975],[7.9062,5.7634,40.178],[7.884,5.729,86.309],[7.8808,5.7187,108.5623],[7.8805,5.6984,48.0883],[7.8778,5.6903,51.2416],[7.8874,5.6851,57.1526],[7.8953,5.6695,43.1079],[7.8945,5.6536,41.2487],[7.8857,5.6092,73.3407],[7.8855,5.5778,36.4153],[7.8882,5.548,59.9647],[7.9008,5.5134,56.9683]]]]}}