{"type": "Feature","bbox": [8.1134,12.4211,8.4466,12.6663],"geometry": {"type": "MultiPolygon","coordinates": [[[[8.1134,12.6637,529.2655],[8.1139,12.6505,533.8148],[8.1233,12.639099999999999,522.1933],[8.1423,12.6319,528.6559],[8.1696,12.6243,507.1279],[8.1878,12.6224,511.3672],[8.2357,12.6195,507.2449],[8.2494,12.6224,489.0651],[8.2548,12.6165,497.915],[8.2628,12.6112,494.613],[8.2709,12.5975,493.8209],[8.2835,12.5679,477.6003],[8.308,12.5299,482.1326],[8.3395,12.47,474.7537],[8.3411,12.4583,463.1429],[8.3391,12.4497,448.742],[8.3411,12.4389,448.3359],[8.3585,12.4211,445.9005],[8.3643,12.4258,441.4981],[8.3886,12.4784,442.2292],[8.3909,12.4962,446.6395],[8.3951,12.5131,445.6041],[8.3986,12.5196,445.8736],[8.4076,12.5282,433.4696],[8.4266,12.5412,425.7387],[8.4466,12.5506,428.4281],[8.4411,12.5606,420.2433],[8.432,12.5711,424.7977],[8.4125,12.5861,439.2713],[8.3836,12.579,463.7287],[8.3607,12.5792,553.3062],[8.343,12.582,485.8405],[8.3397,12.5847,514.5453],[8.3368,12.5905,475.6458],[8.336,12.5987,465.7157],[8.3422,12.6113,472.5282],[8.3452,12.6241,469.7607],[8.3436,12.6235,468.1345],[8.3384,12.6297,462.6523],[8.3342,12.6299,464.4849],[8.3241,12.6263,466.6947],[8.2995,12.6117,479.2496],[8.2887,12.6099,485.7393],[8.273,12.6109,497.7511],[8.2672,12.6288,487.7216],[8.2613,12.6315,485.3923],[8.2482,12.6431,483.0701],[8.2362,12.6495,492.615],[8.231,12.6554,484.4563],[8.2121,12.6571,491.7303],[8.2049,12.6542,503.3138],[8.2024,12.6507,505.3076],[8.1887,12.6406,496.7935],[8.185,12.6394,499.4097],[8.1789,12.6442,491.3613],[8.172,12.6573,493.6086],[8.1666,12.6598,498.8904],[8.1647,12.6639,507.225],[8.153,12.6663,520.4079],[8.1444,12.6634,514.5199],[8.1272,12.6619,532.9596],[8.1134,12.6637,529.2655]]]]}
,"properties": {"GID_2": "NGA.18.24_1","GID_0": "NGA","country": "Nigeria","GID_1": "NGA.18_1","province": "Jigawa","NL_NAME_1": "NA","county": "Roni","VARNAME_2": "NA","NL_NAME_2": "NA","TYPE_2": "LocalAuthority","ENGTYPE_2": "LocalAuthority","CC_2": "NA","HASC_2": "NA","name": "Roni.county","area_km2": 237.4299,"hist_schema_id": "Elevation0-9000","hist_area_km2": {"425": 16.1629,"450": 48.3116,"475": 105.7537,"500": 52.6573,"525": 14.0477,"550": 0.4759,"575": 0.0207}}}