{"type": "Feature","bbox": [5.0568,12.6734,5.3618,12.9808],"geometry": {"type": "MultiPolygon","coordinates": [[[[5.2452,12.9424,310.2472],[5.2322,12.9356,310.515],[5.2229,12.9334,308.9377],[5.2206,12.9343,307.8164],[5.2059,12.9473,278.6906],[5.1915,12.9647,282.0903],[5.1858,12.9745,283.6739],[5.1728,12.9808,263.0397],[5.1628,12.9798,271.1323],[5.1343,12.9605,273.3412],[5.0964,12.9448,322.3096],[5.0752,12.9342,307.4068],[5.0568,12.9289,308.3874],[5.0667,12.9244,305.6517],[5.0963,12.9192,309.601],[5.1272,12.9018,291.5563],[5.1332,12.8952,294.4294],[5.1432,12.8674,295.9105],[5.1452,12.8566,294.1036],[5.1432,12.8224,280.3732],[5.1304,12.7874,266.489],[5.1256,12.7826,283.0808],[5.1543,12.7577,273.8373],[5.1959,12.7406,271.3447],[5.2042,12.7391,270.2137],[5.2229,12.7227,284.7613],[5.2508,12.6917,271.1221],[5.2609,12.6835,273.9113],[5.2699,12.6792,271.1781],[5.2845,12.6757,269.1866],[5.325,12.6734,283.5752],[5.3618,12.6834,287.9059],[5.3554,12.7033,285.32],[5.3387,12.7379,302.5816],[5.3345,12.7554,284.0597],[5.3268,12.771,279.4125],[5.329,12.7789,281.4952],[5.327,12.804,300.5631],[5.3274,12.8188,292.678],[5.3296,12.828,292.2805],[5.3275,12.8439,320.3054],[5.3007,12.8849,331.9282],[5.2946,12.8976,286.4173],[5.2707,12.9303,292.6526],[5.2671,12.9339,302.0465],[5.2452,12.9424,310.2472]]]]}
,"properties": {"GID_2": "NGA.34.2_1","GID_0": "NGA","country": "Nigeria","GID_1": "NGA.34_1","province": "Sokoto","NL_NAME_1": "NA","county": "Bodinga","VARNAME_2": "NA","NL_NAME_2": "NA","TYPE_2": "LocalAuthority","ENGTYPE_2": "LocalAuthority","CC_2": "NA","HASC_2": "NA","name": "Bodinga.county","area_km2": 554.5793,"hist_schema_id": "Elevation0-9000","hist_area_km2": {"250": 1.1777,"275": 307.4848,"300": 223.0118,"325": 21.9747,"350": 0.9302}}}