{"type": "Feature","bbox": [7.3448,6.9043,7.5375,7.1127],"geometry": {"type": "MultiPolygon","coordinates": [[[[7.4937,7.0745,359.9587],[7.4948,7.0788,374.1479],[7.4757,7.1005,391.0205],[7.4688,7.099,377.0651],[7.4511,7.1072,319.4937],[7.4451,7.1073,302.6169],[7.4364,7.1127,275.9545],[7.3829,7.1005,272.9842],[7.3641,7.0807,226.2533],[7.3448,7.0648,299.9971],[7.3494,7.063,281.8844],[7.3493,7.0445,317.3074],[7.3565,7.0191,302.6232],[7.3585,7.0006,298.5784],[7.3629,6.9856,301.6841],[7.3932,6.9323,285.4478],[7.4025,6.9257,326.102],[7.4248,6.9193,376.9545],[7.4324,6.9146,375.7845],[7.4553,6.905,405.9335],[7.4668,6.9043,424.7347],[7.4772,6.9074,477.2508],[7.5023,6.932,463.2857],[7.5375,6.9587,460.4995],[7.5204,6.9955,429.1761],[7.5088,7.0351,400.6599],[7.4915,7.0659,351.3338],[7.4937,7.0745,359.9587]]]]}
,"properties": {"GID_2": "NGA.14.8_1","GID_0": "NGA","country": "Nigeria","GID_1": "NGA.14_1","province": "Enugu","NL_NAME_1": "NA","county": "Igbo-ezeNorth","VARNAME_2": "NA","NL_NAME_2": "NA","TYPE_2": "LocalAuthority","ENGTYPE_2": "LocalAuthority","CC_2": "NA","HASC_2": "NA","name": "Igbo-eze_North.county","area_km2": 330.1339,"hist_schema_id": "Elevation0-9000","hist_area_km2": {"200": 0.4839,"225": 2.4827,"250": 5.176,"275": 15.3606,"300": 39.4984,"325": 60.0365,"350": 78.9327,"375": 52.3983,"400": 36.6397,"425": 28.4124,"450": 9.7656,"475": 0.9471}}}