{"type": "Feature","bbox": [3.496,11.0048,4.4309,11.6733],"geometry": {"type": "MultiPolygon","coordinates": [[[[3.5219,11.4154,233.8232],[3.5008,11.3207,258.579],[3.496,11.2921,253.3989],[3.551,11.2472,241.2799],[3.6274,11.1815,264.0446],[3.6919,11.1282,200.2737],[3.7128,11.1279,199.9907],[3.7272,11.1362,199.4774],[3.7581,11.1347,195.7686],[3.7738,11.1305,209.045],[3.7989,11.1153,203.2529],[3.8203,11.1073,210.0719],[3.8907,11.0642,243.5862],[3.9522,11.0335,274.5856],[4.0085,11.0108,285.3588],[4.0385,11.0063,304.6612],[4.0708,11.0048,325.8441],[4.1079,11.0117,294.0715],[4.1377,11.0118,267.5563],[4.1682,11.0163,229.6051],[4.1854,11.013,198.6171],[4.2351,11.0191,229.8555],[4.2621,11.0183,198.4041],[4.2961,11.0144,227.9914],[4.3169,11.0579,172.7918],[4.3314,11.0736,182.877],[4.342,11.082,194.8534],[4.3704,11.0971,228.8522],[4.3798,11.1062,223.3286],[4.3831,11.1234,218.2861],[4.3936,11.1533,166.5846],[4.4128,11.1683,142.0],[4.4305,11.1869,143.6595],[4.4309,11.1933,144.5441],[4.4094,11.2061,144.1664],[4.3947,11.2027,144.2054],[4.3778,11.2064,144.7004],[4.3505,11.2167,147.8283],[4.3389,11.2291,147.0472],[4.3228,11.2409,148.1152],[4.2998,11.2453,147.7591],[4.2832,11.2428,147.7323],[4.2839,11.2548,148.8647],[4.2977,11.2755,149.8822],[4.3101,11.2862,149.717],[4.3304,11.2925,149.8664],[4.3545,11.3101,150.2078],[4.3682,11.349,171.3572],[4.4081,11.4005,217.8028],[4.4085,11.4227,209.4482],[4.3996,11.4378,199.501],[4.3891,11.4483,218.7485],[4.3793,11.4611,225.3631],[4.362,11.4778,228.9731],[4.3249,11.4975,200.3312],[4.2911,11.5234,185.6829],[4.2603,11.5492,166.7699],[4.245,11.5663,179.0426],[4.2373,11.5828,197.4021],[4.2235,11.5975,196.0118],[4.2055,11.6083,166.5499],[4.1884,11.6102,159.0795],[4.1726,11.6027,158.4167],[4.1646,11.5901,161.2582],[4.1283,11.5479,159.3777],[4.1118,11.5373,156.3042],[4.077,11.5517,156.5903],[4.0644,11.5518,154.4713],[4.0422,11.5317,155.3265],[4.0287,11.5091,151.6348],[4.0245,11.4971,150.715],[4.0178,11.4885,150.3625],[4.0058,11.4807,148.0],[3.9862,11.4761,181.6962],[3.9709,11.481,176.3717],[3.9666,11.4876,151.7093],[3.9535,11.5007,153.0165],[3.925,11.5149,151.4951],[3.9135,11.5187,151.2301],[3.9018,11.5165,151.0],[3.872,11.5203,182.7167],[3.8209,11.5435,210.3403],[3.7866,11.5664,153.299],[3.7685,11.5734,153.5758],[3.7525,11.5773,153.577],[3.738,11.5901,152.9869],[3.7261,11.6038,153.5355],[3.7144,11.6044,153.2091],[3.7052,11.6094,154.0019],[3.6688,11.651,154.3869],[3.6474,11.6674,154.8369],[3.6436,11.6618,154.9316],[3.6298,11.651,154.6049],[3.6097,11.6476,162.2352],[3.5912,11.6733,155.0121],[3.5864,11.6567,161.1865],[3.5783,11.6437,166.5495],[3.566,11.617,192.7361],[3.5613,11.6016,218.2095],[3.5219,11.4154,233.8232]]]]}
,"properties": {"GID_2": "NGA.22.5_1","GID_0": "NGA","country": "Nigeria","GID_1": "NGA.22_1","province": "Kebbi","NL_NAME_1": "NA","county": "Bagudo","VARNAME_2": "NA","NL_NAME_2": "NA","TYPE_2": "LocalAuthority","ENGTYPE_2": "LocalAuthority","CC_2": "NA","HASC_2": "NA","name": "Bagudo.county","area_km2": 4918.515,"hist_schema_id": "Elevation0-9000","hist_area_km2": {"150": 1019.626,"175": 578.555,"200": 1082.706,"225": 1120.024,"250": 723.407,"275": 299.734,"300": 69.806,"325": 21.413,"350": 2.225,"375": 1.019}}}