{"type":"Feature","properties":{"GID_2":"NGA.30.4_1","GID_0":"NGA","country":"Nigeria","GID_1":"NGA.30_1","province":"Osun","NL_NAME_1":"NA","county":"Ayedire","VARNAME_2":"NA","NL_NAME_2":"NA","TYPE_2":"LocalAuthority","ENGTYPE_2":"LocalAuthority","CC_2":"NA","HASC_2":"NA","name":"Ayedire.county"},
"geometry":{"type": "MultiPolygon","coordinates": [[[[4.3652,7.6137,289.1021],[4.3614,7.6214,270.8016],[4.3648,7.6327,241.1057],[4.3592,7.6298,243.9748],[4.3498,7.6304,235.2141],[4.3351,7.6385,266.1322],[4.3243,7.651,250.7744],[4.3117,7.6428,272.6617],[4.2915,7.6381,252.4167],[4.2794,7.6323,266.3145],[4.2685,7.6253,282.2235],[4.254,7.6124,280.3549],[4.247,7.61,256.3543],[4.243,7.6057,242.708],[4.23,7.5983,254.0643],[4.1742,7.573,222.7361],[4.1611,7.5594,231.578],[4.1497,7.5529,193.4972],[4.1232,7.5221,221.8889],[4.1347,7.5051,220.7763],[4.1487,7.4973,186.9284],[4.145,7.4676,173.7177],[4.1592,7.4698,178.0403],[4.1687,7.4763,182.2592],[4.1842,7.4802,209.3233],[4.213,7.4746,214.5918],[4.2198,7.4685,211.1952],[4.234,7.4487,198.8209],[4.2299,7.4391,207.5793],[4.2405,7.4338,192.2245],[4.2477,7.4376,197.8793],[4.2638,7.4503,220.0887],[4.2751,7.4667,256.667],[4.2785,7.4757999999999996,223.2348],[4.2911,7.4975,213.8312],[4.2952,7.5085,219.9492],[4.2848,7.5336,254.9866],[4.2941,7.5541,255.8946],[4.3021,7.5625,268.1334],[4.3056,7.5696,255.2086],[4.3362,7.5917,254.0346],[4.335,7.5995,234.3814],[4.339,7.6059,249.3027],[4.3452,7.6074,259.8743],[4.3476,7.6108,257.3967],[4.3652,7.6137,289.1021]]]]}}