{"type":"Feature","properties":{"GID_2":"NGA.32.5_1","GID_0":"NGA","country":"Nigeria","GID_1":"NGA.32_1","province":"Plateau","NL_NAME_1":"NA","county":"JosNorth","VARNAME_2":"NA","NL_NAME_2":"NA","TYPE_2":"LocalAuthority","ENGTYPE_2":"LocalAuthority","CC_2":"NA","HASC_2":"NA","name":"Jos_North.county"},
"geometry":{"type": "MultiPolygon","coordinates": [[[[8.9605,10.0237,903.6859],[8.9323,10.0262,911.8628],[8.8993,10.0162,994.2484],[8.8778,10.0122,1096.8593],[8.8604,10.0069,1126.9238],[8.8475,9.9972,1168.8838],[8.8387,9.9867,1197.1069],[8.8274,9.9822,1165.0621],[8.812,9.9686,1230.9045],[8.7973,9.9594,1233.5486],[8.7908,9.9519,1222.8243],[8.7873,9.9353,1228.6855],[8.7787,9.9126,1237.8674],[8.7731,9.8849,1228.2849],[8.7594,9.836,1175.3359],[8.7815,9.8318,1162.3513],[8.7892,9.8248,1174.2084],[8.7969,9.8047,1177.7401],[8.8084,9.798,1192.5874],[8.8217,9.7987,1206.4128],[8.8551,9.81,1219.3247],[8.871,9.81,1259.4561],[8.8882,9.8131,1265.9072],[8.9463,9.8488,1288.2253],[8.9521,9.8558,1281.4342],[8.9609,9.8739,1292.6259],[8.9605,10.0237,903.6859]]]]}}