{"type":"Feature","properties":{"GID_2":"NGA.23.19_1","GID_0":"NGA","country":"Nigeria","GID_1":"NGA.23_1","province":"Kogi","NL_NAME_1":"NA","county":"Omala","VARNAME_2":"NA","NL_NAME_2":"NA","TYPE_2":"LocalAuthority","ENGTYPE_2":"LocalAuthority","CC_2":"NA","HASC_2":"NA","name":"Omala.county"},
"geometry":{"type": "MultiPolygon","coordinates": [[[[7.665,8.0202,44.9205],[7.6178,8.0223,51.3003],[7.5405,8.0294,56.1007],[7.5083,8.0373,49.1793],[7.4828,8.0403,49.2858],[7.4537,8.0396,55.4056],[7.4262,8.0355,89.0257],[7.4105,8.0,114.6635],[7.3977,7.982,108.8504],[7.3849,7.9732,116.0022],[7.3777,7.9588,131.3194],[7.3762,7.9487,134.3051],[7.3626,7.9215,155.4044],[7.3533,7.9148,149.0043],[7.3418,7.9021,212.7361],[7.3369,7.8892,252.8586],[7.3325,7.8571,255.7477],[7.3334,7.8398,210.6275],[7.3385,7.8268,229.9023],[7.3484,7.8144,239.0348],[7.3643,7.7835,195.3009],[7.3704,7.7767,221.5157],[7.3904,7.7432,302.0552],[7.3972,7.7373,266.7679],[7.4242,7.6942,407.5916],[7.4304,7.6787,400.7274],[7.4327,7.6332,377.0361],[7.4372,7.6,367.249],[7.4482,7.5797,325.4757],[7.4554,7.557,287.2406],[7.4648,7.538,328.116],[7.4705,7.5208,349.5806],[7.4722,7.5102,360.8244],[7.482,7.4938,348.3379],[7.4896,7.5009,365.7397],[7.4962,7.5103,380.7841],[7.5403,7.5399,419.4648],[7.5456,7.553,412.1319],[7.5471,7.5617,410.908],[7.5641,7.5868,343.8522],[7.5728,7.5961,395.0052],[7.5824,7.6028,402.736],[7.6311,7.6186,433.1629],[7.6432,7.626,428.6475],[7.6647,7.6316,281.583],[7.6858,7.6352,288.7805],[7.7547,7.6411,216.6198],[7.7576,7.6868,217.3375],[7.7579,7.7211,215.5992],[7.7543,7.7563,159.8929],[7.7426,7.786,178.8994],[7.7234,7.8025,193.9532],[7.6989,7.828,243.3369],[7.6686,7.88,256.5203],[7.6631,7.9126,149.8018],[7.6651,7.9502,113.6324],[7.6597,7.9745,99.3432],[7.6609,8.004,69.0095],[7.665,8.0202,44.9205]]]]}}