{"type": "Feature","bbox": [7.3916,10.4136,7.454,10.5538],"geometry": {"type": "MultiPolygon","coordinates": [[[[7.454,10.4711,606.2791],[7.4436,10.4726,588.5105],[7.4398,10.4747,585.6488],[7.4381,10.4809,587.5215],[7.4345,10.4817,591.3633],[7.4302,10.49,582.5653],[7.4363,10.4928,571.3461],[7.4346,10.5032,580.6914],[7.4365,10.5083,584.9862],[7.4334,10.5119,600.7504],[7.4385,10.5219,608.8705],[7.4428,10.5243,619.6465],[7.4431,10.5296,614.5642],[7.4424,10.5457,629.5641],[7.4402,10.5498,625.6201],[7.4364,10.5523,617.9053],[7.4286,10.5538,625.2285],[7.4194,10.5399,610.6991],[7.4123,10.5144,600.2593],[7.3996,10.4871,580.1332],[7.3972,10.4626,603.3099],[7.3938,10.4579,595.716],[7.3937,10.4522,582.6268],[7.3916,10.4465,580.3045],[7.4059,10.4203,612.6649],[7.4215,10.4136,592.999],[7.4375,10.4193,603.2018],[7.4421,10.4279,590.5204],[7.4454,10.4413,609.8028],[7.4489,10.4471,609.4222],[7.454,10.4711,606.2791]]]]}
,"properties": {"GID_2": "NGA.19.10_1","GID_0": "NGA","country": "Nigeria","GID_1": "NGA.19_1","province": "Kaduna","NL_NAME_1": "NA","county": "KadunaSouth","VARNAME_2": "NA","NL_NAME_2": "NA","TYPE_2": "LocalAuthority","ENGTYPE_2": "LocalAuthority","CC_2": "NA","HASC_2": "NA","name": "Kaduna_South.county","area_km2": 59.9615,"hist_schema_id": "Elevation0-9000","hist_area_km2": {"575": 13.0722,"600": 30.60705,"625": 16.2614,"650": 0.02084}}}