{"type":"Feature","properties":{"GID_2":"NGA.9.15_1","GID_0":"NGA","country":"Nigeria","GID_1":"NGA.9_1","province":"CrossRiver","NL_NAME_1":"NA","county":"Odukpani","VARNAME_2":"NA","NL_NAME_2":"NA","TYPE_2":"LocalAuthority","ENGTYPE_2":"LocalAuthority","CC_2":"NA","HASC_2":"NA","name":"Odukpani.county"},
"geometry":{"type": "MultiPolygon","coordinates": [[[[7.8971,5.365,9.5205],[7.8834,5.3633,14.8372],[7.8777,5.3533,16.829],[7.8766,5.3441,19.4753],[7.8648,5.3237,5.8123],[7.8754,5.2947,13.3062],[7.8889,5.2896,19.4312],[7.8932,5.2707,84.1513],[7.9016,5.2583,70.2644],[7.9168,5.2571,64.8793],[7.934,5.264,23.3454],[7.9786,5.2674,6.6847],[8.0086,5.2544,10.9054],[8.0275,5.2391,11.5046],[8.0475,5.2327,12.0366],[8.0587,5.224,14.644],[8.0638,5.2098,6.3958],[8.0651,5.19,3.6672],[8.059,5.1732,7.4284],[8.0579,5.1456,8.8029],[8.0549,5.1339,15.279],[8.0539,5.1099,10.7266],[8.0552,5.0912,8.9126],[8.0715,5.0309,10.0874],[8.0815,5.0081,13.0212],[8.093,4.9893,7.8225],[8.1217,4.9523,7.021],[8.1366,4.9285,10.8685],[8.1702,4.8943,6.9496],[8.1905,4.8803,5.1262],[8.2072,4.8857,2.8987],[8.2243,4.9067,8.4832],[8.2395,4.931,13.0656],[8.2507,4.9422,6.0098],[8.2589,4.9475,8.4737],[8.2695,4.9482,8.7247],[8.2562,4.954,6.7709],[8.2538,4.9746,9.2626],[8.2514,4.9825,7.7112],[8.253,4.9981,25.0243],[8.2581,5.0116,47.8567],[8.2628,5.0157,42.7067],[8.2716,5.0165,28.5618],[8.2771,5.0189,15.4686],[8.2893,5.0291,15.8121],[8.2881,5.0381,15.4841],[8.2891,5.0443,11.704],[8.286,5.0517,14.1963],[8.2878,5.0643,1.5],[8.2928,5.0739,13.7103],[8.2963,5.0762,14.8544],[8.3095,5.0792,36.3613],[8.3466,5.0785,78.2819],[8.3581,5.0883,27.575],[8.361,5.094,46.77],[8.3527,5.099,82.5199],[8.3391,5.1125,48.3369],[8.3259,5.1409,10.8302],[8.3194,5.1509,8.5153],[8.3047,5.1661,6.2674],[8.2999,5.1731,6.7467],[8.2899,5.1788,9.5263],[8.2867,5.1828,8.0085],[8.2539,5.1914,12.0607],[8.2329,5.1925,5.0247],[8.2237,5.1949,3.3508],[8.2132,5.2002,15.4546],[8.2082,5.2065,9.8308],[8.1961,5.212,16.1583],[8.1806,5.2257999999999996,31.4617],[8.1689,5.2325,31.5667],[8.1526,5.2348,84.1547],[8.126,5.2427,50.1281],[8.1133,5.2576,34.1629],[8.106,5.2624,50.255],[8.099,5.271,31.896],[8.0972,5.277,36.905],[8.0743,5.2739,83.1147],[8.0495,5.2785,52.0985],[8.0078,5.2944,9.4478],[7.9984,5.3003,4.0],[7.9912,5.3115,18.5855],[7.9879,5.3326,28.1298],[7.9876,5.3443,94.1335],[7.9907,5.365,42.6436],[8.0023,5.3871,22.0293],[8.0032,5.3947,19.1612],[8.0005,5.4139,25.9309],[7.9942,5.4239,24.8447],[7.9882,5.4252,19.0538],[7.984,5.4398,25.1584],[7.9815,5.4523,13.4905],[7.9826,5.4631,15.6383],[7.9876,5.4727,10.2224],[7.9834,5.4969,9.8568],[7.9801,5.5073,14.8075],[7.9744,5.5153,18.0492],[7.9644,5.5212,15.8759],[7.9399,5.5202,27.8617],[7.9008,5.5134,56.9683],[7.9065,5.4942,50.1326],[7.9103,5.4731,54.6766],[7.9221,5.446,43.5505],[7.9498,5.4136,46.3051],[7.962,5.3724,145.4406],[7.9523,5.3527,67.3831],[7.9361,5.3539,23.2956],[7.9132,5.3617,15.7833],[7.8971,5.365,9.5205]]]]}}