{"type": "Feature","bbox": [5.5421,4.3678,6.2166,5.0498],"geometry": {"type": "MultiPolygon","coordinates": [[[[5.7782,4.689,0.7063],[5.7735,4.6896,2.6442],[5.7726,4.6857,0.0],[5.7829,4.6857,6.6711],[5.7826,4.6876,3.4446],[5.7782,4.689,0.7063]]],
[[[5.6223,4.7394,1.3746],[5.6099,4.736,5.3028],[5.6082,4.7321,5.6828],[5.6093,4.7282,2.7064],[5.619,4.7271,2.7784],[5.6176,4.7262,2.5464],[5.6129,4.7262,5.1669],[5.6079,4.7285,8.0765],[5.6074,4.7315,4.5778],[5.6093,4.7363,5.3028],[5.6035,4.736,3.5045],[5.5993,4.7424,1.1253],[5.5951,4.7413,5.6244],[5.5949,4.7332,2.6978],[5.5935,4.731,2.2007],[5.5765,4.7221,0.0],[5.571,4.7174,0.0],[5.5704,4.7049,1.5967],[5.5743,4.6979,0.0],[5.5813,4.6915,0.0],[5.5863,4.6893,9.368],[5.5918,4.6899,2.3937],[5.5951,4.6924,12.4769],[5.611,4.6946,2.446],[5.629,4.6929,1.6813],[5.6451,4.6857,1.4114],[5.659,4.6738,15.2173],[5.6646,4.6729,0.0],[5.6707,4.6776,5.5507],[5.6824,4.6943,5.5382999999999996],[5.6935,4.704,1.7247],[5.7032,4.7157,0.976],[5.7132,4.7237,1.1931],[5.7246,4.7276,0.0],[5.7304,4.7332,0.0],[5.7413,4.7454,1.9705],[5.7501,4.7596,1.1541],[5.7554,4.7721,2.2225],[5.7587,4.7737,0.0],[5.7657,4.7735,1.0888],[5.7635,4.7793,0.2775],[5.7638,4.7829,0.7429],[5.7688,4.7851,0.6614],[5.7749,4.7849,0.0],[5.7754,4.7879,0.8884],[5.7718,4.7901,0.7406],[5.771,4.7932,0.0],[5.7782,4.8012,2.9428],[5.7793,4.8051,0.5898],[5.7768,4.806,0.8647],[5.7724,4.8121,0.5531],[5.7696,4.8124,0.2338],[5.7665,4.8079,0.4679],[5.766,4.799,0.1697],[5.761,4.7951,1.2768],[5.7368,4.7946,0.506],[5.7249,4.7979,0.605],[5.7165,4.8065,1.3257],[5.706,4.8054,0.9303],[5.6965,4.8101,0.0],[5.6949,4.7888,2.7447],[5.6929,4.7799,3.2578],[5.6896,4.7757,2.563],[5.6854,4.7751,1.6441],[5.6792,4.7787,5.0985],[5.6782,4.776,1.3393],[5.6736,4.7724,1.2202],[5.6593,4.7754,1.2122],[5.6542,4.7746,8.772],[5.6409,4.7647,3.3542],[5.639,4.7601,4.3543],[5.631,4.7533,1.1026],[5.6303,4.7476,1.4075],[5.6223,4.7394,1.3746]]],
[[[5.9583,4.3687,12.1546],[5.9606,4.3695,9.3045],[5.9615,4.3729,0.0],[5.9568,4.3762,0.724],[5.9515,4.384,8.6844],[5.9485,4.3901,4.1613],[5.9482,4.3951,0.0],[5.9449,4.396,3.9434],[5.9501,4.3982,0.0],[5.9515,4.4035,6.6193],[5.9507,4.4143,2.1953],[5.9482,4.4179,4.901],[5.951,4.4176,4.9705],[5.9513,4.4229,4.265],[5.9563,4.434,0.0],[5.956,4.444,1.7411],[5.9524,4.449,0.8114],[5.944,4.4557,0.0],[5.9299,4.4654,2.7325],[5.9212,4.469,0.9469],[5.9187,4.4726,1.0679],[5.9232,4.4685,2.3592],[5.9307,4.4657,2.0013],[5.9454,4.4551,0.0],[5.9518,4.4535,0.0],[5.956,4.4468,0.0],[5.9579,4.436,0.0],[5.9549,4.4262,5.5334],[5.956,4.4151,0.0],[5.9535,4.4085,2.0505],[5.9546,4.4029,8.8816],[5.9535,4.3946,0.9904],[5.9565,4.3824,9.0552],[5.9629,4.3765,2.5581],[5.9639,4.3797,9.1706],[5.9603,4.3844,6.331],[5.9595,4.3943,12.4758],[5.9649,4.4145,4.7634],[5.9697,4.4255,2.7459],[5.9763,4.4355,4.6334],[5.9807,4.4532,3.6604],[5.988,4.4572,4.0208],[5.9936,4.4626,7.2646],[6.0056,4.4631,8.9592],[6.0142,4.4669,4.2721],[6.0357,4.4696,4.472],[6.0285,4.4865,3.6022],[6.0296,4.4907,6.5429],[6.0388,4.5012,2.962],[6.0443,4.519,10.9842],[6.0621,4.5382,0.8168],[6.0729,4.5557,7.2578],[6.0738,4.5604,4.0782],[6.0724,4.569,4.1482],[6.0751,4.5682,0.0],[6.0771,4.5615,0.0],[6.0782,4.569,2.725],[6.0818,4.5707,4.9648],[6.0854,4.5696,2.4544],[6.0838,4.5682,7.6182],[6.0849,4.5693,2.4544],[6.0821,4.5699,5.0862],[6.0782,4.5676,2.5531],[6.0779,4.5615,9.8059],[6.0657,4.5385,4.8806],[6.061,4.5346,0.0],[6.0518,4.5218,7.9512],[6.0451,4.5168,6.5539],[6.0418,4.5029,6.4902],[6.0329,4.4918,10.076],[6.031,4.4871,0.0],[6.0374,4.4707,3.6007],[6.0566,4.4922,1.9912],[6.0741,4.5177,10.064],[6.0986,4.5378,8.927],[6.1193,4.5447,3.2375],[6.1193,4.5554,3.3913],[6.1151,4.5585,3.7158],[6.1149,4.5604,1.9223],[6.1179,4.561,2.3522],[6.1199,4.5585,2.7784],[6.1226,4.5601,1.8103],[6.1235,4.5707,2.9066],[6.1246,4.5721,4.2762],[6.1235,4.5763,2.6786],[6.1249,4.5751,2.3082],[6.1251,4.5718,3.881],[6.124,4.5704,1.2385],[6.1243,4.5626,1.1832],[6.1232,4.5599,3.5271],[6.1193,4.5579,2.7784],[6.1176,4.5604,5.2169],[6.1154,4.5599,1.9223],[6.1201,4.5557,5.5403],[6.1201,4.5451,3.2375],[6.1369,4.5524,3.4622],[6.1529,4.5658,5.442],[6.149,4.5707,4.0239],[6.1493,4.5785,2.9458],[6.146,4.5874,4.5195],[6.144,4.5882,4.6299],[6.144,4.5907,6.2059],[6.1493,4.5929,2.6908],[6.1504,4.5949,1.56],[6.1496,4.6018,1.4041],[6.1546,4.6026,0.0],[6.1524,4.6099,4.0995],[6.1463,4.616,0.0],[6.1488,4.6321,3.2792],[6.151,4.6321,0.0],[6.1507,4.6288,0.0],[6.1524,4.6274,2.5769],[6.1501,4.6279,1.3026],[6.1474,4.6176,0.0],[6.1526,4.6126,4.1791],[6.1568,4.6032,7.8629],[6.1549,4.601,7.2254],[6.1504,4.6004,3.6086],[6.1515,4.5935,2.2588],[6.1449,4.5896,3.2022],[6.1488,4.5843,3.9865],[6.1507,4.5771,5.0024],[6.1499,4.5718,3.9338],[6.1538,4.5668,2.9157],[6.1783,4.5899,3.8796],[6.1867,4.6068,3.1019],[6.1893,4.6165,2.0592],[6.1868,4.6179,1.4001999999999999],[6.1895,4.6171,5.626],[6.1909,4.6222,3.6391],[6.1915,4.6448,9.4912],[6.1874,4.6511,18.3192],[6.1828,4.6677,15.9015],[6.1821,4.6949,16.0528],[6.1883,4.7066,14.3527],[6.1939,4.7369,14.5655],[6.1917,4.7471,15.0512],[6.1934,4.7636,15.2766],[6.1926,4.7706,14.0676],[6.1967,4.7986,17.7472],[6.2029,4.8096,16.44],[6.2166,4.8271,13.9113],[6.2067,4.8436,11.7436],[6.2077,4.8487,12.1248],[6.2039,4.8552,15.0376],[6.2039,4.8602,15.4701],[6.1908,4.8752,11.5619],[6.1731,4.8806,12.2081],[6.1534,4.8899,12.0605],[6.1327,4.9082,7.3085],[6.1317,4.9158,15.3307],[6.1365,4.9291,18.4814],[6.1278,4.9447,1.0],[6.1359,4.9602,11.8675],[6.1379,4.969,13.8875],[6.1387,4.9793,15.4436],[6.1356,4.9874,11.7419],[6.136,4.9911,14.6319],[6.1326,4.9866,13.3631],[6.1254,4.9828,14.2941],[6.1157,4.9799,14.7993],[6.1055,4.9799,8.6901],[6.0907,4.9898,15.1398],[6.0874,5.0023,17.5654],[6.0759,5.0163,11.8527],[6.0663,5.0365,10.1565],[6.0471,5.0498,17.1129],[6.0288,5.0399,21.5297],[6.0283,5.0284,17.9015],[6.0366,5.0108,15.9831],[6.046,5.0088,10.7055],[6.0638,4.9988,16.1265],[6.0705,4.9828,13.0299],[6.0716,4.9632,19.0525],[6.0696,4.9266,15.741],[6.0655,4.8983,17.5719],[6.0574,4.874,18.3966],[6.0587,4.8678,10.3863],[6.0565,4.8611,18.3784],[6.0592,4.8548,19.4415],[6.0587,4.8383,14.4403],[6.0536,4.8211,17.6022],[6.0433,4.81,12.6987],[6.0328,4.8078,16.017],[6.0151,4.81,13.3056],[6.0034,4.8145,14.7833],[5.9846,4.8188,16.0852],[5.9822,4.8278,17.6053],[5.983,4.8336,16.3271],[5.9953,4.8808,9.1462],[5.9941,4.8919,17.1687],[5.9955,4.9087,18.9859],[5.9936,4.9184,19.5732],[5.9894,4.9261,19.8234],[5.9878,4.9183,15.11],[5.9799,4.9027,19.628],[5.9733,4.8939,19.0435],[5.9617,4.8865,20.0871],[5.9479,4.8742,17.5037],[5.8884,4.8462,20.1031],[5.8797,4.8406,19.1843],[5.8565,4.8329,12.9238],[5.834,4.8218,2.5289],[5.8236,4.8201,2.0111],[5.8007,4.8124,0.9317],[5.7934,4.8083,0.9022],[5.7913,4.8037,1.1607],[5.7885,4.8018,1.1727],[5.779,4.8015,2.9428],[5.776,4.796,0.4173],[5.7729,4.7938,0.0],[5.7729,4.7921,0.0],[5.7771,4.7893,0.0],[5.776,4.7846,0.3596],[5.7643,4.7815,0.0],[5.7674,4.776,1.0465],[5.766,4.7696,0.0],[5.771,4.7676,0.3529],[5.7751,4.7732,0.4361],[5.7785,4.7732,1.4085],[5.7812,4.7713,1.7753],[5.7899,4.7785,0.5301],[5.8029,4.7757,2.0479],[5.8057,4.779,1.4407],[5.8079,4.779,0.6041],[5.8032,4.7751,2.6458],[5.791,4.7779,0.5301],[5.7821,4.7707,0.9962],[5.7749,4.7724,1.2732],[5.771,4.7668,1.465],[5.7618,4.7707,0.0],[5.7562,4.7701,0.0],[5.7557,4.7596,0.482],[5.7385,4.7382,0.2365],[5.7371,4.7343,1.7299],[5.7279,4.7257,1.2758],[5.7157,4.7207,0.5972],[5.7082,4.7154,15.8748],[5.6821,4.6863,0.5326],[5.681,4.6835,1.8543],[5.6835,4.6804,2.201],[5.6835,4.6757,1.9442],[5.6824,4.6813,8.0194],[5.6804,4.6826,0.0],[5.6685,4.6726,0.8586],[5.6599,4.6715,1.7069],[5.6499,4.6768,4.7536],[5.6338,4.6888,0.0],[5.624,4.6915,12.6651],[5.6079,4.6912,2.4646],[5.591,4.6876,0.0],[5.5818,4.6888,0.0],[5.5665,4.7021,8.1204],[5.5662,4.7135,0.7934],[5.5637,4.7193,0.0],[5.5579,4.7204,2.6491],[5.5518,4.7271,0.0],[5.5488,4.7382,0.0],[5.5454,4.7426,0.0],[5.5421,4.7401,2.4842],[5.5421,4.7335,0.5231],[5.5463,4.724,0.0],[5.5751,4.6868,0.0],[5.6296,4.6074,2.614],[5.6576,4.5726,0.0],[5.6668,4.5565,0.0],[5.686,4.5465,0.0],[5.6985,4.5504,0.0],[5.7015,4.5521,0.0],[5.7018,4.554,0.0],[5.6979,4.5632,2.5417],[5.6979,4.5707,0.6981],[5.6874,4.5782,5.6757],[5.6835,4.5837,1.2158],[5.684,4.5882,1.4978],[5.6901,4.591,0.0],[5.6865,4.5929,5.4317],[5.6862,4.5982,4.604],[5.6846,4.5985,4.604],[5.6824,4.5957,10.2635],[5.684,4.599,6.0791],[5.686,4.599,4.2641],[5.6871,4.5982,1.6437],[5.6871,4.5935,3.5299],[5.6976,4.5879,0.0],[5.7029,4.5896,13.0355],[5.7051,4.5951,0.0],[5.7012,4.6018,0.659],[5.6996,4.609,0.0],[5.7049,4.6165,3.5148],[5.7199,4.6268,0.0],[5.7182,4.6401,3.5995],[5.7076,4.6446,0.0],[5.7068,4.6485,8.463],[5.7088,4.6524,3.6277],[5.714,4.6574,11.2822],[5.7199,4.6588,3.741],[5.7332,4.6557,11.695],[5.7393,4.6585,0.0],[5.7435,4.6671,3.0072],[5.7546,4.6699,0.1482],[5.7557,4.6738,0.0],[5.754,4.6754,3.0293],[5.7543,4.6793,1.9189],[5.7593,4.6824,1.9227],[5.7693,4.6851,2.1009],[5.7738,4.6935,0.9395],[5.7746,4.6901,2.6442],[5.7815,4.6893,8.3816],[5.7843,4.6879,1.4628],[5.7937,4.6888,3.9068],[5.7946,4.6846,3.6839],[5.8004,4.6821,3.9327],[5.7949,4.6815,2.2751],[5.7988,4.6765,0.9762],[5.7985,4.6743,3.6565],[5.7974,4.6776,0.7544],[5.7896,4.6826,0.0],[5.7843,4.6813,0.6922],[5.784,4.6782,0.9046],[5.7865,4.6765,0.0],[5.7807,4.6785,4.552],[5.7799,4.6801,1.0675],[5.7715,4.6799,10.923],[5.7738,4.6824,0.9732],[5.771,4.6851,3.6986],[5.7646,4.6813,0.7199],[5.7562,4.679,0.0],[5.756,4.6693,0.1482],[5.7507,4.6665,2.8594],[5.7454,4.6662,8.1329],[5.7421,4.6588,4.1986],[5.7382,4.6554,2.0913],[5.7163,4.6551,11.3788],[5.711,4.6513,0.0],[5.7096,4.6449,13.3512],[5.7179,4.6429,2.0949],[5.7201,4.6396,3.006],[5.7221,4.629,1.2672],[5.7199,4.6238,1.4349],[5.7215,4.6235,0.0],[5.7246,4.6307,1.7438],[5.7343,4.634,3.0453],[5.7349,4.6293,2.4825],[5.7318,4.6249,0.0],[5.7363,4.6212,2.5893],[5.7407,4.6137,1.4183],[5.7426,4.6135,1.7997],[5.7471,4.6176,2.0683],[5.7501,4.6182,0.0],[5.7543,4.6168,0.0],[5.756,4.6126,0.0],[5.7579,4.6124,13.7651],[5.7643,4.6215,2.5831],[5.7749,4.616,9.5258],[5.7743,4.6285,2.974],[5.776,4.6296,3.5405],[5.7824,4.6288,0.7394],[5.7746,4.6276,2.974],[5.7763,4.6157,0.0],[5.7729,4.6151,4.0509],[5.7646,4.621,2.5831],[5.7607,4.6132,2.0347],[5.7582,4.6115,2.1659],[5.756,4.6118,7.2327],[5.7518,4.6168,5.5847],[5.7496,4.6174,0.0],[5.7435,4.6129,1.7997],[5.739,4.6137,5.601],[5.7293,4.6251,9.0013],[5.7326,4.6318,12.9114],[5.7246,4.6276,11.0041],[5.7204,4.6193,2.6787],[5.7143,4.619,0.0],[5.7082,4.6157,0.0],[5.7021,4.6068,2.6649],[5.7076,4.599,1.8745],[5.7065,4.5899,0.0],[5.701,4.586,1.5079],[5.6871,4.5868,6.9193],[5.686,4.5857,0.0],[5.6865,4.5835,0.0],[5.701,4.5732,0.5028],[5.7051,4.574,4.4294],[5.7138,4.586,3.3167],[5.7163,4.5862,5.8744],[5.7179,4.5832,0.0],[5.7213,4.5838,4.8898],[5.7224,4.5882,0.7512],[5.7282,4.5857,0.0],[5.7287,4.5912,5.0454],[5.7318,4.5915,0.0],[5.7343,4.5899,2.3028],[5.7332,4.5865,1.4385],[5.7343,4.5832,2.0455],[5.7415,4.5776,1.6724],[5.7435,4.5779,1.0012],[5.7438,4.5854,0.6839],[5.746,4.5904,0.9881],[5.7476,4.5912,1.2995],[5.7496,4.5899,2.8938],[5.7501,4.584,1.2742],[5.7526,4.5846,1.8591],[5.7535,4.5896,1.3278],[5.7562,4.5893,1.3177],[5.7613,4.5854,1.9951],[5.7587,4.586,3.0854],[5.756,4.5887,8.4522],[5.754,4.589,1.3278],[5.7532,4.5843,1.8591],[5.7501,4.5829,1.2336],[5.7485,4.5901,2.8938],[5.7465,4.5901,13.1841],[5.744,4.5821,0.0],[5.7446,4.5785,4.1502],[5.7432,4.5771,1.0012],[5.7413,4.5771,1.6724],[5.7338,4.5829,1.1723],[5.7324,4.5865,1.4385],[5.7326,4.5904,5.0798],[5.729,4.5901,0.8269],[5.7285,4.5851,1.6495],[5.7232,4.5865,0.0],[5.7221,4.5835,2.9326],[5.7176,4.5824,0.0],[5.7154,4.5826,0.0],[5.714,4.5849,2.152],[5.7118,4.5799,1.9949],[5.7018,4.5704,1.279],[5.7035,4.5615,0.0],[5.7068,4.5543,0.0],[5.7065,4.5485,0.3341],[5.7037,4.546,0.4814],[5.704,4.5379,2.4253],[5.7112750122249389,4.5389962347188257,0.4957],[5.7076,4.5365,6.5631],[5.7035,4.5371,2.4253],[5.7021,4.544,0.0],[5.7001,4.5443,0.0],[5.6938,4.5426,0.0],[5.6857,4.5343,0.0],[5.6882,4.5337,0.0],[5.689,4.5318,0.0],[5.699,4.531,2.0116],[5.726,4.5132,3.2535],[5.7332,4.5129,8.2713],[5.7374,4.5151,2.4193],[5.736,4.5182,2.2144],[5.7501,4.5201,0.0],[5.7624,4.5304,0.0],[5.776,4.5329,1.9726],[5.7749,4.5379,13.9437],[5.771,4.5426,5.9387],[5.7771,4.5471,6.6135],[5.7843,4.5471,18.7534],[5.7849,4.5513,10.984],[5.7846128755364807,4.55369270386266,11.7791],[5.7854,4.5515,6.5006],[5.7846,4.5465,2.7288],[5.7776,4.5465,17.5139],[5.7718,4.5429,5.9387],[5.776,4.5365,2.7113],[5.779,4.5337,0.0],[5.7874,4.5315,0.0],[5.7963,4.5335,0.0],[5.801,4.5368,0.0],[5.8082,4.5479,0.9797],[5.814,4.5501,0.0],[5.8157,4.5524,9.8895],[5.8115,4.5704,5.7185],[5.8149,4.5846,0.0],[5.8146,4.5899,0.0],[5.8226,4.596,1.1187],[5.8251,4.6015,1.2311],[5.8304,4.6046,0.0],[5.8288,4.6088,6.2796],[5.8315,4.6112,1.0143],[5.8293,4.6085,5.2543],[5.8315,4.6065,4.1401],[5.8313,4.6043,3.1918],[5.8276,4.6024,1.9637],[5.8188,4.5899,0.5552],[5.8243,4.5938,3.9134],[5.8324,4.5949,3.5217],[5.8246,4.5932,3.096],[5.8157,4.5849,0.0],[5.8143,4.5707,5.3397],[5.8185,4.5538,9.0862],[5.8096,4.541,2.226],[5.7949,4.5293,0.7809],[5.7874,4.5282,1.7025],[5.7763,4.5293,0.0],[5.7624,4.526,0.0],[5.7535,4.5154,0.8392],[5.7512,4.516,0.0],[5.7413,4.5112,0.8471],[5.7263,4.5082,2.5735],[5.726,4.5057,7.8162],[5.7429,4.4935,8.592],[5.7446,4.4885,4.0627],[5.7421,4.4899,1.6237],[5.7415,4.4879,0.4008],[5.7449,4.4829,0.0],[5.7701,4.4654,0.0],[5.7757,4.4596,0.0],[5.786,4.4568,0.0],[5.7854,4.4613,0.0],[5.7826,4.4615,2.2053],[5.7801,4.464,0.0],[5.7771,4.4624,17.2169],[5.7607,4.4735,0.7144],[5.7565,4.4793,0.0],[5.7524,4.4799,0.7935],[5.7546,4.4801,0.0],[5.7593,4.479,6.374],[5.7646,4.4732,0.0],[5.7715,4.4735,0.0],[5.7743,4.4721,1.8967],[5.781,4.4649,0.0],[5.7874,4.4676,1.3538],[5.7985,4.4682,0.0],[5.801,4.4707,17.4286],[5.8001,4.4738,0.0],[5.7896,4.4824,5.9128],[5.7879,4.4885,9.025],[5.7907,4.4893,1.747],[5.7937,4.4868,0.0],[5.7985,4.4874,6.0082],[5.7993,4.4896,6.8399],[5.7951,4.4938,2.685],[5.7943,4.496,10.0354],[5.7949,4.4996,1.2366],[5.7976,4.5004,4.3657],[5.8013,4.4954,3.1236],[5.8051,4.4957,4.3638],[5.8035,4.5076,8.079],[5.8071,4.5085,3.3385],[5.8132,4.5065,2.6337],[5.8151,4.5076,4.9268],[5.8135,4.5096,1.2021],[5.8093,4.5096,8.2292],[5.809,4.5135,5.5108],[5.8165,4.5224,1.9081],[5.8176,4.5268,5.7624],[5.8249,4.5299,3.2223],[5.8251,4.5357,1.5965],[5.8274,4.5388,4.3405],[5.8254,4.5296,3.2223],[5.8179,4.526,5.7624],[5.8171,4.5221,1.9081],[5.814,4.5171,0.0],[5.8096,4.5132,5.5108],[5.8099,4.5101,8.2292],[5.8137,4.5101,1.2021],[5.8157,4.5074,4.9268],[5.8135,4.506,2.6337],[5.8115,4.506,3.2999],[5.8068,4.5079,3.3385],[5.804,4.5074,12.7098],[5.806,4.496,6.0534],[5.804,4.4943,4.5347],[5.8018,4.4943,3.1236],[5.7996,4.496,5.7714],[5.7971,4.4999,4.3657],[5.7954,4.4993,1.2366],[5.7957,4.494,22.1684],[5.7999,4.4899,5.302],[5.7988,4.4868,2.7375],[5.7943,4.486,0.0],[5.7904,4.4888,1.747],[5.7885,4.4882,9.025],[5.7904,4.4824,5.9128],[5.7918,4.481,4.399],[5.7971,4.4818,5.0522],[5.796,4.4788,24.0793],[5.8021,4.4738,3.0005],[5.8013,4.4688,2.3163],[5.7893,4.4635,0.0],[5.789,4.4613,0.0],[5.7924,4.4582,0.0],[5.7957,4.4579,0.0],[5.8118,4.4676,1.8478],[5.8149,4.4713,0.0],[5.821,4.4726,0.0],[5.8243,4.4757,11.3884],[5.831,4.4907,0.0],[5.8313,4.4965,0.0],[5.836,4.5085,2.7413],[5.8435,4.5199,1.6469],[5.8485,4.5221,4.7243],[5.8565,4.5201,1.5342],[5.8626,4.521,2.7003],[5.8721,4.5301,1.9349],[5.8618,4.5196,2.4504],[5.8568,4.5193,1.5342],[5.8479,4.5213,2.1158],[5.844,4.519,1.6469],[5.8379,4.5093,0.969],[5.8382,4.5046,0.0],[5.8349,4.5001,2.4285],[5.8346,4.4963,0.0],[5.8365,4.4949,0.0],[5.836,4.4899,1.3694],[5.8276,4.4751,1.733],[5.8188,4.4649,6.5121],[5.804,4.461,9.1117],[5.7954,4.4524,2.9317],[5.7929,4.4524,3.1891],[5.7926,4.4543,0.0],[5.791,4.4543,0.0],[5.791,4.4485,0.0],[5.8171,4.4301,0.0],[5.8332,4.4135,0.0],[5.8393,4.4129,0.0],[5.8421,4.4149,0.0],[5.8387,4.4262,12.409],[5.8321,4.4268,23.411],[5.8313,4.4293,1.0493],[5.8443,4.4374,7.2308],[5.8571,4.4371,1.3082],[5.8549,4.4424,10.5917],[5.8554,4.4457,3.2129],[5.8507,4.4476,8.7987],[5.8557,4.4465,3.2129],[5.8565,4.4404,2.5378],[5.8604,4.4382,0.0],[5.8699,4.4435,0.0],[5.884,4.4482,4.9252],[5.8757,4.4585,8.4873],[5.8657,4.4674,6.1889],[5.8657,4.4704,0.0],[5.8671,4.4713,3.2147],[5.8815,4.4693,10.4817],[5.8829,4.4729,0.0],[5.8671,4.4788,0.9857],[5.8635,4.4835,5.1676],[5.8649,4.4882,4.093],[5.8685,4.4893,4.551],[5.8715,4.4885,5.7532],[5.8776,4.4835,2.4478],[5.8799,4.4932,1.6891],[5.8868,4.4968,1.4867],[5.8863,4.4993,2.5096],[5.8824,4.4996,1.056],[5.8868,4.4999,2.5096],[5.8874,4.4965,1.4867],[5.8804,4.4929,1.5463],[5.8785,4.4835,5.0854],[5.8757,4.4832,4.8506],[5.8713,4.4879,5.7532],[5.8671,4.4885,4.7193],[5.8657,4.4876,4.7193],[5.8654,4.4818,7.4328],[5.8674,4.4796,0.9857],[5.8826,4.4768,5.4996],[5.8843,4.4699,4.8586],[5.8813,4.4676,2.4861],[5.869,4.4693,9.7592],[5.8674,4.4674,6.1889],[5.8765,4.4624,11.4252],[5.8863,4.4501,1.6324],[5.8915,4.4504,0.0],[5.894,4.4554,2.1716],[5.8976,4.4576,5.0183],[5.9051,4.4557,13.8516],[5.909,4.4568,4.9757],[5.9071,4.4624,0.0],[5.9026,4.466,0.0],[5.8963,4.4665,0.8813],[5.8935,4.4643,2.3016],[5.8918,4.4651,5.294],[5.8929,4.4732,2.4943],[5.8949,4.4763,3.4568],[5.8926,4.4807,1.014],[5.8965,4.4879,2.2496],[5.8949,4.4896,0.0],[5.889,4.4888,1.6407],[5.8887,4.4907,3.7921],[5.8957,4.4976,4.4055],[5.9018,4.4982,4.0853],[5.8993,4.4971,2.4269],[5.896,4.4971,4.4055],[5.8893,4.4896,1.6407],[5.8951,4.4901,0.0],[5.8974,4.4888,5.1682],[5.8932,4.4804,1.7061],[5.8954,4.4757,3.4568],[5.8924,4.4657,10.3879],[5.8932,4.4649,2.3016],[5.8976,4.4676,3.4053],[5.904,4.4665,1.2486],[5.9063,4.4646,0.0],[5.9099,4.4601,4.3949],[5.9101,4.4565,4.9757],[5.9038,4.4537,0.0],[5.9046,4.4515,5.2226],[5.9079,4.4504,14.8176],[5.9046,4.4507,5.2226],[5.9015,4.4551,3.1757],[5.8982,4.4551,3.2682],[5.891,4.4471,4.2129],[5.8863,4.4463,0.6862],[5.8721,4.4357,1.9375],[5.8637,4.4324,0.6997],[5.8568,4.4324,2.4742],[5.8449,4.4257,0.0],[5.8501,4.414,0.0],[5.8538,4.414,3.2176],[5.8557,4.4188,5.1666],[5.8585,4.4199,1.8578],[5.8632,4.419,1.535],[5.8674,4.4157,2.0591],[5.8682,4.4124,6.0507],[5.8607,4.4085,0.0],[5.8646,4.4085,0.0],[5.8707,4.4021,13.2092],[5.8821,4.4076,7.1511],[5.8815,4.4157,7.8418],[5.8918,4.4093,3.4944],[5.8896,4.4093,4.1859],[5.8818,4.4151,2.0466],[5.8826,4.4074,7.1511],[5.8749,4.4018,12.247],[5.8707,4.4012,5.0889],[5.8646,4.4076,0.0],[5.8593,4.4076,9.1893],[5.8596,4.4101,2.0062],[5.8665,4.4121,3.0164],[5.8676,4.4143,4.0592],[5.8593,4.419,1.8578],[5.8557,4.4121,4.2602],[5.8491,4.4104,5.6478],[5.8512,4.4072,6.9646],[5.8534,4.4072,11.2156],[5.8548,4.4018,14.5549],[5.8611,4.4015,14.394],[5.8652,4.3982,12.9067],[5.8689,4.3998,16.5261],[5.8813,4.3945,14.7833],[5.9014,4.3815,26.2102],[5.9337,4.3678,20.6035],[5.9583,4.3687,12.1546]],
[[5.7846128755364807,4.55369270386266,11.7791],[5.78456805111821,4.5538175718849843,7.1432],[5.7846,4.5538,7.1432],[5.7846128755364807,4.55369270386266,11.7791]],
[[5.78456805111821,4.5538175718849843,7.1432],[5.7826,4.5549,5.7102],[5.7787,4.5507,4.544],[5.776,4.5513,9.7344],[5.7735,4.5549,2.3653],[5.7751,4.5571,7.4864],[5.774,4.5551,2.3653],[5.7763,4.5518,9.7344],[5.7785,4.5513,4.544],[5.7815,4.5549,5.7102],[5.784,4.5554,7.1432],[5.78456805111821,4.5538175718849843,7.1432]],
[[5.7112750122249389,4.5389962347188257,0.4957],[5.7113008851795648,4.5390138088012133,0.4957],[5.7113,4.539,0.4957],[5.7112750122249389,4.5389962347188257,0.4957]],
[[5.7113008851795648,4.5390138088012133,0.4957],[5.7118,4.5468,0.7059],[5.7129,4.5476,2.6519],[5.7199,4.5463,1.8485],[5.7265,4.5382,1.0583],[5.7379,4.5382,0.5524],[5.7376,4.5465,1.2219],[5.7432,4.5471,6.2016],[5.7454,4.5443,1.7681],[5.7385,4.5465,4.8669],[5.7393,4.5396,0.0],[5.7382,4.5376,1.9155],[5.7263,4.5376,1.0583],[5.7207,4.5449,7.4521],[5.7138,4.5468,10.9417],[5.7124,4.5454,0.0],[5.7129,4.5401,0.4957],[5.7113008851795648,4.5390138088012133,0.4957]]],
[[[5.9507,4.3924,0.0],[5.949,4.3921,0.0],[5.9501,4.3896,0.0],[5.951,4.3896,0.0],[5.9507,4.3924,0.0]]],
[[[5.8657,4.4351,0.0],[5.8668,4.4363,0.0],[5.8615,4.434,0.0],[5.8635,4.434,0.0],[5.8657,4.4351,0.0]]],
[[[5.6999,4.526,0.0],[5.6982,4.5263,0.0],[5.6979,4.5246,0.0],[5.699,4.5207,3.6859],[5.7046,4.5151,0.0],[5.7276,4.4971,0.5868],[5.7354,4.4929,1.1856],[5.734,4.4965,0.0],[5.7296,4.499,4.1611],[5.7249,4.5046,1.8347],[5.7243,4.5079,0.0],[5.7199,4.5085,1.8585],[5.7135,4.5121,0.0],[5.6999,4.526,0.0]]]]}
,"properties": {"GID_2": "NGA.6.7_1","GID_0": "NGA","country": "Nigeria","GID_1": "NGA.6_1","province": "Bayelsa","NL_NAME_1": "NA","county": "SouthernIjaw","VARNAME_2": "NA","NL_NAME_2": "NA","TYPE_2": "LocalAuthority","ENGTYPE_2": "LocalAuthority","CC_2": "NA","HASC_2": "NA","name": "Southern_Ijaw.county","area_km2": 2583.398,"hist_schema_id": "Elevation0-9000","hist_area_km2": {"0": 1565.187,"25": 1018.211}}}