{"type":"Feature","properties":{"GID_2":"NGA.1.15_1","GID_0":"NGA","country":"Nigeria","GID_1":"NGA.1_1","province":"Abia","NL_NAME_1":"NA","county":"UmuNneochi","VARNAME_2":"NA","NL_NAME_2":"NA","TYPE_2":"LocalAuthority","ENGTYPE_2":"LocalAuthority","CC_2":"NA","HASC_2":"NA","name":"Umu_Nneochi.county"},
"geometry":{"type": "MultiPolygon","coordinates": [[[[7.5273,5.869,63.8708],[7.5282,5.8878,61.0476],[7.5347,5.9024,51.8095],[7.5354,5.9188,64.9667],[7.5324,5.9631,64.3984],[7.5339,5.9811,60.2404],[7.5303,5.9855,62.9876],[7.5284,5.9967,62.1075],[7.4952,6.0182,70.2777],[7.4514,6.0227,181.2904],[7.4052,6.0184,377.1938],[7.3808,6.0121,300.0648],[7.3734,6.0083,278.6279],[7.3705,6.0178,280.2017],[7.3678,6.0195,280.7559],[7.3637,6.0207,285.8017],[7.3514,6.0165,256.4512],[7.3348,6.0094,218.9465],[7.3088,5.9951,194.5677],[7.2926,5.9834,174.8298],[7.2823,5.972,159.4679],[7.2706,5.9623,125.1196],[7.2501,5.9263,145.3077],[7.252,5.9259,145.7137],[7.2688,5.9065,124.1531],[7.2825,5.8991,140.8828],[7.2963,5.8933,139.64],[7.3156,5.8889,150.719],[7.3385,5.8776,196.2997],[7.3532,5.8758,190.6148],[7.3689,5.8702,231.8472],[7.3757,5.8657,258.9373],[7.385,5.8695,262.4988],[7.3977,5.87,311.4653],[7.4101,5.8645,152.9394],[7.4399,5.8554,85.8066],[7.4593,5.8579,82.3799],[7.4706,5.8556,81.4889],[7.4902,5.8555,82.0342],[7.5273,5.869,63.8708]]]]}}