{"type": "Feature","bbox": [7.3641,12.6907,7.7585,13.0309],"geometry": {"type": "MultiPolygon","coordinates": [[[[7.3695,12.841,485.2737],[7.4071,12.8388,499.8047],[7.4511,12.8257,534.2349],[7.4732,12.8323,533.1894],[7.4898,12.8441,523.6465],[7.5157,12.857,515.517],[7.548,12.859,548.0957],[7.5658,12.864,547.608],[7.5722,12.8643,541.7339],[7.5782,12.8579,539.4886],[7.5812,12.8503,532.8828],[7.5814,12.8439,539.4436],[7.5785,12.8286,554.1813],[7.5629,12.8051,550.3777],[7.5576,12.8002,543.8054],[7.5493,12.7865,535.7736],[7.5438,12.7804,534.3544],[7.5374,12.7684,518.8256],[7.5257,12.7535,494.5877],[7.5183,12.7372,491.6336],[7.5133,12.7333,493.4095],[7.5075,12.7254,489.444],[7.5053,12.7126,480.9658],[7.5089,12.6965,499.2222],[7.5215,12.6907,502.1582],[7.5391,12.695,488.149],[7.5446,12.7008,496.1265],[7.5446,12.7064,505.0225],[7.5478,12.7177,510.2712],[7.5549,12.7289,507.2354],[7.5577,12.7294,512.5353],[7.5611,12.7345,510.8217],[7.5649,12.7493,513.9958],[7.5759,12.7734,529.3373],[7.5814,12.7811,541.2198],[7.591,12.8024,550.2975],[7.6011,12.8185,552.5804],[7.6453,12.8718,513.1492],[7.6866,12.9052,488.1698],[7.7085,12.9186,475.0775],[7.7505,12.9532,459.4522],[7.7572,12.9667,461.5649],[7.7585,12.973,453.1339],[7.757,12.9812,453.2254],[7.7524,12.9865,459.2047],[7.7116,12.9932,486.3206],[7.7058,12.9975,497.6498],[7.7044,13.001,498.7315],[7.7062,13.0044,488.1945],[7.7075,13.0171,473.5201],[7.715,13.0309,477.1141],[7.7004,13.018,481.328],[7.6829,13.0077,497.4034],[7.6613,12.9917,514.4981],[7.648,12.975,528.4149],[7.6425,12.9705,526.582],[7.6404,12.962,533.0004],[7.6326,12.9566,530.0118],[7.6276,12.9459,530.7904],[7.6209,12.938,530.3733],[7.6133,12.9333,538.3037],[7.6099,12.9266,529.7124],[7.5864,12.9291,538.8118],[7.5804,12.9346,532.7211],[7.5748,12.9364,525.1305],[7.5607,12.9473,510.7586],[7.556,12.9542,503.1064],[7.5527,12.9645,495.8989],[7.5444,12.9614,490.1252],[7.5252,12.9485,517.9415],[7.5171,12.9404,521.7122],[7.4947,12.9254,502.7756],[7.4706,12.9175,484.342],[7.441,12.9004,493.6361],[7.4214,12.8858,509.7627],[7.4112,12.8839,510.5273],[7.3857,12.906,498.7787],[7.3782,12.9055,508.8714],[7.3712,12.9086,497.6417],[7.3661,12.9074,492.3225],[7.3703,12.9053,497.0452],[7.3687,12.9025,495.539],[7.3699,12.8972,496.0941],[7.3641,12.8639,480.5583],[7.3666,12.8447,489.8802],[7.3695,12.841,485.2737]]]]}
,"properties": {"GID_2": "NGA.21.2_1","GID_0": "NGA","country": "Nigeria","GID_1": "NGA.21_1","province": "Katsina","NL_NAME_1": "NA","county": "Batagarawa","VARNAME_2": "NA","NL_NAME_2": "NA","TYPE_2": "LocalAuthority","ENGTYPE_2": "LocalAuthority","CC_2": "NA","HASC_2": "NA","name": "Batagarawa.county","area_km2": 442.9837,"hist_schema_id": "Elevation0-9000","hist_area_km2": {"450": 5.372,"475": 52.4114,"500": 171.7097,"525": 165.3886,"550": 48.0813,"575": 0.0207}}}