{"type": "Feature","bbox": [8.4291,11.9749,8.5016,12.0291],"geometry": {"type": "MultiPolygon","coordinates": [[[[8.5016,11.9889,488.6652],[8.486,11.9913,492.1725],[8.4879,12.0052,490.4783],[8.482,12.0082,491.5385],[8.4801,12.0179,484.4888],[8.487,12.0291,484.6793],[8.4823,12.029,487.2282],[8.4704,12.0259,486.9081],[8.4555,12.0188,476.4318],[8.4412,12.0046,470.7156],[8.4317,11.9895,457.5671],[8.4291,11.9802,460.9319],[8.4302,11.9749,464.6393],[8.4808,11.9816,493.2869],[8.5016,11.9889,488.6652]]]]}
,"properties": {"GID_2": "NGA.20.7_1","GID_0": "NGA","country": "Nigeria","GID_1": "NGA.20_1","province": "Kano","NL_NAME_1": "NA","county": "Dala","VARNAME_2": "NA","NL_NAME_2": "NA","TYPE_2": "LocalAuthority","ENGTYPE_2": "LocalAuthority","CC_2": "NA","HASC_2": "NA","name": "Dala.county","area_km2": 25.15645,"hist_schema_id": "Elevation0-9000","hist_area_km2": {"450": 0.64293,"475": 19.80582,"500": 4.70769}}}