{"type":"Feature","properties":{"GID_2":"NGA.21.22_1","GID_0":"NGA","country":"Nigeria","GID_1":"NGA.21_1","province":"Katsina","NL_NAME_1":"NA","county":"Kurfi","VARNAME_2":"NA","NL_NAME_2":"NA","TYPE_2":"LocalAuthority","ENGTYPE_2":"LocalAuthority","CC_2":"NA","HASC_2":"NA","name":"Kurfi.county"},
"geometry":{"type": "MultiPolygon","coordinates": [[[[7.3695,12.841,485.2737],[7.3748,12.8342,489.3939],[7.3814,12.8292,497.8178],[7.4033,12.822,518.4662],[7.4075,12.8227,513.0447],[7.4202,12.8205,518.0072],[7.4282,12.8093,533.0984],[7.4325,12.7987,518.6964],[7.4336,12.7724,508.5682],[7.4254,12.7624,502.7197],[7.4247,12.752,493.5573],[7.4186,12.733,477.257],[7.4055,12.7204,464.7853],[7.4063,12.7067,481.7542],[7.413,12.6765,484.8177],[7.4064,12.6672,502.8074],[7.3853,12.6552,526.2246],[7.3798,12.6455,525.3655],[7.382,12.631,534.8337],[7.3805,12.624,528.5106],[7.3812,12.6152,523.9849],[7.3847,12.6033,534.6919],[7.3889,12.6001,538.3486],[7.3921,12.5948,544.381],[7.4078,12.5469,560.099],[7.4378,12.5545,561.9929],[7.4429,12.5571,554.5977],[7.4585,12.5559,553.1813],[7.4883,12.5463,548.7143],[7.5029,12.5493,562.8032],[7.5103,12.5491,556.29],[7.5294,12.5447,555.9647],[7.5392,12.5453,559.2175],[7.594,12.568,551.6622],[7.6183,12.5851,526.5796],[7.6161,12.5983,530.9904],[7.6174,12.6048,526.6365],[7.6153,12.6135,516.8683],[7.5939,12.6112,524.6775],[7.5899,12.6158,518.3029],[7.5824,12.63,512.3348],[7.58,12.6401,501.6077],[7.5599,12.6853,504.9653],[7.5465,12.7076,507.5034],[7.5446,12.7008,496.1265],[7.5391,12.695,488.149],[7.5215,12.6907,502.1582],[7.5082,12.6972,497.4844],[7.5053,12.7126,480.9658],[7.5075,12.7254,489.444],[7.5133,12.7333,493.4095],[7.5183,12.7372,491.6336],[7.5257,12.7535,494.5877],[7.5374,12.7684,518.8256],[7.5438,12.7804,534.3544],[7.5493,12.7865,535.7736],[7.5576,12.8002,543.8054],[7.5629,12.8051,550.3777],[7.5785,12.8286,554.1813],[7.5814,12.8439,539.4436],[7.5812,12.8503,532.8828],[7.5782,12.8579,539.4886],[7.5722,12.8643,541.7339],[7.5658,12.864,547.608],[7.548,12.859,548.0957],[7.5157,12.857,515.517],[7.4898,12.8441,523.6465],[7.4732,12.8323,533.1894],[7.4511,12.8257,534.2349],[7.4071,12.8388,499.8047],[7.3695,12.841,485.2737]]]]}}