{"type":"Feature","properties":{"GID_2":"NGA.22.1_1","GID_0":"NGA","country":"Nigeria","GID_1":"NGA.22_1","province":"Kebbi","NL_NAME_1":"NA","county":"Aleiro","VARNAME_2":"NA","NL_NAME_2":"NA","TYPE_2":"LocalAuthority","ENGTYPE_2":"LocalAuthority","CC_2":"NA","HASC_2":"NA","name":"Aleiro.county"},
"geometry":{"type": "MultiPolygon","coordinates": [[[[4.3666,12.254,230.1942],[4.3748,12.2317,223.8014],[4.3978,12.1975,193.9758],[4.4254,12.1808,206.0889],[4.4388,12.1788,218.0684],[4.4471,12.1715,230.0641],[4.464,12.1703,232.6562],[4.4952,12.1746,270.9769],[4.5105,12.1734,243.7118],[4.5244,12.1689,286.7119],[4.5341,12.1607,285.3177],[4.5497,12.1512,253.1539],[4.5558,12.1492,254.2128],[4.582,12.1509,247.5687],[4.6029,12.1486,233.5583],[4.6051,12.2104,202.1543],[4.5811,12.2197,199.5866],[4.5578,12.2333,221.053],[4.545,12.2442,233.0423],[4.5328,12.2582,244.3837],[4.5253,12.2782,264.0936],[4.5193,12.328,279.6294],[4.5156,12.3446,264.8169],[4.511,12.3505,262.184],[4.5103,12.3542,260.3044],[4.4985,12.3599,260.5343],[4.4853,12.3646,253.2648],[4.4671,12.3643,244.3654],[4.4457,12.3569,253.9788],[4.4144,12.3374,259.2538],[4.3989,12.3215,246.3101],[4.3962,12.3146,245.9867],[4.3905,12.3083,245.4081],[4.3819,12.2895,232.5957],[4.3759,12.267,224.2846],[4.3666,12.254,230.1942]]]]}}