{"type":"Feature","properties":{"GID_2":"NGA.34.9_1","GID_0":"NGA","country":"Nigeria","GID_1":"NGA.34_1","province":"Sokoto","NL_NAME_1":"NA","county":"Isa","VARNAME_2":"NA","NL_NAME_2":"NA","TYPE_2":"LocalAuthority","ENGTYPE_2":"LocalAuthority","CC_2":"NA","HASC_2":"NA","name":"Isa.county"},
"geometry":{"type": "MultiPolygon","coordinates": [[[[6.6587,13.3739,351.4212],[6.6063,13.3325,342.0833],[6.5879,13.3208,330.0685],[6.5715,13.3166,346.5836],[6.5629,13.3108,351.0266],[6.4769,13.2944,346.5001],[6.4321,13.2911,315.0027],[6.4087,13.2964,312.1396],[6.3874,13.298,311.1342],[6.3685,13.2973,314.2675],[6.361,13.2993,316.1506],[6.3266,13.324,320.9722],[6.323,13.3293,322.247],[6.2805,13.326,341.1419],[6.2563,13.3225,342.4522],[6.2465,13.3194,341.9702],[6.2331,13.3238,343.8974],[6.2214,13.3306,345.679],[6.2086,13.3267,343.2733],[6.1929,13.333,343.2799],[6.1823,13.3329,344.5484],[6.1702,13.3304,340.6599],[6.1497,13.3304,341.5151],[6.1088,13.3408,322.1958],[6.0793,13.354,322.121],[6.0691,13.3652,333.8005],[6.0613,13.3686,339.7633],[6.0407,13.382,311.5061],[6.0216,13.4007,302.4281],[6.0178,13.3819,320.062],[6.0046,13.3589,324.8401],[5.9977,13.351,322.0576],[5.9859,13.3421,322.191],[5.9689,13.3237,322.3137],[5.9586,13.3076,316.0579],[5.9548,13.2813,316.1633],[5.9535,13.2577,322.6165],[5.9565,13.2432,325.3579],[5.956,13.2319,319.0932],[5.963,13.2179,315.6979],[5.9723,13.2049,304.3742],[6.0139,13.1617,292.9493],[6.036,13.1426,300.355],[6.0477,13.137,306.3081],[6.0488,13.1301,305.5907],[6.0468,13.119,296.9442],[6.0337,13.09,302.5134],[6.0324,13.0814,306.4791],[6.0335,13.0339,316.1084],[6.0364,13.0079,324.6364],[6.0391,13.0026,326.0358],[6.0502,12.9957,340.4365],[6.0515,13.0123,332.9106],[6.0856,13.0411,331.5186],[6.1256,13.0552,327.2355],[6.164,13.0658,328.6937],[6.2091,13.0659,334.95],[6.2177,13.0625,341.159],[6.2295,13.0552,345.7827],[6.2443,13.0522,351.7313],[6.2526,13.043,354.8548],[6.2607,13.0466,361.41],[6.2626,13.0616,358.5686],[6.2724,13.0765,354.4652],[6.2733,13.0989,349.0587],[6.2776,13.1235,344.5045],[6.2755,13.1389,337.0719],[6.282,13.1632,339.5737],[6.2984,13.1613,328.9348],[6.3341,13.1638,331.1041],[6.3624,13.1602,323.8514],[6.3755,13.156,322.271],[6.3806,13.1526,323.7554],[6.386,13.1529,321.9881],[6.3989,13.1495,321.697],[6.4265,13.1169,323.0343],[6.4445,13.112,324.3632],[6.4572,13.1065,322.4295],[6.4715,13.1052,322.9053],[6.4939,13.0991,322.3789],[6.5186,13.0997,323.1273],[6.5673,13.0908,332.8809],[6.5969,13.0889,360.7296],[6.6108,13.0862,386.3178],[6.6439,13.1006,406.7208],[6.6598,13.1097,402.1218],[6.7056,13.139,402.4788],[6.7254,13.1497,402.6793],[6.7444,13.1647,412.9958],[6.7602,13.1803,404.2081],[6.7744,13.1907,394.2403],[6.6778,13.3554,354.3015],[6.6587,13.3739,351.4212]]]]}}