{"type": "Feature","bbox": [3.6063,6.3732,4.3482,6.689],"geometry": {"type": "MultiPolygon","coordinates": [[[[4.3424,6.3732,4.5081],[4.3431,6.3938,6.0053],[4.3469,6.4011,4.921],[4.3482,6.4114,0.0],[4.347,6.4235,1.8213],[4.3426,6.4316,7.1351],[4.3329,6.4366,3.2598],[4.3283,6.4374,5.0879],[4.3163,6.4376,0.0],[4.2925,6.4336,10.7652],[4.2845,6.4386,7.8563],[4.2575,6.4421,5.6611],[4.2394,6.4327,14.7832],[4.2299,6.4349,7.8024],[4.2204,6.4425,0.0],[4.2118,6.4562,0.0],[4.2063,6.4568,0.0],[4.2019,6.4601,0.0],[4.1782,6.4644,0.0],[4.1748,6.4668,0.0],[4.167,6.4685,0.0],[4.1522,6.4805,0.0],[4.1487,6.4919,0.0],[4.1513,6.5004,0.0],[4.1577,6.5086,0.0],[4.2028,6.5297,0.0],[4.211,6.5349,0.0],[4.2209,6.5467,0.0],[4.2191,6.5622,1.4671],[4.2146,6.5704,1.0502],[4.2019,6.586,1.1188],[4.1968,6.5871,1.4466],[4.1723,6.5859,0.0],[4.1462,6.5794,2.2948],[4.131,6.5732,6.0322],[4.1076,6.5526,13.8358],[4.0941,6.5445,0.0],[4.0876,6.5444,0.0],[4.0837,6.5465,0.0],[4.0811,6.5523,11.9908],[4.0763,6.5575,0.1277],[4.0588,6.5622,11.0533],[4.0581,6.5857,7.4169],[4.0549,6.5913,7.5583],[4.0506,6.5935,12.076],[4.0464,6.6058,11.2756],[4.0501,6.6209,7.0791],[4.0635,6.6385,6.687],[4.0749,6.6422,10.9385],[4.0791,6.6458,10.937],[4.0942,6.6675,11.9956],[4.0918,6.6744,10.3506],[4.0855,6.6819,7.234],[4.0747,6.6846,7.8191],[3.6987,6.689,26.465],[3.6759,6.6602,17.3817],[3.6711,6.6439,30.9148],[3.6728,6.6365,10.986],[3.6783,6.6376,12.4163],[3.682,6.6334,10.5644],[3.6878,6.6082,9.2148],[3.6665,6.5913,12.1028],[3.6616,6.589,2.8129],[3.6305,6.5596,6.3141],[3.621,6.5455,0.0],[3.6169,6.5336,0.0],[3.6077,6.5181,0.0],[3.6147,6.5138,0.0],[3.6165,6.5082,2.7072],[3.6063,6.4937,4.7724],[3.6065,6.4886,4.7098],[3.6099,6.4876,3.8347],[3.6206,6.4925,0.4436],[3.6339,6.489,9.5162],[3.6452,6.4985,7.1413],[3.6551,6.4988,5.3497],[3.658,6.4953,3.7214],[3.6654,6.4947,9.1395],[3.7227,6.5145,8.8571],[3.728,6.5135,13.1311],[3.7382,6.5177,9.3983],[3.7822,6.543,11.6796],[3.8076,6.5552,9.2756],[3.8147,6.554,9.5558],[3.8456,6.5539,7.4844],[3.864,6.549,12.5717],[3.8738,6.5421,8.679],[3.8873,6.5382,6.6607],[3.8934,6.527,9.8002],[3.9064,6.5158,3.5026],[3.9095,6.5099,0.0],[3.927,6.5067,0.0],[3.9474,6.5001,14.0699],[3.9652,6.5037,1.2352],[3.9644,6.4989,9.1153],[3.9676,6.4963,7.7756],[3.9757,6.4978,0.0],[3.984,6.4969,0.0],[3.9913,6.4904,9.8116],[3.9935,6.4871,12.9611],[3.9941,6.4811,11.3515],[3.998,6.478,14.8364],[4.0049,6.4749,10.4685],[4.0267,6.4697,0.0],[4.0352,6.4643,13.8881],[4.0414,6.4494,12.4525],[4.0546,6.44,13.2323],[4.0621,6.4313,12.7053],[4.0759,6.4327,15.7351],[4.0995,6.4199,6.3337],[4.1078,6.4213,8.6147],[4.1292,6.4302,6.1944],[4.1435,6.4299,11.0899],[4.1501,6.4268,13.1569],[4.1583,6.4177,6.6692],[4.1698,6.4189,5.1478],[4.1884,6.4246,0.0],[4.1934,6.4199,10.7627],[4.2058,6.4169,8.0195],[4.2149,6.4117,3.8563],[4.2438,6.384,3.7973],[4.3021,6.3796,2.7195],[4.3424,6.3732,4.5081]]]]}
,"properties": {"GID_2": "NGA.25.7_1","GID_0": "NGA","country": "Nigeria","GID_1": "NGA.25_1","province": "Lagos","NL_NAME_1": "NA","county": "Epe","VARNAME_2": "NA","NL_NAME_2": "NA","TYPE_2": "LocalAuthority","ENGTYPE_2": "LocalAuthority","CC_2": "NA","HASC_2": "NA","name": "Epe.county","area_km2": 1201.3022,"hist_schema_id": "Elevation0-9000","hist_area_km2": {"0": 922.9207,"25": 245.1924,"50": 33.1891}}}