{"type": "Feature","bbox": [6.0468,5.3932,6.455,5.6334],"geometry": {"type": "MultiPolygon","coordinates": [[[[6.2734,5.4627,12.3556],[6.2691,5.4637,13.0215],[6.2587,5.4614,21.952],[6.248,5.4565,23.4791],[6.2442,5.4506,15.5124],[6.2499,5.4309,13.4575],[6.2606,5.4243,8.7064],[6.2603,5.4203,15.7301],[6.2671,5.4149,19.6649],[6.278,5.4103,21.7736],[6.2952,5.4227,22.3444],[6.2985,5.4289,14.664],[6.2988,5.4349,21.1381],[6.2982,5.4386,16.544],[6.2884,5.4471,12.7507],[6.2837,5.4554,14.9761],[6.2734,5.4627,12.3556]]],
[[[6.3586,5.4373,13.7509],[6.3722,5.4357,18.3425],[6.3884,5.4366,17.2997],[6.4022,5.4355,18.2706],[6.4232,5.4224,20.2242],[6.4384,5.4203,20.6429],[6.4447,5.4248,22.1852],[6.4489,5.4319,21.9869],[6.4547,5.4442,17.6323],[6.455,5.45,20.6058],[6.4475,5.455,17.4077],[6.4404,5.4572,14.1344],[6.4189,5.4594,14.4167],[6.4099,5.4584,13.9409],[6.3979,5.454,18.4695],[6.3852,5.4549,19.2271],[6.3814,5.4644,24.4908],[6.3868,5.4668,24.0633],[6.3889,5.4695,22.8077],[6.3925,5.4764,23.8434],[6.3925,5.481,21.6822],[6.3898,5.4859,21.2863],[6.3834,5.4855,19.0787],[6.38,5.5165,17.3665],[6.3766,5.5246,17.7959],[6.3743,5.5392,15.5334],[6.3708,5.5493,19.011],[6.3365,5.6239,15.6643],[6.3324,5.6274,16.7884],[6.32,5.6334,25.4462],[6.3098,5.6276,17.2162],[6.2745,5.6263,17.144],[6.2619,5.6224,16.03],[6.2414,5.6195,16.1049],[6.2194,5.6174,15.6142],[6.2077,5.6196,15.4474],[6.1987,5.6193,14.4963],[6.1813,5.6016,14.1437],[6.1758,5.6006,14.8281],[6.1648,5.5899,20.5781],[6.1524,5.595,14.9514],[6.1437,5.5967,22.447],[6.1365,5.5957,20.0548],[6.1146,5.5857,18.6044],[6.1122,5.5759,13.9732],[6.1146,5.5671,14.3024],[6.1126,5.5576,17.5311],[6.113,5.5394,19.7529],[6.105,5.534,17.4884],[6.0893,5.5338,11.6124],[6.086,5.5277,13.264],[6.0797,5.5241,11.5074],[6.0612,5.4931,18.8376],[6.0562,5.4789,18.2825],[6.0481,5.4673,21.4379],[6.0468,5.459,20.4621],[6.0471,5.4488,20.1657],[6.0571,5.439,14.7814],[6.0649,5.434,10.3368],[6.07,5.4229,19.365],[6.0771,5.4158,12.6717],[6.0797,5.411,10.1493],[6.0816,5.3989,17.4506],[6.0835,5.3985,17.6655],[6.0857,5.3932,16.6873],[6.0914,5.4052,18.2278],[6.0917,5.4105,15.7945],[6.0981,5.4194,15.1631],[6.1037,5.4248,11.6871],[6.1125,5.4275,16.0468],[6.1147,5.432,15.3724],[6.1238,5.439,16.3356],[6.1332,5.452,17.5796],[6.1527,5.4865,18.234],[6.1689,5.5044,17.7074],[6.1775,5.5102,15.1112],[6.1931,5.5445,16.5322],[6.199,5.5403,16.4039],[6.2108,5.5246,15.4878],[6.2167,5.5225,14.3123],[6.2249,5.5131,15.3913],[6.2375,5.5069,19.6735],[6.2582,5.5169,21.9698],[6.2902,5.5456,20.9114],[6.2942,5.546,22.7349],[6.2997,5.545,22.9725],[6.3102,5.5377,22.6286],[6.3134,5.5381,17.1824],[6.3249,5.5333,15.7754],[6.3265,5.5342,14.4387],[6.3342,5.5226,16.3247],[6.332,5.5161,17.0087],[6.325,5.5149,14.4115],[6.3212,5.5078,14.9693],[6.3167,5.4846,16.4521],[6.3239,5.4736,15.4845],[6.3271,5.472,19.3881],[6.3356,5.4716,16.0938],[6.3408,5.4632,14.52],[6.3415,5.4512,10.314],[6.3442,5.4461,11.1955],[6.3519,5.4388,10.4529],[6.3586,5.4373,13.7509]]]]}
,"properties": {"GID_2": "NGA.10.9_1","GID_0": "NGA","country": "Nigeria","GID_1": "NGA.10_1","province": "Delta","NL_NAME_1": "NA","county": "IsokoNorth","VARNAME_2": "NA","NL_NAME_2": "NA","TYPE_2": "LocalAuthority","ENGTYPE_2": "LocalAuthority","CC_2": "NA","HASC_2": "NA","name": "Isoko_North.county","area_km2": 486.0393,"hist_schema_id": "Elevation0-9000","hist_area_km2": {"0": 76.6542,"25": 409.3851}}}