{"type":"Feature","properties":{"GID_2":"NGA.21.34_1","GID_0":"NGA","country":"Nigeria","GID_1":"NGA.21_1","province":"Katsina","NL_NAME_1":"NA","county":"Zango","VARNAME_2":"NA","NL_NAME_2":"NA","TYPE_2":"LocalAuthority","ENGTYPE_2":"LocalAuthority","CC_2":"NA","HASC_2":"NA","name":"Zango.county"},
"geometry":{"type": "MultiPolygon","coordinates": [[[[8.3894,13.0786,475.5452],[8.3826,13.0676,482.4596],[8.3827,13.0595,486.8683],[8.3882,13.0194,488.2337],[8.3865,13.009,486.5686],[8.3906,12.9929,484.4881],[8.3915,12.9816,483.2267],[8.3971,12.9789,488.6945],[8.4044,12.9693,490.6023],[8.4112,12.9652,494.8222],[8.4181,12.9574,494.9854],[8.4262,12.9384,496.6197],[8.4301,12.9244,505.2041],[8.4324,12.9055,492.1118],[8.4288,12.8874,489.3185],[8.4319,12.8595,478.7221],[8.4313,12.8529,478.2099],[8.4436,12.8257,463.8604],[8.4749,12.8285,456.2141],[8.4948,12.8255,446.255],[8.5149,12.832,433.556],[8.5322,12.832,431.4726],[8.5355,12.8313,431.5365],[8.5481,12.8213,443.6271],[8.5543,12.8119,436.8305],[8.5557,12.8071,437.7054],[8.5833,12.8259,427.8352],[8.6041,12.8328,437.531],[8.631,12.8523,441.2784],[8.6382,12.8544,436.2512],[8.6554,12.8539,420.4769],[8.662,12.8483,417.8793],[8.6982,12.8542,407.5697],[8.7064,12.8569,407.2925],[8.7126,12.8692,406.371],[8.7124,12.8828,411.8445],[8.7042,12.8986,412.4335],[8.7001,12.9027,413.4476],[8.6979,12.9087,411.4585],[8.7009,12.9135,409.1601],[8.6992,12.9166,407.0097],[8.6781,12.9245,409.8006],[8.6717,12.9289,420.0193],[8.6485,12.9386,424.5938],[8.6448,12.9461,428.3892],[8.6446,12.9557,424.7876],[8.64,12.9612,427.4164],[8.6317,12.9771,428.5792],[8.6018,13.0105,448.4297],[8.5988,13.0116,449.1757],[8.5856,13.0242,467.2355],[8.5648,13.0383,471.922],[8.5311,13.0567,488.8857],[8.4994,13.0677,481.7997],[8.4864,13.0697,476.4899],[8.4688,13.0689,469.5074],[8.4217,13.0552,482.964],[8.4156,13.0548,485.1438],[8.4007,13.0702,482.4811],[8.3894,13.0786,475.5452]]]]}}