{"type":"Feature","properties":{"GID_2":"NGA.31.19_1","GID_0":"NGA","country":"Nigeria","GID_1":"NGA.31_1","province":"Oyo","NL_NAME_1":"NA","county":"Kajola","VARNAME_2":"NA","NL_NAME_2":"NA","TYPE_2":"LocalAuthority","ENGTYPE_2":"LocalAuthority","CC_2":"NA","HASC_2":"NA","name":"Kajola.county"},
"geometry":{"type": "MultiPolygon","coordinates": [[[[3.4573,8.0471,311.1743],[3.449,8.0484,320.3464],[3.4088,8.086,318.6577],[3.4144,8.0916,306.3305],[3.4357,8.097,339.2169],[3.4444,8.1082,332.8604],[3.4407,8.12,318.2301],[3.4331,8.133,302.6953],[3.4265,8.1398,312.7532],[3.419,8.1446,316.0345],[3.4092,8.1546,312.2538],[3.391,8.1579,287.5834],[3.3766,8.1651,295.6282],[3.3641,8.1759,281.5076],[3.3603,8.1833,282.3985],[3.3531,8.1917,260.449],[3.3444,8.1967,258.3679],[3.3204,8.1946,276.0936],[3.2946,8.1879,234.3755],[3.293,8.1697,233.6603],[3.2949,8.1596,226.8904],[3.2926,8.1455,229.7833],[3.2846,8.1233,226.6878],[3.2799,8.119,213.9017],[3.2863,8.0996,219.1158],[3.2851,8.0814,248.8157],[3.2784,8.0688,240.9936],[3.2631,8.0513,225.8874],[3.2581,8.0417,197.9486],[3.2544,8.0278,239.0544],[3.2566,7.9904,257.0166],[3.2665,7.9607,241.9483],[3.2732,7.9445,274.3432],[3.2949,7.9178,255.0561],[3.3025,7.9055,217.7494],[3.3164,7.894,225.907],[3.3445,7.8753,196.3425],[3.3733,7.8603,197.6679],[3.3842,7.8576,196.8167],[3.3899,7.8736,220.8813],[3.3998,7.8854,204.4071],[3.4294,7.9193,230.0754],[3.4454,7.9264,234.9595],[3.4534,7.937,219.8097],[3.4546,7.9483,227.1069],[3.4495,7.9618,281.7213],[3.4494,7.974,258.9809],[3.4583,7.9939,264.2531],[3.4622,8.0079,259.4411],[3.4685,8.0128,266.3813],[3.4672,8.02,265.74],[3.4573,8.0471,311.1743]]]]}}