{"type":"Feature","properties":{"GID_2":"NGA.33.1_1","GID_0":"NGA","country":"Nigeria","GID_1":"NGA.33_1","province":"Rivers","NL_NAME_1":"NA","county":"Abua/Odual","VARNAME_2":"NA","NL_NAME_2":"NA","TYPE_2":"LocalAuthority","ENGTYPE_2":"LocalAuthority","CC_2":"NA","HASC_2":"NA","name":"Abua_Odual.county"},
"geometry":{"type": "MultiPolygon","coordinates": [[[[6.6214,4.7271,12.2849],[6.64,4.7339,16.2972],[6.6666,4.7254,13.4558],[6.6733,4.7251,13.0818],[6.686,4.7283,12.0284],[6.6939,4.7323,10.8463],[6.7092,4.7355,3.5361],[6.7265,4.7348,13.5413],[6.7378,4.7318,12.5848],[6.7377,4.7454,1.5648],[6.7345,4.7577,2.5989],[6.732,4.7605,5.9366],[6.7209,4.7909,0.9273],[6.7169,4.7976,0.8854],[6.7109,4.8005,2.6961],[6.6996,4.8131,1.0324],[6.6982,4.8265,2.2086],[6.6999,4.837,6.8001],[6.694,4.8358,6.4538],[6.6864,4.8405,11.5026],[6.6834,4.8406,13.0259],[6.673,4.8523,6.4765],[6.6572,4.8585,7.176],[6.6538,4.8616,5.2458],[6.6564,4.8671,10.239],[6.6648,4.872,7.2073],[6.6732,4.8903,7.6561],[6.6614,4.8907,15.5831],[6.6498,4.8879,11.9098],[6.6462,4.8924,11.9648],[6.6503,4.9026,12.248],[6.6387,4.9001,7.9647],[6.6256,4.9015,16.3571],[6.614,4.9093,15.8408],[6.605,4.9412,18.2393],[6.5947,4.9601,7.709],[6.5893,4.9664,7.2261],[6.5738,4.9772,16.7164],[6.5643,4.9781,17.172],[6.5602,4.977,12.4735],[6.5448,4.9694,14.0294],[6.5389,4.9578,9.5513],[6.5363,4.9424,16.5995],[6.5379,4.9384,15.7304],[6.5352,4.9309,11.2275],[6.5249,4.9246,18.0402],[6.5252,4.9142,17.6126],[6.541,4.9064,17.2275],[6.5497,4.8977,18.5637],[6.5489,4.8811,16.0469],[6.5307,4.8681,19.4778],[6.5176,4.8681,21.4369],[6.5129,4.8767,18.4604],[6.4998,4.8845,19.808],[6.4871,4.9098,18.4698],[6.4659,4.927,16.8616],[6.4538,4.933,17.4094],[6.4205,4.9372,14.4226],[6.4178,4.9223,13.9851],[6.41,4.9104,16.7336],[6.3903,4.8884,19.9502],[6.3871,4.879,21.2448],[6.3837,4.8211,14.669],[6.386,4.8086,15.4906],[6.3941,4.7951,16.131],[6.4257,4.7787,13.5203],[6.4414,4.7793,16.7314],[6.4475,4.7718,14.9209],[6.4407,4.7482,15.0511],[6.4444,4.7371,11.4817],[6.4464,4.7167,15.7],[6.4632,4.7125,9.6751],[6.5689,4.7536,10.1618],[6.5871,4.7545,14.0902],[6.601,4.7533,14.0165],[6.6149,4.7408,13.7268],[6.6214,4.7271,12.2849]]]]}}