{"type":"Feature","properties":{"GID_2":"NGA.19.11_1","GID_0":"NGA","country":"Nigeria","GID_1":"NGA.19_1","province":"Kaduna","NL_NAME_1":"NA","county":"Kagarko","VARNAME_2":"NA","NL_NAME_2":"NA","TYPE_2":"LocalAuthority","ENGTYPE_2":"LocalAuthority","CC_2":"NA","HASC_2":"NA","name":"Kagarko.county"},
"geometry":{"type": "MultiPolygon","coordinates": [[[[7.6258,9.3107,724.0782],[7.6476,9.3271,725.7722],[7.6517,9.3276,744.8883],[7.6596,9.3254,732.8273],[7.6642,9.3199,701.3152],[7.6664,9.3137,708.9648],[7.6693,9.2952,603.2324],[7.6739,9.2881,597.7761],[7.6807,9.2826,634.5615],[7.6875,9.282,616.4719],[7.6999,9.2879,454.9067],[7.7049,9.2923,452.6105],[7.7199,9.2901,427.1768],[7.7342,9.2813,448.7067],[7.7356,9.276,435.9352],[7.7396,9.2715,425.8002],[7.7492,9.2679,422.3877],[7.7529,9.2641,424.7556],[7.7593,9.2614,432.346],[7.7809,9.2654,395.9077],[7.7929,9.2603,424.8615],[7.7992,9.2541,406.2237],[7.8093,9.2483,388.323],[7.8161,9.2473,385.0814],[7.8319,9.2498,375.0898],[7.8508,9.2657,386.9546],[7.8543,9.2745,410.5086],[7.8643,9.2821,412.371],[7.8656,9.2922,408.987],[7.8746,9.3133,408.6701],[7.8794,9.3228,476.3134],[7.8883,9.3301,466.8907],[7.8893,9.3393,601.4725],[7.9113,9.3611,623.0726],[7.9237,9.3621,467.3247],[7.9142,9.3929,719.7554],[7.9118,9.4145,694.679],[7.9208,9.4337,756.6407],[7.9274,9.4412,750.4674],[7.9373,9.4467,784.6524],[7.9452,9.459,785.9121],[7.9541,9.4662,777.7473],[7.9775,9.4836,752.8134],[7.9899,9.4893,766.1443],[8.0043,9.5087,744.3575],[8.0088,9.5184,743.0591],[8.0102,9.5348,726.3793],[7.955,9.5158,748.0999],[7.9374,9.5215,755.2537],[7.9316,9.521,756.9529],[7.9264,9.5257,780.9606],[7.9142,9.5433,783.8488],[7.9112,9.5545,757.9061],[7.9029,9.5645,771.0286],[7.8666,9.5889,711.3976],[7.8534,9.6072,708.279],[7.8268,9.6195,713.2227],[7.8154,9.6385,736.0845],[7.7984,9.6603,669.5831],[7.7891,9.6637,728.007],[7.7669,9.6503,624.0],[7.7374,9.6276,593.1503],[7.7273,9.6144,589.5728],[7.7012,9.5889,592.8208],[7.687,9.5627,622.6403],[7.6835,9.552,638.2645],[7.6655,9.5406,626.0604],[7.6507,9.5448,594.7244],[7.6354,9.5449,572.4005],[7.6199,9.5422,555.5627],[7.6083,9.5449,574.8812],[7.5786,9.5383,547.4626],[7.5631,9.5403,557.6873],[7.5419,9.5482,563.4956],[7.5342,9.5534,566.4619],[7.5173,9.5549,578.9003],[7.5034,9.5596,561.8965],[7.4829,9.5638,564.5341],[7.4561,9.5737,575.2768],[7.4396,9.578,552.1341],[7.4354,9.5775,575.3474],[7.4277,9.5707,611.142],[7.4184,9.5584,529.5587],[7.4075,9.5541,521.5299],[7.378,9.5508,553.7824],[7.3644,9.547,551.308],[7.3079,9.5174,517.2002],[7.2957,9.5168,510.6462],[7.287,9.5186,506.3074],[7.2816,9.4922,522.7239],[7.2689,9.4782,530.8232],[7.25,9.4702,524.9182],[7.2292,9.4575,536.5599],[7.2203,9.4427,522.2858],[7.2187,9.4054,536.8151],[7.2273,9.3935,526.5082],[7.2425,9.3835,534.1844],[7.2663,9.3707,549.7143],[7.2736,9.3608,538.4851],[7.2641,9.336,523.8591],[7.2573,9.3103,498.2945],[7.2503,9.2975,486.5911],[7.2512,9.2945,491.154],[7.2572,9.2939,487.545],[7.2909,9.3041,501.4381],[7.3075,9.3015,507.7673],[7.3109,9.2975,521.2463],[7.3221,9.2973,524.9137],[7.3253,9.3001,533.5497],[7.3387,9.3043,549.5755],[7.3634,9.3034,549.5425],[7.3946,9.3081,672.6373],[7.4516,9.3045,625.2537],[7.4614,9.3025,640.377],[7.4753,9.292,643.2358],[7.486,9.2889,646.929],[7.4956,9.2924,673.8641],[7.5043,9.3024,674.955],[7.5334,9.3512,684.2615],[7.5416,9.3569,737.9473],[7.5506,9.3599,716.3333],[7.5572,9.3586,707.7588],[7.5679,9.3529,707.0122],[7.5744,9.3426,725.0309],[7.5832,9.3133,735.0256],[7.5898,9.3069,714.5124],[7.5916,9.303,708.2635],[7.6069,9.2981,692.1422],[7.6169,9.3026,714.8311],[7.6258,9.3107,724.0782]]]]}}