{"type": "Feature","bbox": [5.3765,4.2707,6.721,5.3932],"geometry": {"type": "MultiPolygon","coordinates": [[[[6.3098848101265821,4.4684291139240511,5.0582],[6.3099,4.4685,5.0582],[6.3100848049281293,4.4682338809034938,5.9531],[6.3135,4.4649,6.1504],[6.3138,4.4688,3.4385],[6.3151,4.4696,3.0567],[6.324,4.4679,7.5637],[6.3237,4.4713,1.9846],[6.3268,4.4718,0.7496],[6.329,4.4746,0.0],[6.3285,4.481,2.8403],[6.3315,4.4857,0.0],[6.3268,4.4882,1.1971],[6.3243,4.4918,6.1372],[6.3263,4.5046,2.7196],[6.3193,4.5143,1.176],[6.3182,4.5229,5.7161],[6.3201,4.5151,1.176],[6.324,4.511,1.9852],[6.3274,4.5037,0.0],[6.3251,4.4943,4.6211],[6.326,4.4899,1.2379],[6.3332,4.4865,5.1844],[6.3299,4.4804,3.7768],[6.3301,4.4763,3.5863],[6.3349,4.476,0.5452],[6.3376,4.4782,2.0891],[6.3357,4.4871,3.1059],[6.3374,4.4904,0.0],[6.3449,4.4907,8.3157],[6.3521,4.4888,7.4102],[6.354,4.4904,2.9607],[6.3529,4.4963,3.6292],[6.344,4.5074,2.1612],[6.3443,4.514,0.5941],[6.3413,4.5132,1.6733],[6.3426,4.5188,2.6197],[6.341,4.5232,2.9795],[6.3371,4.5249,1.5929],[6.3301,4.5343,0.2446],[6.3299,4.544,2.1601],[6.3235,4.5574,0.0],[6.324,4.5599,1.2352],[6.3304,4.5443,2.1601],[6.331,4.534,2.6438],[6.3399,4.5257,3.835],[6.3449,4.5151,0.5941],[6.3474,4.516,0.0],[6.3493,4.5215,0.0],[6.346,4.5288,3.0297],[6.346,4.5432,4.9267],[6.3474,4.5476,2.7612],[6.3429,4.5588,4.4293],[6.344,4.5629,0.8349],[6.3465,4.5643,2.4424],[6.3487,4.564,2.0141],[6.3493,4.566,0.0],[6.344,4.5743,0.6793],[6.3376,4.579,7.2746],[6.3379,4.5851,5.1502],[6.3343,4.5868,13.9156],[6.3357,4.5899,0.6446],[6.3351,4.594,0.6015],[6.3338,4.5965,1.8339],[6.3288,4.5979,3.3995],[6.3282,4.6032,7.3492],[6.3293,4.5982,3.3995],[6.334,4.5971,2.2471],[6.3357,4.5943,0.6015],[6.3363,4.5896,0.6446],[6.3349,4.5871,1.5842],[6.3371,4.5868,0.0],[6.3385,4.5854,5.1502],[6.3379,4.5799,7.2746],[6.3429,4.5763,0.0],[6.3476,4.569,2.1203],[6.3507,4.5671,4.2971],[6.3501,4.5635,1.7098],[6.3457,4.5635,0.9334],[6.3438,4.5601,0.0],[6.3485,4.5474,2.7612],[6.3474,4.5324,6.5284],[6.351,4.5207,0.0],[6.3504,4.5165,2.3677],[6.3451,4.5099,2.1984],[6.3501,4.5026,1.227],[6.3557,4.4979,2.7831],[6.3571,4.4915,1.7849],[6.3535,4.4874,0.7476],[6.3393,4.4879,3.2319],[6.3382,4.4865,0.0],[6.3474,4.471,8.6393],[6.3493,4.4604,4.5954],[6.3487,4.4507,0.847],[6.3512,4.4429,0.0],[6.351,4.4376,0.0],[6.3479,4.4293,4.3071],[6.3435,4.4229,1.4648],[6.3476,4.416,5.4567],[6.3479,4.4079,1.5847],[6.3549,4.4029,0.0],[6.3532,4.4015,0.0],[6.3529,4.3943,0.0],[6.3499,4.3876,8.8016],[6.3515,4.3782,0.0],[6.354,4.3754,0.0],[6.3679,4.3743,2.7616],[6.3757,4.3715,0.5977],[6.3932,4.3468,0.5146],[6.3965,4.3454,0.0],[6.4004,4.3471,6.7918],[6.4054,4.3551,0.0],[6.406,4.3599,17.9163],[6.4007,4.3676,0.0],[6.3974,4.3807,2.097],[6.404,4.3857,15.437],[6.4085,4.3951,6.7981],[6.4115,4.3982,2.3758],[6.4121,4.4024,0.9396],[6.4088,4.4029,3.0749],[6.4021,4.4004,2.868],[6.3982,4.4046,5.1552],[6.3968,4.4113,12.7736],[6.4001,4.4029,3.6147],[6.4024,4.401,6.74],[6.4088,4.404,6.2791],[6.4118,4.4038,5.6122],[6.4126,4.4026,0.9396],[6.4121,4.3974,2.3758],[6.4071,4.3871,0.9598],[6.3985,4.3804,2.1517],[6.4035,4.3663,5.909],[6.4076,4.3593,0.0],[6.4032,4.3479,2.957],[6.3979,4.3426,0.0],[6.4015,4.3354,0.0],[6.4126,4.3351,0.0],[6.4238,4.3393,12.4545],[6.4315,4.3399,0.0],[6.4365,4.3432,0.0],[6.4376,4.3471,4.5273],[6.4274,4.3643,0.0],[6.424,4.3793,3.4193],[6.4254,4.386,0.0],[6.4293,4.3918,5.8844],[6.4407,4.4001,4.2287],[6.4426,4.409,12.7313],[6.4429,4.4268,16.0561],[6.441,4.4293,13.6457],[6.4404,4.4393,3.5083],[6.4371,4.4454,2.3698],[6.4363,4.4512,0.0],[6.4407,4.4576,17.1766],[6.4376,4.4707,4.6248],[6.4426,4.4785,19.7816],[6.4351,4.4815,10.5295],[6.434,4.4849,1.6778],[6.434,4.4901,9.7636],[6.4363,4.4932,4.8899],[6.4371,4.4996,8.961],[6.4418,4.5021,0.0],[6.4418,4.5035,0.0],[6.4365,4.5071,5.0859],[6.4354,4.509,4.4136],[6.4357,4.5135,7.5698],[6.4363,4.5087,5.0859],[6.4415,4.5051,7.7222],[6.4424,4.5018,2.3037],[6.4376,4.4993,8.961],[6.4351,4.4832,7.6993],[6.4429,4.481,5.3878],[6.444,4.4776,2.7544],[6.439,4.4696,3.1936],[6.4429,4.4585,0.0],[6.4388,4.4524,0.0],[6.4388,4.4465,8.6231],[6.444,4.4376,12.2089],[6.4463,4.4224,18.6117],[6.4515,4.4163,0.0],[6.4537,4.4101,0.0],[6.4554,4.4113,5.3814],[6.4649,4.4349,0.0],[6.4674,4.4471,11.2315],[6.4676,4.4649,4.5028],[6.4701,4.4665,3.4957],[6.479,4.4654,2.3673],[6.4821,4.471,0.0],[6.4801,4.4779,2.9303],[6.4746,4.4785,3.1372],[6.4724,4.4804,3.3403],[6.4715,4.4893,0.0],[6.4726,4.4935,12.645],[6.4671,4.4924,11.5925],[6.4696,4.4938,25.2604],[6.4732,4.4938,3.0532],[6.4721,4.489,0.0],[6.4729,4.4807,10.1319],[6.4749,4.479,13.7255],[6.4779,4.4796,0.0],[6.4793,4.479,6.5171],[6.4818,4.4771,3.5881],[6.4826,4.4707,0.0],[6.4815,4.4668,3.044],[6.4793,4.4646,2.3673],[6.4704,4.466,3.4957],[6.4682,4.4646,4.5028],[6.4685,4.4465,9.977],[6.4657,4.4329,1.4354],[6.4576,4.4118,2.3704],[6.4535,4.4082,2.1519],[6.449,4.4171,4.6025],[6.4476,4.4174,0.0],[6.4479,4.4074,0.0],[6.4463,4.4012,5.0908],[6.4429,4.3968,0.9067],[6.4321,4.3896,0.0],[6.4279,4.384,5.7453],[6.4279,4.3754,10.8673],[6.4338,4.3613,0.0],[6.4401,4.3521,1.8976],[6.4388,4.3421,0.3688],[6.4396,4.3376,0.0],[6.436,4.3376,1.0895],[6.4299,4.3318,2.3949],[6.4296,4.3271,2.1859],[6.4443,4.316,2.154],[6.4562,4.3143,1.3907],[6.4651,4.3146,1.1996],[6.4765,4.3185,0.2225],[6.4924,4.3212,0.0],[6.5574,4.3265,2.8155],[6.5832,4.3263,4.1648],[6.5893,4.3282,10.6743],[6.5949,4.3338,0.0],[6.5887,4.3371,0.0],[6.5743,4.3321,0.0],[6.5626,4.3335,2.0551],[6.5438,4.3318,14.0854],[6.5371,4.3332,9.3046],[6.5246,4.3296,1.5033],[6.516,4.3296,2.7674],[6.499,4.3374,0.3387],[6.4932,4.3437,1.6162],[6.4949,4.3443,0.0],[6.4982,4.3393,10.2423],[6.5021,4.3374,6.765],[6.5149,4.3321,15.2982],[6.5224,4.331,0.0],[6.5324,4.3354,0.0],[6.5521,4.3343,5.5879],[6.5765,4.3363,2.8009],[6.5835,4.3385,0.7031],[6.5849,4.3449,0.0],[6.5854,4.3546,0.0],[6.5837,4.3576,0.0],[6.5713,4.3571,0.0],[6.5637,4.361,0.9912],[6.5637,4.3699,1.1059],[6.5682,4.3804,0.0],[6.5637,4.3899,10.2156],[6.561,4.3926,7.3722],[6.5538,4.3901,2.1702],[6.5468,4.3921,4.1769],[6.5471,4.3974,12.8988],[6.5513,4.4018,0.0],[6.5507,4.4201,14.8841],[6.549,4.4232,0.0],[6.541,4.426,0.0],[6.5335,4.4354,1.5081],[6.5268,4.4396,1.2774],[6.5271,4.4438,1.5058],[6.5318,4.4507,0.0],[6.5315,4.4618,0.0],[6.5296,4.4657,2.322],[6.5221,4.4707,0.0],[6.506,4.474,0.0],[6.4999,4.4779,0.3917],[6.4968,4.4832,0.3887],[6.4915,4.5057,0.0],[6.4918,4.5176,0.0],[6.489,4.5226,0.7205],[6.4837,4.5263,1.9848],[6.4815,4.5332,0.529],[6.4821,4.5362,1.0588],[6.4843,4.5265,1.9848],[6.4871,4.5254,0.0],[6.4888,4.5351,0.0],[6.4876,4.5407,0.0],[6.4904,4.551,4.041],[6.484,4.556,2.3688],[6.4812,4.5665,0.0],[6.4788,4.5663,1.8709],[6.4812,4.571,1.507],[6.4804,4.5751,1.5901],[6.4765,4.5754,2.2177],[6.4743,4.5768,2.7417],[6.4729,4.5807,1.8687],[6.469,4.5846,1.9811],[6.4693,4.5862,1.5034],[6.4718,4.5862,3.0289],[6.4696,4.5849,1.9811],[6.4735,4.581,1.8687],[6.474,4.5782,0.579],[6.4768,4.576,2.2236],[6.481,4.5754,1.8907],[6.4818,4.5735,1.7876],[6.4812,4.5676,1.5492],[6.4835,4.5651,1.8049],[6.4846,4.5593,0.0],[6.4907,4.5546,0.653],[6.4924,4.551,0.8298],[6.4901,4.5415,1.0223],[6.491,4.5337,0.0],[6.4924,4.5329,2.1832],[6.491,4.5268,0.0],[6.4943,4.516,0.0],[6.4938,4.5093,0.516],[6.5001,4.4854,0.2951],[6.5043,4.4768,0.0],[6.5135,4.474,7.3129],[6.5293,4.4729,1.6286],[6.5335,4.4704,0.0],[6.5349,4.4704,0.0],[6.5349,4.4729,4.8936],[6.5382,4.4682,0.0],[6.541,4.4704,1.0556],[6.5407,4.4776,3.2623],[6.544,4.479,8.7054],[6.5515,4.4726,3.2302],[6.5585,4.4626,14.4399],[6.5604,4.4632,5.1288],[6.5618,4.4699,1.5462],[6.5637,4.4718,0.0],[6.5768,4.471,8.5008],[6.5793,4.4721,13.1915],[6.5751,4.481,9.8242],[6.576,4.4901,0.0],[6.556,4.5026,4.2254],[6.544,4.5079,10.713],[6.5399,4.5121,14.5078],[6.5376,4.5232,4.39],[6.5404,4.531,4.2032],[6.5329,4.531,0.0],[6.5249,4.5332,15.306],[6.5235,4.5324,3.8472],[6.5238,4.5271,0.0],[6.5221,4.5249,2.4357],[6.5182,4.5249,2.2466],[6.5138,4.5282,2.1095],[6.5149,4.5285,2.1095],[6.5185,4.5254,2.2466],[6.5218,4.5254,3.0514],[6.5229,4.5329,3.8472],[6.5271,4.5337,12.4322],[6.5257,4.5385,1.6812],[6.5232,4.541,0.0],[6.5235,4.5429,3.2981],[6.5246,4.5432,1.504],[6.5243,4.5407,1.0944],[6.5257,4.541,1.0944],[6.531,4.5449,1.9178],[6.5307,4.5468,3.5134],[6.5257,4.5482,4.802],[6.524,4.5496,1.2856],[6.5235,4.5526,3.5428],[6.5301,4.5532,7.8632],[6.5337,4.5596,0.0],[6.5285,4.5646,4.8284],[6.5218,4.5649,9.0237],[6.5213,4.5676,5.7681],[6.5232,4.5696,0.7097],[6.5238,4.569,0.7097],[6.5218,4.5674,5.7681],[6.5224,4.5654,2.1184],[6.5288,4.5651,4.8284],[6.5343,4.5599,0.0],[6.5315,4.5535,2.8395],[6.5293,4.5521,7.8632],[6.524,4.5521,3.5428],[6.526,4.5488,12.2223],[6.5313,4.5476,3.7694],[6.5313,4.5432,3.6147],[6.5271,4.5407,2.5709],[6.5268,4.5382,2.5196],[6.5318,4.5324,3.9123],[6.5379,4.5349,1.8855],[6.5507,4.5349,4.0658],[6.5632,4.549,0.0],[6.5613,4.5513,0.0],[6.5543,4.5518,4.5133],[6.5499,4.554,0.0],[6.5385,4.5663,3.1589],[6.5362,4.5732,6.4179],[6.5374,4.5754,0.8605],[6.5424,4.5771,28.4701],[6.5454,4.5818,9.6323],[6.5385,4.5879,0.8773],[6.536,4.5943,0.687],[6.5315,4.5985,2.9401],[6.5321,4.599,0.9956],[6.5346,4.5974,0.0],[6.5362,4.6001,8.7413],[6.5365,4.6049,0.0],[6.5343,4.6104,2.9016],[6.5357,4.6165,2.323],[6.5393,4.619,11.3896],[6.5454,4.6196,4.4649],[6.5501,4.6251,1.4942],[6.5504,4.6279,3.9362],[6.5468,4.6318,2.9614],[6.5465,4.6343,4.7211],[6.5479,4.6357,1.9068],[6.5535,4.636,4.7326],[6.5546,4.6379,14.3201],[6.5479,4.6432,1.5522],[6.5488,4.6457,7.0671],[6.5546,4.646,12.3488],[6.5549,4.6488,3.1707],[6.5526,4.6529,2.2667],[6.5532,4.6568,3.1345],[6.5554,4.649,1.021],[6.5551,4.6457,1.4084],[6.554,4.6449,2.399],[6.549,4.6451,2.6334],[6.5485,4.6435,1.5522],[6.5538,4.6404,3.3197],[6.5551,4.6376,3.7173],[6.5538,4.6354,2.2416],[6.5471,4.634,1.136],[6.551,4.6285,4.3247],[6.5507,4.6246,1.4942],[6.546,4.6187,2.0524],[6.5399,4.6185,1.9815],[6.5351,4.6137,11.2047],[6.5387,4.6021,3.4012],[6.5368,4.5949,1.6516],[6.5421,4.5871,15.5207],[6.5457,4.5857,6.6974],[6.5468,4.5818,1.2314],[6.5454,4.5776,1.2011],[6.5387,4.5726,8.6936],[6.5382,4.5704,1.9266],[6.5482,4.559,0.0],[6.5557,4.5538,10.6172],[6.5635,4.5521,4.6146],[6.5649,4.5482,0.0],[6.5604,4.5385,6.0948],[6.5451,4.5288,0.7754],[6.544,4.514,0.0],[6.5454,4.5118,0.0],[6.5499,4.5099,0.0],[6.5637,4.506,5.6791],[6.5796,4.4965,2.1673],[6.5971,4.4776,9.0337],[6.604,4.4635,3.4665],[6.6046,4.4415,2.5222],[6.6004,4.4012,0.0],[6.6026,4.3865,3.8801],[6.5943,4.3535,2.1358],[6.5996,4.3504,0.0],[6.6015,4.3582,7.5962],[6.6046,4.3571,2.804],[6.6054,4.354,1.0392],[6.6132,4.3574,2.5295],[6.6113,4.3557,3.5798],[6.6099,4.349,6.5754],[6.6182,4.3487,10.3814],[6.621,4.3471,8.1752],[6.6224,4.3496,4.174],[6.6293,4.3499,4.3488],[6.6365,4.3443,2.2569],[6.6388,4.3474,3.9456],[6.6454,4.346,1.3198],[6.6488,4.354,5.3919],[6.6524,4.354,2.8199],[6.6543,4.3574,2.0579],[6.6613,4.3588,5.0514],[6.6621,4.3649,0.0],[6.6646,4.3646,6.6467],[6.6629,4.3596,5.4568],[6.6646,4.3585,2.9891],[6.6624,4.3563,5.9052],[6.6574,4.3543,1.024],[6.6551,4.3507,2.9595],[6.651,4.3507,0.0],[6.6482,4.3482,0.8757],[6.6476,4.3454,2.6816],[6.6446,4.3446,0.4266],[6.6415,4.346,0.0],[6.6363,4.3424,0.0],[6.6268,4.3429,11.3548],[6.629,4.346,7.4813],[6.6285,4.3493,0.0],[6.6229,4.349,1.6746],[6.6215,4.3465,14.4695],[6.6196,4.3465,3.8888],[6.6179,4.3482,10.3814],[6.6101,4.3482,8.1423],[6.609,4.3493,6.5754],[6.609,4.3518,2.0441],[6.6107,4.3554,2.8783],[6.6051,4.3535,3.0758],[6.604,4.3549,1.432],[6.604,4.3568,1.7253],[6.6015,4.3574,7.5962],[6.6024,4.3513,6.0568],[6.5979,4.3471,0.0],[6.611,4.3382,0.7642],[6.6307,4.3185,0.0],[6.636,4.3204,1.2295],[6.6376,4.3257,1.4847],[6.6418,4.3279,0.0],[6.6462,4.3343,2.2843],[6.6701,4.3385,5.2997],[6.694,4.3388,1.378],[6.7032,4.3404,0.0],[6.7043,4.3485,5.8619],[6.7015,4.3585,0.0],[6.6979,4.3643,0.0],[6.6951,4.3804,0.7263],[6.6835,4.381,0.0],[6.6937,4.3865,0.0],[6.6913,4.3985,0.0],[6.6893,4.3999,0.0],[6.6876,4.4049,1.2522],[6.6824,4.4096,0.4775],[6.6743,4.4126,0.0],[6.669,4.4171,3.2071],[6.6665,4.4243,0.8244],[6.6674,4.4304,6.7241],[6.666,4.4332,12.1441],[6.6576,4.434,0.0],[6.6571,4.4276,1.921],[6.654,4.4254,3.3997],[6.6563,4.4276,1.921],[6.6546,4.4321,0.0],[6.6457,4.4321,3.0104],[6.6443,4.4399,9.5634],[6.6404,4.4399,8.9104],[6.6368,4.4371,9.0563],[6.6376,4.4396,0.0],[6.6432,4.4413,5.9852],[6.6454,4.4396,9.5634],[6.6454,4.4338,7.0428],[6.6468,4.4324,3.0104],[6.6579,4.436,0.876],[6.6662,4.4363,0.0],[6.671,4.4535,11.5313],[6.666,4.4718,27.9438],[6.6654,4.4829,3.411],[6.6621,4.4904,0.0],[6.654,4.5012,0.0],[6.6446,4.5026,1.8262],[6.634,4.5087,2.4242],[6.6207,4.5324,4.4291],[6.616,4.5362,25.1527],[6.6124,4.5421,0.0],[6.6065,4.5432,4.0394],[6.6013,4.5407,0.9458],[6.5951,4.5418,13.8651],[6.5943,4.546,0.0],[6.5974,4.5565,3.2712],[6.5976,4.5637,15.5139],[6.5954,4.5626,0.0],[6.5937,4.5579,0.7833],[6.5901,4.556,1.7327],[6.5826,4.5574,0.5614],[6.5774,4.5593,4.0873],[6.5765,4.5604,4.0873],[6.5768,4.5651,0.0],[6.5796,4.5704,25.1395],[6.5699,4.5771,5.3425],[6.5721,4.5871,11.9211],[6.5726,4.5851,0.0],[6.5704,4.5776,5.3425],[6.5804,4.5704,1.1691],[6.5774,4.5649,0.0],[6.5776,4.5599,6.177],[6.5918,4.5571,17.5542],[6.5946,4.5626,0.0],[6.5993,4.5679,9.1616],[6.5985,4.5729,0.0],[6.5904,4.5832,1.1999],[6.591,4.5868,3.5979],[6.5965,4.5929,1.3621],[6.5946,4.5943,0.0],[6.5896,4.594,3.2401],[6.5887,4.5957,2.3413],[6.5899,4.6071,3.4771],[6.5874,4.6185,3.2764],[6.5935,4.6268,0.4796],[6.586,4.6324,1.6347],[6.5851,4.6418,1.2138],[6.589,4.6429,1.4138],[6.5949,4.6418,0.5406],[6.6001,4.6471,4.2356],[6.6032,4.6535,0.0],[6.5951,4.6557,0.0],[6.5882,4.6649,1.4919],[6.5776,4.6701,1.2843],[6.5721,4.6754,3.4758],[6.571,4.6818,2.4065],[6.564,4.6829,2.2214],[6.5632,4.6865,0.0],[6.5668,4.6876,1.6513],[6.5682,4.6838,1.5182],[6.5724,4.6818,0.9185],[6.5743,4.6754,0.9801],[6.5779,4.6732,0.0],[6.584,4.6724,5.5559],[6.5924,4.6635,6.2972],[6.5954,4.6579,1.0834],[6.6021,4.6557,0.9784],[6.6063,4.6593,0.863],[6.6113,4.6735,2.2765],[6.6104,4.6768,1.7004],[6.6051,4.6804,2.3238],[6.6085,4.6793,3.7255],[6.611,4.6771,3.4637],[6.6118,4.6746,1.0783],[6.6115,4.6715,7.107],[6.6026,4.6454,0.4264],[6.604,4.6412,0.0],[6.6085,4.6363,0.8258],[6.6215,4.6363,0.381],[6.6243,4.6321,1.5349],[6.6238,4.6265,1.1077],[6.6168,4.6162,0.3786],[6.6157,4.609,0.0],[6.6185,4.6046,0.0],[6.6279,4.5971,3.1258],[6.6324,4.5988,3.0408],[6.6399,4.5982,0.0],[6.6407,4.6029,2.3791],[6.6393,4.6096,1.6667],[6.641,4.6124,4.0761],[6.644,4.6126,2.3288],[6.6485,4.6082,1.0388],[6.6504,4.6088,4.9781],[6.6513,4.6135,3.0289],[6.6482,4.6265,0.0],[6.646,4.6285,0.2993],[6.6496,4.6279,4.1178],[6.6485,4.6265,0.0],[6.651,4.6238,2.0834],[6.6532,4.616,0.0],[6.6529,4.6104,0.0],[6.6518,4.6082,1.0581],[6.6474,4.6076,1.8624],[6.6424,4.6115,2.3144],[6.6404,4.6104,0.2891],[6.6401,4.6076,0.5702],[6.6426,4.6032,0.6105],[6.6421,4.5938,1.7345],[6.6457,4.5901,2.6749],[6.6485,4.5829,1.4872],[6.6513,4.5663,0.0],[6.6563,4.5565,2.6899],[6.6635,4.5471,0.535],[6.6735,4.5429,2.439],[6.6779,4.539,1.6976],[6.6801,4.5399,1.9161],[6.6782,4.5385,0.0],[6.6796,4.5326,0.0],[6.6785,4.5276,4.1657],[6.6718,4.5229,0.0],[6.6654,4.5149,8.4803],[6.6599,4.5115,1.6409],[6.6601,4.5062,2.3045],[6.6682,4.4993,4.3559],[6.6746,4.4882,3.8091],[6.6762,4.4812,0.0],[6.6762,4.4685,0.0],[6.6826,4.4463,5.0213],[6.694,4.4221,1.3557],[6.6996,4.4237,0.0],[6.7001,4.4315,0.0],[6.6957,4.4615,1.1984],[6.6913,4.4721,0.0],[6.6907,4.4824,6.2214],[6.6924,4.4929,2.0268],[6.6893,4.5143,0.0],[6.6974,4.5379,0.0],[6.7012,4.5429,0.0],[6.7043,4.5507,14.5976],[6.7126,4.5593,0.4134],[6.7129,4.5624,1.7028],[6.709,4.564,3.3979],[6.7132,4.5649,1.1137],[6.7174,4.5721,1.3939],[6.721,4.5985,1.4028],[6.7182,4.6107,0.0],[6.7157,4.6112,2.6644],[6.7146,4.6079,0.8266],[6.7115,4.6063,1.2278],[6.7118,4.6073,4.3979],[6.6973,4.6128,4.7527],[6.6824,4.6206,3.457],[6.6532,4.6405,3.2725],[6.6428,4.652,1.4627],[6.6335,4.6796,1.587],[6.6291,4.6958,4.8495],[6.6271,4.7125,10.1654],[6.6234,4.7229,12.4403],[6.6149,4.7408,13.7268],[6.601,4.7533,14.0165],[6.5871,4.7545,14.0902],[6.5689,4.7536,10.1618],[6.4632,4.7125,9.6751],[6.4464,4.7167,15.7],[6.4444,4.7371,11.4817],[6.4407,4.7482,15.0511],[6.4475,4.7718,14.9209],[6.4414,4.7793,16.7314],[6.4257,4.7787,13.5203],[6.3941,4.7951,16.131],[6.386,4.8086,15.4906],[6.3837,4.8211,14.669],[6.3871,4.879,21.2448],[6.3903,4.8884,19.9502],[6.41,4.9104,16.7336],[6.4178,4.9223,13.9851],[6.4204,4.937,9.5233],[6.4302,4.9555,17.3025],[6.4307,4.9761,9.7431],[6.4222,4.9778,17.7753],[6.4099,4.9734,17.9097],[6.4007,4.978,20.2997],[6.3963,4.9861,18.5936],[6.396,4.9983,13.5063],[6.4067,5.0309,10.2698],[6.4177,5.058,20.5972],[6.4715,5.1551,19.9607],[6.4882,5.1776,15.9542],[6.4902,5.185,20.9367],[6.502,5.1859,18.7174],[6.5349,5.1821,20.015],[6.5438,5.1903,17.7391],[6.5495,5.2006,18.6358],[6.5546,5.2164,11.9977],[6.556,5.2307,21.2655],[6.5649,5.2359,12.8263],[6.5767,5.24,4.0097],[6.5809,5.2434,14.9816],[6.5813,5.2487,22.2875],[6.576,5.2553,24.5686],[6.5746,5.2624,18.9222],[6.5773,5.2728,20.5354],[6.6027,5.2901,18.2302],[6.6126,5.3019,15.4212],[6.6181,5.3141,20.5397],[6.62,5.3293,25.4695],[6.6177,5.3455,21.3922],[6.6109,5.3543,21.74],[6.6075,5.3703,12.5237],[6.5951,5.3798,23.4875],[6.5642,5.3932,22.1941],[6.5307,5.3912,24.4316],[6.5167,5.3852,24.0316],[6.5,5.3898,21.2696],[6.5104,5.3657,8.5],[6.5125,5.3498,8.5],[6.4931,5.336,9.0181],[6.47,5.3231,7.5],[6.4444,5.3117,18.2436],[6.4199,5.3052,7.4916],[6.411,5.3005,6.0],[6.4013,5.3005,13.8324],[6.394,5.3034,13.4632],[6.3736,5.3021,13.9],[6.3546,5.3077,18.6129],[6.3462,5.3065,16.8229],[6.3311,5.2996,15.5798],[6.3194,5.3007,3.5],[6.3103,5.2997,10.2598],[6.2888,5.2551,3.5],[6.2849,5.2409,3.5],[6.2779,5.2334,4.4086],[6.2702,5.2298,4.6164],[6.2438,5.2249,13.6159],[6.2373,5.2262,16.3569],[6.231,5.2346,8.8567],[6.2232,5.2368,8.7195],[6.2073,5.2359,3.0],[6.2015,5.2206,11.5423],[6.2024,5.2081,17.2763],[6.2064,5.199,8.3431],[6.2057,5.1831,3.4755],[6.1901,5.173,18.7724],[6.1794,5.1714,13.5538],[6.1748,5.1691,15.2356],[6.1687,5.163,4.1549],[6.1601,5.1579,3.0],[6.1338,5.1488,18.6038],[6.1257,5.1485,20.9705],[6.1147,5.1533,19.3982],[6.1016,5.1549,11.5338],[6.0852,5.1527,7.7789],[6.0824,5.1509,3.0],[6.0714,5.1261,15.9364],[6.0559,5.1149,18.7673],[6.0386,5.1108,15.8615],[6.0279,5.1105,12.8077],[6.0199,5.1157,16.4578],[6.0043,5.1171,17.264],[5.9974,5.1214,16.8452],[5.995,5.13,11.0056],[5.9843,5.138,15.6171],[5.9814,5.1482,12.2243],[5.975,5.1476,10.1536],[5.9629,5.1603,9.2921],[5.956,5.1625,3.8989],[5.9474,5.1689,5.5789],[5.9392,5.166,0.0],[5.9352,5.1608,5.763],[5.9337,5.1543,14.2197],[5.9235,5.1358,1.0884],[5.9201,5.1243,9.6753],[5.9113,5.1111,15.7096],[5.896,5.1042,6.405],[5.8879,5.103,5.8727],[5.8655,5.087,16.1374],[5.858,5.0846,16.2677],[5.8523,5.0842,8.9337],[5.8438,5.0862,11.8797],[5.8394,5.0906,6.2471],[5.8242,5.0932,6.2492],[5.8157,5.0913,8.3149],[5.7958,5.0764,8.1008],[5.7835,5.0729,5.3247],[5.7722,5.0717,7.2678],[5.7645,5.0677,6.9943],[5.7545,5.061,8.0939],[5.746,5.0507,5.0324],[5.7333,5.0484,7.8255],[5.7157,5.0355,11.8555],[5.6948,5.0248,2.7468],[5.6858,5.0296,2.8227],[5.6796,5.0309,2.8268],[5.662,5.0233,1.9529],[5.6421,5.0243,12.6477],[5.6321,5.0328,7.0965],[5.626,5.0421,6.162],[5.6122,5.0458,7.1479],[5.5919,5.0593,2.0718],[5.5826,5.068,12.6313],[5.5709,5.0712,12.359],[5.5621,5.0702,4.3736],[5.5508,5.0764,11.4876],[5.5334,5.0795,18.876],[5.5258,5.0863,5.8177],[5.4865,5.1064,3.0168],[5.476,5.1153,6.2737],[5.4606,5.1338,8.6192],[5.4526,5.1404,8.4767],[5.4499,5.1396,0.0],[5.4493,5.1338,0.7939],[5.4407,5.1271,0.0],[5.4404,5.1282,0.0],[5.441,5.1315,2.4106],[5.4407,5.1318,2.4106],[5.4388,5.129,3.7122],[5.436,5.1315,0.0],[5.4332,5.131,10.6727],[5.4326,5.1368,8.6654],[5.429,5.1379,3.3909],[5.4174,5.1338,0.0],[5.4137,5.1307,0.9754],[5.4113,5.131,0.0],[5.4101,5.1293,1.4217],[5.4021,5.1318,3.3015],[5.4032,5.1368,0.0],[5.4015,5.1374,0.0],[5.3982,5.1351,0.0],[5.3965,5.1315,5.5985],[5.3888,5.1307,0.0],[5.3765,5.126,3.9877],[5.3793,5.1151,0.0],[5.4146,5.049,3.4797],[5.4326,5.0049,0.0],[5.4421,4.9729,0.0],[5.4451,4.9715,5.1193],[5.4454,4.9549,0.9395],[5.4504,4.9546,1.8398],[5.4504,4.9499,3.5481],[5.4493,4.9468,3.172],[5.4465,4.9476,2.4085],[5.4476,4.9524,3.4324],[5.4457,4.9529,0.6915],[5.4421,4.9451,0.0],[5.4399,4.9449,0.0],[5.4399,4.9421,0.0],[5.444,4.9407,0.0],[5.4507,4.9296,0.0],[5.4565,4.9238,11.0458],[5.4593,4.9176,0.0],[5.4621,4.9165,8.7523],[5.4665,4.906,5.4108],[5.4818,4.8826,8.828],[5.486,4.8713,0.0],[5.4915,4.8629,2.703],[5.4951,4.8621,8.2461],[5.4951,4.8576,8.1748],[5.5007,4.8463,0.0],[5.5074,4.8393,12.058],[5.5151,4.8274,9.8813],[5.5293,4.8215,0.0],[5.5396,4.8279,2.9244],[5.5465,4.8382,0.9481],[5.5488,4.8515,0.0],[5.5554,4.8543,1.2655],[5.5571,4.8576,15.0929],[5.5576,4.8682,2.0263],[5.5513,4.8765,1.1209],[5.5496,4.8818,1.8989],[5.5501,4.886,2.9441],[5.5576,4.8924,4.5874],[5.5579,4.8974,3.5365],[5.5551,4.901,2.0114],[5.549,4.9038,1.3242],[5.5554,4.9015,2.0114],[5.5588,4.8971,3.5365],[5.5582,4.8921,4.5874],[5.5526,4.8876,2.0523],[5.5504,4.8804,0.7938],[5.5593,4.8674,1.0398],[5.5601,4.8701,1.3371],[5.5593,4.8715,6.1603],[5.5604,4.871,6.1603],[5.5607,4.8671,1.0398],[5.5596,4.8665,6.2522],[5.5601,4.8615,13.5084],[5.5565,4.8551,1.2655],[5.5557,4.8499,2.2242],[5.5513,4.851,0.0],[5.5488,4.8499,9.595],[5.5457,4.8318,0.0],[5.5496,4.8324,2.4353],[5.5496,4.8351,5.0573],[5.5518,4.8318,0.0],[5.5585,4.8349,8.3586],[5.5588,4.8304,0.0],[5.5674,4.8246,12.4584],[5.576,4.8115,3.7619],[5.5818,4.8118,0.0],[5.5918,4.821,14.6466],[5.6032,4.8265,0.0],[5.6176,4.8368,0.0],[5.6193,4.8396,0.0],[5.6265,4.8415,2.1296],[5.6243,4.8474,1.1468],[5.6243,4.8546,4.6041],[5.6204,4.8585,4.1384],[5.6176,4.8643,0.9234],[5.619,4.8643,1.2191],[5.621,4.8587,2.2162],[5.6249,4.8549,1.4816],[5.6249,4.8485,2.9205],[5.6288,4.8426,1.2704],[5.6335,4.841,0.7228],[5.6421,4.841,3.0202],[5.6438,4.844,1.9068],[5.6365,4.8526,2.7991],[5.6365,4.8576,1.2613],[5.644,4.8663,3.1906],[5.6585,4.8771,0.0],[5.6576,4.884,1.0043],[5.6535,4.8865,4.1329],[5.654,4.8926,1.107],[5.6485,4.8976,0.0],[5.6476,4.9004,3.4249],[5.6607,4.9057,0.9731],[5.666,4.906,2.1819],[5.6657,4.9085,3.2741],[5.6618,4.9121,2.4501],[5.6615,4.9149,2.9596],[5.6732,4.9165,1.8404],[5.6726,4.9151,2.1306],[5.6629,4.9143,0.0],[5.6624,4.9126,0.0],[5.6671,4.9079,1.5281],[5.6663,4.9054,1.4998],[5.6613,4.9051,2.6186],[5.6574,4.9026,2.3191],[5.6499,4.9013,2.2792],[5.6482,4.8993,3.4249],[5.6568,4.8907,7.1045],[5.6543,4.8868,0.0],[5.6582,4.8851,2.5737],[5.6596,4.8787,0.0],[5.6682,4.8826,1.4396],[5.676,4.8818,0.0],[5.6749,4.8904,0.0],[5.6787,4.8951,4.7232],[5.6762,4.8882,0.405],[5.6785,4.8851,1.0725],[5.679,4.8776,0.5861],[5.6879,4.8726,0.3731],[5.6913,4.876,5.2787],[5.6893,4.8729,2.0672],[5.6904,4.8696,0.5857],[5.6746,4.8796,0.8865],[5.6663,4.8801,5.5884],[5.6613,4.8771,0.0],[5.6579,4.8713,5.5117],[5.6454,4.8635,0.0],[5.6382,4.8551,7.4291],[5.6388,4.8526,2.2679],[5.6449,4.8482,0.0],[5.646,4.8424,1.1768],[5.6413,4.8382,3.2845],[5.6251,4.8371,0.0],[5.6149,4.8271,0.9296],[5.6113,4.8193,3.4138],[5.6124,4.8113,1.7352],[5.6101,4.8062,0.0],[5.6104,4.8021,0.5763],[5.6157,4.8004,1.2604],[5.6265,4.8104,0.7575],[5.6324,4.8113,1.5512],[5.639,4.8099,2.074],[5.6696,4.7974,0.0],[5.6688,4.7901,4.5287],[5.6607,4.7849,0.0],[5.6626,4.7818,0.0],[5.676,4.7824,1.9574],[5.6868,4.776,2.8741],[5.6899,4.7779,0.0],[5.6926,4.7863,5.6984],[5.6938,4.8074,0.683],[5.696,4.8113,0.7186],[5.7004,4.8113,1.1657],[5.7079,4.8068,0.0],[5.7165,4.8079,0.773],[5.7199,4.8062,1.1526],[5.7224,4.8015,0.0],[5.7265,4.7987,0.4781],[5.7549,4.7954,0.5855],[5.7615,4.7968,0.1994],[5.7643,4.7993,11.0265],[5.7657,4.8093,3.5273],[5.7685,4.8126,5.0861],[5.7732,4.8124,1.9596],[5.7787,4.8068,0.0],[5.7832,4.8074,12.3109],[5.7793,4.819,0.0],[5.779,4.824,0.5219],[5.781,4.8299,3.6938],[5.7721,4.8326,0.2317],[5.7682,4.839,0.9601],[5.7707,4.8382,2.0086],[5.7704,4.8365,0.0],[5.7751,4.8324,3.572],[5.7801,4.8321,2.0201],[5.7818,4.8301,0.3816],[5.7807,4.8176,0.0],[5.7818,4.8121,2.9658],[5.7843,4.8101,0.0],[5.7843,4.8065,0.3408],[5.7799,4.8054,0.5898],[5.7799,4.8035,0.0],[5.7882,4.8024,5.1038],[5.7929,4.8087,0.9022],[5.7982,4.8113,1.9088],[5.7993,4.8135,6.4184],[5.8032,4.8129,4.4847],[5.7934,4.8083,0.9022],[5.7913,4.8037,1.1607],[5.7885,4.8018,1.1727],[5.779,4.8015,2.9428],[5.776,4.796,0.4173],[5.7729,4.7938,0.0],[5.7729,4.7921,0.0],[5.7771,4.7893,0.0],[5.776,4.7846,0.3596],[5.7643,4.7815,0.0],[5.7674,4.776,1.0465],[5.7657,4.7701,0.0],[5.771,4.7676,0.3529],[5.7743,4.7729,1.2732],[5.7785,4.7732,1.4085],[5.7812,4.7713,1.7753],[5.7899,4.7785,0.5301],[5.8029,4.7757,2.0479],[5.8057,4.779,1.4407],[5.8079,4.779,0.6041],[5.8032,4.7751,2.6458],[5.791,4.7779,0.5301],[5.7821,4.7707,0.9962],[5.7749,4.7724,1.2732],[5.771,4.7668,1.465],[5.7618,4.7707,0.0],[5.7562,4.7701,0.0],[5.7557,4.7596,0.482],[5.7385,4.7382,0.2365],[5.7371,4.7343,1.7299],[5.7279,4.7257,1.2758],[5.7157,4.7207,0.5972],[5.7082,4.7154,15.8748],[5.6821,4.6863,0.5326],[5.681,4.6835,1.8543],[5.6835,4.6804,2.201],[5.6835,4.6757,1.9442],[5.6824,4.6813,8.0194],[5.6804,4.6826,0.0],[5.6685,4.6726,0.8586],[5.6599,4.6715,1.7069],[5.6499,4.6768,4.7536],[5.6338,4.6888,0.0],[5.624,4.6915,12.6651],[5.6079,4.6912,2.4646],[5.591,4.6876,0.0],[5.5818,4.6888,0.0],[5.5671,4.7013,4.0949],[5.5657,4.7054,4.7257],[5.5662,4.7135,0.7934],[5.5637,4.7193,0.0],[5.5579,4.7204,2.6491],[5.5518,4.7271,0.0],[5.5488,4.7382,0.0],[5.5454,4.7426,0.0],[5.5424,4.741,1.4592],[5.5421,4.7335,0.5231],[5.5463,4.724,0.0],[5.5751,4.6868,0.0],[5.6296,4.6074,2.614],[5.6576,4.5726,0.0],[5.6668,4.5565,0.0],[5.686,4.5465,0.0],[5.6985,4.5504,0.0],[5.7015,4.5521,0.0],[5.7018,4.554,0.0],[5.6979,4.5632,2.5417],[5.6979,4.5707,0.6981],[5.6874,4.5782,5.6757],[5.6835,4.5837,1.2158],[5.684,4.5882,1.4978],[5.6901,4.591,0.0],[5.6865,4.5929,5.4317],[5.6862,4.5982,4.604],[5.6846,4.5985,4.604],[5.6824,4.5957,10.2635],[5.684,4.599,6.0791],[5.686,4.599,4.2641],[5.6871,4.5982,1.6437],[5.6871,4.5935,3.5299],[5.6976,4.5879,0.0],[5.7029,4.5896,13.0355],[5.7051,4.5951,0.0],[5.7012,4.6018,0.659],[5.6996,4.609,0.0],[5.7049,4.6165,3.5148],[5.7199,4.6268,0.0],[5.7182,4.6401,3.5995],[5.7076,4.6446,0.0],[5.7068,4.6485,8.463],[5.7088,4.6524,3.6277],[5.714,4.6574,11.2822],[5.7199,4.6588,3.741],[5.7332,4.6557,11.695],[5.7393,4.6585,0.0],[5.7435,4.6671,3.0072],[5.7546,4.6699,0.1482],[5.7557,4.6738,0.0],[5.754,4.6754,3.0293],[5.7543,4.6793,1.9189],[5.7593,4.6824,1.9227],[5.7693,4.6851,2.1009],[5.7738,4.6935,0.9395],[5.7746,4.6901,2.6442],[5.7815,4.6893,8.3816],[5.7843,4.6879,1.4628],[5.7937,4.6888,3.9068],[5.7946,4.6846,3.6839],[5.8004,4.6821,3.9327],[5.7949,4.6815,2.2751],[5.7988,4.6765,0.9762],[5.7985,4.6743,3.6565],[5.7974,4.6776,0.7544],[5.7896,4.6826,0.0],[5.7843,4.6813,0.6922],[5.784,4.6782,0.9046],[5.7865,4.6765,0.0],[5.7807,4.6785,4.552],[5.7799,4.6801,1.0675],[5.7715,4.6799,10.923],[5.7738,4.6824,0.9732],[5.771,4.6851,3.6986],[5.7646,4.6813,0.7199],[5.7562,4.679,0.0],[5.756,4.6693,0.1482],[5.7507,4.6665,2.8594],[5.7454,4.6662,8.1329],[5.7421,4.6588,4.1986],[5.7382,4.6554,2.0913],[5.7163,4.6551,11.3788],[5.711,4.6513,0.0],[5.7096,4.6449,13.3512],[5.7179,4.6429,2.0949],[5.7201,4.6396,3.006],[5.7221,4.629,1.2672],[5.7199,4.6238,1.4349],[5.7215,4.6235,0.0],[5.7246,4.6307,1.7438],[5.7343,4.634,3.0453],[5.7349,4.6293,2.4825],[5.7318,4.6249,0.0],[5.7363,4.6212,2.5893],[5.7407,4.6137,1.4183],[5.7426,4.6135,1.7997],[5.7471,4.6176,2.0683],[5.7501,4.6182,0.0],[5.7543,4.6168,0.0],[5.756,4.6126,0.0],[5.7579,4.6124,13.7651],[5.7643,4.6215,2.5831],[5.7749,4.616,9.5258],[5.7743,4.6285,2.974],[5.776,4.6296,3.5405],[5.7824,4.6288,0.7394],[5.7746,4.6276,2.974],[5.7763,4.6157,0.0],[5.7729,4.6151,4.0509],[5.7646,4.621,2.5831],[5.7607,4.6132,2.0347],[5.7582,4.6115,2.1659],[5.756,4.6118,7.2327],[5.7518,4.6168,5.5847],[5.7496,4.6174,0.0],[5.7435,4.6129,1.7997],[5.739,4.6137,5.601],[5.7293,4.6251,9.0013],[5.7326,4.6318,12.9114],[5.7246,4.6276,11.0041],[5.7204,4.6193,2.6787],[5.7143,4.619,0.0],[5.7082,4.6157,0.0],[5.7021,4.6068,2.6649],[5.7076,4.599,1.8745],[5.7065,4.5899,0.0],[5.701,4.586,1.5079],[5.6871,4.5868,6.9193],[5.686,4.5857,0.0],[5.6865,4.5835,0.0],[5.701,4.5732,0.5028],[5.7051,4.574,4.4294],[5.7138,4.586,3.3167],[5.7163,4.5862,5.8744],[5.7179,4.5832,0.0],[5.7213,4.5838,4.8898],[5.7224,4.5882,0.7512],[5.7282,4.5857,0.0],[5.7287,4.5912,5.0454],[5.7318,4.5915,0.0],[5.7343,4.5899,2.3028],[5.7332,4.5865,1.4385],[5.7343,4.5832,2.0455],[5.7415,4.5776,1.6724],[5.7435,4.5779,1.0012],[5.7438,4.5854,0.6839],[5.746,4.5904,0.9881],[5.7476,4.5912,1.2995],[5.7496,4.5899,2.8938],[5.7501,4.584,1.2742],[5.7526,4.5846,1.8591],[5.7535,4.5896,1.3278],[5.7562,4.5893,1.3177],[5.7613,4.5854,1.9951],[5.7587,4.586,3.0854],[5.756,4.5887,8.4522],[5.754,4.589,1.3278],[5.7532,4.5843,1.8591],[5.7501,4.5829,1.2336],[5.7485,4.5901,2.8938],[5.7465,4.5901,13.1841],[5.744,4.5821,0.0],[5.7446,4.5785,4.1502],[5.7432,4.5771,1.0012],[5.7413,4.5771,1.6724],[5.7338,4.5829,1.1723],[5.7324,4.5865,1.4385],[5.7326,4.5904,5.0798],[5.729,4.5901,0.8269],[5.7285,4.5851,1.6495],[5.7232,4.5865,0.0],[5.7221,4.5835,2.9326],[5.7176,4.5824,0.0],[5.7154,4.5826,0.0],[5.714,4.5849,2.152],[5.7118,4.5799,1.9949],[5.7018,4.5704,1.279],[5.7035,4.5615,0.0],[5.7068,4.5543,0.0],[5.7065,4.5485,0.3341],[5.7037,4.546,0.4814],[5.704,4.5379,2.4253],[5.7112750122249389,4.5389962347188257,0.4957],[5.7076,4.5365,6.5631],[5.7035,4.5371,2.4253],[5.7021,4.544,0.0],[5.7001,4.5443,0.0],[5.6938,4.5426,0.0],[5.6857,4.5343,0.0],[5.6882,4.5337,0.0],[5.689,4.5318,0.0],[5.699,4.531,2.0116],[5.726,4.5132,3.2535],[5.7332,4.5129,8.2713],[5.7374,4.5151,2.4193],[5.736,4.5182,2.2144],[5.7501,4.5201,0.0],[5.7624,4.5304,0.0],[5.776,4.5329,1.9726],[5.7749,4.5379,13.9437],[5.771,4.5426,5.9387],[5.7771,4.5471,6.6135],[5.7843,4.5471,18.7534],[5.7849,4.5513,10.984],[5.7846128755364807,4.55369270386266,11.7791],[5.7854,4.5515,6.5006],[5.7846,4.5465,2.7288],[5.7776,4.5465,17.5139],[5.7718,4.5429,5.9387],[5.776,4.5365,2.7113],[5.779,4.5337,0.0],[5.7874,4.5315,0.0],[5.7963,4.5335,0.0],[5.801,4.5368,0.0],[5.8082,4.5479,0.9797],[5.814,4.5501,0.0],[5.8157,4.5524,9.8895],[5.8115,4.5704,5.7185],[5.8149,4.5846,0.0],[5.8146,4.5899,0.0],[5.8226,4.596,1.1187],[5.8251,4.6015,1.2311],[5.8304,4.6046,0.0],[5.8288,4.6088,6.2796],[5.8315,4.6112,1.0143],[5.8293,4.6085,5.2543],[5.8315,4.6065,4.1401],[5.8313,4.6043,3.1918],[5.8276,4.6024,1.9637],[5.8188,4.5899,0.5552],[5.8243,4.5938,3.9134],[5.8324,4.5949,3.5217],[5.8246,4.5932,3.096],[5.8157,4.5849,0.0],[5.8143,4.5707,5.3397],[5.8185,4.5538,9.0862],[5.8096,4.541,2.226],[5.7949,4.5293,0.7809],[5.7874,4.5282,1.7025],[5.7763,4.5293,0.0],[5.7624,4.526,0.0],[5.7535,4.5154,0.8392],[5.7512,4.516,0.0],[5.7413,4.5112,0.8471],[5.7263,4.5082,2.5735],[5.726,4.5057,7.8162],[5.7429,4.4935,8.592],[5.7446,4.4885,4.0627],[5.7421,4.4899,1.6237],[5.7415,4.4879,0.4008],[5.7449,4.4829,0.0],[5.7701,4.4654,0.0],[5.7757,4.4596,0.0],[5.786,4.4568,0.0],[5.7854,4.4613,0.0],[5.7826,4.4615,2.2053],[5.7801,4.464,0.0],[5.7771,4.4624,17.2169],[5.7607,4.4735,0.7144],[5.7565,4.4793,0.0],[5.7524,4.4799,0.7935],[5.7546,4.4801,0.0],[5.7593,4.479,6.374],[5.7646,4.4732,0.0],[5.7715,4.4735,0.0],[5.7743,4.4721,1.8967],[5.781,4.4649,0.0],[5.7874,4.4676,1.3538],[5.7985,4.4682,0.0],[5.801,4.4707,17.4286],[5.8001,4.4738,0.0],[5.7896,4.4824,5.9128],[5.7879,4.4885,9.025],[5.7907,4.4893,1.747],[5.7937,4.4868,0.0],[5.7985,4.4874,6.0082],[5.7993,4.4896,6.8399],[5.7951,4.4938,2.685],[5.7943,4.496,10.0354],[5.7949,4.4996,1.2366],[5.7976,4.5004,4.3657],[5.8013,4.4954,3.1236],[5.8051,4.4957,4.3638],[5.8035,4.5076,8.079],[5.8071,4.5085,3.3385],[5.8132,4.5065,2.6337],[5.8151,4.5076,4.9268],[5.8135,4.5096,1.2021],[5.8093,4.5096,8.2292],[5.809,4.5135,5.5108],[5.8165,4.5224,1.9081],[5.8176,4.5268,5.7624],[5.8249,4.5299,3.2223],[5.8251,4.5357,1.5965],[5.8274,4.5388,4.3405],[5.8254,4.5296,3.2223],[5.8179,4.526,5.7624],[5.8171,4.5221,1.9081],[5.814,4.5171,0.0],[5.8096,4.5132,5.5108],[5.8099,4.5101,8.2292],[5.8137,4.5101,1.2021],[5.8157,4.5074,4.9268],[5.8135,4.506,2.6337],[5.8115,4.506,3.2999],[5.8068,4.5079,3.3385],[5.804,4.5074,12.7098],[5.806,4.496,6.0534],[5.804,4.4943,4.5347],[5.8018,4.4943,3.1236],[5.7996,4.496,5.7714],[5.7971,4.4999,4.3657],[5.7954,4.4993,1.2366],[5.7957,4.494,22.1684],[5.7999,4.4899,5.302],[5.7988,4.4868,2.7375],[5.7943,4.486,0.0],[5.7904,4.4888,1.747],[5.7885,4.4882,9.025],[5.7904,4.4824,5.9128],[5.7918,4.481,4.399],[5.7971,4.4818,5.0522],[5.796,4.4788,24.0793],[5.8021,4.4738,3.0005],[5.8013,4.4688,2.3163],[5.7893,4.4635,0.0],[5.789,4.4613,0.0],[5.7924,4.4582,0.0],[5.7957,4.4579,0.0],[5.8118,4.4676,1.8478],[5.8149,4.4713,0.0],[5.821,4.4726,0.0],[5.8243,4.4757,11.3884],[5.831,4.4907,0.0],[5.8313,4.4965,0.0],[5.836,4.5085,2.7413],[5.8435,4.5199,1.6469],[5.8485,4.5221,4.7243],[5.8565,4.5201,1.5342],[5.8626,4.521,2.7003],[5.8721,4.5301,1.9349],[5.8618,4.5196,2.4504],[5.8568,4.5193,1.5342],[5.8479,4.5213,2.1158],[5.844,4.519,1.6469],[5.8379,4.5093,0.969],[5.8382,4.5046,0.0],[5.8349,4.5001,2.4285],[5.8346,4.4963,0.0],[5.8365,4.4949,0.0],[5.836,4.4899,1.3694],[5.8276,4.4751,1.733],[5.8188,4.4649,6.5121],[5.804,4.461,9.1117],[5.7954,4.4524,2.9317],[5.7929,4.4524,3.1891],[5.7926,4.4543,0.0],[5.791,4.4543,0.0],[5.791,4.4485,0.0],[5.8171,4.4301,0.0],[5.8332,4.4135,0.0],[5.8393,4.4129,0.0],[5.8421,4.4149,0.0],[5.8387,4.4262,12.409],[5.8321,4.4268,23.411],[5.8313,4.4293,1.0493],[5.8443,4.4374,7.2308],[5.8571,4.4371,1.3082],[5.8549,4.4424,10.5917],[5.8554,4.4457,3.2129],[5.8507,4.4476,8.7987],[5.8557,4.4465,3.2129],[5.8565,4.4404,2.5378],[5.8604,4.4382,0.0],[5.8699,4.4435,0.0],[5.884,4.4482,4.9252],[5.8757,4.4585,8.4873],[5.8657,4.4674,6.1889],[5.8657,4.4704,0.0],[5.8671,4.4713,3.2147],[5.8815,4.4693,10.4817],[5.8829,4.4729,0.0],[5.8671,4.4788,0.9857],[5.8635,4.4835,5.1676],[5.8649,4.4882,4.093],[5.8685,4.4893,4.551],[5.8715,4.4885,5.7532],[5.8776,4.4835,2.4478],[5.8799,4.4932,1.6891],[5.8868,4.4968,1.4867],[5.8863,4.4993,2.5096],[5.8824,4.4996,1.056],[5.8868,4.4999,2.5096],[5.8874,4.4965,1.4867],[5.8804,4.4929,1.5463],[5.8785,4.4835,5.0854],[5.8757,4.4832,4.8506],[5.8713,4.4879,5.7532],[5.8671,4.4885,4.7193],[5.8657,4.4876,4.7193],[5.8654,4.4818,7.4328],[5.8674,4.4796,0.9857],[5.8826,4.4768,5.4996],[5.8843,4.4699,4.8586],[5.8813,4.4676,2.4861],[5.869,4.4693,9.7592],[5.8674,4.4674,6.1889],[5.8765,4.4624,11.4252],[5.8863,4.4501,1.6324],[5.8915,4.4504,0.0],[5.894,4.4554,2.1716],[5.8976,4.4576,5.0183],[5.9051,4.4557,13.8516],[5.909,4.4568,4.9757],[5.9071,4.4624,0.0],[5.9026,4.466,0.0],[5.8963,4.4665,0.8813],[5.8935,4.4643,2.3016],[5.8918,4.4651,5.294],[5.8929,4.4732,2.4943],[5.8949,4.4763,3.4568],[5.8926,4.4807,1.014],[5.8965,4.4879,2.2496],[5.8949,4.4896,0.0],[5.889,4.4888,1.6407],[5.8887,4.4907,3.7921],[5.8957,4.4976,4.4055],[5.9018,4.4982,4.0853],[5.8993,4.4971,2.4269],[5.896,4.4971,4.4055],[5.8893,4.4896,1.6407],[5.8951,4.4901,0.0],[5.8974,4.4888,5.1682],[5.8932,4.4804,1.7061],[5.8954,4.4757,3.4568],[5.8924,4.4657,10.3879],[5.8932,4.4649,2.3016],[5.8976,4.4676,3.4053],[5.904,4.4665,1.2486],[5.9063,4.4646,0.0],[5.9099,4.4601,4.3949],[5.9101,4.4565,4.9757],[5.9038,4.4537,0.0],[5.9046,4.4515,5.2226],[5.9079,4.4504,14.8176],[5.9046,4.4507,5.2226],[5.9015,4.4551,3.1757],[5.8982,4.4551,3.2682],[5.891,4.4471,4.2129],[5.8863,4.4463,0.6862],[5.8721,4.4357,1.9375],[5.8637,4.4324,0.6997],[5.8568,4.4324,2.4742],[5.8449,4.4257,0.0],[5.8501,4.414,0.0],[5.8538,4.414,3.2176],[5.8557,4.4188,5.1666],[5.8585,4.4199,1.8578],[5.8632,4.419,1.535],[5.8674,4.4157,2.0591],[5.8682,4.4124,6.0507],[5.8607,4.4085,0.0],[5.8646,4.4085,0.0],[5.8707,4.4021,13.2092],[5.8821,4.4076,7.1511],[5.8815,4.4157,7.8418],[5.8918,4.4093,3.4944],[5.8896,4.4093,4.1859],[5.8818,4.4151,2.0466],[5.8826,4.4074,7.1511],[5.8749,4.4018,12.247],[5.8707,4.4012,5.0889],[5.8646,4.4076,0.0],[5.8593,4.4076,9.1893],[5.8596,4.4101,2.0062],[5.8665,4.4121,3.0164],[5.8676,4.4143,4.0592],[5.8587,4.419,1.8578],[5.8557,4.4121,4.2602],[5.846,4.4096,0.0],[5.8471,4.4012,7.5553],[5.8604,4.3901,0.0],[5.8846,4.3737,0.0],[5.9318,4.3521,6.4859],[5.9607,4.336,0.0],[5.9663,4.3351,0.0],[5.9679,4.3388,0.0],[5.9668,4.3465,0.6541],[5.9696,4.3679,3.0428],[5.9618,4.3726,0.0],[5.9568,4.3762,0.724],[5.9515,4.384,8.6844],[5.9485,4.3901,4.1613],[5.9482,4.3951,0.0],[5.9449,4.396,3.9434],[5.9501,4.3982,0.0],[5.9515,4.4035,6.6193],[5.9507,4.4143,2.1953],[5.9482,4.4179,4.901],[5.951,4.4176,4.9705],[5.9513,4.4229,4.265],[5.9563,4.434,0.0],[5.956,4.444,1.7411],[5.9524,4.449,0.8114],[5.944,4.4557,0.0],[5.9299,4.4654,2.7325],[5.9212,4.469,0.9469],[5.919,4.4729,1.0679],[5.9215,4.4696,0.9469],[5.9307,4.4657,2.0013],[5.9454,4.4551,0.0],[5.9518,4.4535,0.0],[5.956,4.4468,0.0],[5.9579,4.436,0.0],[5.9549,4.4262,5.5334],[5.956,4.4151,0.0],[5.9535,4.4085,2.0505],[5.9546,4.4029,8.8816],[5.9535,4.3946,0.9904],[5.9563,4.3829,9.0552],[5.9604,4.3779,8.306],[5.9632,4.376,2.5581],[5.971,4.3765,0.0],[5.969,4.3879,3.4557],[5.9746,4.3888,0.0],[5.9779,4.3871,1.6195],[5.9776,4.391,3.1863],[5.9804,4.3962,3.2286],[5.9857,4.4004,4.789],[5.9879,4.4043,3.2141],[5.9862,4.4001,4.789],[5.9829,4.3979,4.7239],[5.9785,4.3913,3.1863],[5.9793,4.3838,2.5188],[5.9818,4.3796,0.9084],[5.9774,4.3813,0.0],[5.9754,4.3754,0.0],[5.9774,4.3715,0.0],[5.9807,4.3715,0.0],[5.9826,4.3754,0.0],[5.986,4.3638,0.0],[5.9879,4.3607,2.4289],[5.9904,4.361,2.5529],[5.9932,4.3582,5.4812],[5.9901,4.3601,5.2092],[5.9876,4.3593,3.084],[5.9874,4.3549,2.9127],[5.9829,4.344,2.0998],[5.9779,4.3415,0.0],[5.9821,4.3371,1.7696],[5.9793,4.3224,14.8508],[5.9765,4.3171,0.0],[5.9782,4.311,0.0],[5.9829,4.3088,0.749],[5.9874,4.309,5.6912],[6.0065,4.3043,5.5309],[6.0221,4.299,5.9646],[6.0449,4.2946,11.1732],[6.059,4.2882,0.0],[6.0665,4.2874,0.0],[6.0668,4.2937,4.8317],[6.0646,4.3038,3.4103],[6.0674,4.3088,0.0],[6.0696,4.3235,0.0],[6.0537,4.3399,2.4796],[6.0435,4.3549,3.2875],[6.0435,4.3643,1.8942],[6.0482,4.3715,9.3523],[6.049,4.3757,0.0],[6.046,4.3788,0.0],[6.0396,4.3801,9.5571],[6.0374,4.3824,2.7844],[6.0365,4.3865,0.0],[6.0399,4.3913,15.5458],[6.0399,4.3954,7.6485],[6.0349,4.4065,0.0],[6.0262,4.4074,0.0],[6.0237,4.4107,1.8729],[6.0237,4.4115,1.8729],[6.0254,4.414,5.2315],[6.029,4.4165,0.6407],[6.0243,4.4118,6.9228],[6.0257,4.4085,3.0058],[6.0354,4.4079,0.0],[6.0371,4.4124,2.172],[6.0385,4.4126,4.3088],[6.0415,4.4065,0.0],[6.0449,4.4063,2.8166],[6.0457,4.4188,5.6024],[6.054,4.4301,1.1482],[6.0532,4.4365,3.3733],[6.0563,4.444,5.1485],[6.0563,4.4493,6.0772],[6.0493,4.4624,0.0],[6.0363,4.4679,8.4664],[6.0285,4.4874,1.778],[6.0315,4.4943,10.6045],[6.0388,4.5012,2.962],[6.0443,4.519,10.9842],[6.0621,4.5382,0.8168],[6.0729,4.5557,7.2578],[6.0738,4.5604,4.0782],[6.0724,4.569,4.1482],[6.0751,4.5682,0.0],[6.0771,4.5615,0.0],[6.0776,4.5685,2.5531],[6.0801,4.5704,0.0],[6.0849,4.5701,2.4544],[6.0851,4.5685,7.6182],[6.0821,4.5699,5.0862],[6.0782,4.5676,2.5531],[6.0779,4.5615,9.8059],[6.0657,4.5385,4.8806],[6.061,4.5346,0.0],[6.0518,4.5218,7.9512],[6.0451,4.5168,6.5539],[6.0418,4.5029,6.4902],[6.034,4.4938,0.0],[6.031,4.4874,0.0],[6.0349,4.4746,4.4577],[6.0399,4.4685,0.0],[6.0501,4.4646,1.1135],[6.0585,4.4638,8.7005],[6.061,4.4615,0.0],[6.0576,4.4551,6.6466],[6.0585,4.4435,4.3924],[6.0565,4.4313,0.0],[6.0504,4.4193,3.4275],[6.0535,4.4149,6.2079],[6.051,4.4115,5.2991],[6.0526,4.4071,1.0217],[6.061,4.4015,1.3601],[6.0679,4.3924,6.1239],[6.0713,4.3921,6.9588],[6.0768,4.4021,0.0],[6.0757,4.4051,0.0],[6.0729,4.406,6.0881],[6.0807,4.4046,0.0],[6.086,4.4093,1.2178],[6.0949,4.4107,2.3329],[6.0976,4.4126,1.2918],[6.0968,4.4179,0.0],[6.086,4.4332,0.0],[6.086,4.4368,0.0],[6.091,4.4432,2.298],[6.1029,4.446,0.0],[6.104,4.4488,3.1887],[6.1029,4.4493,3.1887],[6.1046,4.4496,0.4907],[6.1057,4.4524,2.8309],[6.1062,4.461,3.2584],[6.1146,4.4696,0.0],[6.114,4.4821,5.9073],[6.1118,4.4871,0.0],[6.0996,4.491,3.4619],[6.0954,4.4968,4.0882],[6.0899,4.4988,0.0],[6.0888,4.5029,1.9269],[6.0924,4.5101,4.2172],[6.0918,4.5196,7.4294],[6.0971,4.5301,2.7777],[6.0957,4.526,1.1227],[6.0996,4.5274,5.5689],[6.0963,4.5254,6.8678],[6.0932,4.5196,2.7184],[6.0935,4.5093,4.2172],[6.0904,4.5037,4.0152],[6.0904,4.5004,0.0],[6.0957,4.4974,4.7281],[6.0993,4.5004,1.8868],[6.1057,4.5001,0.0],[6.1093,4.4982,0.8662],[6.1115,4.4999,0.0],[6.1093,4.5121,4.1808],[6.1126,4.5179,0.0],[6.1199,4.5254,0.0],[6.1179,4.5332,4.431],[6.1196,4.5435,1.7262],[6.1193,4.5554,3.3913],[6.1151,4.5585,3.7158],[6.1149,4.5604,1.9223],[6.1179,4.561,2.3522],[6.1199,4.5585,2.7784],[6.1226,4.5601,1.8103],[6.124,4.5763,2.6786],[6.1251,4.5718,3.881],[6.124,4.5704,1.2385],[6.1243,4.5626,1.1832],[6.1232,4.5599,3.5271],[6.1193,4.5579,2.7784],[6.1176,4.5604,5.2169],[6.1154,4.5599,1.9223],[6.1201,4.5557,5.5403],[6.121,4.541,4.8931],[6.1196,4.5321,6.2541],[6.1213,4.5232,4.2758],[6.1165,4.5196,0.0],[6.1118,4.5121,1.2971],[6.1115,4.5071,5.9188],[6.1135,4.5026,5.1266],[6.1126,4.4976,6.8725],[6.1021,4.4988,0.0],[6.0985,4.4968,3.6978],[6.1024,4.4932,3.5086],[6.1124,4.4904,0.0],[6.116,4.4874,4.4409],[6.1188,4.471,8.4273],[6.1165,4.466,0.9476],[6.1121,4.4632,1.7517],[6.1096,4.459,0.0],[6.1101,4.4526,0.0],[6.1082,4.4454,4.0107],[6.1054,4.4432,4.0489],[6.0929,4.4393,2.2254],[6.0901,4.436,3.4258],[6.0921,4.4304,1.1398],[6.1007,4.4249,1.2184],[6.1043,4.4182,0.6795],[6.1143,4.4163,0.0],[6.1215,4.421,0.0],[6.129,4.4368,0.0],[6.1399,4.4479,0.0],[6.1296,4.4682,0.0],[6.1238,4.4763,3.9342],[6.1221,4.4832,2.937],[6.1296,4.5024,1.3711],[6.1399,4.5174,0.8569],[6.1407,4.5249,2.2698],[6.1443,4.5332,3.1756],[6.1449,4.5426,5.6268],[6.1496,4.5449,1.1924],[6.1501,4.5485,2.7861],[6.1532,4.551,5.5091],[6.1532,4.5529,5.644],[6.1496,4.5557,1.6509],[6.1515,4.5579,3.675],[6.1532,4.5657,5.442],[6.149,4.5707,4.0239],[6.1493,4.5785,2.9458],[6.146,4.5874,4.5195],[6.144,4.5882,4.6299],[6.144,4.5907,6.2059],[6.1493,4.5929,2.6908],[6.1504,4.5949,1.56],[6.1496,4.6018,1.4041],[6.1546,4.6026,0.0],[6.1524,4.6099,4.0995],[6.146,4.6179,0.0],[6.1488,4.6321,3.2792],[6.151,4.6321,0.0],[6.1507,4.6288,0.0],[6.1524,4.6274,2.5769],[6.1501,4.6279,1.3026],[6.1474,4.6176,0.0],[6.1526,4.6126,4.1791],[6.1568,4.6032,7.8629],[6.1549,4.601,7.2254],[6.1504,4.6004,3.6086],[6.1515,4.5935,2.2588],[6.1449,4.5896,3.2022],[6.1488,4.5843,3.9865],[6.1507,4.5771,5.0024],[6.1499,4.5718,3.9338],[6.1543,4.5657,2.9157],[6.1515,4.5549,5.1067],[6.1546,4.5518,5.3534],[6.1515,4.5482,2.7861],[6.1515,4.5449,1.1924],[6.1457,4.5424,5.1124],[6.1465,4.534,6.5949],[6.1426,4.5274,0.964],[6.1418,4.5154,6.6304],[6.1315,4.5004,5.5446],[6.1301,4.4938,3.9761],[6.126,4.4865,0.0],[6.1254,4.4785,3.0417],[6.1285,4.4726,6.9154],[6.1376,4.4621,8.0415],[6.1429,4.4515,0.0],[6.1424,4.4468,3.5729],[6.1382,4.4421,1.2679],[6.1388,4.4379,1.9233],[6.1496,4.4374,0.9964],[6.1546,4.4404,0.0],[6.1579,4.4451,0.0],[6.1482,4.4557,0.0],[6.1454,4.4796,7.5224],[6.1426,4.4896,7.0794],[6.1435,4.4957,2.4341],[6.146,4.5001,2.8461],[6.1454,4.5096,3.0315],[6.1587,4.5201,1.71],[6.1587,4.5251,2.2872],[6.1562,4.5301,4.0713],[6.1568,4.5335,2.9992],[6.1596,4.536,8.0685],[6.1571,4.5326,2.9992],[6.1574,4.5282,2.415],[6.1593,4.5254,2.2872],[6.1593,4.5199,1.71],[6.1463,4.509,1.4101],[6.1468,4.4999,2.8461],[6.1446,4.489,0.0],[6.1493,4.471,0.6006],[6.1499,4.4568,2.9139],[6.1596,4.4485,0.0],[6.1599,4.444,2.9035],[6.1529,4.4368,1.223],[6.1385,4.4335,3.8713],[6.1365,4.4279,0.0],[6.1385,4.4154,0.8393],[6.1496,4.3954,1.757],[6.1521,4.3938,6.1078],[6.1551,4.3946,0.5169],[6.1562,4.3965,4.4821],[6.1574,4.3938,2.5231],[6.1518,4.3921,1.5774],[6.151,4.3826,2.1273],[6.1376,4.3663,5.9652],[6.1246,4.3626,0.0],[6.1082,4.3671,0.0],[6.0999,4.3668,0.0],[6.0968,4.3574,7.3355],[6.1029,4.3485,5.4892],[6.0999,4.3413,3.4973],[6.1118,4.3313,4.9884],[6.121,4.3354,1.807],[6.1279,4.3304,0.0],[6.1337,4.3299,0.8736],[6.136,4.3265,0.0],[6.1482,4.3296,1.7979],[6.1499,4.3349,0.0],[6.1432,4.3413,5.0571],[6.1438,4.3435,1.8661],[6.1471,4.339,4.8959],[6.1504,4.3376,5.0371],[6.1526,4.3399,7.6418],[6.1515,4.3424,6.0925],[6.1529,4.3424,4.6227],[6.1538,4.3382,6.2415],[6.1521,4.3321,2.4461],[6.1538,4.3296,9.4578],[6.1585,4.3288,6.0832],[6.1571,4.3235,0.0],[6.1585,4.3218,1.8629],[6.1674,4.3232,0.9866],[6.1704,4.3199,1.9321],[6.1799,4.3246,5.9949],[6.1857,4.3288,5.5296],[6.184,4.3351,5.998],[6.1813,4.3363,4.0058],[6.1782,4.3346,4.0809],[6.1701,4.3338,10.2723],[6.1735,4.3354,3.2068],[6.1776,4.3351,4.0809],[6.1782,4.3365,4.7922],[6.1849,4.3363,0.8156],[6.1874,4.3388,4.1377],[6.1974,4.3357,0.0],[6.2049,4.3415,5.6923],[6.199,4.3499,1.2708],[6.1949,4.3515,4.4731],[6.1901,4.3504,7.351],[6.1932,4.3521,5.4028],[6.1993,4.3507,0.0],[6.2018,4.3535,1.276],[6.2018,4.356,1.3964],[6.196,4.3565,4.6736],[6.196,4.3588,4.7495],[6.1996,4.3629,2.6854],[6.1982,4.3679,0.0],[6.1999,4.3701,0.0],[6.1904,4.3757,1.0335],[6.1932,4.3751,1.4332],[6.201,4.3707,0.0],[6.2007,4.369,0.0],[6.1988,4.3676,0.0],[6.2001,4.3626,2.6854],[6.1971,4.359,4.0905],[6.1971,4.3568,0.0],[6.2024,4.3563,1.3964],[6.2026,4.3526,1.276],[6.2007,4.3493,1.2708],[6.2046,4.3468,0.0],[6.2063,4.3429,0.0],[6.204,4.3382,5.5672],[6.199,4.3349,6.5583],[6.1954,4.3343,2.0589],[6.1865,4.3365,0.8156],[6.1907,4.3274,1.5335],[6.1946,4.3229,0.0],[6.1943,4.3126,0.0],[6.1974,4.3082,0.0],[6.2001,4.3193,3.2674],[6.2032,4.3235,0.0],[6.209,4.3249,0.6212],[6.214,4.3238,1.6559],[6.2137,4.3338,1.7498],[6.2154,4.3399,19.1577],[6.2274,4.3704,0.9381],[6.2271,4.3721,0.0],[6.2224,4.374,0.0],[6.2132,4.3721,1.0151],[6.2096,4.3746,0.0],[6.2093,4.3774,1.4423],[6.2165,4.3821,2.641],[6.2151,4.3871,3.7026],[6.2126,4.3879,2.6702],[6.2107,4.3865,0.0],[6.2101,4.3804,10.2487],[6.2074,4.3779,5.383],[6.2015,4.3815,1.2538],[6.2013,4.3846,1.6959],[6.2024,4.3863,1.5062],[6.2049,4.3863,1.4685],[6.2049,4.3851,4.4235],[6.2026,4.3854,1.6959],[6.2024,4.3821,2.0087],[6.2082,4.379,0.0],[6.2101,4.3871,3.9014],[6.2143,4.3885,3.7026],[6.2174,4.386,3.6621],[6.2174,4.3824,2.641],[6.2157,4.3799,16.7488],[6.2104,4.3771,1.4423],[6.2107,4.3749,0.0],[6.2135,4.3732,0.0],[6.2196,4.3751,0.0],[6.226,4.3737,0.0],[6.2379,4.3882,5.9415],[6.2371,4.4038,0.0],[6.234,4.4096,0.0],[6.214,4.4226,0.0],[6.2024,4.4235,6.246],[6.1974,4.4276,0.0],[6.1929,4.4388,0.0],[6.1876,4.4443,9.1609],[6.1907,4.4535,3.4637],[6.1887,4.4585,0.0],[6.1885,4.4682,12.9902],[6.1799,4.4746,5.8072],[6.1796,4.4776,3.5148],[6.1857,4.4854,0.0],[6.1868,4.4932,3.5892],[6.1857,4.496,2.2035],[6.1776,4.5012,3.6763],[6.1768,4.5129,0.0],[6.1738,4.5157,3.8876],[6.1732,4.5188,8.4026],[6.1788,4.5307,2.93],[6.1754,4.5349,10.8358],[6.1746,4.5401,0.0],[6.1774,4.5476,3.0596],[6.1793,4.5612,6.3484],[6.1887,4.5704,7.1636],[6.1874,4.5746,2.8985],[6.1813,4.5793,1.2088],[6.1821,4.5821,6.0809],[6.1843,4.5832,1.732],[6.1826,4.5882,0.0],[6.1849,4.5932,3.2893],[6.1843,4.5957,5.8524],[6.1924,4.6032,0.0],[6.1926,4.609,3.9081],[6.1949,4.6115,3.3873],[6.1929,4.6151,2.0423],[6.1868,4.6174,1.4001999999999999],[6.1876,4.6179,1.4001999999999999],[6.1938,4.6154,2.0423],[6.1954,4.6129,1.1998],[6.1957,4.6112,3.3873],[6.1932,4.6088,2.8812],[6.1929,4.6032,2.2045],[6.1963,4.6032,2.4993],[6.1979,4.6132,0.0],[6.199,4.6126,7.5134],[6.1985,4.6038,6.0585],[6.1935,4.6021,2.2045],[6.1918,4.5999,3.6763],[6.1921,4.5968,1.9731],[6.1988,4.5921,7.4142],[6.1988,4.5799,0.0],[6.2049,4.579,3.2106],[6.2082,4.5757,9.4737],[6.2079,4.5726,8.3743],[6.2054,4.5715,2.1158],[6.2035,4.5668,4.4286],[6.1982,4.5635,6.7548],[6.1979,4.5601,4.5503],[6.2015,4.5551,3.3553],[6.1988,4.5457,0.644],[6.1949,4.5393,5.0742],[6.1993,4.5343,3.709],[6.2015,4.5274,2.7977],[6.2099,4.5215,2.8115],[6.2063,4.5151,0.0],[6.2079,4.5026,6.2448],[6.2043,4.4932,0.0],[6.2082,4.4843,3.2008],[6.2038,4.4774,8.252],[6.2107,4.4718,1.6285],[6.2118,4.4668,2.5886],[6.2112,4.4635,1.0132],[6.2071,4.4582,0.0],[6.2279,4.4499,5.2524],[6.2279,4.4493,5.2524],[6.2254,4.4499,8.9009],[6.2274,4.4407,2.9444],[6.2257,4.4351,3.8127],[6.2238,4.4332,5.761],[6.2115,4.4332,9.0599],[6.2101,4.4299,0.4805],[6.2121,4.4274,0.9818],[6.2221,4.4279,3.1926],[6.229,4.4257,5.8173],[6.2351,4.4185,3.3073],[6.2451,4.3996,0.0],[6.249,4.4049,2.2663],[6.2546,4.4182,0.0],[6.2457,4.431,6.1409],[6.246,4.4407,11.0982],[6.249,4.4465,10.1592],[6.2471,4.4657,2.6773],[6.2449,4.4696,0.0],[6.2382,4.4751,5.7902],[6.2335,4.4876,6.4501],[6.2326,4.4965,5.0506],[6.2368,4.5104,0.0],[6.2349,4.5126,1.9021],[6.2304,4.5138,0.0],[6.2257,4.5268,4.0823],[6.2215,4.5282,6.8679],[6.2249,4.5282,3.1188],[6.2263,4.5271,4.4957],[6.231,4.514,0.0],[6.2351,4.5132,1.9021],[6.2376,4.5112,0.6187],[6.2424,4.521,0.0],[6.2476,4.5274,2.6162],[6.2476,4.5357,4.2793],[6.2582,4.5432,6.1192],[6.2588,4.5496,0.0],[6.2626,4.5563,5.8052],[6.2624,4.5601,3.8498],[6.261,4.561,0.0],[6.2604,4.5674,1.7709],[6.2513,4.5679,0.8479],[6.2463,4.5746,0.0],[6.2465,4.5879,3.1772],[6.2476,4.5849,0.0],[6.2468,4.5749,0.0],[6.2524,4.5688,5.4802],[6.2588,4.569,6.4763],[6.2607,4.5676,2.1156],[6.2624,4.5682,2.1156],[6.2593,4.5738,3.4717],[6.2601,4.5879,2.1862],[6.261,4.5776,4.046],[6.2599,4.574,3.4717],[6.2613,4.5715,0.0],[6.2654,4.5729,2.0538],[6.2654,4.5757,5.9157],[6.2699,4.5754,9.5479],[6.2721,4.5799,1.3648],[6.274,4.5799,1.5633],[6.2768,4.5749,3.0654],[6.2807,4.5718,2.6519],[6.2849,4.5721,12.5787],[6.2854,4.5746,1.017],[6.2896,4.5771,0.0],[6.2896,4.5807,2.5857],[6.2863,4.5832,4.2354],[6.2851,4.5874,11.8649],[6.2807,4.5929,4.4199],[6.279,4.6024,1.1495],[6.2774,4.6024,1.1495],[6.279,4.6032,1.1495],[6.279,4.611,9.2401],[6.2824,4.6132,1.5954],[6.2857,4.6124,1.8235],[6.2874,4.6143,4.4098],[6.286,4.6118,5.5896],[6.2824,4.6124,1.5954],[6.2804,4.611,0.0],[6.281,4.5943,2.3726],[6.2921,4.5774,5.4665],[6.2868,4.574,1.017],[6.2857,4.5713,3.0525],[6.2801,4.571,2.6519],[6.274,4.576,5.6394],[6.274,4.5785,2.9334],[6.2718,4.579,1.3648],[6.2713,4.5746,6.6529],[6.2674,4.5749,1.8117],[6.2665,4.5718,5.3416],[6.2638,4.5718,1.2887],[6.2646,4.556,0.0],[6.2604,4.5496,0.0],[6.2596,4.5407,5.4008],[6.2501,4.5349,0.0],[6.2513,4.5296,4.0137],[6.2424,4.5124,5.6389],[6.2385,4.4996,2.8933],[6.2387,4.4896,2.2575],[6.2412,4.4829,0.0],[6.2451,4.479,0.0],[6.2465,4.4796,3.9853],[6.2474,4.4763,0.0],[6.2524,4.474,3.9176],[6.254,4.4779,2.0605],[6.2563,4.479,9.0221],[6.2624,4.4782,2.0884],[6.2643,4.4815,5.6903],[6.2657,4.4935,7.5533],[6.2613,4.4935,2.9685],[6.261,4.4951,2.2152],[6.2632,4.4971,1.0431],[6.2618,4.5043,3.2621],[6.2643,4.5093,2.3203],[6.2615,4.5129,1.4041],[6.2649,4.5096,3.2909],[6.2649,4.5074,4.2916],[6.2626,4.5049,3.2621],[6.2638,4.4968,4.0204],[6.2615,4.4949,2.2152],[6.2668,4.4938,2.2081],[6.2646,4.4779,0.0],[6.2615,4.4763,3.2827],[6.2554,4.4771,0.0],[6.2529,4.4679,5.5749],[6.2565,4.456,0.0],[6.2638,4.4421,4.5673],[6.2649,4.4351,4.8463],[6.2651,4.4262,2.2171],[6.2618,4.4174,1.0083],[6.2596,4.3999,3.6308],[6.2607,4.3882,4.0209],[6.2632,4.3849,0.0],[6.2751,4.3951,0.0],[6.2918,4.4063,0.0],[6.3024,4.416,6.4774],[6.3071,4.4249,0.0],[6.3065,4.4274,0.0],[6.3015,4.4296,7.7821],[6.2976,4.4351,17.5023],[6.2988,4.4451,3.2999],[6.2974,4.4562,3.0698],[6.2993,4.4665,15.0932],[6.2924,4.4685,6.0653],[6.2888,4.4713,1.5674],[6.2857,4.4824,6.8316],[6.2813,4.4863,5.2086],[6.2818,4.4899,0.0],[6.2846,4.4935,9.6685],[6.2815,4.5093,1.72],[6.2801,4.5101,2.4352],[6.2821,4.5099,1.72],[6.2851,4.494,3.0165],[6.2846,4.4915,4.8776],[6.2824,4.4896,0.0],[6.2821,4.486,5.2086],[6.284,4.4854,1.8623],[6.2863,4.4826,6.8316],[6.2896,4.4724,4.656],[6.2921,4.4738,10.7859],[6.2976,4.4732,0.0],[6.3007,4.4812,3.0711],[6.2974,4.4818,2.5038],[6.2999,4.4826,3.121],[6.3015,4.4812,3.0711],[6.2988,4.4721,4.7369],[6.291,4.4715,0.0],[6.3004,4.4682,0.8294],[6.301,4.4635,0.0],[6.3074,4.4599,2.3982],[6.3082,4.461,0.0],[6.3021,4.4674,0.0],[6.3021,4.4701,6.7718],[6.3054,4.4718,2.3384],[6.3032,4.474,5.5084],[6.3032,4.4754,5.5084],[6.306,4.4757,7.5589],[6.3038,4.4743,5.5084],[6.3063,4.4726,4.4296],[6.306,4.4715,4.0119],[6.3026,4.4699,6.7718],[6.3026,4.4676,0.0],[6.3057,4.4649,2.0337],[6.3093,4.469,6.9573],[6.3098848101265821,4.4684291139240511,5.0582]],
[[5.7846128755364807,4.55369270386266,11.7791],[5.78456805111821,4.5538175718849843,7.1432],[5.7846,4.5538,7.1432],[5.7846128755364807,4.55369270386266,11.7791]],
[[5.78456805111821,4.5538175718849843,7.1432],[5.7826,4.5549,5.7102],[5.7787,4.5507,4.544],[5.776,4.5513,9.7344],[5.7735,4.5549,2.3653],[5.7751,4.5571,7.4864],[5.774,4.5551,2.3653],[5.7763,4.5518,9.7344],[5.7785,4.5513,4.544],[5.7815,4.5549,5.7102],[5.784,4.5554,7.1432],[5.78456805111821,4.5538175718849843,7.1432]],
[[5.7112750122249389,4.5389962347188257,0.4957],[5.7113008851795648,4.5390138088012133,0.4957],[5.7113,4.539,0.4957],[5.7112750122249389,4.5389962347188257,0.4957]],
[[5.7113008851795648,4.5390138088012133,0.4957],[5.7118,4.5468,0.7059],[5.7129,4.5476,2.6519],[5.7199,4.5463,1.8485],[5.7265,4.5382,1.0583],[5.7379,4.5382,0.5524],[5.7376,4.5465,1.2219],[5.7432,4.5471,6.2016],[5.7454,4.5443,1.7681],[5.7385,4.5465,4.8669],[5.7393,4.5396,0.0],[5.7382,4.5376,1.9155],[5.7263,4.5376,1.0583],[5.7207,4.5449,7.4521],[5.7138,4.5468,10.9417],[5.7124,4.5454,0.0],[5.7129,4.5401,0.4957],[5.7113008851795648,4.5390138088012133,0.4957]]],
[[[5.4376,4.946,0.0],[5.4376,4.9471,0.0],[5.4357,4.9468,0.0],[5.4365,4.9446,0.0],[5.439,4.944,0.0],[5.4393,4.9451,0.0],[5.4376,4.946,0.0]]],
[[[6.584,4.671,3.2286],[6.5837,4.6718,3.2617],[6.5813,4.6718,0.0],[6.5857,4.6687,0.0],[6.584,4.671,3.2286]]],
[[[5.7807,4.6885,5.2242],[5.7735,4.6896,2.6442],[5.7726,4.6857,0.0],[5.7826,4.6854,0.0],[5.7826,4.6876,3.4446],[5.7807,4.6885,5.2242]]],
[[[5.6799,4.7779,5.0985],[5.6749,4.7807,0.0],[5.6649,4.7787,5.5882],[5.6601,4.781,3.4208],[5.6601,4.7865,0.6555],[5.6682,4.7932,0.0],[5.6682,4.7963,0.0],[5.6571,4.7982,9.8398],[5.6318,4.8099,2.7347],[5.6279,4.8096,7.2634],[5.6226,4.8026,0.7057],[5.6185,4.7999,1.3735],[5.6121,4.799,1.3628],[5.6079,4.8046,3.2513],[5.6082,4.8174,0.0],[5.5921,4.8099,1.8171],[5.5774,4.8079,2.4679],[5.5679,4.8118,6.124],[5.5524,4.8249,6.7536],[5.5399,4.8182,6.9142],[5.5246,4.8179,2.6712],[5.5168,4.8213,0.8222],[5.4999,4.834,0.0],[5.4887,4.8476,5.1875],[5.4763,4.8749,9.3325],[5.4712,4.8807,0.0],[5.469,4.8879,0.2865],[5.4649,4.8913,0.8815],[5.4576,4.9029,0.0],[5.4551,4.9182,0.0],[5.4532,4.9168,0.9759],[5.4518,4.9118,0.243],[5.4549,4.9013,2.2179],[5.4743,4.8615,0.0],[5.5271,4.7765,1.022],[5.5321,4.7626,0.8531],[5.5296,4.7543,0.0],[5.5332,4.754,0.0],[5.5396,4.7474,0.0],[5.5457,4.7454,0.0],[5.5549,4.7379,2.0627],[5.5624,4.7351,2.0017],[5.5632,4.7276,3.7683],[5.5657,4.7229,1.5715],[5.5712,4.7229,2.6666],[5.5851,4.729,0.0],[5.5779,4.7343,6.9756],[5.5815,4.7438,1.2487],[5.5749,4.7418,15.5172],[5.5662,4.7521,6.9205],[5.5665,4.756,7.1851],[5.5718,4.7582,0.0],[5.5726,4.7574,0.0],[5.5671,4.7557,7.1851],[5.5665,4.7532,6.9205],[5.5751,4.7424,3.9486],[5.5774,4.7426,4.3705],[5.5785,4.7446,3.5983],[5.5821,4.744,1.3685],[5.5815,4.7393,4.015],[5.5785,4.7349,6.9756],[5.579,4.7337,4.0446],[5.5865,4.7301,0.0],[5.591,4.7321,15.9159],[5.5926,4.7312,2.2007],[5.5943,4.7413,5.6244],[5.5996,4.7429,1.1253],[5.6021,4.741,8.0043],[5.6038,4.7365,3.5045],[5.6099,4.7368,5.3028],[5.6082,4.7321,5.6828],[5.6093,4.7282,2.7064],[5.619,4.7271,2.7784],[5.6176,4.7262,2.5464],[5.6129,4.7262,5.1669],[5.609,4.7276,2.7064],[5.6074,4.7315,4.5778],[5.6093,4.7363,5.3028],[5.6035,4.736,3.5045],[5.5993,4.7424,1.1253],[5.5951,4.7413,5.6244],[5.5937,4.7313,2.2007],[5.5765,4.7221,0.0],[5.5701,4.7151,1.694],[5.5707,4.7038,1.5967],[5.5743,4.6979,0.0],[5.5813,4.6915,0.0],[5.5879,4.6893,6.9986],[5.5918,4.6899,2.3937],[5.5951,4.6924,12.4769],[5.611,4.6946,2.446],[5.629,4.6929,1.6813],[5.6451,4.6857,1.4114],[5.659,4.6738,15.2173],[5.6657,4.6735,0.0],[5.6779,4.6865,6.8136],[5.6824,4.6943,5.5382999999999996],[5.6935,4.704,1.7247],[5.7032,4.7157,0.976],[5.7132,4.7237,1.1931],[5.7246,4.7276,0.0],[5.7304,4.7332,0.0],[5.7413,4.7454,1.9705],[5.7501,4.7596,1.1541],[5.7551,4.7718,0.0],[5.7587,4.7737,0.0],[5.7657,4.7735,1.0888],[5.7635,4.7793,0.2775],[5.7638,4.7829,0.7429],[5.7688,4.7851,0.6614],[5.7749,4.7849,0.0],[5.7754,4.7879,0.8884],[5.7718,4.7901,0.7406],[5.771,4.7932,0.0],[5.7782,4.8012,2.9428],[5.7793,4.8051,0.5898],[5.7768,4.806,0.8647],[5.7724,4.8121,0.5531],[5.7696,4.8124,0.2338],[5.7665,4.8079,0.4679],[5.766,4.799,0.1697],[5.761,4.7951,1.2768],[5.7368,4.7946,0.506],[5.7249,4.7979,0.605],[5.7165,4.8065,1.3257],[5.706,4.8054,0.9303],[5.6965,4.8101,0.0],[5.696,4.7963,0.0],[5.6929,4.7799,3.2578],[5.6896,4.7757,2.563],[5.6874,4.7751,1.9975],[5.6799,4.7779,5.0985]]],
[[[5.7007,4.5254,0.0],[5.6982,4.5263,0.0],[5.699,4.5207,3.6859],[5.7046,4.5151,0.0],[5.7276,4.4971,0.5868],[5.7354,4.4929,1.1856],[5.734,4.4965,0.0],[5.7296,4.499,4.1611],[5.7249,4.5046,1.8347],[5.7243,4.5079,0.0],[5.7199,4.5085,1.8585],[5.7135,4.5121,0.0],[5.7029,4.5215,2.9769],[5.7032,4.5232,0.0],[5.7007,4.5254,0.0]]],
[[[6.6035,4.5565,1.2242],[6.6004,4.5574,0.0],[6.5985,4.5535,1.9952],[6.5968,4.5485,4.5543],[6.5979,4.5421,3.151],[6.6007,4.5426,6.8476],[6.6129,4.5529,1.8437],[6.6126,4.5551,1.8539],[6.6035,4.5565,1.2242]]],
[[[6.6201,4.5532,5.0159],[6.6201,4.556,0.8598],[6.6143,4.5563,1.0318],[6.6129,4.5515,3.7299],[6.6076,4.5482,3.1746],[6.6071,4.546,5.9599],[6.6137,4.5454,0.0],[6.6201,4.5532,5.0159]]],
[[[6.6374,4.5965,0.0],[6.6246,4.5971,0.0],[6.6224,4.5932,1.2353],[6.6165,4.5901,0.6441],[6.6171,4.5868,1.0073],[6.6204,4.5829,1.6992],[6.6185,4.5804,2.1799],[6.6126,4.5785,10.1382],[6.6126,4.5665,8.5652],[6.6079,4.5588,4.0448],[6.6213,4.5565,3.5596],[6.6215,4.5524,2.9839],[6.6154,4.5454,9.365],[6.6154,4.5432,0.0],[6.6271,4.5329,1.9453],[6.6388,4.5112,1.7975],[6.6449,4.5074,14.516],[6.6535,4.5099,4.0773],[6.6618,4.5218,4.6588],[6.6671,4.5257,9.5358],[6.6746,4.5276,0.0],[6.6762,4.5321,5.416],[6.6712,4.5382,5.6291],[6.6574,4.5468,8.5954],[6.6476,4.5618,1.6999],[6.6476,4.5682,0.0],[6.6443,4.5818,4.7955],[6.6404,4.5885,1.5199],[6.639,4.5954,9.2969],[6.6374,4.5965,0.0]]],
[[[6.6013,4.6412,2.0686],[6.6001,4.6435,0.2797],[6.5951,4.641,0.5406],[6.5874,4.6421,1.3271],[6.5857,4.6396,1.9982],[6.5874,4.6321,1.6347],[6.5921,4.6307,4.1685],[6.5943,4.6274,4.5374],[6.5937,4.6251,3.6765],[6.5887,4.6187,4.8444],[6.5887,4.614,3.5836],[6.5918,4.6018,0.0],[6.5907,4.5957,2.1946],[6.5963,4.5954,3.7588],[6.5974,4.5921,1.3621],[6.5921,4.5865,4.4905],[6.5915,4.5826,1.1999],[6.6001,4.5724,0.0],[6.6004,4.5601,0.0],[6.6046,4.5568,1.5633],[6.6121,4.5668,0.0],[6.6115,4.5765,3.7138],[6.6121,4.5788,2.4537],[6.6196,4.5826,1.6992],[6.6162,4.5871,3.3846],[6.616,4.5904,0.6441],[6.6221,4.5938,3.0573],[6.6224,4.5963,7.7542],[6.6149,4.6057,1.0453],[6.6124,4.6129,3.0297],[6.6146,4.6187,1.7655],[6.6221,4.626,2.4224],[6.6229,4.6299,0.0],[6.6179,4.6349,1.9931],[6.6068,4.6354,0.6607],[6.6013,4.6412,2.0686]]],
[[[6.6768,4.431,0.7821],[6.6751,4.4321,0.0],[6.6735,4.4299,1.7966],[6.6729,4.4224,8.2728],[6.6749,4.4168,0.0],[6.6796,4.4168,0.0],[6.6813,4.4193,0.0],[6.681,4.4226,0.0],[6.6768,4.431,0.7821]]],
[[[5.8649,4.4349,0.0],[5.8668,4.4363,0.0],[5.8615,4.434,0.0],[5.8635,4.434,0.0],[5.8649,4.4349,0.0]]],
[[[6.3100848049281293,4.4682338809034938,5.9531],[6.3098848101265821,4.4684291139240511,5.0582],[6.3096,4.4671,5.0582],[6.3074,4.4651,2.588],[6.3099,4.4615,0.0],[6.3093,4.4588,0.0],[6.301,4.461,0.0],[6.3018,4.4349,0.0],[6.306,4.434,3.9649],[6.3107,4.4296,0.0],[6.3162,4.4321,0.5941],[6.321,4.4315,0.9754],[6.3338,4.4254,0.0],[6.3376,4.4265,3.3866],[6.3424,4.4315,5.5488],[6.3454,4.4396,0.0],[6.3443,4.4515,4.6028],[6.3363,4.4646,3.8502],[6.3343,4.4718,2.5718],[6.3321,4.4735,2.3269],[6.3293,4.4743,0.0],[6.3276,4.4715,0.7496],[6.3243,4.471,1.9846],[6.3246,4.4676,10.5111],[6.3235,4.4671,7.5637],[6.3149,4.4688,3.0567],[6.314,4.4643,6.1504],[6.3124,4.4649,6.1504],[6.3100848049281293,4.4682338809034938,5.9531]]],
[[[6.4413,4.3057,0.0],[6.4404,4.3088,0.0],[6.4393,4.3085,0.0],[6.4396,4.3051,0.0],[6.4413,4.3057,0.0]]],
[[[5.9501,4.3896,0.0],[5.9507,4.3924,0.0],[5.9496,4.3926,0.0],[5.949,4.3918,0.0],[5.9501,4.3896,0.0]]],
[[[6.5813,4.4871,3.5385],[6.5779,4.4876,12.8395],[6.5768,4.4846,11.2497],[6.5799,4.4715,8.0801],[6.5735,4.4696,6.9202],[6.564,4.4707,0.0],[6.5607,4.4613,2.3784],[6.5568,4.4615,2.9826],[6.5454,4.4768,10.473],[6.5421,4.4779,3.2623],[6.5426,4.4707,2.3388],[6.5399,4.4676,0.0],[6.534,4.4668,0.3788],[6.5349,4.4543,1.9842],[6.5296,4.4424,0.0],[6.5318,4.4379,5.3789],[6.541,4.4351,2.1586],[6.5529,4.4213,3.1351],[6.5563,4.4043,0.0],[6.5518,4.3932,0.0],[6.5574,4.3949,0.7492],[6.5615,4.3943,2.2105],[6.5696,4.3857,2.1613],[6.5699,4.3785,1.4773],[6.5665,4.3649,11.3578],[6.5674,4.3607,5.0311],[6.5754,4.3638,3.9641],[6.5779,4.3624,5.1568],[6.5821,4.3632,0.0],[6.5918,4.3726,6.772],[6.5929,4.3771,0.0],[6.5918,4.4232,20.0081],[6.5976,4.4576,11.5613],[6.5924,4.4699,0.0],[6.5813,4.4871,3.5385]]],
[[[6.2518,4.3757,0.0],[6.2501,4.3774,0.0],[6.2418,4.3663,0.0],[6.2412,4.3621,0.0],[6.2429,4.3599,0.922],[6.2471,4.3593,2.1748],[6.2507,4.3629,0.0],[6.2518,4.3757,0.0]]],
[[[5.9774,4.3679,0.0],[5.9788,4.3682,0.0],[5.979,4.3701,0.0],[5.9782,4.3701,0.0],[5.9774,4.3679,0.0]]],
[[[5.9815,4.3521,0.0],[5.9821,4.3532,0.0],[5.9804,4.3535,0.0],[5.9796,4.3493,0.0],[5.981,4.3501,0.0],[5.9815,4.3521,0.0]]],
[[[6.0965,4.3551,6.1562],[6.0951,4.3568,10.6425],[6.0907,4.3543,0.0],[6.0832,4.3426,0.0],[6.0801,4.3329,0.9257],[6.086,4.2979,12.3637],[6.0835,4.2771,0.0],[6.0863,4.2707,0.963],[6.0915,4.2718,0.0],[6.0988,4.2707,1.7761],[6.1046,4.2729,8.1391],[6.131,4.2754,2.0064],[6.1749,4.2774,5.4509],[6.181,4.279,9.1362],[6.2149,4.2796,3.8674],[6.221,4.2821,12.9732],[6.2213,4.2924,2.1948],[6.2171,4.3029,0.0],[6.2151,4.3043,6.8117],[6.2126,4.3179,2.083],[6.2107,4.321,0.0],[6.2065,4.3179,0.0],[6.2029,4.3068,2.2673],[6.1996,4.3046,6.3057],[6.1963,4.3049,4.0866],[6.1929,4.3063,0.6957],[6.191,4.3096,0.0],[6.1907,4.3199,3.7392],[6.1887,4.3265,0.0],[6.1857,4.3265,4.5144],[6.1721,4.3187,9.6267],[6.169,4.3187,7.3993],[6.1665,4.3224,0.9866],[6.1582,4.3207,1.8629],[6.1549,4.3232,4.4841],[6.1538,4.3274,0.0],[6.1515,4.3282,5.6603],[6.139,4.3251,4.9013],[6.1337,4.3254,6.9376],[6.1254,4.3285,5.3494],[6.1215,4.334,1.807],[6.1121,4.3301,5.2067],[6.0999,4.339,15.4686],[6.0988,4.3424,3.5561],[6.1013,4.3482,10.3267],[6.0965,4.3551,6.1562]]],
[[[6.264,4.354,5.1715],[6.2618,4.3565,1.5982],[6.259,4.3479,0.7202],[6.2643,4.3479,0.9079],[6.264,4.354,5.1715]]],
[[[6.324,4.426,1.5433],[6.319,4.4268,5.9123],[6.3104,4.4221,0.0],[6.309,4.4163,0.9287],[6.3035,4.4076,0.0],[6.304,4.3985,7.0593],[6.3051,4.3957,4.3565],[6.3079,4.3943,2.9794],[6.3068,4.3926,2.1479],[6.3079,4.3904,4.3952],[6.3124,4.3885,7.3502],[6.314,4.3782,1.9299],[6.3121,4.3721,0.0],[6.3068,4.3729,1.0365],[6.3043,4.3638,8.8025],[6.2988,4.3635,2.6014],[6.2968,4.3596,3.1751],[6.2979,4.3499,2.917],[6.2926,4.3446,0.0],[6.2943,4.3404,1.7131],[6.2937,4.3368,3.0754],[6.2982,4.3315,1.2954],[6.2965,4.3326,1.8553],[6.2918,4.3318,3.3123],[6.2901,4.334,4.5131],[6.2882,4.3335,4.7115],[6.2904,4.3349,4.5131],[6.2918,4.3326,2.0216],[6.2946,4.3332,0.0],[6.2924,4.3357,0.7365],[6.2918,4.3429,0.0],[6.2904,4.344,0.0],[6.2896,4.3426,2.0094],[6.286,4.3424,0.0],[6.286,4.3449,0.7422],[6.2832,4.3454,3.1574],[6.2849,4.3476,3.5548],[6.2874,4.3435,0.0],[6.2893,4.3435,0.0],[6.2965,4.3504,0.4408],[6.2946,4.3579,0.0],[6.2815,4.3615,7.2347],[6.2765,4.3574,0.0],[6.271,4.3554,9.3476],[6.2704,4.3457,0.776],[6.2665,4.3449,3.7099],[6.2643,4.3465,2.6334],[6.2601,4.3465,1.3511],[6.2624,4.3396,2.2561],[6.2613,4.3326,4.7371],[6.2635,4.3304,2.7654],[6.271,4.3307,6.1869],[6.2729,4.329,0.0],[6.2724,4.3235,4.8683],[6.2693,4.321,9.9823],[6.269,4.3182,0.0],[6.2782,4.3179,3.9409],[6.2732,4.3168,2.4206],[6.2679,4.3179,8.4842],[6.2682,4.3204,6.265],[6.2721,4.3251,0.7058],[6.2721,4.3288,0.0],[6.2649,4.3296,2.8911],[6.2613,4.3315,1.4147],[6.261,4.341,4.1205],[6.2576,4.3462,0.0],[6.2529,4.3354,6.8412],[6.2479,4.3293,0.0],[6.2443,4.3212,2.7684],[6.2415,4.319,0.0],[6.2374,4.3101,0.0],[6.2387,4.3076,2.2915],[6.2368,4.3076,0.0],[6.2357,4.3054,1.0124],[6.2351,4.2974,1.5834],[6.2393,4.294,0.0],[6.2496,4.291,1.6662],[6.2846,4.2924,8.6569],[6.321,4.2976,6.0654],[6.4099,4.3054,0.0],[6.4174,4.3085,0.0],[6.3987,4.3271,0.0],[6.391,4.3371,0.0],[6.3854,4.3479,0.0],[6.3832,4.3471,2.1877],[6.3826,4.3407,8.7205],[6.3799,4.3363,1.9634],[6.3704,4.3385,4.8595],[6.3654,4.3251,15.6886],[6.3549,4.3279,4.3625],[6.3401,4.3224,0.0],[6.3379,4.3246,13.3966],[6.3374,4.3282,5.6585],[6.3332,4.3282,5.7218],[6.3288,4.326,11.5367],[6.3279,4.3204,0.6606],[6.326,4.3185,2.4728],[6.3274,4.326,1.4881],[6.3329,4.329,1.213],[6.3385,4.3288,1.4188],[6.3413,4.3229,1.8244],[6.3479,4.3274,0.6504],[6.3563,4.3293,7.7237],[6.3596,4.3293,17.5492],[6.3649,4.326,0.8182],[6.3693,4.3388,14.0087],[6.3737,4.3396,0.0],[6.3799,4.3382,0.2366],[6.3829,4.3504,0.0],[6.3785,4.3638,0.0],[6.3704,4.369,0.0],[6.356,4.371,0.0],[6.3485,4.3757,0.0],[6.3451,4.3813,0.0],[6.3496,4.3979,0.0],[6.3451,4.4046,0.6765],[6.344,4.4157,0.6228],[6.3399,4.4221,0.0],[6.3315,4.4229,1.0989],[6.324,4.426,1.5433]]],
[[[5.984,4.3643,1.5717],[5.9813,4.3657,0.0],[5.9796,4.3643,4.3803],[5.9763,4.3596,0.0],[5.9765,4.3565,0.0],[5.9776,4.3565,0.0],[5.9771,4.3599,2.0481],[5.9818,4.3563,1.1899],[5.9851,4.3576,3.1912],[5.9865,4.3618,8.4637],[5.984,4.3643,1.5717]]],
[[[6.2901,4.3915,6.3185],[6.2851,4.3815,0.0],[6.2696,4.3671,4.3909],[6.266,4.3576,0.0],[6.2674,4.3457,0.7643],[6.269,4.3462,0.776],[6.269,4.3532,1.7279],[6.2715,4.3574,2.4522],[6.2821,4.3629,3.1619],[6.2924,4.3599,0.0],[6.2951,4.3604,0.0],[6.2985,4.3649,0.7455],[6.3026,4.3646,0.0],[6.3065,4.374,8.2795],[6.3113,4.374,6.218],[6.3126,4.3801,0.0],[6.3113,4.3885,4.9198],[6.306,4.3904,4.3952],[6.3021,4.4024,0.0],[6.2965,4.3993,3.3018],[6.2901,4.3915,6.3185]]],
[[[6.0482,4.4157,2.3725],[6.0465,4.4176,3.1288],[6.0474,4.4157,2.3725],[6.0457,4.4113,0.9477],[6.0474,4.4093,3.9377],[6.0463,4.406,2.8166],[6.0415,4.4054,6.1051],[6.039,4.4107,1.6735],[6.0368,4.4076,0.5902],[6.0429,4.3951,5.5807],[6.0413,4.3888,4.3082],[6.0388,4.3874,0.0],[6.0388,4.3838,4.8062],[6.0424,4.3815,0.0],[6.0468,4.3813,5.9296],[6.051,4.3779,6.662],[6.0515,4.3732,5.9582],[6.0496,4.366,6.6066],[6.0524,4.3632,0.0],[6.0549,4.3696,4.1459],[6.0574,4.3699,0.0],[6.0543,4.3779,0.8927],[6.056,4.3813,1.0322],[6.056,4.3782,0.0],[6.0607,4.3685,1.5401],[6.0576,4.3621,6.2925],[6.0579,4.3574,3.7653],[6.0615,4.3565,7.6819],[6.0679,4.3507,4.6904],[6.0699,4.3524,0.0],[6.0685,4.3751,0.0],[6.0701,4.389,0.0],[6.0596,4.399,0.0],[6.0537,4.4021,0.0],[6.0482,4.4157,2.3725]]],
[[[6.1485,4.3901,0.0],[6.1465,4.3915,0.0],[6.1438,4.3874,0.9329],[6.1432,4.3826,0.0],[6.1446,4.379,1.321],[6.1468,4.3796,0.0],[6.1488,4.3835,0.0],[6.1485,4.3901,0.0]]],
[[[6.2476,4.3879,4.311],[6.2471,4.3915,2.6725],[6.2437,4.3874,0.0],[6.244,4.3843,0.0],[6.2468,4.3849,0.0],[6.2476,4.3879,4.311]]],
[[[6.1324,4.4207,2.6699],[6.1249,4.421,1.1476],[6.1146,4.4126,5.6885],[6.1021,4.4101,0.0],[6.0963,4.4043,4.3263],[6.0874,4.4004,1.0823],[6.081,4.394,0.0],[6.0771,4.3865,1.3896],[6.0765,4.3793,2.6561],[6.079,4.3699,0.0],[6.0843,4.3657,9.919],[6.0868,4.3621,7.84],[6.0865,4.3599,0.0],[6.0899,4.3601,0.0],[6.0951,4.3674,3.6605],[6.1015,4.3707,7.1652],[6.1107,4.3707,10.4306],[6.1249,4.3654,0.0],[6.1312,4.3665,0.0],[6.1396,4.3735,0.0],[6.1413,4.3951,6.0606],[6.1362,4.4143,3.9524],[6.1324,4.4207,2.6699]]],
[[[6.2926,4.4029,0.0],[6.2921,4.4026,0.0],[6.2935,4.4029,0.0],[6.2949,4.4049,0.0],[6.2915,4.4035,0.0],[6.2926,4.4029,0.0]]],
[[[6.0585,4.4624,0.0],[6.0535,4.4629,2.1967],[6.0565,4.4551,0.0],[6.0599,4.4604,3.3064],[6.0585,4.4624,0.0]]],
[[[6.341,4.4754,1.1309],[6.3393,4.4763,0.6177],[6.3365,4.4721,0.0],[6.3413,4.4638,3.7764],[6.3446,4.4615,0.0],[6.3432,4.4729,0.0],[6.341,4.4754,1.1309]]],
[[[6.1324,4.4313,1.9152],[6.1296,4.4321,0.0],[6.1271,4.4301,5.3467],[6.1257,4.4237,0.0],[6.1315,4.4243,0.0],[6.1332,4.4293,0.0],[6.1324,4.4313,1.9152]]],
[[[6.2543,4.4438,1.0664],[6.2524,4.4446,0.9022],[6.2499,4.4421,0.0],[6.2482,4.4363,0.0],[6.2499,4.4282,0.0],[6.2532,4.4262,2.3439],[6.2579,4.4321,3.0352],[6.2565,4.4407,2.6056],[6.2543,4.4438,1.0664]]],
[[[6.1921,4.596,1.9731],[6.1913,4.5999,3.6763],[6.1896,4.5996,1.9786],[6.186,4.5965,2.4449],[6.184,4.5899,0.7797],[6.1854,4.5829,5.1643],[6.1826,4.5818,6.9448],[6.1824,4.5799,1.2088],[6.1882,4.5757,1.6297],[6.1901,4.5704,7.1636],[6.1804,4.5582,1.462],[6.1799,4.5465,0.0],[6.1771,4.5362,3.3395],[6.1799,4.5301,1.2034],[6.1776,4.5276,3.5076],[6.1749,4.5165,7.1694],[6.1785,4.5124,4.5208],[6.179,4.5035,0.0],[6.1815,4.5004,0.0],[6.1851,4.5004,2.9042],[6.189,4.4949,5.5614],[6.1876,4.4818,1.324],[6.1818,4.4757,5.1201],[6.1887,4.4732,10.2859],[6.1901,4.471,4.2789],[6.1904,4.4626,1.3123],[6.1932,4.4568,4.4233],[6.1907,4.444,2.9737],[6.1982,4.4374,3.6365],[6.2024,4.429,3.543],[6.2074,4.4296,0.0],[6.2099,4.4351,0.0],[6.2124,4.4368,2.6468],[6.2221,4.434,2.7514],[6.2246,4.4379,0.0],[6.2243,4.4435,0.0],[6.2199,4.4499,3.9781],[6.2154,4.4529,4.186],[6.2079,4.4537,11.0006],[6.2049,4.4576,8.8356],[6.206,4.4613,17.1654],[6.2087,4.4632,4.6192],[6.2093,4.4676,0.0],[6.2018,4.4774,0.0],[6.2065,4.4846,10.8053],[6.2029,4.489,3.7972],[6.2026,4.4924,2.539],[6.206,4.504,6.3416],[6.2063,4.5096,2.4401],[6.2046,4.5143,6.4888],[6.2087,4.521,2.5417],[6.2018,4.5243,0.786],[6.1943,4.5396,0.0],[6.1982,4.546,0.644],[6.201,4.5554,7.5092],[6.1974,4.5599,4.5503],[6.1976,4.5637,6.7548],[6.2029,4.5674,9.7691],[6.2049,4.5718,3.5628],[6.2074,4.5729,8.3743],[6.2076,4.5751,6.4017],[6.2046,4.5785,4.0808],[6.1985,4.5785,7.173],[6.1982,4.5915,1.9589],[6.1938,4.5938,3.865],[6.1921,4.596,1.9731]]]]}
,"properties": {"GID_1": "NGA.6_1","GID_0": "NGA","country": "Nigeria","province": "Bayelsa","VARNAME_1": "NA","NL_NAME_1": "NA","TYPE_1": "State","ENGTYPE_1": "State","CC_1": "NA","HASC_1": "NG.BY","ISO_1": "NG-BY","name": "Bayelsa.province","area_km2": 9801.843,"hist_schema_id": "Elevation0-9000","hist_area_km2": {"0": 5400.214,"25": 4401.629}}}