{"type":"Feature","properties":{"ISO3166-1-Alpha-3":"NGA","country":"Nigeria","fill":"#F0F","id":"2845","name":"Bayelsa"},
"geometry":{"type": "Polygon","coordinates": [[[6.45142,4.71765,16.9936],[6.44067,4.74813,15.0511],[6.44584,4.76694,14.636],[6.43757,4.77878,16.5741],[6.42248,4.78015,15.9843],[6.40874,4.7871,14.3694],[6.38579,4.81743,11.8766],[6.38631,4.85818,18.3016],[6.39726,4.89223,14.3474],[6.41783,4.92223,13.9851],[6.42052,4.93717,14.4226],[6.43034,4.95851,14.2524],[6.44801,4.97778,20.8622],[6.44005,4.9868,13.9146],[6.43426,4.99688,20.7277],[6.43023,5.00773,3.5],[6.42755,5.01876,14.9554],[6.42765,5.03923,20.4094],[6.43209,5.06437,15.7949],[6.4386,5.08556,17.279],[6.4446,5.09447,22.2699],[6.46248,5.10349,20.632],[6.47064,5.12491,23.5484],[6.47602,5.1702,12.7079],[6.48997,5.20232,17.8997],[6.51178,5.22258,19.1745],[6.53617,5.24066,9.0998],[6.56966,5.28224,19.7789],[6.57575,5.2928,22.6912],[6.57834,5.30366,23.8789],[6.58268,5.30955,21.4528],[6.60139,5.31389,27.582],[6.60573,5.31699,27.1685],[6.60759,5.32019,24.5062],[6.61689,5.32864,23.9218],[6.61999,5.33407,11.6878],[6.62009,5.34104,3.5],[6.61761,5.34593,21.3922],[6.61441,5.35006,23.0737],[6.58557,5.38448,24.2916],[6.49307,5.39303,16.7471],[6.49535,5.3713,8.5],[6.47912,5.362,19.6294],[6.34962,5.34259,15.7925],[6.33329,5.33709,18.6517],[6.31489,5.32353,17.2462],[6.3058,5.31482,18.4126],[6.29815,5.30567,14.5362],[6.29298,5.29544,11.6706],[6.29102,5.28348,3.5],[6.29071,5.26929,12.1685],[6.28854,5.26361,7.7565],[6.27055,5.25896,23.9873],[6.22828,5.25927,17.7636],[6.20947,5.2526,14.0264],[6.20162,5.22854,3.0],[6.20379,5.21738,18.0499],[6.21309,5.20271,20.1863],[6.21526,5.19379,16.4257],[6.2103,5.18371,6.9157],[6.19862,5.17764,13.0446],[6.17433,5.1702,15.2356],[6.16627,5.16385,10.8123],[6.16079,5.15741,3.0],[6.15356,5.15204,13.2861],[6.14023,5.14909,14.8313],[6.12844,5.15075,16.1268],[6.11583,5.15454,15.8836],[6.10426,5.15671,15.8245],[6.09547,5.15281,5.9819],[6.06674,5.11341,3.0],[6.0502,5.10457,9.9417],[6.02344,5.10814,16.8411],[6.00277,5.1169,7.8382],[5.98179,5.12925,2.5],[5.94747,5.15953,4.5929],[5.93466,5.15343,13.4927],[5.90169,5.10669,4.2541],[5.87399,5.09202,5.0306],[5.84371,5.08615,11.8797],[5.8251,5.09041,10.1444],[5.80588,5.08424,3.6776],[5.78769,5.07597,2.3742],[5.76898,5.07,8.0078],[5.73519,5.04613,4.5465],[5.6986,5.02667,9.2299],[5.6832,5.02742,0.6633],[5.66584,5.02504,8.0676],[5.64134,5.0284,9.1442],[5.62243,5.04305,4.9634],[5.57168,5.07096,11.8972],[5.52579,5.08625,5.8177],[5.48683,5.11108,3.0368],[5.46021,5.13378,9.325],[5.46022,5.13378,9.325],[5.47543,5.09455,8.1133],[5.46274,5.10228,0.0],[5.44467,5.1271,12.1751],[5.43385,5.13614,0.0],[5.41847,5.14126,0.0],[5.40284,5.1424,0.0],[5.39088,5.13768,0.0],[5.386,5.12556,8.677],[5.38933,5.10977,15.7051],[5.39625,5.09951,13.46],[5.40333,5.09186,17.2262],[5.4065,5.0843,14.3656],[5.40886,5.06757,16.4574],[5.41424,5.05244,15.8552],[5.42701,5.02627,15.1751],[5.43238,5.01089,16.3897],[5.44125,4.96418,0.0],[5.469,4.88679,1.0243],[5.50099,4.8509,13.5707],[5.50953,4.82705,3.1172],[5.47543,4.84748,0.0],[5.48634,4.83503,0.0],[5.51149,4.79182,0.0],[5.51637,4.77578,0.0],[5.52768,4.7565,0.0],[5.57146,4.72956,2.8996],[5.57154,4.711,5.2628],[5.56463,4.71503,5.3941],[5.56153,4.71638,12.1708],[5.5573,4.71776,12.1786],[5.56691,4.67524,0.0],[5.5949,4.63646,0.0],[5.68767,4.54987,5.7208],[5.69402,4.5456,0.0],[5.72071,4.51826,4.456],[5.72836,4.50764,7.3428],[5.74977,4.48444,7.9814],[5.76368,4.47895,6.0825],[5.77768,4.47553,16.3463],[5.78981,4.46971,4.6265],[5.79754,4.4571,0.0],[5.79038,4.46117,1.8067],[5.77719,4.46699,1.8267],[5.77027,4.47138,0.0],[5.7824,4.45596,0.0],[5.82276,4.43285,8.4405],[5.83912,4.41608,15.0152],[5.84539,4.41608,0.0],[5.84449,4.42719,0.0],[5.8475,4.43439,0.0],[5.85467,4.43749,11.6591],[5.8659,4.43659,0.0],[5.85564,4.41161,11.0442],[5.86752,4.38727,9.2064],[5.8899,4.36884,0.0],[5.91017,4.36152,0.0],[5.91814,4.35619,0.0],[5.93092,4.34512,0.0],[5.9463,4.33519,0.0],[5.96144,4.33356,0.0],[5.97283,4.34479,0.0],[5.96974,4.36152,0.7064],[5.9546,4.39566,5.9423],[5.96998,4.38642,6.9419],[5.97511,4.38203,0.0],[5.9826,4.41608,1.6981],[5.98862,4.41608,4.588],[5.98748,4.39891,3.2201],[5.98862,4.38203,7.6687],[5.99024,4.37857,5.8312],[6.00327,4.3592,2.2539],[6.00148,4.35627,5.3176],[5.99545,4.35468,4.678],[5.99692,4.3194,24.9985],[6.00489,4.31411,22.7867],[6.02703,4.31306,23.5909],[6.04217,4.30663,18.3244],[6.05397,4.29629,19.2965],[6.06178,4.29523,5.4599],[6.06446,4.3168,10.4135],[6.06007,4.33242,2.5734],[6.05193,4.34422,0.0],[6.04656,4.35521,0.0],[6.05079,4.36835,5.3952],[6.04656,4.37702,10.4346],[6.04217,4.39118,0.6593],[6.04029,4.40591,4.5786],[6.0433,4.41608,5.6588],[6.05543,4.41987,7.3279],[6.06739,4.41498,6.7303],[6.07781,4.4123,8.7174],[6.08872,4.41112,6.1922],[6.08513,4.3841,10.5361],[6.08497,4.36835,6.7092],[6.08969,4.37002,3.0594],[6.10076,4.37263,7.7281],[6.10532,4.37458,11.8972],[6.10255,4.36091,7.7994],[6.08912,4.33714,4.8547],[6.08497,4.3205,15.8489],[6.08432,4.30231,2.3126],[6.08774,4.28823,15.507],[6.09669,4.27814,19.7142],[6.1128,4.27216,4.9038],[6.11655,4.27635,18.1759],[6.12306,4.28095,18.5097],[6.12648,4.28579,19.3457],[6.15162,4.279,18.0138],[6.18873,4.28099,14.4853],[6.21705,4.29059,13.1863],[6.22267,4.30003,0.0],[6.20916,4.3039,13.2058],[6.20281,4.3039,7.4861],[6.19483,4.30003,15.8925],[6.19467,4.3142,0.0],[6.20069,4.32005,3.2674],[6.20899,4.32274,0.0],[6.21518,4.32734,1.6247],[6.22234,4.34195,0.0],[6.22885,4.36152,0.0],[6.23015,4.38801,7.535],[6.22332,4.40461,4.6357],[6.21241,4.42011,4.6513],[6.20167,4.44343,5.8504],[6.2199,4.4394,5.9074],[6.23121,4.43049,9.7127],[6.23959,4.41962,4.1945],[6.24936,4.4099,9.7073],[6.24171,4.42792,3.221],[6.23699,4.45279,7.9454],[6.2352,4.47818,4.8783],[6.23634,4.49803,0.0],[6.24252,4.49803,4.9263],[6.25847,4.44953,0.0],[6.26303,4.39566,5.5351],[6.29721,4.43659,12.9043],[6.30519,4.43993,13.2221],[6.31137,4.4396,5.9409],[6.31951,4.43769,2.6774],[6.33253,4.43659,7.6709],[6.2671,4.36298,0.0],[6.24684,4.3205,3.9382],[6.27052,4.29263,8.7992],[6.29029,4.29995,3.7971],[6.33627,4.30121,2.0513],[6.35548,4.30964,16.5794],[6.37387,4.3144,1.7804],[6.39894,4.31599,21.3215],[6.41529,4.32225,0.0],[6.40773,4.34101,2.9522],[6.42091,4.34488,14.1112],[6.43434,4.34724,19.2633],[6.46176,4.32868,5.4361],[6.51987,4.32315,2.0972],[6.56959,4.33491,0.0],[6.57154,4.36835,4.0918],[6.58473,4.40693,4.5024],[6.58839,4.44766,3.031],[6.57838,4.48286,26.2966],[6.55047,4.50487,8.1045],[6.58082,4.50788,1.9036],[6.59588,4.48208,11.1066],[6.60011,4.4455,0.0],[6.59881,4.39997,0.0],[6.60174,4.36905,2.3287],[6.61264,4.33674,1.762],[6.6185,4.33076,0.0],[6.64666,4.33356,1.1268],[6.6775,4.33308,0.0],[6.68767,4.33657,0.0],[6.69508,4.34724,4.0984],[6.69451,4.35908,5.9229],[6.68442,4.3937,4.9929],[6.67644,4.41291,0.0],[6.66432,4.43464,0.0],[6.66033,4.45087,2.4878],[6.65943,4.49754,0.0],[6.65406,4.5117,0.0],[6.66082,4.51557,0.0],[6.66619,4.52025,0.0],[6.67075,4.52603,0.0],[6.67457,4.53278,5.416],[6.67986,4.52058,10.3803],[6.68263,4.45921,5.4287],[6.68572,4.44546,3.8753],[6.69508,4.42292,3.61],[6.69703,4.43598,2.7302],[6.69752,4.45563,0.0],[6.70191,4.46393,0.0],[6.69508,4.49722,0.0],[6.70183,4.54255,0.0],[6.71713,4.58462,2.9329],[6.72264,4.59138,0.0],[6.72262,4.5914,0.0],[6.71177,4.60729,4.3979],[6.679,4.62202,2.6474],[6.65048,4.64344,2.0192],[6.63487,4.67636,0.666],[6.62712,4.71243,10.1654],[6.56521,4.75134,11.6204],[6.48253,4.72051,14.1932],[6.45142,4.71765,16.9936]]]}}