{"type": "Feature","bbox": [9.5667,10.38,10.6094,11.0816],"geometry": {"type": "MultiPolygon","coordinates": [[[[10.2649,10.4761,475.3015],[10.2661,10.4851,472.725],[10.2788,10.5105,476.8163],[10.3008,10.546,453.1701],[10.3151,10.5628,459.5735],[10.35,10.5975,487.6869],[10.3747,10.6108,463.9404],[10.4101,10.6198,389.9519],[10.4492,10.6254,339.0114],[10.475,10.6168,332.6907],[10.5102,10.6498,380.0563],[10.5213,10.6584,403.2751],[10.5456,10.6826,419.5358],[10.5665,10.6993,374.5605],[10.5338,10.711,356.1456],[10.5371,10.7331,322.355],[10.5653,10.7738,322.1762],[10.526,10.7729,356.5091],[10.5156,10.7783,388.0033],[10.488,10.7994,431.3012],[10.4793,10.8108,439.6502],[10.4768,10.8173,437.4327],[10.4771,10.8276,421.0861],[10.4866,10.8402,395.3086],[10.4951,10.8451,374.917],[10.5134,10.849,388.9989],[10.5286,10.844,391.16],[10.5452,10.8407,383.5721],[10.5574,10.841,377.3984],[10.5736,10.845,361.0349],[10.6024,10.8584,333.459],[10.6087,10.8649,329.299],[10.6094,10.8767,334.6545],[10.6053,10.8834,339.0441],[10.5993,10.8883,347.3644],[10.589,10.8896,372.567],[10.5565,10.8769,398.4873],[10.5353,10.8667,441.6043],[10.518,10.8614,422.6165],[10.4975,10.8584,397.5377],[10.4618,10.866,424.1938],[10.4399,10.8734,466.9568],[10.4283,10.8806,482.7323],[10.3498,10.9185,464.149],[10.3382,10.9288,465.6371],[10.3156,10.9438,447.5753],[10.3128,10.949,451.5808],[10.3017,10.9596,450.0149],[10.2946,10.9714,443.6867],[10.2877,11.0483,436.7041],[10.2855,11.06,436.0356],[10.2757,11.0816,444.1885],[10.2581,11.0782,434.4195],[10.2173,11.0565,452.6261],[10.1925,11.0261,462.7719],[10.1918,10.9972,483.5427],[10.2098,10.9425,478.6384],[10.1798,10.9334,473.8735],[10.14,10.9434,457.6461],[10.11,10.965,478.36],[10.0847,10.9678,480.3836],[10.0585,10.96,481.8419],[9.9943,10.9456,504.19],[9.9568,10.9517,532.336],[9.9022,10.9646,520.9259],[9.8804,10.9863,514.0432],[9.8675,11.0214,511.0625],[9.8477,11.0224,504.9528],[9.8353,11.026,491.6796],[9.7717,11.0309,486.6186],[9.7533,11.0292,477.1984],[9.7314,11.0313,471.2432],[9.6803,11.03,462.3217],[9.6279,11.0456,451.4909],[9.6289,11.0198,452.9486],[9.6324,11.0012,455.2057],[9.6283,10.9145,489.8356],[9.6227,10.8836,501.1222],[9.6213,10.863,495.1309],[9.5882,10.7729,495.9521],[9.5667,10.6723,535.6083],[9.5689,10.6268,537.5978],[9.5754,10.593,547.322],[9.5863,10.5675,555.4553],[9.6062,10.5422,537.5478],[9.631,10.5494,530.5573],[9.6716,10.5439,587.3839],[9.718,10.5408,581.7829],[9.7648,10.5319,564.8502],[9.8015,10.5192,561.8028],[9.8327,10.506,563.8968],[9.8498,10.472,598.088],[9.863,10.4508,576.3531],[9.8705,10.4276,555.5],[9.8852,10.3987,568.7599],[9.8962,10.3868,563.5105],[9.9114,10.38,563.9993],[9.9351,10.3806,561.0112],[9.974,10.3889,534.9199],[10.0074,10.4071,506.8372],[10.0655,10.4296,508.2683],[10.1558,10.4533,517.8347],[10.1835,10.4558,513.7307],[10.1911,10.458,517.0452],[10.2158,10.4564,493.3665],[10.2443,10.4667,475.7275],[10.2649,10.4761,475.3015]]]]}
,"properties": {"GID_2": "NGA.5.8_1","GID_0": "NGA","country": "Nigeria","GID_1": "NGA.5_1","province": "Bauchi","NL_NAME_1": "NA","county": "Ganjuwa","VARNAME_2": "NA","NL_NAME_2": "NA","TYPE_2": "LocalAuthority","ENGTYPE_2": "LocalAuthority","CC_2": "NA","HASC_2": "NA","name": "Ganjuwa.county","area_km2": 5306.569,"hist_schema_id": "Elevation0-9000","hist_area_km2": {"325": 56.542,"350": 46.706,"375": 54.246,"400": 68.952,"425": 83.459,"450": 318.804,"475": 751.033,"500": 1013.038,"525": 1322.986,"550": 1087.172,"575": 388.367,"600": 97.321,"625": 12.505,"650": 3.48,"675": 1.667,"700": 0.229,"725": 0.042}}}