{"type": "Feature","bbox": [4.566,7.8118,4.7293,7.9613],"geometry": {"type": "MultiPolygon","coordinates": [[[[4.7292,7.9469,477.9547],[4.7293,7.9502,460.2704],[4.7262,7.9565,414.1706],[4.7196,7.9587,419.0306],[4.7142,7.9576,391.9862],[4.7041,7.9613,385.1464],[4.6868,7.9611,374.0097],[4.6829,7.9577,391.8752],[4.6774,7.9465,434.4547],[4.6681,7.9437,391.1846],[4.6533,7.9407,365.9287],[4.6312,7.9411,344.1261],[4.6258,7.9395,339.3295],[4.6079,7.9447,382.1776],[4.6023,7.9422,364.657],[4.5887,7.9406,337.3527],[4.5761,7.9305,367.1611],[4.566,7.9246,358.021],[4.5703,7.9158,343.5568],[4.5891,7.8971,377.0086],[4.608,7.8912,368.7235],[4.6083,7.8818,372.9262],[4.6107,7.8774,364.3413],[4.6137,7.8589,374.7601],[4.6124,7.8501,365.4043],[4.6139,7.8319,375.6636],[4.6093,7.8118,356.6047],[4.6137,7.8174,351.8111],[4.6286,7.828,357.541],[4.6403,7.8393,379.0621],[4.6508,7.8442,366.3947],[4.6721,7.8648,369.6147],[4.6746,7.873,383.8539],[4.6804,7.8769,392.3457],[4.6849,7.8828,390.5507],[4.6868,7.8901,392.3187],[4.6962,7.8973,385.9288],[4.7173,7.9304,481.3438],[4.7276,7.942,427.7789],[4.7292,7.9469,477.9547]]]]}
,"properties": {"GID_2": "NGA.30.16_1","GID_0": "NGA","country": "Nigeria","GID_1": "NGA.30_1","province": "Osun","NL_NAME_1": "NA","county": "Ifelodun","VARNAME_2": "NA","NL_NAME_2": "NA","TYPE_2": "LocalAuthority","ENGTYPE_2": "LocalAuthority","CC_2": "NA","HASC_2": "NA","name": "Ifelodun.county","area_km2": 131.6958,"hist_schema_id": "Elevation0-9000","hist_area_km2": {"325": 0.399,"350": 27.6367,"375": 59.1397,"400": 26.2089,"425": 8.7148,"450": 5.4809,"475": 3.1709,"500": 0.714,"525": 0.147,"550": 0.084}}}