{"type":"Feature","properties":{"GID_2":"NGA.21.21_1","GID_0":"NGA","country":"Nigeria","GID_1":"NGA.21_1","province":"Katsina","NL_NAME_1":"NA","county":"Katsina","VARNAME_2":"NA","NL_NAME_2":"NA","TYPE_2":"LocalAuthority","ENGTYPE_2":"LocalAuthority","CC_2":"NA","HASC_2":"NA","name":"Katsina.county"},
"geometry":{"type": "MultiPolygon","coordinates": [[[[7.6849,13.0087,496.1306],[7.6804,13.0215,490.15],[7.6758,13.0258,486.8707],[7.6643,13.0444,465.9723],[7.6542,13.0565,488.0951],[7.6481,13.0609,492.7657],[7.6388,13.0635,492.8672],[7.6329,13.0679,484.3311],[7.6234,13.0705,491.6923],[7.6178,13.0709,493.5446],[7.6046,13.0673,492.1464],[7.5986,13.0643,496.3829],[7.591,13.0554,510.7061],[7.586,13.0457,518.2577],[7.5666,13.0309,512.0615],[7.5604,13.0226,520.6757],[7.5554,13.0066,510.1663],[7.5559,12.9946,503.0121],[7.5593,12.981,509.6504],[7.5578,12.9706,495.2122],[7.5532,12.9627,499.3082],[7.556,12.9542,503.1064],[7.5652,12.9427,516.8885],[7.5748,12.9364,525.1305],[7.5804,12.9346,532.7211],[7.5864,12.9291,538.8118],[7.6099,12.9266,529.7124],[7.6133,12.9333,538.3037],[7.6209,12.938,530.3733],[7.6276,12.9459,530.7904],[7.6326,12.9566,530.0118],[7.6404,12.962,533.0004],[7.6425,12.9705,526.582],[7.648,12.975,528.4149],[7.6613,12.9917,514.4981],[7.6849,13.0087,496.1306]]]]}}