{"type": "Feature","bbox": [6.5652,5.982,6.7606,6.2582],"geometry": {"type": "MultiPolygon","coordinates": [[[[6.7487,6.186,45.2289],[6.7408,6.2099,14.0],[6.7351,6.246,19.6687],[6.7314,6.2582,14.5],[6.7117,6.2565,21.5648],[6.6952,6.2492,35.8609],[6.6935,6.2471,52.7533],[6.6937,6.2416,56.9493],[6.6959,6.2379,56.4859],[6.6926,6.2338,55.162],[6.6923,6.2285,52.3534],[6.6818,6.2047,52.4001],[6.677,6.1833,46.9491],[6.6813,6.163,34.2058],[6.6994,6.1544,32.6023],[6.6997,6.1426,22.9133],[6.6973,6.136,25.8877],[6.6891,6.1313,24.149],[6.6899,6.1239,20.1967],[6.6768,6.1096,30.0893],[6.6605,6.1034,26.9745],[6.6496,6.1006,24.0945],[6.6445,6.1013,29.965699999999998],[6.639,6.0874,23.7013],[6.6389,6.0826,29.3694],[6.6316,6.058,24.0903],[6.6206,6.0631,20.9773],[6.6111,6.0729,29.9473],[6.5951,6.0794,21.3136],[6.58,6.0765,24.8448],[6.5693,6.0672,24.9921],[6.5652,6.0601,22.7564],[6.5652,6.0564,24.933],[6.5708,6.0464,30.1067],[6.5751,6.0293,21.4138],[6.5656,5.9907,21.0556],[6.5929,5.9908,19.1746],[6.5996,5.9886,31.8375],[6.6135,5.9902,26.1152],[6.6193,5.9975,22.9208],[6.6182,5.9975,22.795],[6.6221,5.9995,24.864],[6.6323,6.0145,19.0202],[6.6411,6.0022,23.3457],[6.6457,5.9998,20.9844],[6.66,5.9991,23.5166],[6.69,6.0025,25.9678],[6.6983,6.0,24.6406],[6.7249,5.982,17.1977],[6.7338,5.9927,17.3174],[6.7359,6.0055,14.0],[6.7379,6.041,14.0],[6.7377,6.0736,20.5719],[6.74,6.0899,21.4617],[6.7434,6.1005,17.3276],[6.7496,6.1101,14.0],[6.7581,6.1353,14.0],[6.7606,6.1489,18.17],[6.7568,6.1697,14.0],[6.7487,6.186,45.2289]]]]}
,"properties": {"GID_2": "NGA.10.15_1","GID_0": "NGA","country": "Nigeria","GID_1": "NGA.10_1","province": "Delta","NL_NAME_1": "NA","county": "OshimiliSouth","VARNAME_2": "NA","NL_NAME_2": "NA","TYPE_2": "LocalAuthority","ENGTYPE_2": "LocalAuthority","CC_2": "NA","HASC_2": "NA","name": "Oshimili_South.county","area_km2": 308.4363,"hist_schema_id": "Elevation0-9000","hist_area_km2": {"25": 270.3476,"50": 38.0676,"75": 0.0211}}}