{"type":"Feature","properties":{"GID_2":"NGA.20.10_1","GID_0":"NGA","country":"Nigeria","GID_1":"NGA.20_1","province":"Kano","NL_NAME_1":"NA","county":"DawakinTofa","VARNAME_2":"NA","NL_NAME_2":"NA","TYPE_2":"LocalAuthority","ENGTYPE_2":"LocalAuthority","CC_2":"NA","HASC_2":"NA","name":"Dawakin_Tofa.county"},
"geometry":{"type": "MultiPolygon","coordinates": [[[[8.2162,12.0944,497.5764],[8.2548,12.0843,492.6115],[8.27,12.0767,479.3705],[8.282,12.0676,489.5191],[8.2918,12.0624,481.2867],[8.2991,12.054,489.4177],[8.3573,12.0145,481.1021],[8.3715,12.0022,472.0522],[8.3748,11.997,474.9787],[8.3873,11.9884,467.1485],[8.3981,11.9784,456.9992],[8.4042,11.9767,452.2024],[8.4066,11.9744,452.8357],[8.4096,11.9804,448.033],[8.4059,12.0011,452.2623],[8.4,12.0178,456.0356],[8.3999,12.0247,457.5041],[8.4103,12.0327,465.5449],[8.4122,12.0383,468.9943],[8.4218,12.0502,475.1242],[8.4239,12.0564,477.009],[8.4296,12.0606,475.869],[8.4422,12.0778,497.2974],[8.445,12.0862,506.4965],[8.4738,12.1082,489.2464],[8.4874,12.1158,480.6275],[8.4879,12.1204,482.7345],[8.4861,12.1234,488.2448],[8.4866,12.1441,474.6234],[8.489,12.151,475.9529],[8.4873,12.1635,478.1688],[8.4902,12.1723,480.4277],[8.4894,12.1861,470.8807],[8.4911,12.2105,454.7003],[8.4936,12.2241,444.4879],[8.4962,12.229,441.2321],[8.4929,12.2384,436.0134],[8.4902,12.243,442.6948],[8.484,12.2475,450.3815],[8.4654,12.2471,462.5683],[8.4488,12.2214,454.6074],[8.4486,12.2161,449.2958],[8.4451,12.2101,443.5188],[8.4335,12.2155,458.7395],[8.4185,12.2339,478.6524],[8.4101,12.2304,475.1579],[8.3999,12.2224,462.2151],[8.3689,12.1881,486.898],[8.3531,12.1801,492.7849],[8.3426,12.1666,506.7353],[8.3362,12.1619,514.2255],[8.3149,12.1637,501.9426],[8.3012,12.1596,494.4704],[8.2781,12.1429,490.0607],[8.2606,12.1268,478.7964],[8.2464,12.125,472.5403],[8.217,12.1488,485.2997],[8.2021,12.1569,483.2807],[8.1689,12.1667,485.4189],[8.1738,12.1497,491.3598],[8.1805,12.1389,493.3229],[8.1863,12.1162,505.887],[8.1921,12.1162,498.5086],[8.1985,12.1108,489.1233],[8.2085,12.0973,502.7287],[8.2142,12.0974,498.9081],[8.2162,12.0944,497.5764]]]]}}