{"type":"Feature","properties":{"GID_2":"NGA.11.2_1","GID_0":"NGA","country":"Nigeria","GID_1":"NGA.11_1","province":"Ebonyi","NL_NAME_1":"NA","county":"AfikpoNorth","VARNAME_2":"NA","NL_NAME_2":"NA","TYPE_2":"LocalAuthority","ENGTYPE_2":"LocalAuthority","CC_2":"NA","HASC_2":"NA","name":"Afikpo_North.county"},
"geometry":{"type": "MultiPolygon","coordinates": [[[[7.9668,5.9606,43.7308],[7.9479,5.959,35.4782],[7.9239,5.9537,53.845],[7.9202,5.9547,34.7485],[7.9207,5.9588,28.6239],[7.9173,5.959,23.7024],[7.915,5.9504,55.6541],[7.9104,5.947,64.508],[7.8914,5.9439,25.8225],[7.8834,5.9465,22.9706],[7.87,5.9475,25.9329],[7.8616,5.9437,26.3741],[7.8532,5.9351,23.1895],[7.8514,5.9236,24.2691],[7.8531,5.9169,30.0574],[7.85,5.9066,26.8137],[7.8581,5.853,34.6874],[7.861,5.8455,48.2244],[7.8597,5.84,30.0617],[7.8714,5.8064,33.9069],[7.8751,5.7766,73.0601],[7.8833,5.7594,44.8755],[7.8857,5.7488,45.8108],[7.8937,5.7428,43.678],[7.9062,5.7634,40.178],[7.9217,5.7793,42.0178],[7.9173,5.7909,40.6003],[7.916,5.8223,26.3365],[7.9253,5.8314,35.0761],[7.9265,5.8346,61.5669],[7.9351,5.8372,12.2241],[7.9396,5.8427,12.6852],[7.9385,5.8482,14.4152],[7.945,5.8645,59.1394],[7.9603,5.8827,101.041],[7.9652,5.8859,106.8588],[7.977,5.9016,62.999],[7.9769,5.9078,19.1548],[7.9798,5.9131,13.7617],[7.9804,5.9246,25.0411],[7.9784,5.9408,18.9706],[7.9759,5.9475,42.5723],[7.9668,5.9606,43.7308]]]]}}