{"type":"Feature","properties":{"GID_2":"NGA.3.3_1","GID_0":"NGA","country":"Nigeria","GID_1":"NGA.3_1","province":"AkwaIbom","NL_NAME_1":"NA","county":"Eket","VARNAME_2":"NA","NL_NAME_2":"NA","TYPE_2":"LocalAuthority","ENGTYPE_2":"LocalAuthority","CC_2":"NA","HASC_2":"NA","name":"Eket.county"},
"geometry":{"type": "MultiPolygon","coordinates": [[[[8.0201,4.6858,25.6446],[7.9958,4.6845,15.0252],[7.9785,4.6816,22.0198],[7.9428,4.6856,12.8877],[7.9191,4.6918,24.2481],[7.9085,4.6894,27.0967],[7.9,4.6928,10.9404],[7.8927,4.6989,12.6569],[7.8789,4.7068,27.3953],[7.8749,4.6932,31.9221],[7.8744,4.6628,15.5045],[7.8895,4.6264,7.6285],[7.8938,4.6256,6.204],[7.8995,4.6207,7.8024],[7.9029,4.6146,7.6868],[7.8989,4.5979,1.446],[7.8898,4.59,6.6498],[7.8864,4.5829,8.9291],[7.9018,4.5612,7.9872],[7.8991,4.5502,5.4592],[7.8912,4.5446,9.1561],[7.9053,4.5376,2.6908],[7.9363,4.553,5.5227],[7.9438,4.5602,2.4937],[7.9593,4.5669,2.8441],[7.967,4.573,7.4578],[7.9805,4.5774,7.6607],[8.0098,4.5832,5.9719],[8.0121,4.5904,9.3653],[8.0081,4.6034,9.2002],[8.0035,4.6053,8.5328],[7.9956,4.6163,11.8484],[8.0063,4.6345,16.6578],[8.009,4.6455,16.1206],[8.0203,4.6735,18.2881],[8.0221,4.6831,18.153],[8.0201,4.6858,25.6446]]]]}}