{"type":"Feature","properties":{"GID_2":"NGA.3.25_1","GID_0":"NGA","country":"Nigeria","GID_1":"NGA.3_1","province":"AkwaIbom","NL_NAME_1":"NA","county":"Oron","VARNAME_2":"NA","NL_NAME_2":"NA","TYPE_2":"LocalAuthority","ENGTYPE_2":"LocalAuthority","CC_2":"NA","HASC_2":"NA","name":"Oron.county"},
"geometry":{"type": "MultiPolygon","coordinates": [[[[8.3246,4.6771,5.9468],[8.3254,4.6943,1.5549],[8.3235,4.7096,1.7809],[8.3199,4.7118,10.8086],[8.3162,4.7171,0.0],[8.314,4.7176,0.0],[8.311,4.716,8.0978],[8.3137,4.719,4.948],[8.3115,4.7224,2.9179],[8.3149,4.7232,0.0],[8.3165,4.7262,0.0],[8.3143,4.739,7.6705],[8.3182,4.7465,9.2088],[8.3178,4.7521,0.0],[8.3142,4.7599,0.5],[8.3084,4.7673,0.5],[8.2866,4.7832,1.0],[8.2758,4.788,1.0],[8.249,4.8129,13.4948],[8.2206,4.8447,1.0],[8.2117,4.8412,11.4389],[8.188,4.8269,12.9636],[8.1845,4.8002,10.5376],[8.1875,4.7858,12.9818],[8.1908,4.7834,19.694],[8.1988,4.7838,15.6689],[8.2071,4.7807,16.418],[8.2349,4.7634,23.9711],[8.2482,4.7685,41.957],[8.2615,4.7652,36.9173],[8.2696,4.7683,22.2947],[8.287,4.768,11.6249],[8.2927,4.7575,10.2142],[8.2966,4.7429,4.4371],[8.2958,4.7216,11.4986],[8.2977,4.7117,5.6345],[8.3149,4.6799,5.2384],[8.3246,4.6771,5.9468]]]]}}