{"type": "Feature","bbox": [6.9372,7.8618,7.5102,8.6404],"geometry": {"type": "MultiPolygon","coordinates": [[[[6.9782,8.4118,217.5898],[6.9684,8.3693,164.9744],[6.96,8.3514,144.0977],[6.9434,8.3265,88.6788],[6.9434,8.3127,149.3986],[6.9479,8.305,153.397],[6.9494,8.2964,149.4869],[6.9566,8.2855,200.1239],[6.9719,8.273,245.3455],[6.9754,8.2609,234.216],[6.9779,8.2604,237.7956],[6.9919,8.2427,230.432],[6.9931,8.2272,197.6313],[6.991,8.2118,196.5589],[7.0004,8.1948,248.606],[7.0004,8.1779,143.4032],[6.9974,8.1627,140.3233],[7.0007,8.1433,263.2347],[6.9817,8.0675,116.172],[6.9832,8.0426,141.0018],[6.9812,7.9921,110.9377],[6.9552,7.9651,85.0484],[6.9414,7.9309,65.6856],[6.9372,7.8945,44.2142],[6.9386,7.8708,41.5],[6.9498,7.8618,41.5],[6.9656,7.8675,43.7665],[6.9977,7.8981,42.0],[7.0187,7.9093,42.0],[7.0656,7.9274,44.2363],[7.0847,7.9382,47.2537],[7.1156,7.9499,43.5385],[7.1682,7.9748,42.0],[7.1881,7.9823,42.0],[7.2357,7.9963,44.5809],[7.2635,8.0013,46.9406],[7.3321,8.0175,46.7428],[7.3685,8.0291,46.7343],[7.3888,8.0314,54.8143],[7.3884,8.0478,42.5],[7.3839,8.0698,48.5101],[7.3731,8.0852,47.3644],[7.3709,8.0921,48.0412],[7.3672,8.1334,76.0372],[7.3709,8.1642,182.3091],[7.4103,8.2606,120.939],[7.4212,8.2666,156.8347],[7.4166,8.2796,167.7847],[7.4207,8.2897,136.4963],[7.4193,8.3003,130.1518],[7.4204,8.3116,105.1476],[7.4264,8.331,87.9148],[7.4286,8.3518,125.694],[7.426,8.3758,138.5521],[7.4225,8.3883,207.2002],[7.4218,8.403,184.1725],[7.4274,8.4218,205.7359],[7.4382,8.4313,219.6867],[7.4747,8.4736,178.9402],[7.4829,8.4852,175.7467],[7.4887,8.5014,206.5828],[7.4954,8.5283,248.3292],[7.5006,8.5374,314.6603],[7.5022,8.5507,278.3649],[7.5072,8.561,284.9985],[7.5102,8.5889,360.4777],[7.5075,8.6193,406.8247],[7.5002,8.6293,451.9483],[7.4907,8.6366,476.6494],[7.4744,8.6404,555.7754],[7.4711,8.6392,596.1987],[7.4531,8.609,494.3791],[7.4374,8.5933,270.0677],[7.4086,8.5532,213.3434],[7.4029,8.5432,227.3463],[7.3921,8.5348,207.5914],[7.3733,8.5252,191.9182],[7.3566,8.5209,185.0453],[7.3158,8.496,388.0145],[7.2874,8.4833,185.5187],[7.2797,8.4763,179.3065],[7.2634,8.4715,191.7592],[7.2048,8.4591,225.1215],[7.1799,8.4471,241.6297],[7.1579,8.4398,187.8336],[7.0912,8.4306,136.3409],[7.0637,8.4237,171.711],[7.0214,8.4219,185.2689],[7.0072,8.415,187.7708],[6.9782,8.4118,217.5898]]]]}
,"properties": {"GID_2": "NGA.26.12_1","GID_0": "NGA","country": "Nigeria","GID_1": "NGA.26_1","province": "Nasarawa","NL_NAME_1": "NA","county": "Toto","VARNAME_2": "NA","NL_NAME_2": "NA","TYPE_2": "LocalAuthority","ENGTYPE_2": "LocalAuthority","CC_2": "NA","HASC_2": "NA","name": "Toto.county","area_km2": 2737.315,"hist_schema_id": "Elevation0-9000","hist_area_km2": {"50": 360.361,"75": 186.606,"100": 191.242,"125": 265.934,"150": 333.547,"175": 367.763,"200": 325.264,"225": 270.119,"250": 181.667,"275": 123.132,"300": 44.977,"325": 21.792,"350": 20.466,"375": 16.731,"400": 10.084,"425": 4.592,"450": 2.327,"475": 3.082,"500": 2.956,"525": 1.95,"550": 0.943,"575": 0.755,"600": 0.482,"625": 0.314,"650": 0.189,"675": 0.042}}}