{"type":"Feature","properties":{"GID_2":"NGA.14.10_1","GID_0":"NGA","country":"Nigeria","GID_1":"NGA.14_1","province":"Enugu","NL_NAME_1":"NA","county":"Isi-Uzo","VARNAME_2":"NA","NL_NAME_2":"NA","TYPE_2":"LocalAuthority","ENGTYPE_2":"LocalAuthority","CC_2":"NA","HASC_2":"NA","name":"Isi-Uzo.county"},
"geometry":{"type": "MultiPolygon","coordinates": [[[[7.8541,6.8077,118.8532],[7.8501,6.8247,121.404],[7.8271,6.8592,143.2397],[7.8025,6.8779,133.2244],[7.7571,6.8835,152.519],[7.7407,6.8702,202.3372],[7.7215,6.8495,185.2971],[7.6876,6.8376,246.6646],[7.6601,6.8519,218.2653],[7.6534,6.8304,175.818],[7.6459,6.8262,200.7537],[7.6411,6.8117,186.4946],[7.6311,6.7953,191.2946],[7.6114,6.7899,228.0317],[7.5904,6.7863,258.5065],[7.5745,6.7866,250.8163],[7.568,6.7933,261.3439],[7.5667,6.789,258.7273],[7.561,6.7813,208.9962],[7.5519,6.7764,229.6563],[7.5385,6.7734,218.8036],[7.5082,6.7711,272.179],[7.4969,6.7685,281.507],[7.4854,6.7687,305.8548],[7.4741,6.7712,332.1617],[7.4651,6.7698,410.8267],[7.4541,6.7619,472.1535],[7.4464,6.7602,467.7834],[7.456,6.7499,441.5106],[7.4672,6.7421,340.8435],[7.4955,6.7278,263.7976],[7.5094,6.7128,236.4885],[7.5169,6.682,205.6346],[7.5138,6.6604,234.4547],[7.5177,6.6442,211.8291],[7.5224,6.6347,201.4228],[7.5334,6.6327,191.5959],[7.5455,6.6382,208.1966],[7.5561,6.6367,210.6909],[7.571,6.6297,186.7917],[7.5738,6.6301,185.2874],[7.6001,6.6168,152.1335],[7.612,6.6129,161.2391],[7.6313,6.5963,130.1283],[7.6674,6.5963,123.1926],[7.6985,6.6066,108.5705],[7.6932,6.623,126.0532],[7.6947,6.6334,117.8746],[7.711,6.6297,110.9398],[7.7366,6.6292,104.6099],[7.7497,6.6262,101.1223],[7.7654,6.6271,105.3593],[7.7988,6.6245,84.9509],[7.8277,6.6303,112.162],[7.8299,6.6421,119.5306],[7.8451,6.6695,110.0833],[7.8543,6.6943,117.3719],[7.8646,6.734,120.1701],[7.8616,6.776,108.4234],[7.8541,6.8077,118.8532]]]]}}