{"type": "Feature","bbox": [4.5374,6.8488,4.9263,7.1497],"geometry": {"type": "MultiPolygon","coordinates": [[[[4.5374,6.8557,99.779],[4.5579,6.849,91.189],[4.5791,6.8488,92.7766],[4.597,6.8571,92.8991],[4.6206,6.873,141.238],[4.6326,6.8733,130.4967],[4.6498,6.8686,161.0441],[4.6659,6.8665,145.6669],[4.7271,6.8873,159.6771],[4.7502,6.8996,120.1578],[4.7734,6.9211,159.2507],[4.7957,6.9346,229.4586],[4.8178,6.9439,200.9591],[4.8605,6.9577,264.5424],[4.8808,6.9585,264.247],[4.897,6.9611,296.5504],[4.9019,6.9692,271.2799],[4.9057,6.988,221.2506],[4.9126,7.0036,209.1729],[4.9226,7.0465,207.0183],[4.9263,7.0642,209.3944],[4.9241,7.0826,257.4424],[4.9154,7.0911,254.9774],[4.8932,7.0965,231.086],[4.8827,7.0926,238.8785],[4.8738,7.095,230.399],[4.8694,7.0983,245.8746],[4.8625,7.0909,248.5998],[4.85,7.0892,270.6446],[4.8332,7.0914,254.1147],[4.8199,7.0983,241.5469],[4.7862,7.1272,260.5471],[4.7696,7.131,247.637],[4.763,7.1343,254.454],[4.7615,7.141,226.5422],[4.7456,7.1473,222.982],[4.7249,7.1497,235.7888],[4.7082,7.147,229.2258],[4.6954,7.1403,207.9402],[4.6926,7.1355,242.7628],[4.6704,7.1211,220.4322],[4.639,7.0914,212.2209],[4.6283,7.072,162.5945],[4.623,7.0555,165.6851],[4.6194,7.0373,150.0628],[4.6118,7.0218,147.8545],[4.6042,7.0113,155.4129],[4.5826,6.9987,117.9929],[4.5733,6.9973,152.8793],[4.5611,6.9883,89.7505],[4.5582,6.9768,92.7906],[4.5597,6.9546,91.4147],[4.5556,6.9457,91.3543],[4.5526,6.933,97.927],[4.5508,6.931,107.9288],[4.5513,6.9224,109.2815],[4.5491,6.8994,102.3089],[4.5416,6.8762,101.1958],[4.5374,6.8557,99.779]]]]}
,"properties": {"GID_2": "NGA.29.16_1","GID_0": "NGA","country": "Nigeria","GID_1": "NGA.29_1","province": "Ondo","NL_NAME_1": "NA","county": "OndoWest","VARNAME_2": "NA","NL_NAME_2": "NA","TYPE_2": "LocalAuthority","ENGTYPE_2": "LocalAuthority","CC_2": "NA","HASC_2": "NA","name": "Ondo_West.county","area_km2": 848.2688,"hist_schema_id": "Elevation0-9000","hist_area_km2": {"75": 8.1251,"100": 70.4685,"125": 77.2633,"150": 83.5753,"175": 121.9782,"200": 146.1908,"225": 191.1257,"250": 105.5011,"275": 26.0499,"300": 9.4692,"325": 4.1663,"350": 1.9568,"375": 1.1152,"400": 0.8837,"425": 0.3156,"450": 0.0421,"475": 0.0421}}}