{"type": "Feature","bbox": [6.9958,6.0866,7.1405,6.2506],"geometry": {"type": "MultiPolygon","coordinates": [[[[7.0531,6.0866,281.1758],[7.0816,6.1069,123.4419],[7.0838,6.1175,141.1966],[7.106,6.1362,111.2079],[7.1173,6.1621,58.362],[7.1192,6.1828,52.6525],[7.1251,6.1999,50.2113],[7.1337,6.2194,43.0851],[7.1405,6.2255,39.7903],[7.1386,6.2248,39.1377],[7.1322,6.2283,46.5603],[7.1183,6.2222,50.5424],[7.1031,6.2238,71.8141],[7.0843,6.2329,139.4861],[7.0691,6.2491,108.1599],[7.0581,6.2506,73.6601],[7.0412,6.2484,71.9807],[7.0212,6.2381,121.7902],[7.0081,6.2289,105.9729],[7.0014,6.2267,91.0505],[6.9959,6.2271,105.2061],[6.9958,6.2213,97.9734],[7.0002,6.212,113.5721],[7.0014,6.2004,128.9203],[7.0133,6.1765,187.0488],[7.0129,6.1744,194.284],[7.0151,6.1746,171.6289],[7.0169,6.1716,159.6215],[7.0121,6.133,180.3442],[7.0202,6.1218,127.0258],[7.028,6.1166,181.5532],[7.0288,6.109,215.4572],[7.0361,6.1033,241.0844],[7.0425,6.1009,264.2448],[7.0475,6.0962,268.323],[7.0531,6.0866,281.1758]]]]}
,"properties": {"GID_2": "NGA.4.6_1","GID_0": "NGA","country": "Nigeria","GID_1": "NGA.4_1","province": "Anambra","NL_NAME_1": "NA","county": "AwkaSouth","VARNAME_2": "NA","NL_NAME_2": "NA","TYPE_2": "LocalAuthority","ENGTYPE_2": "LocalAuthority","CC_2": "NA","HASC_2": "NA","name": "Awka_South.county","area_km2": 171.4572,"hist_schema_id": "Elevation0-9000","hist_area_km2": {"50": 12.3095,"75": 33.3034,"100": 50.0409,"125": 47.9349,"150": 15.9574,"175": 4.7432,"200": 2.2136,"225": 2.319,"250": 1.8552,"275": 0.78}}}