{"type": "Feature","bbox": [5.233,13.0286,5.2998,13.0936],"geometry": {"type": "MultiPolygon","coordinates": [[[[5.2353,13.0882,244.3039],[5.233,13.0824,244.6568],[5.2353,13.069,280.265],[5.2491,13.0399,301.8958],[5.242,13.0287,302.1949],[5.2526,13.0286,303.7616],[5.2796,13.034,284.8114],[5.2871,13.0378,273.3625],[5.2947,13.0455,262.7889],[5.2913,13.0517,263.8198],[5.2998,13.0698,252.5883],[5.2988,13.0845,248.6601],[5.2966,13.0903,261.9498],[5.2937,13.0928,286.5606],[5.2839,13.0936,274.4245],[5.2589,13.0919,245.632],[5.2453,13.0878,245.7555],[5.2353,13.0882,244.3039]]]]}
,"properties": {"GID_2": "NGA.34.16_1","GID_0": "NGA","country": "Nigeria","GID_1": "NGA.34_1","province": "Sokoto","NL_NAME_1": "NA","county": "SokotoNorth","VARNAME_2": "NA","NL_NAME_2": "NA","TYPE_2": "LocalAuthority","ENGTYPE_2": "LocalAuthority","CC_2": "NA","HASC_2": "NA","name": "Sokoto_North.county","area_km2": 39.84049,"hist_schema_id": "Elevation0-9000","hist_area_km2": {"250": 17.24483,"275": 11.07022,"300": 11.52544}}}