{"type": "Feature","bbox": [12.2824,11.8444,13.1878,12.5818],"geometry": {"type": "MultiPolygon","coordinates": [[[[12.4408,12.5818,318.5003],[12.4216,12.5573,323.2286],[12.3962,12.5293,329.9611],[12.3206,12.4735,330.1523],[12.3075,12.4571,330.8801],[12.2986,12.4222,332.4673],[12.3122,12.3869,328.6089],[12.3265,12.3613,329.6684],[12.3282,12.3416,336.6212],[12.3256,12.2694,338.1474],[12.3199,12.2361,337.483],[12.3153,12.1923,339.6517],[12.2846,12.0105,360.2233],[12.2824,11.9548,364.7854],[12.2942,11.9197,357.9492],[12.3665,11.9316,353.9662],[12.4165,11.9359,353.8393],[12.5415,11.9309,345.2535],[12.5747,11.9238,339.6475],[12.6022,11.9112,335.2776],[12.631,11.9154,335.8876],[12.6647,11.9055,339.8458],[12.7029,11.887,344.0679],[12.7311,11.8588,341.8199],[12.7422,11.8444,344.1808],[12.7524,11.8465,340.7064],[12.7942,11.8611,331.8665],[12.8202,11.8557,335.929],[12.8382,11.8485,336.7233],[12.8655,11.8571,335.8461],[12.8807,11.8596,335.3358],[12.9043,11.8607,334.5904],[12.9453,11.867,334.3575],[12.9711,11.8818,334.3539],[13.011,11.8971,333.2348],[13.0547,11.9239,318.7445],[13.0529,11.9322,316.6983],[13.043,11.9547,315.1266],[13.0372,12.0194,308.4414],[13.0453,12.0471,309.0112],[13.0792,12.0975,302.8183],[13.0897,12.1222,302.4633],[13.0848,12.1443,303.4197],[13.1009,12.1588,302.1292],[13.1247,12.1668,301.8111],[13.1643,12.1892,299.3294],[13.1878,12.2047,297.9446],[13.143,12.2305,300.3064],[13.0825,12.2785,300.3532],[13.0174,12.3135,303.3155],[12.9831,12.3411,304.3785],[12.9519,12.362,303.6381],[12.9286,12.3881,302.4259],[12.9166,12.3966,303.1608],[12.8903,12.4094,305.2601],[12.8011,12.4118,305.592],[12.756,12.4196,305.6496],[12.7277,12.4165,306.8453],[12.7042,12.438,306.2411],[12.6921,12.4605,307.2411],[12.6421,12.4835,307.3605],[12.6008,12.4836,310.2058],[12.5539,12.4945,312.9954],[12.5284,12.5126,313.6976],[12.5061,12.5436,314.4301],[12.4702,12.5714,317.7152],[12.4408,12.5818,318.5003]]]]}
,"properties": {"GID_2": "NGA.8.21_1","GID_0": "NGA","country": "Nigeria","GID_1": "NGA.8_1","province": "Borno","NL_NAME_1": "NA","county": "Magumeri","VARNAME_2": "NA","NL_NAME_2": "NA","TYPE_2": "LocalAuthority","ENGTYPE_2": "LocalAuthority","CC_2": "NA","HASC_2": "NA","name": "Magumeri.county","area_km2": 5133.568,"hist_schema_id": "Elevation0-9000","hist_area_km2": {"300": 1162.334,"325": 2664.574,"350": 1298.84,"375": 7.819}}}