{"type": "Feature","bbox": [9.2705,12.5062,9.461,12.6753],"geometry": {"type": "MultiPolygon","coordinates": [[[[9.461,12.5738,364.4197],[9.4437,12.5838,364.4969],[9.4368,12.594,364.6075],[9.4308,12.6188,364.7334],[9.4236,12.6375,364.3703],[9.4122,12.6546,363.735],[9.4008,12.6642,366.9134],[9.3744,12.6753,366.7903],[9.3521,12.675,366.3374],[9.339,12.6703,369.3522],[9.3115,12.6504,369.5628],[9.3025,12.6407,369.3215],[9.2974,12.6418,368.7968],[9.2925,12.6351,369.6852],[9.2804,12.6244,372.4131],[9.2705,12.6099,372.7827],[9.276,12.5924,372.8195],[9.2891,12.5717,373.1181],[9.2984,12.5607,369.7957],[9.3091,12.5414,369.714],[9.3253,12.5241,370.8053],[9.3407,12.5137,367.9096],[9.3467,12.5128,368.415],[9.3609,12.5159,367.6791],[9.3754,12.5092,368.8848],[9.3765,12.5062,367.7654],[9.3804,12.5117,368.285],[9.3823,12.5201,367.0558],[9.3801,12.5308,367.5831],[9.3811,12.5372,367.4212],[9.3889,12.5388,367.0095],[9.4062,12.5373,366.1057],[9.4264,12.543,366.9803],[9.4347,12.547,367.8714],[9.4492,12.5574,367.202],[9.461,12.5738,364.4197]]]]}
,"properties": {"GID_2": "NGA.18.9_1","GID_0": "NGA","country": "Nigeria","GID_1": "NGA.18_1","province": "Jigawa","NL_NAME_1": "NA","county": "Gumel","VARNAME_2": "NA","NL_NAME_2": "NA","TYPE_2": "LocalAuthority","ENGTYPE_2": "LocalAuthority","CC_2": "NA","HASC_2": "NA","name": "Gumel.county","area_km2": 237.8961,"hist_schema_id": "Elevation0-9000","hist_area_km2": {"350": 0.0207,"375": 237.8755}}}