{"type":"Feature","properties":{"GID_2":"NGA.3.22_1","GID_0":"NGA","country":"Nigeria","GID_1":"NGA.3_1","province":"AkwaIbom","NL_NAME_1":"NA","county":"ObotAkara","VARNAME_2":"NA","NL_NAME_2":"NA","TYPE_2":"LocalAuthority","ENGTYPE_2":"LocalAuthority","CC_2":"NA","HASC_2":"NA","name":"Obot_Akara.county"},
"geometry":{"type": "MultiPolygon","coordinates": [[[[7.5225,5.2841,106.3493],[7.5339,5.2669,104.5544],[7.5379,5.2562,101.1238],[7.5373,5.2479,97.1139],[7.5273,5.2121,94.628],[7.5184,5.1622,67.3516],[7.5177,5.1467,82.5939],[7.523,5.1476,83.9867],[7.5289,5.1532,55.0297],[7.5486,5.1575,83.0707],[7.5546,5.1615,82.7453],[7.566,5.1639,83.4703],[7.575,5.1647,83.4775],[7.5943,5.1581,77.9873],[7.6011,5.1587,78.6505],[7.6138,5.1672,79.292],[7.6277,5.1838,91.3232],[7.6351,5.203,48.3771],[7.64,5.2318,93.114],[7.6421,5.2354,96.0424],[7.6507,5.2396,73.2849],[7.6613,5.2399,85.3441],[7.663,5.2411,95.3255],[7.6644,5.247,90.3399],[7.6677,5.2488,89.143],[7.6781,5.2491,102.4428],[7.681,5.2564,115.973],[7.6845,5.258,112.4926],[7.6959,5.2589,103.329],[7.6921,5.2604,106.6519],[7.6884,5.2745,113.0155],[7.6794,5.2751,119.818],[7.6687,5.2815,112.3921],[7.6569,5.2955,73.2984],[7.6565,5.3008,77.6896],[7.6545,5.3043,78.4088],[7.6509,5.3085,103.5958],[7.6465,5.3102,121.1004],[7.6416,5.3163,122.8601],[7.6379,5.3131,120.1105],[7.624,5.3101,120.9165],[7.5852,5.3117,76.2283],[7.5634,5.3171,90.9907],[7.5395,5.3157,69.7446],[7.5289,5.3108,95.048],[7.5217,5.2998,107.185],[7.5206,5.2876,108.6302],[7.5225,5.2841,106.3493]]]]}}