{"type":"Feature","properties":{"GID_2":"NGA.32.14_1","GID_0":"NGA","country":"Nigeria","GID_1":"NGA.32_1","province":"Plateau","NL_NAME_1":"NA","county":"Qua'anPan","VARNAME_2":"NA","NL_NAME_2":"NA","TYPE_2":"LocalAuthority","ENGTYPE_2":"LocalAuthority","CC_2":"NA","HASC_2":"NA","name":"Qua'an_Pan.county"},
"geometry":{"type": "MultiPolygon","coordinates": [[[[9.2564,8.4618,105.2805],[9.2537,8.4737,109.2811],[9.2552,8.4987,124.3478],[9.262,8.5329,137.7933],[9.2855,8.5853,170.5479],[9.301,8.6129,182.8057],[9.3158,8.6459,208.3178],[9.3219,8.6637,202.6602],[9.3181,8.7081,218.075],[9.3285,8.7249,217.9692],[9.3219,8.757,251.5454],[9.3227,8.7958,256.9071],[9.3333,8.7969,237.584],[9.358,8.789,219.0038],[9.3655,8.8051,250.3083],[9.3598,8.8187,231.44],[9.3283,8.8428,239.8031],[9.314,8.86,237.9068],[9.3019,8.8947,244.0467],[9.3025,8.9205,257.5168],[9.2949,8.9584,281.632],[9.2769,8.988,317.7714],[9.2777,8.997,324.3059],[9.288,9.0051,306.1443],[9.2905,9.013,310.4407],[9.2857,9.0389,339.4862],[9.2904,9.0561,354.1953],[9.2954,9.0862,334.5404],[9.2945,9.1094,361.9622],[9.2775,9.1092,379.6735],[9.2615,9.1059,607.34],[9.2441,9.0983,731.7126],[9.2429,9.0971,731.7126],[9.2437,9.0851,506.1722],[9.2474,9.0716,503.801],[9.2379,9.0561,493.2528],[9.2149,9.0445,679.8585],[9.1823,9.0161,622.6853],[9.1231,9.0136,445.3309],[9.1224,9.0263,491.2589],[9.1174,9.0417,531.4403],[9.1044,9.0548,461.9914],[9.0902,9.0538,453.6309],[9.0716,9.0375,410.8016],[9.0593,9.0212,394.1114],[9.0552,9.0122,373.8166],[9.0576,9.0076,362.9642],[9.0674,9.0024,387.2788],[9.076,8.9888,333.5997],[9.0752,8.9748,310.5567],[9.0656,8.9564,292.6837],[9.0633,8.9418,269.4867],[9.0571,8.9296,253.4126],[9.035,8.8985,253.9521],[9.0262,8.8913,252.2163],[9.0195,8.8773,243.7873],[9.009,8.8665,223.5816],[9.0024,8.8568,215.8284],[8.9855,8.8455,194.4565],[8.9791,8.8432,190.0169],[8.9705,8.8443,204.4252],[8.9627,8.8423,193.6864],[8.9555,8.8388,209.0798],[8.9391,8.8254,200.4194],[8.9339,8.8188,189.5327],[8.921,8.79,169.8913],[8.9146,8.7839,163.6316],[8.9141,8.7795,149.8142],[8.9052,8.7704,148.4811],[8.8936,8.766,174.6437],[8.889,8.7575,205.0476],[8.8833,8.7313,164.4037],[8.8868,8.7304,158.1098],[8.8838,8.7214,150.5774],[8.8914,8.7047,136.4002],[8.8942,8.6938,132.813],[8.9105,8.6693,127.6278],[8.928,8.6547,137.8605],[8.9332,8.6348,166.085],[8.9341,8.6163,132.1866],[8.936,8.6073,131.0025],[8.9307,8.5806,119.4671],[8.9284,8.5479,132.3981],[8.9439,8.5215,118.1141],[8.9516,8.5145,124.9004],[8.9849,8.4998,115.4037],[8.9888,8.4995,115.7225],[8.9888,8.4974,118.6016],[9.0348,8.4709,125.7794],[9.0939,8.45,105.2836],[9.1129,8.4536,105.6395],[9.2262,8.4524,106.3499],[9.2564,8.4618,105.2805]]]]}}