{"type":"Feature","properties":{"GID_1":"NGA.10_1","GID_0":"NGA","country":"Nigeria","province":"Delta","VARNAME_1":"NA","NL_NAME_1":"NA","TYPE_1":"State","ENGTYPE_1":"State","CC_1":"NA","HASC_1":"NG.DE","ISO_1":"NG-DE","name":"Delta.province"},
"geometry":{"type": "MultiPolygon","coordinates": [[[[5.4896,5.6029,0.0],[5.4876,5.6043,0.3003],[5.4876,5.5985,1.346],[5.4951,5.5901,0.0],[5.491,5.5843,0.8756],[5.4846,5.5868,2.4953],[5.4796,5.5843,2.1413],[5.4815,5.5879,0.0],[5.476,5.589,0.422],[5.4754,5.5879,1.6352],[5.4718,5.5879,1.5642],[5.4663,5.5913,0.8248],[5.4632,5.5843,4.3905],[5.4585,5.5826,0.7894],[5.4551,5.5871,0.0],[5.4515,5.5796,0.5812],[5.4496,5.5788,0.0],[5.439,5.5807,0.0],[5.4374,5.5815,20.1425],[5.4365,5.5851,0.0],[5.4324,5.5835,2.2841],[5.424,5.5832,1.6424],[5.4154,5.5746,1.0373],[5.4124,5.5693,0.0],[5.4129,5.5663,2.689],[5.4101,5.5624,0.4104],[5.409,5.5571,3.0034],[5.4018,5.5496,1.1742],[5.4035,5.5396,1.3337],[5.4024,5.5357,0.0],[5.4051,5.5285,0.8678],[5.4046,5.5238,0.0],[5.4007,5.5157,2.7511],[5.4099,5.5151,0.0],[5.4126,5.5215,2.4196],[5.4165,5.5229,1.5945],[5.4115,5.5151,1.766],[5.4118,5.5068,0.9484],[5.4182,5.4982,1.5434],[5.4182,5.4929,1.3093],[5.4171,5.4918,1.2867],[5.4029,5.4904,7.7145],[5.4007,5.4868,3.643],[5.4046,5.4801,0.0],[5.3996,5.476,0.0],[5.411,5.4576,4.8275],[5.4135,5.4443,2.276],[5.4157,5.4404,0.0],[5.4254,5.4451,0.0],[5.429,5.4501,4.5299],[5.4265,5.4557,0.0],[5.4288,5.4657,0.0],[5.4204,5.4762,3.7713],[5.4204,5.4826,1.9325],[5.4265,5.4899,1.78],[5.4354,5.491,4.1555],[5.4385,5.4946,0.0],[5.4368,5.4999,0.0],[5.4312,5.5076,4.1447],[5.4349,5.5193,2.4299],[5.4301,5.5224,0.5954],[5.4296,5.5279,0.5234],[5.4318,5.5324,2.8014],[5.4362,5.5338,0.0],[5.4357,5.5401,0.0],[5.4332,5.5413,3.3862],[5.4329,5.5449,2.4194],[5.4349,5.5454,1.7134],[5.4343,5.5432,1.3496],[5.4376,5.5401,3.5664],[5.4382,5.5335,3.0439],[5.4321,5.531,0.8838],[5.4362,5.526,2.8035],[5.441,5.5382,1.9944],[5.446,5.5415,0.0],[5.4593,5.5368,0.5864],[5.4579,5.5365,2.4328],[5.4507,5.5388,0.0],[5.4488,5.5404,0.8455],[5.4463,5.5404,9.2447],[5.4424,5.5379,1.6049],[5.439,5.526,1.0461],[5.4354,5.5251,2.4823],[5.4324,5.5268,2.0279],[5.4312,5.5249,0.0],[5.4365,5.5196,2.5518],[5.4351,5.5096,0.0],[5.4415,5.5051,4.3002],[5.4443,5.499,2.3578],[5.4432,5.4993,2.7587],[5.4424,5.5029,0.0],[5.4371,5.5065,1.2466],[5.4371,5.5035,0.0],[5.4401,5.4982,0.9334],[5.4399,5.4924,6.3587],[5.4346,5.4885,5.5423],[5.4254,5.4857,5.6111],[5.4221,5.4779,0.9158],[5.4301,5.4701,0.6457],[5.4315,5.466,1.9089],[5.4407,5.4646,7.202],[5.4424,5.4663,3.9399],[5.441,5.4746,3.5241],[5.4424,5.4785,1.6565],[5.4465,5.4801,0.0],[5.4554,5.4793,5.1645],[5.4579,5.4821,12.0284],[5.4626,5.496,2.4872],[5.4701,5.506,4.4897],[5.4688,5.509,0.0],[5.4665,5.5099,2.5788],[5.466,5.5143,1.8418],[5.4679,5.5157,3.1567],[5.4721,5.5149,2.3593],[5.4699,5.5196,2.6156],[5.4701,5.5282,6.4634],[5.4743,5.5285,0.3779],[5.4749,5.5304,2.4444],[5.4796,5.5321,0.0],[5.4793,5.5338,0.0],[5.4779040483553558,5.5346238403148726,0.6952],[5.4788,5.5399,1.4401],[5.4807,5.5415,1.7272],[5.4918,5.5421,4.3129],[5.4887,5.5507,3.0738],[5.4924,5.5646,0.0],[5.4968,5.5715,8.7867],[5.5024,5.5715,1.7835],[5.5046,5.5735,2.0566],[5.501,5.5818,1.601],[5.5046,5.5913,4.072],[5.4896,5.6029,0.0]],
[[5.4779040483553558,5.5346238403148726,0.6952],[5.4779,5.5346,0.6952],[5.4777358974358963,5.5347230769230782,0.6952],[5.4779040483553558,5.5346238403148726,0.6952]],
[[5.4777358974358963,5.5347230769230782,0.6952],[5.4732,5.5374,4.2098],[5.4688,5.5351,3.7269],[5.4668,5.5357,1.3444],[5.4651,5.5424,0.0],[5.466,5.5474,0.8259],[5.4649,5.5476,0.8259],[5.4607,5.5449,4.8679],[5.4635,5.5401,1.4712],[5.4635,5.5371,1.2648],[5.4596,5.5363,0.5864],[5.4629,5.5376,1.2648],[5.4601,5.5454,2.969],[5.4618,5.5474,4.9218],[5.4665,5.5479,2.7893],[5.4668,5.5368,1.3444],[5.469,5.536,3.3716],[5.4704,5.5374,2.6692],[5.4735,5.5379,4.2098],[5.4777358974358963,5.5347230769230782,0.6952]]],
[[[5.6354,5.6321,0.0],[5.6313,5.6324,4.572],[5.6276,5.624,4.8248],[5.6268,5.6196,0.0],[5.6285,5.6129,2.3062],[5.6346,5.6176,1.6145],[5.6351,5.6201,1.5993],[5.6413,5.626,3.2615],[5.6407,5.6285,2.8154],[5.6354,5.6321,0.0]]],
[[[5.2493,5.7079,0.0],[5.2418,5.7029,1.6361],[5.2396,5.6996,0.0],[5.2401,5.6951,2.991],[5.2365,5.6915,2.2022],[5.2321,5.6912,1.5661],[5.2268,5.6949,1.1815],[5.2229,5.7051,8.8609],[5.2074,5.7146,0.0],[5.204,5.7165,1.3219],[5.1988,5.7165,0.8691],[5.196,5.7154,0.0],[5.1949,5.7107,0.6403],[5.1954,5.716,0.0],[5.194,5.7179,0.8479],[5.1857,5.7196,1.2655],[5.1788,5.7232,1.0739],[5.1749,5.731,0.0],[5.1771,5.7476,0.0],[5.1732,5.7493,0.0],[5.1674,5.7471,0.0],[5.1607,5.7468,6.1751],[5.1571,5.7488,1.2306],[5.1538,5.7543,0.0],[5.156,5.7693,0.0],[5.1479,5.7815,5.4384],[5.1424,5.7974,5.6042],[5.1396,5.8007,0.0],[5.1238,5.8076,0.5172],[5.1054,5.8076,0.0],[5.0946,5.8004,17.435],[5.0954,5.7965,17.8531],[5.0918,5.7962,0.0],[5.0907,5.7946,1.3066],[5.0829,5.754,0.2902],[5.081,5.7476,0.0],[5.0779,5.7437,0.0],[5.0799,5.7388,6.2172],[5.0796,5.729,0.0],[5.0821,5.7187,0.0],[5.0999,5.6918,0.0],[5.1085,5.6724,0.93],[5.1112,5.6671,1.6638],[5.1168,5.6615,2.2953],[5.1179,5.6563,2.356],[5.1218,5.6499,4.3297],[5.1418,5.6243,0.9265],[5.1696,5.5982,0.0],[5.1793,5.594,0.4586],[5.1818,5.5943,3.9191],[5.194,5.6032,0.2115],[5.1751,5.6182,1.3744],[5.1782,5.6163,0.7872],[5.1807,5.6174,2.1706],[5.1801,5.6146,4.8587],[5.1946,5.6049,0.0],[5.199,5.6087,0.0],[5.2101,5.6126,0.0],[5.2124,5.616,0.2368],[5.2099,5.6188,8.5835],[5.2146,5.6163,0.0],[5.229,5.6229,6.6007],[5.2426,5.6254,0.0],[5.254,5.6257,6.6754],[5.2907,5.6188,5.4407],[5.2935,5.6235,8.0232],[5.2935,5.636,9.7763],[5.2957,5.6499,0.0],[5.3026,5.6699,15.9398],[5.3213,5.7046,0.0],[5.3201,5.7104,9.6518],[5.3182,5.7118,0.0],[5.314,5.7071,1.27],[5.3068,5.706,1.3721],[5.3046,5.699,13.6473],[5.2999,5.6974,0.0],[5.2979,5.6993,0.1203],[5.2985,5.7074,1.4747],[5.2946,5.7101,2.7931],[5.2993,5.7074,1.4747],[5.2993,5.6985,2.6681],[5.3038,5.699,11.9049],[5.306,5.7063,1.3721],[5.314,5.7082,1.27],[5.3185,5.7135,0.0],[5.3193,5.7246,1.7795],[5.3226,5.7313,0.0],[5.339,5.7426,0.0],[5.3393,5.746,0.0],[5.331,5.7601,0.0],[5.331,5.7679,0.0],[5.3332,5.7718,0.0],[5.3332,5.7765,0.0],[5.3307,5.7838,0.0],[5.331,5.7893,0.0],[5.3365,5.7957,2.1117],[5.3532,5.8074,8.0006],[5.3499,5.8115,1.6312],[5.3296,5.809,1.137],[5.3226,5.8129,0.0],[5.3215,5.819,2.4842],[5.3326,5.8237,0.0],[5.3335,5.829,0.0],[5.3313,5.8399,0.0],[5.334,5.8429,0.7161],[5.3338,5.8454,3.666],[5.319,5.8488,0.0],[5.3074,5.8574,0.642],[5.3065,5.8604,0.0],[5.3085,5.8663,0.6969],[5.3068,5.8729,0.6271],[5.3126,5.8779,1.3724],[5.3126,5.8801,0.0],[5.3057,5.8863,3.5024],[5.2999,5.8799,2.6179],[5.2976,5.8796,3.2189],[5.2946,5.8815,5.4652],[5.2904,5.8915,1.5455],[5.2929,5.9049,8.7435],[5.2846,5.9037,19.0192],[5.2757,5.8985,5.1402],[5.2693,5.8921,4.2886],[5.2638,5.8907,3.6223],[5.264,5.8871,8.1443],[5.2626,5.8868,0.0],[5.261,5.8799,6.996],[5.256,5.8743,7.0992],[5.249,5.8699,7.378],[5.2474,5.8649,0.0],[5.2504,5.8568,8.6063],[5.251,5.8501,7.3354],[5.2515,5.8315,7.0257],[5.2499,5.8274,0.0],[5.2432,5.8224,1.7468],[5.2293,5.8193,0.0],[5.2196,5.8085,7.8571],[5.2193,5.8054,0.0],[5.2212,5.8029,0.0],[5.2318,5.8001,0.0],[5.2382,5.7935,0.0],[5.2429,5.8004,0.5369],[5.244,5.8118,3.4162],[5.246,5.8149,2.1052],[5.244,5.8004,0.5369],[5.2374,5.7879,0.0],[5.2332,5.7849,0.0],[5.2326,5.7824,0.0],[5.2504,5.7815,0.7687],[5.2524,5.7838,0.7937],[5.2543,5.7754,1.1421],[5.2504,5.7804,0.0],[5.2329,5.7807,1.5214],[5.2315,5.7846,8.0335],[5.234,5.7943,0.0],[5.2307,5.794,0.0],[5.2299,5.7885,3.1442],[5.2271,5.7871,0.5819],[5.2293,5.789,3.1634],[5.2296,5.7932,1.5362],[5.2207,5.799,0.4171],[5.2176,5.8049,0.0],[5.2187,5.811,1.0978],[5.2238,5.8176,0.0],[5.2315,5.8229,4.9055],[5.2465,5.8271,1.2003],[5.249,5.8307,4.84],[5.2462,5.8607,4.38],[5.2329,5.8693,8.0742],[5.2307,5.869,2.8417],[5.2268,5.8646,23.6419],[5.2218,5.8632,17.3464],[5.2182,5.8593,20.4229],[5.1965,5.8535,8.3411],[5.186,5.8432,20.0043],[5.1779,5.8385,1.1901],[5.1765,5.834,26.0359],[5.1699,5.8279,12.9733],[5.1546,5.8207,7.5554],[5.1451,5.8129,0.0],[5.146,5.804,19.0845],[5.1515,5.7865,0.0],[5.1604,5.7688,1.4015],[5.1607,5.7626,4.124],[5.1579,5.7526,6.4172],[5.1746,5.7524,0.6409],[5.1715,5.7571,12.0476],[5.1751,5.7646,0.0],[5.1718,5.7715,2.7196],[5.1732,5.7749,0.0],[5.1785,5.7757,6.7379],[5.1829,5.7696,10.4702],[5.1854,5.7696,2.834],[5.1887,5.7735,3.8688],[5.1932,5.7735,5.2098],[5.1887,5.7721,3.8688],[5.186,5.7685,6.1828],[5.1824,5.7685,6.3279],[5.1776,5.7746,11.3227],[5.1729,5.7729,3.0746],[5.176,5.7676,3.3736],[5.176,5.7624,0.0],[5.1729,5.7574,4.2355],[5.1757,5.7554,1.4065],[5.1751,5.7513,1.2835],[5.179,5.7474,1.1502],[5.1801,5.7413,0.0],[5.1765,5.7307,2.7616],[5.1774,5.7271,0.5575],[5.1951,5.7187,0.0],[5.206,5.7176,2.8497],[5.2168,5.7113,4.3051],[5.2257,5.7038,2.8473],[5.2274,5.6965,0.0],[5.2321,5.6921,4.5013],[5.2371,5.6932,0.0],[5.2385,5.7018,0.0],[5.244,5.7054,0.6274],[5.2443,5.7093,1.1789],[5.2388,5.709,1.828],[5.2443,5.7101,1.1789],[5.2457,5.7065,0.0],[5.2501,5.7093,0.9803],[5.2493,5.7079,0.0]]],
[[[5.6796,5.5393,2.7081],[5.6757,5.5399,1.35],[5.6729,5.5382,2.7493],[5.6732,5.5368,0.0],[5.679,5.5351,0.0],[5.6796,5.5393,2.7081]]],
[[[5.5907,5.5199,2.0303],[5.5915,5.5218,4.2366],[5.5904,5.5221,0.0],[5.581,5.5154,0.0],[5.5838,5.5154,0.0],[5.5907,5.5199,2.0303]]],
[[[5.6115,5.5374,0.0],[5.6079,5.5379,0.0],[5.606,5.5357,0.0],[5.6049,5.5243,5.299],[5.6065,5.5201,0.0],[5.6126,5.529,1.3167],[5.6132,5.5338,0.0],[5.6115,5.5374,0.0]]],
[[[5.4204,5.6382,2.1235],[5.4065,5.639,0.0],[5.4024,5.6368,2.1362],[5.4015,5.6329,5.4344],[5.4051,5.6199,13.1485],[5.4035,5.609,5.8145],[5.3976,5.5965,0.9256],[5.3918,5.5888,0.5188],[5.3818,5.5804,0.0],[5.3771,5.5732,2.7047],[5.3613,5.5651,1.8055],[5.3576,5.5618,2.975],[5.3574,5.5532,8.948],[5.3615,5.5457,6.3705],[5.3799,5.5332,0.0],[5.3893,5.5338,3.0841],[5.3888,5.5404,5.6146],[5.3851,5.5393,1.3247],[5.3815,5.5401,3.6131],[5.3793,5.5482,2.8112],[5.381,5.5507,2.7859],[5.3871,5.5501,0.0],[5.3893,5.556,1.1288],[5.3935,5.5551,1.586],[5.3924,5.5646,0.2987],[5.3938,5.5657,2.5827],[5.4004,5.5657,2.6435],[5.3982,5.5643,0.0],[5.3935,5.5646,0.2987],[5.3951,5.561,1.3143],[5.3946,5.5546,1.5069],[5.3904,5.5549,1.272],[5.3879,5.5488,0.0],[5.3818,5.549,2.3427],[5.3807,5.5457,0.0],[5.3838,5.5401,1.2708],[5.3871,5.5421,2.5177],[5.3904,5.5418,2.1519],[5.3918,5.5349,0.4473],[5.3985,5.5354,0.0],[5.399,5.5529,1.3204],[5.4051,5.5574,0.5602],[5.4143,5.5771,3.4172],[5.4232,5.5854,0.4561],[5.4299,5.5849,0.0],[5.4343,5.586,1.2125],[5.4365,5.5885,0.0],[5.4407,5.5885,0.0],[5.4396,5.5818,0.0],[5.449,5.5799,0.0],[5.4538,5.5874,0.5358],[5.4535,5.5893,2.1947],[5.4571,5.5885,0.9473],[5.4579,5.584,0.8829],[5.4607,5.5835,2.584],[5.4632,5.5851,4.3905],[5.4654,5.5918,0.8248],[5.4668,5.5921,3.7657],[5.4707,5.589,1.8782],[5.4751,5.5888,0.422],[5.4768,5.5924,4.8594],[5.481,5.5954,0.0],[5.4796,5.5993,4.444],[5.4829,5.599,0.7749],[5.486,5.601,0.7001],[5.4868,5.6068,1.2306],[5.4851,5.6132,0.0],[5.4807,5.6226,0.0],[5.4754,5.6271,0.0],[5.4615,5.6346,2.9632],[5.4407,5.6332,2.7468],[5.4379,5.636,0.0],[5.4229,5.6368,4.7774],[5.4204,5.6382,2.1235]]],
[[[5.526,5.6193,0.0],[5.5229,5.6196,1.0444],[5.511,5.614,0.0],[5.5051,5.6129,0.5729],[5.496,5.6135,1.4109],[5.4899,5.616,0.3345],[5.4865,5.6193,0.0],[5.4857,5.6185,0.0],[5.4901,5.606,0.4067],[5.4963,5.6001,0.0],[5.5035,5.5974,1.8886],[5.5088,5.5924,0.6219],[5.5132,5.5968,1.2187],[5.526,5.5988,1.3319],[5.5332,5.604,0.8998],[5.5404,5.6029,0.7967],[5.5382,5.6054,0.9703],[5.5376,5.6154,1.0993],[5.526,5.6193,0.0]]],
[[[5.4612,5.744,0.0],[5.459,5.7451,5.9843],[5.4538,5.7443,2.0825],[5.4435,5.7343,0.0],[5.431,5.7176,2.1784],[5.4201,5.7085,1.3747],[5.406,5.7007,0.0],[5.3818,5.6965,0.0],[5.3724,5.6926,0.6551],[5.359,5.6924,0.0],[5.3554,5.6932,1.1506],[5.3382,5.7099,7.6007],[5.3299,5.7113,0.0],[5.3274,5.7046,0.0],[5.3279,5.6887,0.0],[5.3257,5.6799,3.0718],[5.3093,5.6493,0.0],[5.3076,5.6432,0.0],[5.3118,5.6279,0.0],[5.3174,5.6185,0.0],[5.3218,5.614,5.8159],[5.3235,5.609,7.38],[5.3357,5.606,0.4606],[5.3546,5.5985,0.0],[5.3679,5.5985,0.0],[5.3762,5.601,0.0],[5.3776,5.6029,11.9283],[5.381,5.6029,5.8707],[5.3818,5.6087,17.1704],[5.3924,5.6218,0.0],[5.3979,5.6404,4.1806],[5.4057,5.6501,2.1349],[5.4071,5.6501,0.0],[5.4065,5.6543,4.8827],[5.4107,5.656,2.1411],[5.4079,5.6535,4.1464],[5.4079,5.6504,0.0],[5.4324,5.6526,0.4831],[5.4312,5.6649,1.8657],[5.4329,5.669,1.8852],[5.4388,5.6743,4.2815],[5.4499,5.679,3.0266],[5.4568,5.6871,3.3464],[5.4657,5.6865,1.7761],[5.4765,5.6815,0.0],[5.4763,5.6774,0.0],[5.469,5.6757,2.2843],[5.4674,5.6699,2.0604],[5.4685,5.6654,0.0],[5.4804,5.6624,5.2873],[5.4979,5.6637,0.0],[5.5096,5.656,2.9743],[5.5112,5.6601,5.6645],[5.5124,5.6788,2.1517],[5.5176,5.6887,1.5499],[5.5193,5.6954,3.6141],[5.5226,5.6971,1.0506],[5.5232,5.6999,0.4823],[5.5201,5.699,1.4104],[5.5165,5.7032,1.221],[5.5176,5.7054,1.0751],[5.516,5.7065,1.1508],[5.5174,5.709,0.3484],[5.5104,5.7054,2.7705],[5.4957,5.7026,1.6595],[5.4885,5.7026,0.9855],[5.4843,5.7043,0.6588],[5.4732,5.7199,0.6086],[5.4654,5.7393,0.0],[5.4612,5.744,0.0]]],
[[[5.3921,5.3029,1.1963],[5.3921,5.3049,1.2694],[5.3904,5.3049,1.2694],[5.3876,5.3012,0.0],[5.3888,5.3007,3.5897],[5.3921,5.3029,1.1963]]],
[[[5.3257,5.3643,0.4502],[5.3246,5.3657,0.0],[5.3229,5.3651,2.3185],[5.3221,5.3565,0.7095],[5.326,5.3401,0.0],[5.3254,5.3263,0.0],[5.3313,5.3074,7.9612],[5.3304,5.2999,0.0],[5.3329,5.2999,6.4893],[5.3326,5.294,0.0],[5.3382,5.2829,1.1224],[5.3465,5.2571,1.7621],[5.3504,5.2385,3.0213],[5.3515,5.2199,2.2195],[5.3537,5.2107,2.8928],[5.3562,5.2085,12.6019],[5.3557,5.2065,12.5635],[5.3543,5.2074,1.7224],[5.3579,5.1935,11.0122],[5.3565,5.1793,1.1836],[5.3549,5.1793,0.0],[5.3537,5.1818,0.0],[5.3518,5.1782,0.0],[5.3524,5.1757,0.0],[5.3596,5.1699,8.8812],[5.3751,5.1446,2.5138],[5.386,5.139,6.7418],[5.3976,5.1426,1.829],[5.4226,5.1543,3.445],[5.4521,5.1518,0.0],[5.4618,5.156,3.2424],[5.4635,5.1604,0.0],[5.4615,5.1643,0.0],[5.4465,5.1779,2.1512],[5.4451,5.1846,2.08],[5.4468,5.1935,0.0],[5.446,5.196,0.0],[5.441,5.1965,6.5927],[5.4335,5.2007,0.0],[5.4304,5.1963,4.0209],[5.426,5.1954,11.1189],[5.4201,5.1985,3.2649],[5.4163,5.1985,11.1463],[5.4101,5.2026,1.3619],[5.409,5.2096,4.736],[5.4121,5.2176,3.0812],[5.4029,5.2199,2.1869],[5.4015,5.2235,0.0],[5.4068,5.2301,0.937],[5.4037,5.2374,4.7287],[5.4062,5.2413,2.1535],[5.4074,5.2493,7.3771],[5.404,5.2562,1.8747],[5.4082,5.2507,4.2639],[5.4082,5.2415,0.0],[5.4054,5.2379,1.2388],[5.4076,5.234,2.1015],[5.4076,5.2301,0.937],[5.4026,5.2226,0.0],[5.404,5.2204,2.1869],[5.4096,5.2204,0.0],[5.4132,5.2185,4.8786],[5.4104,5.204,5.1053],[5.4151,5.2007,6.7548],[5.4265,5.1974,5.9134],[5.4335,5.2021,7.6655],[5.4415,5.1985,0.0],[5.4485,5.1999,0.0],[5.4546,5.219,1.1116],[5.4576,5.2238,1.1944],[5.4546,5.2299,0.0],[5.4565,5.2385,0.0],[5.4624,5.2424,2.5785],[5.4699,5.2413,0.0],[5.4785,5.2532,2.0712],[5.4918,5.2571,6.3959],[5.4901,5.2682,1.1852],[5.4868,5.2707,6.7621],[5.486,5.2751,3.4915],[5.4868,5.2779,4.1593],[5.4913,5.2788,0.0],[5.4921,5.2832,1.4548],[5.4996,5.2887,6.4471],[5.4996,5.2907,1.9966],[5.4943,5.2943,1.9441],[5.4904,5.3004,8.3065],[5.486,5.299,0.7898],[5.4815,5.3018,0.9284],[5.4801,5.3121,0.0],[5.4785,5.3143,2.7518],[5.476,5.3137,5.6504],[5.4724,5.3015,2.0355],[5.4688,5.2988,2.1477],[5.4596,5.3015,3.9491],[5.4563,5.3051,1.177],[5.451,5.3012,2.113],[5.4585,5.3124,4.3209],[5.4704,5.3182,12.7943],[5.4713,5.3235,0.0],[5.4693,5.3276,2.3218],[5.4601,5.329,5.6063],[5.4563,5.3329,0.0],[5.4504,5.3535,1.6641],[5.4415,5.3632,1.5922],[5.4357,5.3649,0.391],[5.4318,5.3624,0.3727],[5.4301,5.3504,7.0511],[5.4238,5.3435,3.3181],[5.4276,5.3401,5.0561],[5.429,5.336,0.0],[5.4268,5.3401,2.8822],[5.4238,5.341,1.6035],[5.4229,5.3351,1.7567],[5.4207,5.3343,1.8876],[5.4143,5.3407,2.9748],[5.4146,5.331,2.2201],[5.4085,5.3276,0.0],[5.4043,5.3201,6.1045],[5.3971,5.3176,1.6709],[5.3929,5.3018,8.1716],[5.3874,5.2957,0.9286],[5.3846,5.2957,0.9597],[5.3871,5.2996,3.048],[5.3846,5.2999,4.0599],[5.3801,5.2949,1.469],[5.3793,5.2963,1.9251],[5.3824,5.3012,0.0],[5.3865,5.3026,1.0602],[5.3926,5.3085,1.1847],[5.3951,5.3182,3.1502],[5.4021,5.3204,0.0],[5.4065,5.3293,2.4788],[5.4126,5.3326,4.9231],[5.4124,5.3421,11.3563],[5.4174,5.3415,6.2367],[5.4196,5.3371,9.2328],[5.4213,5.3368,0.0],[5.4218,5.346,4.4846],[5.4265,5.3499,0.0],[5.4285,5.3538,0.0],[5.4274,5.3626,0.0],[5.4124,5.364,0.0],[5.404,5.3613,5.0793],[5.3865,5.3601,2.8145],[5.3743,5.3546,2.877],[5.369,5.3549,0.3378],[5.3676,5.3499,3.5248],[5.366,5.3507,0.0],[5.3665,5.3563,0.0],[5.3554,5.3574,0.5671],[5.3546,5.3529,0.0],[5.3574,5.3496,10.3483],[5.3543,5.3488,0.0],[5.3524,5.3513,1.7368],[5.3537,5.3601,0.936],[5.3504,5.3593,2.4813],[5.3488,5.3624,0.6429],[5.3465,5.3626,0.0],[5.3379,5.3588,0.0],[5.331,5.3604,4.2074],[5.3257,5.3643,0.4502]]],
[[[5.5057,5.3593,0.0],[5.5035,5.3604,8.7107],[5.496,5.3576,0.0],[5.4987,5.3568,0.0],[5.5057,5.3593,0.0]]],
[[[5.506,5.3768,9.1647],[5.4824,5.3779,4.0152],[5.4765,5.371,8.0172],[5.4649,5.369,0.0],[5.4618,5.3649,4.1459],[5.469,5.364,12.6869],[5.4751,5.366,11.8834],[5.479,5.3613,5.9247],[5.4987,5.364,7.8859],[5.5121,5.3629,0.9032],[5.5115,5.3715,10.1585],[5.506,5.3768,9.1647]]],
[[[5.6954,5.4135,4.5819],[5.6893,5.4204,1.1108],[5.6821,5.4224,0.0],[5.671,5.4221,0.0],[5.664,5.4276,1.4053],[5.6582,5.4282,3.3656],[5.6538,5.4246,8.1899],[5.6465,5.414,4.1094],[5.6357,5.3932,2.5468],[5.6354,5.3949,2.8369],[5.6374,5.3993,2.0005],[5.6368,5.4007,0.0],[5.6279,5.3965,6.3845],[5.6126,5.3796,4.1719],[5.594,5.3771,0.0],[5.5804,5.3807,0.0],[5.5799,5.3751,2.2412],[5.5885,5.3624,3.3744],[5.5912,5.3613,1.7018],[5.5951,5.3507,4.4444],[5.6038,5.3376,1.6612],[5.6076,5.3351,0.0],[5.616,5.3382,1.5618],[5.6226,5.3504,3.5843],[5.6385,5.3646,5.8301],[5.6421,5.3651,0.0],[5.6457,5.3629,9.5975],[5.6471,5.3543,2.2195],[5.6496,5.3504,2.3072],[5.6532,5.3476,0.0],[5.6632,5.3443,2.4372],[5.6671,5.3407,7.2379],[5.671,5.341,7.1096],[5.6765,5.3507,2.1001],[5.684,5.354,2.6111],[5.6932,5.3549,0.0],[5.699,5.3582,1.5841],[5.7074,5.3696,1.2903],[5.7129,5.3715,2.9701],[5.7165,5.379,0.0],[5.7179,5.3865,1.3052],[5.7143,5.3871,0.0],[5.7104,5.391,0.264],[5.7021,5.3943,0.9831],[5.6971,5.4013,1.1785],[5.6971,5.4032,2.5182],[5.7012,5.4068,3.0402],[5.7007,5.4093,3.7439],[5.6954,5.4135,4.5819]]],
[[[5.5674,5.3865,4.3985],[5.5615,5.3868,6.334],[5.5632,5.3832,2.0498],[5.5746,5.3776,5.8427],[5.5729,5.3846,5.2455],[5.5674,5.3865,4.3985]]],
[[[5.606,5.3793,3.9571],[5.6138,5.3813,1.0223],[5.6176,5.3868,3.0307],[5.6171,5.3885,1.6082],[5.6082,5.3843,1.4262],[5.5985,5.3829,3.4727],[5.5901,5.3796,3.2604],[5.5946,5.3782,0.0],[5.606,5.3793,3.9571]]],
[[[5.5412,5.3879,0.0],[5.5393,5.3893,0.0],[5.534,5.389,0.0],[5.5293,5.3854,9.2158],[5.5215,5.3851,2.3689],[5.511,5.3807,0.0],[5.499,5.3826,0.9516],[5.4954,5.3821,0.0],[5.4951,5.3799,0.0],[5.5079,5.3779,5.9953],[5.5157,5.3674,4.3523],[5.5193,5.366,9.3912],[5.526,5.3668,0.0],[5.5338,5.3724,3.7585],[5.5329,5.3696,6.7724],[5.5271,5.3657,2.6029],[5.5288,5.364,0.0],[5.534,5.3668,0.0],[5.5343,5.3701,6.7724],[5.5371,5.3726,2.4328],[5.5412,5.3879,0.0]]],
[[[5.641,5.4074,4.634],[5.6407,5.4087,4.634],[5.6376,5.4057,4.9464],[5.6363,5.4015,0.0],[5.6393,5.4024,2.4929],[5.641,5.4074,4.634]]],
[[[5.509,5.3968,1.0016],[5.5096,5.3979,1.4885],[5.5074,5.3976,0.9883],[5.5076,5.3965,1.0016],[5.509,5.3968,1.0016]]],
[[[5.5112,5.3865,7.1318],[5.5088,5.3876,2.0431],[5.504,5.3846,0.6911],[5.509,5.3821,8.3099],[5.5132,5.3826,4.3793],[5.5149,5.3854,0.0],[5.5112,5.3865,7.1318]]],
[[[5.514,5.3949,4.9806],[5.5132,5.3968,3.2978],[5.5104,5.3965,3.048],[5.5074,5.3929,9.3902],[5.5035,5.3937,14.0693],[5.501,5.3924,0.0],[5.5004,5.3896,1.3063],[5.506,5.3882,0.0],[5.5101,5.391,6.1769],[5.5093,5.389,1.8027],[5.5146,5.3885,3.7624],[5.5196,5.3904,3.3024],[5.5182,5.3874,5.9545],[5.514,5.3871,3.7624],[5.5162,5.3857,4.4611],[5.5226,5.3871,9.1891],[5.5265,5.386,5.7502],[5.5343,5.3913,4.5467],[5.529,5.3954,5.8689],[5.5207,5.3951,4.8868],[5.5174,5.3935,6.095],[5.514,5.3949,4.9806]]],
[[[5.5213,5.4029,3.4341],[5.5196,5.4043,0.0],[5.5199,5.3996,3.5763],[5.5151,5.3993,1.832],[5.5157,5.3957,0.9014],[5.5274,5.3968,1.3914],[5.5235,5.3987,9.1798],[5.5251,5.3999,0.0],[5.5246,5.4015,0.0],[5.5213,5.4029,3.4341]]],
[[[5.6568,5.434,0.8178],[5.6568,5.434,0.8178],[5.6568,5.434,0.8178],[5.6649,5.4493,0.0],[5.6626,5.4565,3.3405],[5.6571,5.4524,1.6483],[5.6487,5.4551,2.6441],[5.6487,5.4576,1.9057],[5.6512,5.4588,6.531],[5.6512,5.4618,5.3287],[5.6485,5.4651,2.8451],[5.6485,5.4671,0.8569],[5.6501,5.4701,3.4091],[5.6479,5.4732,3.0967],[5.6479,5.4779,2.5565],[5.646,5.4807,2.6013],[5.6454,5.4865,10.0814],[5.6413,5.4871,0.732],[5.6435,5.4846,5.4089],[5.6418,5.4824,3.9137],[5.6385,5.4829,2.33],[5.6363,5.4868,7.9802],[5.6313,5.4863,5.1362],[5.6293,5.484,8.4468],[5.6263,5.4829,0.9374],[5.6254,5.4835,0.9374],[5.6249,5.4926,2.2994],[5.6215,5.4943,7.1134],[5.6168,5.4907,3.0037],[5.6121,5.4818,4.2867],[5.6076,5.4807,4.6985],[5.604,5.4774,2.4435],[5.6021,5.4774,2.2049],[5.5974,5.481,1.9975],[5.5943,5.4896,3.2573],[5.5924,5.4907,0.0],[5.5874,5.4843,1.569],[5.5749,5.4826,0.0],[5.5699,5.4804,14.3343],[5.5671,5.4707,0.0],[5.5535,5.4724,0.68],[5.5496,5.4749,0.0],[5.5493,5.4801,0.0],[5.5546,5.4904,7.7582],[5.5451,5.5021,0.0],[5.5407,5.5051,2.8974],[5.539,5.5062,0.0],[5.5304,5.5057,0.0],[5.5229,5.504,0.0],[5.5176,5.5004,0.0],[5.5088,5.4515,1.7612],[5.5112,5.4401,0.0],[5.5135,5.439,0.0],[5.5121,5.4374,0.0],[5.5132,5.4301,0.0],[5.5165,5.4254,0.0],[5.5229,5.4229,5.318],[5.5263,5.4157,4.5317],[5.5335,5.4171,12.8315],[5.5368,5.4146,0.0],[5.5449,5.4285,0.0],[5.5538,5.4271,5.1566],[5.5529,5.4351,0.0],[5.5579,5.4343,2.2465],[5.5568,5.4393,4.4823],[5.5607,5.4396,1.4662],[5.559,5.4424,3.3603],[5.559,5.444,1.4077],[5.5604,5.444,1.4077],[5.5629,5.4388,0.0],[5.561,5.4374,1.3883],[5.5582,5.439,0.0],[5.5593,5.4349,2.653],[5.5582,5.4335,5.6656],[5.554,5.4338,0.0],[5.554,5.4324,1.8112],[5.5574,5.4318,6.2478],[5.5596,5.429,0.9611],[5.5613,5.4321,5.5484],[5.5665,5.4332,0.0],[5.5657,5.4282,2.2905],[5.5699,5.4285,2.8393],[5.5729,5.4268,3.6733],[5.5738,5.424,3.7594],[5.5765,5.4246,7.5653],[5.5735,5.4235,3.9317],[5.5721,5.4268,3.6733],[5.5649,5.4279,1.6895],[5.566,5.4324,0.0],[5.5615,5.4315,2.785],[5.5599,5.4285,3.1306],[5.5579,5.4285,4.052],[5.556,5.431,0.0],[5.5546,5.4246,2.7991],[5.5451,5.4265,3.9013],[5.5399,5.4124,0.0],[5.5346,5.411,0.3838],[5.5326,5.4138,0.0],[5.5226,5.4126,4.2762],[5.5265,5.4049,0.7747],[5.5313,5.3999,0.0],[5.5368,5.3985,0.9954],[5.5451,5.3924,2.923],[5.5668,5.3896,1.5216],[5.5801,5.3832,0.0],[5.5899,5.3815,0.0],[5.5971,5.3851,1.9668],[5.5985,5.3874,2.6373],[5.5982,5.3932,2.7092],[5.5818,5.4143,2.4919],[5.5801,5.4204,2.3323],[5.5821,5.4232,0.3541],[5.5868,5.426,6.6312],[5.5988,5.4257,7.2719],[5.6115,5.4226,2.5654],[5.6196,5.4271,1.4532],[5.6204,5.4257,1.093],[5.619,5.4263,1.093],[5.6157,5.4226,0.7017],[5.609,5.4212,1.3218],[5.5888,5.4251,8.5212],[5.5835,5.4232,0.3541],[5.581,5.4187,2.9409],[5.5993,5.394,1.8658],[5.5996,5.384,2.3159],[5.6124,5.3871,5.005],[5.6307,5.3996,4.0791],[5.6487,5.4187,1.0809],[5.6568,5.434,0.8178]]],
[[[5.6568,5.434,0.8178],[5.6568,5.434,0.8178],[5.6579,5.4299,2.4269],[5.664,5.4285,1.4053],[5.6715,5.4232,0.0],[5.6818,5.4235,0.0],[5.6918,5.4204,1.3799],[5.6982,5.4124,0.0],[5.7018,5.4107,9.0164],[5.7021,5.4054,9.3701],[5.6985,5.4018,1.1785],[5.7032,5.3946,0.5948],[5.7093,5.3926,7.4572],[5.719,5.386,1.3052],[5.7149,5.3715,0.8772],[5.7115,5.3682,11.1458],[5.7065,5.3662,0.0],[5.6996,5.3563,11.022],[5.6946,5.3535,7.4205],[5.6832,5.3518,10.8428],[5.6785,5.3493,2.1885],[5.6704,5.3385,8.0028],[5.6671,5.3387,8.2731],[5.6596,5.3449,3.0604],[5.6557,5.3449,3.7012],[5.649,5.3479,8.4025],[5.6457,5.3524,0.3932],[5.6446,5.3607,3.3564],[5.6432,5.3624,1.4431],[5.639,5.3626,1.2226],[5.6237,5.3479,1.3373],[5.6157,5.3335,5.8711],[5.6046,5.3332,2.8802],[5.6012,5.3179,0.0],[5.604,5.3165,1.5056],[5.606,5.3129,0.8859],[5.6088,5.3151,0.7057],[5.6079,5.3201,1.5036],[5.6104,5.321,2.5381],[5.616,5.3088,1.2843],[5.6229,5.3121,2.8729],[5.6307,5.3079,0.6506],[5.6318,5.3026,0.9117],[5.6451,5.3046,1.0229],[5.6388,5.3021,0.7723],[5.631,5.3024,1.1765],[5.6301,5.3076,0.6506],[5.6237,5.3113,0.0],[5.6207,5.311,0.6785],[5.6182,5.3082,1.7548],[5.6157,5.3082,1.2487],[5.6104,5.3201,1.2645],[5.6088,5.3196,1.2645],[5.6096,5.3149,0.7057],[5.6074,5.3124,0.0],[5.6057,5.3124,0.8859],[5.6026,5.316,1.5056],[5.5996,5.3132,1.8992],[5.5954,5.314,1.7835],[5.594,5.3118,0.9148],[5.5871,5.3074,0.6928],[5.5835,5.3074,2.7805],[5.5937,5.3124,0.6031],[5.5951,5.3146,1.7835],[5.6015,5.3193,2.6377],[5.6021,5.3282,3.3272],[5.6043,5.334,0.0],[5.5954,5.3471,0.0],[5.5818,5.3563,1.529],[5.5751,5.3579,2.6269],[5.5763,5.359,0.0],[5.5743,5.361,4.2482],[5.5763,5.3615,3.7241],[5.5849,5.3546,1.7826],[5.5901,5.3532,0.0],[5.5857,5.3626,1.3338],[5.5793,5.3704,3.5596],[5.5543,5.3885,5.9796],[5.5488,5.3871,3.3058],[5.5437,5.3826,1.5029],[5.5432,5.3712,1.5121],[5.5451,5.3707,1.5805],[5.5474,5.3724,6.5796],[5.5468,5.3704,0.0],[5.5518,5.3665,5.7024],[5.5579,5.3582,5.8226],[5.5571,5.3576,5.8226],[5.5549,5.3593,0.0],[5.549,5.3546,15.0648],[5.5485,5.3521,2.1392],[5.5479,5.3549,3.2643],[5.5538,5.3585,3.4654],[5.5538,5.3615,2.9733],[5.5488,5.3662,0.0],[5.5421,5.3676,0.0],[5.5363,5.3662,0.0],[5.5318,5.3624,0.0],[5.516,5.3588,0.0],[5.5071,5.3549,3.1055],[5.5026,5.3549,0.0],[5.5001,5.3532,1.5586],[5.4882,5.3532,1.4234],[5.464,5.3474,0.0],[5.4576,5.3371,0.0],[5.4674,5.3313,1.2884],[5.4765,5.3307,3.1704],[5.4846,5.3265,0.0],[5.4879,5.3279,0.0],[5.4915,5.3368,0.0],[5.4963,5.3385,0.0],[5.4985,5.3338,2.9093],[5.4954,5.326,2.0777],[5.4976,5.3254,0.0],[5.504,5.3332,2.3735],[5.5057,5.3415,0.0],[5.514,5.3412,3.9749],[5.5137,5.3401,10.0243],[5.506,5.3401,9.1872],[5.5057,5.3343,5.9535],[5.5007,5.3257,0.0],[5.504,5.3235,1.0464],[5.5054,5.3199,0.0],[5.5182,5.3221,5.5552],[5.524,5.3196,2.1588],[5.5246,5.3129,2.3133],[5.5224,5.3132,2.6281],[5.5229,5.3185,0.0],[5.5196,5.3207,0.0],[5.5132,5.3207,2.0806],[5.5071,5.3179,2.937],[5.5024,5.3185,11.3816],[5.501,5.3229,2.5018],[5.4957,5.3229,3.5406],[5.4932,5.3254,3.7948],[5.4935,5.3293,1.4736],[5.4963,5.334,10.9188],[5.496,5.3368,8.75],[5.4946,5.3368,3.0207],[5.4893,5.326,3.9163],[5.4835,5.3249,2.9327],[5.4771,5.3279,1.3099],[5.4726,5.3274,0.682],[5.4718,5.3168,3.6339],[5.4579,5.3088,0.7588],[5.4585,5.3043,2.7831],[5.4685,5.2999,2.1477],[5.4704,5.3012,13.2604],[5.4743,5.3135,2.3213],[5.479,5.3151,2.7793],[5.4812,5.3135,3.6036],[5.4824,5.3018,0.9284],[5.486,5.3004,0.7898],[5.491,5.301,1.7302],[5.4949,5.2976,0.0],[5.4949,5.2946,1.9441],[5.5001,5.2912,1.9966],[5.5001,5.2885,6.4471],[5.4929,5.2832,1.4548],[5.4937,5.2793,1.2725],[5.5038,5.2799,1.6832],[5.5121,5.2724,4.5643],[5.5185,5.2721,5.5195],[5.524,5.2768,0.4868],[5.5274,5.2776,1.5383],[5.5279,5.2815,1.768],[5.5321,5.2871,1.6857],[5.5326,5.296,1.5893],[5.5374,5.2963,1.7612],[5.5426,5.289,2.1768],[5.5454,5.2904,0.7853],[5.5468,5.2971,1.3175],[5.5565,5.3029,1.2127],[5.559,5.3007,7.0405],[5.5588,5.2965,0.9968],[5.5635,5.2874,3.3074],[5.5615,5.2818,3.1431],[5.5624,5.279,1.3335],[5.5763,5.274,1.3225],[5.5668,5.2754,3.1289],[5.5607,5.2793,1.709],[5.5621,5.2868,2.0567],[5.5574,5.2954,0.0],[5.5568,5.301,1.4326],[5.5482,5.296,0.0],[5.5471,5.2907,1.4347],[5.5446,5.2876,1.6558],[5.541,5.2882,0.7543],[5.5393,5.2932,2.0127],[5.5371,5.2951,2.3841],[5.5343,5.2951,2.1076],[5.534,5.2854,1.7245],[5.5299,5.2835,0.9736],[5.5285,5.2765,2.8511],[5.5246,5.276,0.0],[5.521,5.2715,3.5983],[5.5115,5.2707,1.696],[5.5068,5.2765,1.4755],[5.5021,5.2785,2.2176],[5.4874,5.2768,4.278],[5.4874,5.274,5.3189],[5.4921,5.2671,2.3752],[5.4935,5.2615,6.0576],[5.4926,5.2562,1.0007],[5.4896,5.2538,2.3441],[5.481,5.2526,2.5981],[5.4707,5.2396,9.5986],[5.464,5.2407,0.0],[5.4612,5.2393,6.8809],[5.4574,5.2357,0.0],[5.4588,5.2293,1.1471],[5.4607,5.2276,1.1933],[5.4682,5.2265,0.0],[5.4713,5.2238,2.5613],[5.4921,5.2243,2.9739],[5.4963,5.2271,4.072],[5.5024,5.2424,2.9886],[5.5068,5.2435,0.7119],[5.5099,5.241,4.3404],[5.5121,5.2337,0.0],[5.5174,5.2351,0.9336],[5.5176,5.2365,2.477],[5.514,5.2401,4.1932],[5.5199,5.2365,1.4814],[5.5215,5.2296,0.4895],[5.5199,5.2263,0.5496],[5.5215,5.2257,0.5496],[5.5185,5.226,0.5546],[5.5207,5.2296,0.4895],[5.5193,5.2343,0.0],[5.5157,5.2318,6.8969],[5.5112,5.2324,1.9837],[5.5074,5.2404,4.2263],[5.5046,5.2418,2.563],[5.5026,5.2396,0.0],[5.4985,5.2254,3.8569],[5.4913,5.2212,0.0],[5.4818,5.2199,8.5964],[5.4612,5.2226,0.0],[5.4521,5.1874,8.3572],[5.4529,5.179,11.2308],[5.4637,5.174,7.7269],[5.4671,5.1701,0.0],[5.4699,5.1707,6.5084],[5.4707,5.1751,4.8355],[5.4724,5.1765,1.2618],[5.4799,5.1746,0.0],[5.479,5.181,5.1173],[5.4812,5.1854,4.3519],[5.4837,5.1846,1.4244],[5.4862,5.1807,1.861],[5.4887,5.1837,0.0],[5.491,5.1837,1.5895],[5.4979,5.1774,5.6353],[5.491,5.1829,1.5895],[5.4849,5.1793,5.2339],[5.4837,5.1837,1.2097],[5.4815,5.1846,4.3519],[5.4799,5.181,5.1173],[5.4807,5.1743,0.0],[5.4799,5.1724,2.4989],[5.4776,5.1715,4.9588],[5.4732,5.1757,3.0162],[5.4718,5.1754,4.8355],[5.4721,5.1685,6.736],[5.4693,5.1649,0.0],[5.4693,5.1568,1.7668],[5.4651,5.1485,0.5341],[5.4654,5.1454,4.8693],[5.4635,5.1435,6.84],[5.4607,5.1438,0.0],[5.4593,5.1421,0.0],[5.4526,5.1404,8.4767],[5.4606,5.1338,8.6192],[5.476,5.1153,6.2737],[5.4865,5.1064,3.0168],[5.5258,5.0863,5.8177],[5.5334,5.0795,18.876],[5.5508,5.0764,11.4876],[5.5621,5.0702,4.3736],[5.5709,5.0712,12.359],[5.5826,5.068,12.6313],[5.5919,5.0593,2.0718],[5.6122,5.0458,7.1479],[5.626,5.0421,6.162],[5.6321,5.0328,7.0965],[5.6421,5.0243,12.6477],[5.662,5.0233,1.9529],[5.6796,5.0309,2.8268],[5.6858,5.0296,2.8227],[5.6948,5.0248,2.7468],[5.7157,5.0355,11.8555],[5.7333,5.0484,7.8255],[5.746,5.0507,5.0324],[5.7545,5.061,8.0939],[5.7645,5.0677,6.9943],[5.7722,5.0717,7.2678],[5.7835,5.0729,5.3247],[5.7958,5.0764,8.1008],[5.8157,5.0913,8.3149],[5.8242,5.0932,6.2492],[5.8394,5.0906,6.2471],[5.8438,5.0862,11.8797],[5.8523,5.0842,8.9337],[5.8655,5.087,16.1374],[5.8767,5.0944,3.6113],[5.8879,5.103,5.8727],[5.896,5.1042,6.405],[5.9113,5.1111,15.7096],[5.9201,5.1243,9.6753],[5.9235,5.1358,1.0884],[5.9337,5.1543,14.2197],[5.9352,5.1608,5.763],[5.9392,5.166,0.0],[5.9474,5.1689,5.5789],[5.956,5.1625,3.8989],[5.9629,5.1603,9.2921],[5.975,5.1476,10.1536],[5.9814,5.1482,12.2243],[5.9843,5.138,15.6171],[5.995,5.13,11.0056],[5.9974,5.1214,16.8452],[6.0043,5.1171,17.264],[6.0199,5.1157,16.4578],[6.0279,5.1105,12.8077],[6.0386,5.1108,15.8615],[6.0559,5.1149,18.7673],[6.0714,5.1261,15.9364],[6.0824,5.1509,3.0],[6.0852,5.1527,7.7789],[6.1016,5.1549,11.5338],[6.1147,5.1533,19.3982],[6.1257,5.1485,20.9705],[6.1338,5.1488,18.6038],[6.1601,5.1579,3.0],[6.1687,5.163,4.1549],[6.1748,5.1691,15.2356],[6.1794,5.1714,13.5538],[6.1901,5.173,18.7724],[6.2057,5.1831,3.4755],[6.2064,5.199,8.3431],[6.2024,5.2081,17.2763],[6.2015,5.2206,11.5423],[6.2073,5.2359,3.0],[6.2232,5.2368,8.7195],[6.231,5.2346,8.8567],[6.2373,5.2262,16.3569],[6.2438,5.2249,13.6159],[6.2702,5.2298,4.6164],[6.2779,5.2334,4.4086],[6.2849,5.2409,3.5],[6.2888,5.2551,3.5],[6.3103,5.2997,10.2598],[6.3194,5.3007,3.5],[6.3311,5.2996,15.5798],[6.3462,5.3065,16.8229],[6.3546,5.3077,18.6129],[6.3736,5.3021,13.9],[6.394,5.3034,13.4632],[6.4013,5.3005,13.8324],[6.411,5.3005,6.0],[6.4199,5.3052,7.4916],[6.4444,5.3117,18.2436],[6.47,5.3231,7.5],[6.4931,5.336,9.0181],[6.5125,5.3498,8.5],[6.5104,5.3657,8.5],[6.5071,5.3755,20.8171],[6.4918,5.4031,22.146],[6.4905,5.4081,15.5243],[6.4941,5.4138,15.5813],[6.5032,5.4222,8.5],[6.5225,5.4311,10.8261],[6.5332,5.4325,8.5],[6.5432,5.4397,8.5],[6.5509,5.443,19.9752],[6.555,5.4538,16.8638],[6.5557,5.4676,17.1473],[6.5507,5.5049,23.9598],[6.5539,5.5288,24.887],[6.5594,5.543,19.6313],[6.5651,5.5528,8.5],[6.5777,5.5598,9.7649],[6.5918,5.5722,13.9027],[6.5983,5.5758,16.1243],[6.6073,5.5904,21.261],[6.6126,5.6042,20.0169],[6.6176,5.6292,10.7145],[6.6238,5.6418,8.5],[6.6259,5.6556,9.6552],[6.6229,5.6697,8.5],[6.6084,5.7129,9.0],[6.611,5.7188,14.354],[6.6121,5.7185,15.5185],[6.6139,5.7255,11.5317],[6.6195,5.7282,10.0889],[6.6284,5.7375,14.2394],[6.6318,5.7506,10.0],[6.6405,5.7707,13.9746],[6.6594,5.8006,19.1679],[6.6668,5.8298,25.2026],[6.6649,5.8432,20.5885],[6.6728,5.856,18.6774],[6.6814,5.8747,12.5],[6.6874,5.8922,17.0948],[6.6895,5.9069,18.4235],[6.6934,5.9191,13.5],[6.7014,5.9305,14.0],[6.7072,5.9456,16.7296],[6.7174,5.9606,16.2621],[6.7218,5.9783,15.6971],[6.7338,5.9927,17.3174],[6.7379,6.041,14.0],[6.7377,6.0736,20.5719],[6.74,6.0899,21.4617],[6.7434,6.1005,17.3276],[6.7496,6.1101,14.0],[6.7581,6.1353,14.0],[6.7606,6.1489,18.17],[6.7568,6.1697,14.0],[6.7465,6.1911,46.1161],[6.7408,6.2099,14.0],[6.7351,6.246,19.6687],[6.7308,6.2603,14.5],[6.7265,6.2832,19.8874],[6.7245,6.3047,14.5],[6.7168,6.3277,14.5],[6.7181,6.3498,21.2404],[6.6999,6.3681,21.2463],[6.6949,6.3874,15.0],[6.6944,6.4093,19.5584],[6.6923,6.4232,15.0],[6.6798,6.4654,20.836],[6.6788,6.4771,17.0973],[6.6726,6.4883,16.5],[6.6655,6.5228,17.0],[6.6461,6.4971,26.819],[6.6352,6.4899,28.7478],[6.622,6.4867,35.8298],[6.5884,6.4958,40.4543],[6.569,6.4961,36.6781],[6.5394,6.4927,42.3735],[6.5267,6.4899,44.2184],[6.5088,6.483,62.3032],[6.4827,6.4678,89.7404],[6.4635,6.4511,140.8269],[6.4467,6.44,189.6298],[6.4174,6.4281,186.7498],[6.3765,6.4004,250.5284],[6.3547,6.3904,227.7466],[6.3461,6.3889,218.2848],[6.2578,6.3503,138.9704],[6.2428,6.3392,165.944],[6.2355,6.3318,180.8583],[6.2241,6.313,168.3905],[6.2103,6.2992,184.815],[6.1926,6.2771,112.5539],[6.1822,6.2764,165.7202],[6.1405,6.3401,128.022],[6.1243,6.3468,93.8955],[6.1063,6.3533,74.7161],[6.0973,6.3519,110.4326],[6.0831,6.3429,141.9238],[6.0685,6.3263,73.1822],[6.0635,6.3183,51.1466],[6.0541,6.2935,101.4909],[6.0515,6.2705,147.9144],[6.0517,6.2553,141.6074],[6.0582,6.2432,145.0962],[6.0817,6.2301,150.0403],[6.0874,6.2095,149.1841],[6.089,6.191,134.0315],[6.088,6.1744,135.3408],[6.0904,6.1522,135.2272],[6.1232,6.0942,98.835],[6.1549,6.0551,131.9024],[6.1668,6.0515,138.3658],[6.1755,6.0437,139.0382],[6.1852,6.0315,138.8263],[6.1958,6.0272,140.6215],[6.2059,6.027,144.4126],[6.2212,6.0185,113.1166],[6.2245,6.0053,59.4802],[6.2259,5.9902,52.8294],[6.2107,5.9368,38.4659],[6.2146,5.9378,38.0704],[6.1916,5.9129,35.1874],[6.1897,5.9069,33.6707],[6.1717,5.8924,32.6669],[6.1634,5.8801,35.4298],[6.1345,5.8642,33.1067],[6.1137,5.8473,29.9509],[6.0967,5.8287,24.9163],[6.0766,5.7976,10.5081],[6.0318,5.7654,16.8607],[6.0025,5.7557,17.1385],[5.918,5.739,8.4449],[5.8933,5.7419,10.4537],[5.8835,5.7481,6.2461],[5.8874,5.7626,8.8958],[5.8948,5.7772,13.561],[5.8689,5.8032,12.037],[5.8742,5.8165,18.1678],[5.882,5.8245,20.0043],[5.8948,5.8485,27.7755],[5.9018,5.8684,33.2818],[5.8942,5.8819,33.9547],[5.8692,5.8941,29.7793],[5.8311,5.9199,26.6029],[5.8248,5.9323,31.7237],[5.8133,5.9486,27.5867],[5.7988,5.9657,33.5142],[5.7233,6.008,26.674],[5.6988,6.0191,30.1916],[5.6721,6.0283,28.1657],[5.6633,6.04,16.0193],[5.6537,6.0471,17.9053],[5.6457,6.05,19.0143],[5.6292,6.0445,18.0872],[5.6167,6.038,21.122],[5.5976,6.0326,14.7951],[5.586,6.0265,16.1855],[5.563,6.02,8.1005],[5.5459,6.0035,14.0795],[5.5435,5.9959,14.9893],[5.5331,5.9815,17.211],[5.5046,5.988,3.1592],[5.4679,6.02,2.5618],[5.4456,6.0248,14.0583],[5.4065,6.0181,12.4048],[5.3944,6.0139,7.0446],[5.3656,6.0171,12.3789],[5.3463,6.0255,13.5016],[5.3303,6.0205,13.8355],[5.3201,6.0156,13.2105],[5.3191,5.999,8.3359],[5.3335,5.9736,13.0756],[5.3251,5.9565,9.9157],[5.3027,5.9402,4.6678],[5.259,5.9043,8.6067],[5.2322,5.9031,19.1395],[5.2314,5.9431,14.5405],[5.2208,5.9843,14.5511],[5.2322,6.0316,8.7037],[5.2326,6.045,17.3651],[5.2298,6.0548,15.6857],[5.2149,6.0665,12.9366],[5.2029,6.0817,14.153],[5.1152,6.127,14.606],[5.0037,5.8563,7.1848],[5.0104,5.8468,5.1705],[5.0099,5.8438,3.7286],[5.011,5.8446,3.7286],[5.011,5.8424,1.1356],[5.0199,5.8315,7.1901],[5.0274,5.8163,0.837],[5.0315,5.8115,1.1439],[5.0374,5.7954,0.0],[5.0438,5.7838,13.4061],[5.0549,5.7721,4.275],[5.0626,5.7693,8.957],[5.0685,5.771,4.0488],[5.0715,5.776,0.0],[5.0729,5.7879,6.3285],[5.0763,5.7962,1.0413],[5.0915,5.8121,24.196],[5.1093,5.8237,4.531],[5.1299,5.8313,0.0],[5.1463,5.8393,1.6219],[5.159,5.8479,1.0171],[5.1654,5.8549,0.6893],[5.2071,5.8757,10.029],[5.2182,5.8793,0.0],[5.2221,5.884,6.6003],[5.2385,5.8857,3.9296],[5.2424,5.8876,0.854],[5.2551,5.899,6.0128],[5.2663,5.9043,5.6662],[5.2674,5.909,3.8212],[5.2718,5.9129,9.3915],[5.2904,5.9171,4.0471],[5.2962,5.9087,7.558],[5.2915,5.8938,6.2894],[5.2937,5.8843,1.6014],[5.2968,5.8807,3.6396],[5.299,5.8807,4.567],[5.3026,5.8863,2.2337],[5.3068,5.8874,4.0548],[5.314,5.8807,2.5447],[5.3135,5.8771,1.3724],[5.3076,5.8724,0.6271],[5.3101,5.8649,7.5089],[5.3074,5.8607,0.0],[5.3076,5.8585,0.642],[5.3135,5.8554,1.4358],[5.3193,5.8496,0.0],[5.324,5.8499,2.7627],[5.3371,5.8446,3.5995],[5.3326,5.8396,0.0],[5.3349,5.8301,2.1024],[5.3332,5.8226,1.9416],[5.3229,5.8185,11.2312],[5.3226,5.8154,7.266],[5.3265,5.8113,3.3917],[5.3343,5.8099,0.62],[5.3438,5.8129,2.2664],[5.3496,5.8129,1.2088],[5.3524,5.8118,0.439],[5.3546,5.8063,0.0],[5.3638,5.8026,3.0631],[5.3676,5.8143,5.3609],[5.3738,5.8168,2.4599],[5.3796,5.8235,1.6395],[5.3863,5.8254,0.0],[5.3976,5.8251,0.4759],[5.4085,5.8201,0.0],[5.4104,5.8215,2.0859],[5.4121,5.8287,1.5719],[5.4165,5.8326,2.8373],[5.4249,5.8243,0.0],[5.4335,5.8271,3.2211],[5.4418,5.8226,5.9376],[5.4507,5.826,3.4236],[5.4549,5.826,2.3984],[5.4621,5.8154,0.6945],[5.4637,5.8071,5.6837],[5.4676,5.8071,10.3895],[5.4693,5.8101,8.1099],[5.4715,5.8093,1.3117],[5.471,5.8071,1.5316],[5.4685,5.806,6.1221],[5.4629,5.8057,0.9925],[5.4604,5.8149,0.6945],[5.454,5.8249,2.9901],[5.4446,5.8215,2.9097],[5.439,5.8221,0.0],[5.4321,5.8257,0.0],[5.4249,5.8232,1.2487],[5.4157,5.8287,1.8257],[5.4121,5.8201,2.2087],[5.4093,5.819,1.1897],[5.399,5.8229,4.6133],[5.3812,5.8226,0.0],[5.3749,5.8151,3.1999],[5.3677,5.8107,3.4634],[5.3671,5.8024,4.2223],[5.3615,5.801,0.8085],[5.3571,5.8035,3.8909],[5.3524,5.8032,3.6369],[5.3335,5.7876,5.6468],[5.3332,5.7835,3.0125],[5.3368,5.7754,3.3921],[5.334,5.7596,0.0],[5.3424,5.7482,2.1044],[5.3426,5.7426,0.9332],[5.3365,5.7346,3.3346],[5.3232,5.7243,7.8651],[5.3224,5.7204,0.0],[5.3274,5.7154,0.0],[5.3418,5.7126,7.8438],[5.3479,5.709,4.5594],[5.3549,5.6976,0.0],[5.3599,5.6954,0.0],[5.3762,5.7018,0.0],[5.4079,5.7057,7.1472],[5.4163,5.7118,1.2509],[5.4426,5.7429,3.5558],[5.4565,5.7488,0.0],[5.454,5.7549,2.1764],[5.4579,5.7496,0.0],[5.461,5.7485,1.8072],[5.4724,5.7371,2.2119],[5.484,5.7076,0.0],[5.4885,5.7057,4.7199],[5.5107,5.7076,4.3048],[5.5151,5.7157,0.0],[5.5154,5.7196,0.8058],[5.4979,5.7413,0.0],[5.496,5.7465,2.5596],[5.4963,5.7524,1.7263],[5.5038,5.7668,1.4552],[5.5068,5.7682,0.3475],[5.5115,5.7674,1.3872],[5.5143,5.7618,2.4216],[5.5185,5.7582,0.0],[5.5307,5.7549,0.0],[5.5363,5.7571,4.1583],[5.5365,5.7607,0.0],[5.5324,5.769,0.7623],[5.5179,5.774,0.5763],[5.5079,5.7799,1.3168],[5.5065,5.7821,0.0],[5.5076,5.7863,0.0],[5.5157,5.7913,2.1629],[5.5146,5.8043,0.0],[5.5185,5.8138,1.291],[5.5221,5.8165,0.0],[5.5296,5.8165,1.1384],[5.524,5.8035,1.6596],[5.5249,5.7971,10.1852],[5.5282,5.7946,1.1116],[5.5429,5.7915,3.7406],[5.551,5.7813,2.044],[5.5596,5.7796,2.6945],[5.5662,5.7763,1.3571],[5.5596,5.7788,2.6945],[5.5532,5.779,0.0],[5.5479,5.7818,1.6368],[5.5393,5.791,3.6161],[5.526,5.7943,1.7324],[5.5232,5.7979,0.0],[5.5226,5.8026,1.6596],[5.5271,5.8113,0.0],[5.5271,5.814,0.0],[5.5226,5.8149,9.7218],[5.519,5.8118,2.5014],[5.5168,5.8063,4.9951],[5.5179,5.7915,2.3289],[5.5082,5.7824,4.0967],[5.5326,5.7707,5.8622],[5.5379,5.7624,0.5044],[5.5379,5.7549,2.0068],[5.5285,5.7529,0.7976],[5.5204,5.7549,5.7586],[5.5137,5.7593,3.0527],[5.5099,5.7654,1.7238],[5.5065,5.7663,4.2959],[5.4982,5.7507,5.2652],[5.4979,5.7457,5.9839],[5.5018,5.7388,5.9783],[5.5162,5.7229,2.0767],[5.5162,5.7096,0.3484],[5.5185,5.709,1.0085],[5.5168,5.7074,0.7973],[5.5185,5.7054,4.107],[5.5174,5.7035,1.221],[5.5204,5.6999,1.4104],[5.5215,5.701,2.661],[5.5238,5.7004,0.4823],[5.524,5.6904,0.6788],[5.5315,5.6843,0.3334],[5.5449,5.6851,0.0],[5.5518,5.6826,0.0],[5.5546,5.6832,0.0],[5.5549,5.6857,0.8845],[5.5443,5.6957,0.8214],[5.544,5.6985,1.0303],[5.5551,5.714,1.3698],[5.5615,5.7143,0.0],[5.5601,5.7182,2.5709],[5.5543,5.724,1.7175],[5.5585,5.7215,0.9195],[5.5626,5.716,0.6203],[5.5624,5.7132,1.8581],[5.5551,5.7132,3.0021],[5.5449,5.6982,3.8083],[5.5451,5.6957,1.4254],[5.5529,5.6893,1.5972],[5.556,5.684,0.0],[5.554,5.6818,10.9237],[5.5451,5.6843,0.0],[5.5332,5.6829,1.4543],[5.5251,5.6879,1.3301],[5.5229,5.6926,0.0],[5.521,5.6935,2.9562],[5.5137,5.6779,0.7828],[5.5129,5.6574,0.8121],[5.5107,5.6543,0.5821],[5.5074,5.6543,0.9479],[5.499,5.6618,6.6506],[5.4793,5.6607,0.0],[5.4668,5.6646,1.317],[5.4657,5.6662,1.2032],[5.4663,5.6763,2.0731],[5.4682,5.6782,2.3004],[5.4749,5.6788,2.0869],[5.4749,5.6804,2.0869],[5.4713,5.6826,0.0],[5.4585,5.6846,2.9417],[5.4557,5.6829,1.8213],[5.4518,5.6765,1.4379],[5.4346,5.6676,0.0],[5.4332,5.6618,0.0],[5.4354,5.6565,0.0],[5.4451,5.6524,2.2144],[5.4504,5.646,0.6485],[5.4551,5.6432,0.5126],[5.4693,5.6393,2.7138],[5.4837,5.6315,0.0],[5.484,5.6329,4.6606],[5.4796,5.6368,1.2852],[5.479,5.6393,1.9938],[5.4835,5.6415,2.1325],[5.4913,5.6404,2.7206],[5.4896,5.6488,3.5156],[5.4907,5.6507,3.7629],[5.4926,5.6507,8.9709],[5.4968,5.6465,2.3577],[5.4907,5.6493,3.5156],[5.4921,5.6396,2.7206],[5.4829,5.6407,2.1325],[5.4807,5.6396,1.9938],[5.4807,5.6376,1.3233],[5.4837,5.6354,0.5799],[5.4854,5.6304,0.0],[5.4899,5.626,2.8859],[5.5018,5.6207,4.8392],[5.5099,5.6207,0.9134],[5.5254,5.626,6.9261],[5.5382,5.6235,0.0],[5.5385,5.6271,0.0],[5.5351,5.6332,0.2774],[5.5354,5.6404,0.61],[5.5371,5.6424,1.4385],[5.5429,5.6424,2.4981],[5.5476,5.639,0.0],[5.5493,5.6354,0.0],[5.5524,5.6349,0.0],[5.5571,5.6365,0.0],[5.5626,5.6429,4.5378],[5.5685,5.6465,1.5589],[5.5801,5.6499,0.0],[5.5804,5.661,1.3521],[5.5843,5.6654,0.0],[5.5854,5.6704,0.5098],[5.5904,5.6746,3.1209],[5.5882,5.6829,0.9176],[5.5904,5.7013,1.2643],[5.5926,5.7038,1.6449],[5.5979,5.7051,0.0],[5.6032,5.7132,1.2718],[5.6026,5.7093,2.6486],[5.5979,5.7043,0.0],[5.5915,5.7018,1.2643],[5.5896,5.6915,0.6861],[5.5912,5.6874,0.0],[5.5901,5.679,1.0376],[5.6051,5.666,2.4148],[5.6076,5.6701,0.8575],[5.6121,5.6699,0.0],[5.6113,5.6732,0.0],[5.6126,5.6749,0.0],[5.6176,5.6738,2.4555],[5.6282,5.6779,0.0],[5.6313,5.6779,1.6116],[5.6338,5.6738,0.5443],[5.6399,5.6749,1.3194],[5.6438,5.671,0.0],[5.6388,5.6743,0.0],[5.6335,5.6729,2.9955],[5.6313,5.6771,1.6116],[5.6282,5.6771,0.0],[5.619,5.6729,2.4805],[5.6126,5.674,0.0],[5.6129,5.6682,10.439],[5.609,5.6685,0.4096],[5.6076,5.6651,1.9589],[5.6057,5.6646,2.3017],[5.5957,5.6715,1.2417],[5.5924,5.6721,0.0],[5.5871,5.6674,0.0],[5.584,5.661,0.9087],[5.5824,5.6485,0.797],[5.5807,5.6463,1.4029],[5.5749,5.6443,0.0],[5.5746,5.6421,0.0],[5.5779,5.6387,2.3222],[5.5707,5.6435,2.249],[5.5582,5.6329,4.5731],[5.5515,5.6304,4.7354],[5.5463,5.6315,2.8485],[5.5412,5.6387,0.5577],[5.5388,5.6393,0.0],[5.5376,5.6379,0.0],[5.5443,5.6229,0.8103],[5.5415,5.6168,1.5205],[5.5401,5.6068,0.0],[5.5565,5.6071,1.5357],[5.5646,5.6032,0.0],[5.5671,5.5996,0.0],[5.5657,5.5946,0.0],[5.5668,5.591,0.0],[5.576,5.5821,11.8323],[5.5782,5.5821,0.4894],[5.579,5.584,6.6742],[5.5776,5.5999,0.0],[5.5801,5.606,5.5752],[5.5868,5.6074,1.002],[5.5951,5.6054,0.0],[5.5965,5.6029,2.0396],[5.596,5.5946,0.0],[5.5988,5.5913,0.0],[5.6024,5.5951,0.0],[5.604,5.6065,0.9324],[5.6074,5.6124,8.2603],[5.6088,5.6235,7.2249],[5.6104,5.6251,14.1481],[5.6168,5.6243,2.7836],[5.6221,5.6143,1.3263],[5.6251,5.6132,0.0],[5.626,5.6265,8.5356],[5.6304,5.6337,0.0],[5.6346,5.634,1.5696],[5.6401,5.631,3.2284],[5.6424,5.6271,4.1071],[5.6415,5.6235,4.0722],[5.6385,5.6207,0.6636],[5.6382,5.6171,2.6732],[5.6438,5.6163,1.1659],[5.6615,5.6374,5.9252],[5.659,5.6454,6.1583],[5.661,5.649,12.1868],[5.6682,5.6485,2.1126],[5.6718,5.6568,4.8351],[5.684,5.656,2.676],[5.6768,5.6551,0.6193],[5.6718,5.656,4.8351],[5.6682,5.6476,2.1126],[5.6615,5.6485,0.0],[5.6604,5.6474,0.0],[5.6629,5.6429,0.0],[5.6632,5.6357,0.0],[5.6549,5.6265,2.1081],[5.6493,5.6174,2.7304],[5.6446,5.6149,4.5362],[5.6388,5.6149,7.8345],[5.6354,5.6185,0.859],[5.6346,5.6168,2.1613],[5.6304,5.614,1.8651],[5.6348332502078131,5.6096329177057358,10.0361],[5.6349,5.6096,10.0361],[5.6349200227531284,5.6095474402730376,10.0361],[5.6371,5.6074,6.7645],[5.6368,5.6049,2.271],[5.631,5.6013,0.0],[5.6338,5.5971,6.0828],[5.6376,5.5993,5.1994],[5.6399,5.5982,5.0558],[5.6371,5.5868,6.2636],[5.6401,5.5829,0.6048],[5.6363,5.5799,0.7304],[5.6382,5.5724,0.6187],[5.6465,5.5668,0.0],[5.656,5.5688,6.075],[5.6596,5.5663,0.0],[5.6565,5.556,3.2076],[5.6613,5.549,0.9426],[5.6621,5.5443,0.8112],[5.671,5.5396,1.0067],[5.6754,5.5424,0.7224],[5.679,5.5421,4.5548],[5.6843,5.5338,0.2378],[5.6904,5.5363,0.1788],[5.7015,5.5354,1.3109],[5.704,5.539,3.7297],[5.7021,5.5335,0.0],[5.7049,5.5312,0.0],[5.7157,5.5132,0.9632],[5.7224,5.5121,2.0994],[5.724,5.5146,0.6223],[5.7238,5.5182,2.3014],[5.7251,5.5182,2.3014],[5.7249,5.5129,0.0],[5.729,5.5135,0.0],[5.7271,5.5071,0.0],[5.7243,5.5068,2.2517],[5.7118,5.494,1.3314],[5.7085,5.4804,4.0927],[5.7085,5.4774,3.988],[5.7101,5.4757,4.9334],[5.7093,5.4707,5.8658],[5.7051,5.4643,7.7054],[5.699,5.461,7.8155],[5.7004,5.4579,2.6908],[5.6976,5.4604,5.7955],[5.6918,5.4574,2.5883],[5.6774,5.4554,9.5543],[5.6676,5.4524,1.2826],[5.6568,5.434,0.8178]]],
[[[5.6349200227531284,5.6095474402730376,10.0361],[5.6348332502078131,5.6096329177057358,10.0361],[5.6276,5.6132,2.3062],[5.6229,5.6118,7.0526],[5.6151,5.6232,2.5376],[5.6115,5.6243,0.0],[5.6101,5.6146,0.0],[5.6051,5.6035,6.6376],[5.6046,5.5963,4.495],[5.6021,5.5907,0.0],[5.5979,5.5899,7.6357],[5.5949,5.5918,8.1112],[5.5932,5.6046,0.0],[5.5843,5.6051,12.5208],[5.5796,5.6018,13.0817],[5.5818,5.5835,1.1468],[5.5779,5.5799,3.6411],[5.5743,5.5807,0.8467],[5.5662,5.5876,1.2113],[5.564,5.5921,2.5471],[5.564,5.6015,3.9057],[5.5554,5.604,0.0],[5.5396,5.6013,0.6683],[5.5335,5.6026,0.7354],[5.5268,5.5971,1.1537],[5.5151,5.5951,0.9535],[5.5082,5.5893,0.5973],[5.5021,5.5826,1.3128],[5.5024,5.5793,0.0],[5.5076,5.576,0.9854],[5.5099,5.5776,0.0],[5.5107,5.581,3.167],[5.5132,5.581,1.5078],[5.516,5.5707,1.0014],[5.5118,5.5788,0.0],[5.5057,5.571,1.1814],[5.4965,5.5693,0.0],[5.491,5.551,0.0],[5.4937,5.5454,1.4228],[5.4935,5.541,2.5057],[5.4804,5.5393,1.4401],[5.481,5.5321,3.8508],[5.4749,5.5265,24.1461],[5.4718,5.5257,2.8515],[5.4713,5.5199,5.1508],[5.4746,5.5171,4.6994],[5.4743,5.5138,0.0],[5.4715,5.5129,1.6232],[5.4674,5.5143,1.2549],[5.4668,5.5121,3.2433],[5.4713,5.509,5.5489],[5.4718,5.5043,7.749],[5.4646,5.4951,11.0904],[5.4599,5.4815,2.0939],[5.4551,5.4776,1.2644],[5.4438,5.4776,4.5784],[5.4429,5.4735,0.0],[5.4449,5.4668,8.0745],[5.4432,5.4643,0.0],[5.4393,5.4624,0.0],[5.4332,5.4632,3.1007],[5.4321,5.4621,3.1007],[5.4349,5.4501,0.0],[5.4382,5.4499,3.0171],[5.4443,5.4462,0.0],[5.4471,5.4501,0.0],[5.4513,5.4507,5.7136],[5.4582,5.4429,3.5449],[5.4607,5.4451,3.048],[5.4601,5.4504,2.0862],[5.4621,5.4596,3.2369],[5.4685,5.4651,3.8134],[5.4696,5.4688,3.6776],[5.4701,5.4657,4.2835],[5.4635,5.4585,11.4641],[5.4607,5.4413,2.5634],[5.4554,5.4426,8.2678],[5.4507,5.4487,10.4965],[5.4451,5.4443,5.1269],[5.4337,5.4465,2.8797],[5.4301,5.4385,6.9212],[5.4224,5.434,0.0],[5.4188,5.4296,3.8467],[5.4196,5.424,5.4261],[5.4243,5.4201,0.0],[5.4315,5.419,5.7945],[5.451,5.4093,1.2357],[5.4585,5.4085,1.8072],[5.4654,5.4029,0.5866],[5.4729,5.4046,0.0],[5.4788,5.4124,0.0],[5.4857,5.4263,0.7809],[5.4907,5.4421,1.5435],[5.4932,5.4582,0.9759],[5.4985,5.4774,4.1593],[5.5068,5.4951,0.0],[5.5135,5.5043,9.4323],[5.5146,5.5093,0.0],[5.5304,5.5176,0.0],[5.5293,5.5201,10.8586],[5.5213,5.5213,4.5301],[5.5201,5.5229,5.2398],[5.5271,5.5246,3.7795],[5.5379,5.5193,1.1418],[5.5521,5.5201,0.0],[5.5654,5.5171,6.2844],[5.5696,5.5207,0.0],[5.5685,5.5263,1.1311],[5.5601,5.5315,2.1955],[5.5493,5.5429,2.651],[5.5451,5.5413,3.5405],[5.5446,5.5379,6.984],[5.5429,5.5354,4.9351],[5.5393,5.536,1.2882],[5.5399,5.5446,14.2776],[5.5349,5.5488,1.5895],[5.5363,5.5535,2.1855],[5.5451,5.5582,4.0125],[5.5421,5.5537,6.8198],[5.5354,5.5501,1.5895],[5.5404,5.5449,14.2776],[5.5399,5.5365,1.2882],[5.5435,5.5368,1.1512],[5.5446,5.5415,3.5405],[5.546,5.5429,1.4878],[5.5501,5.5432,2.651],[5.5618,5.5307,6.584],[5.5674,5.5285,4.2436],[5.5699,5.5252,5.461],[5.5707,5.521,0.0],[5.5813,5.5265,11.0672],[5.5799,5.5296,1.2549],[5.5729,5.5329,7.2294],[5.5732,5.5374,6.4948],[5.5765,5.5399,1.9895],[5.5785,5.5446,0.0],[5.5785,5.5418,4.6392],[5.5735,5.5357,0.0],[5.5735,5.5335,1.1935],[5.5799,5.5304,1.2549],[5.5826,5.5265,0.6927],[5.5774,5.5204,0.0],[5.5796,5.5185,0.0],[5.5826,5.519,2.6751],[5.5868,5.5235,0.0],[5.5965,5.526,0.0],[5.604,5.5443,2.1931],[5.616,5.5504,0.0],[5.6257,5.5504,0.0],[5.634,5.5476,3.2373],[5.6446,5.5315,0.0],[5.6493,5.5329,2.3724],[5.6518,5.5376,1.0091],[5.6596,5.544,3.2696],[5.6554,5.5537,2.9915],[5.659,5.5657,0.0],[5.6557,5.5679,1.5884],[5.6512,5.5663,1.8251],[5.6443,5.5663,11.3644],[5.6413,5.5679,14.6845],[5.6363,5.574,13.0234],[5.6354,5.5799,0.7304],[5.6385,5.5832,0.0],[5.636,5.589,1.8636],[5.6385,5.5982,0.0],[5.6335,5.5965,1.0071],[5.6301,5.6007,0.0],[5.6307,5.6029,8.9854],[5.6365,5.6054,2.271],[5.6349200227531284,5.6095474402730376,10.0361]]],
[[[5.7082,5.4765,1.6498],[5.7076,5.479,4.0927],[5.7093,5.4901,3.3001],[5.711,5.494,3.6584],[5.7151,5.4996,3.1253],[5.7229,5.5054,0.0],[5.7243,5.5082,0.0],[5.7138,5.5126,1.6678],[5.7104,5.519,0.0],[5.7071,5.5215,4.5737],[5.7043,5.5293,0.0],[5.6999,5.5326,0.0],[5.6921,5.5343,0.0],[5.6874,5.531,2.1628],[5.6826,5.531,0.0],[5.6624,5.5399,5.1731],[5.6607,5.5399,1.8192],[5.6599,5.5376,5.6577],[5.6582,5.5385,5.183],[5.6563,5.5351,6.6853],[5.6574,5.5335,0.0],[5.659,5.5351,3.9807],[5.6554,5.5304,2.2823],[5.659,5.5287,5.1036],[5.6588,5.5276,5.1036],[5.6443,5.5271,0.0],[5.6376,5.5293,0.0],[5.6301,5.5399,2.7031],[5.6221,5.5424,0.0],[5.6171,5.5401,4.1235],[5.6151,5.5376,2.9949],[5.6151,5.5312,7.4315],[5.6132,5.5262,2.9178],[5.6057,5.5143,0.0],[5.6115,5.5124,6.2633],[5.6168,5.5154,0.0],[5.6201,5.5151,1.3652],[5.6221,5.5113,4.6228],[5.6179,5.5065,1.4743],[5.6168,5.5079,0.5717],[5.6201,5.511,0.0],[5.6193,5.514,1.3652],[5.6088,5.5096,4.2093],[5.6004,5.5124,0.0],[5.5921,5.5054,5.6539],[5.5801,5.5024,0.0],[5.5657,5.5024,0.0],[5.5551,5.5046,0.0],[5.5518,5.5046,0.9135],[5.5499,5.5029,2.5005],[5.5568,5.489,0.0],[5.551,5.4774,18.6877],[5.5649,5.4718,1.5547],[5.5665,5.4729,13.5886],[5.5682,5.4804,0.0],[5.5724,5.4843,7.8813],[5.5835,5.4857,6.4613],[5.5926,5.4921,3.6722],[5.5957,5.4896,3.2573],[5.596,5.4854,1.6339],[5.5988,5.4804,1.0896],[5.6024,5.4779,2.4435],[5.6074,5.4813,4.6985],[5.6118,5.4824,3.7537],[5.6163,5.491,5.1897],[5.6212,5.4949,7.1134],[5.6254,5.4929,2.2994],[5.6265,5.4835,0.9374],[5.631,5.4868,1.8833],[5.6365,5.4874,2.8002],[5.6393,5.4832,5.8532],[5.6415,5.4829,3.9137],[5.6426,5.4851,5.195],[5.6404,5.4868,0.9763],[5.644,5.4885,0.0],[5.646,5.4868,3.4099],[5.6465,5.481,2.6013],[5.6485,5.4782,2.5565],[5.6485,5.4735,3.0967],[5.6507,5.4704,3.4091],[5.649,5.4654,2.8451],[5.6518,5.4621,5.069],[5.6521,5.4596,1.776],[5.6512,5.4579,4.1596],[5.6493,5.4574,1.9057],[5.6496,5.4551,0.9593],[5.6568,5.4529,1.6483],[5.6629,5.4571,1.8921],[5.6651,5.451,0.0],[5.6704,5.4543,4.7861],[5.6913,5.4579,2.5883],[5.6993,5.4615,7.8155],[5.7079,5.4688,3.3026],[5.7082,5.4765,1.6498]]],
[[[5.3974,5.4829,0.9236],[5.3979,5.4843,0.661],[5.3957,5.4846,0.4612],[5.3963,5.4821,0.0],[5.3974,5.4829,0.9236]]],
[[[5.4321,5.399,0.9724],[5.4171,5.4146,0.0],[5.4143,5.4193,6.6248],[5.4076,5.454,1.2676],[5.3985,5.471,0.0],[5.3857,5.4771,0.0],[5.3751,5.4732,2.4073],[5.3729,5.476,1.5395],[5.3732,5.4821,11.7518],[5.3718,5.4851,6.4474],[5.3618,5.4835,7.0558],[5.3599,5.4776,2.2055],[5.3571,5.4774,1.3346],[5.3524,5.4857,0.7818],[5.3446,5.4876,3.6771],[5.3404,5.4935,1.0196],[5.3424,5.5007,0.2443],[5.3396,5.5029,0.4785],[5.3396,5.5126,0.5008],[5.3365,5.5129,0.5101],[5.336,5.509,0.0],[5.3326,5.5079,1.7751],[5.3313,5.5093,0.0],[5.3318,5.5129,0.0],[5.3276,5.5151,4.6042],[5.3293,5.5157,1.6627],[5.3329,5.5138,2.3301],[5.3329,5.5088,3.6481],[5.3349,5.5096,0.0],[5.334,5.5121,1.0855],[5.336,5.514,3.6739],[5.3399,5.5135,0.5008],[5.3413,5.5035,1.1734],[5.3438,5.5007,2.0298],[5.3421,5.4929,2.19],[5.3465,5.4882,0.6433],[5.3521,5.4876,4.9819],[5.3579,5.479,3.3787],[5.3593,5.479,3.3787],[5.3604,5.484,2.6516],[5.3668,5.4849,0.0],[5.369,5.4871,0.0],[5.3663,5.4918,0.0],[5.3663,5.4968,0.9081],[5.359,5.5007,2.8002],[5.3554,5.5093,1.8016],[5.3551,5.5118,3.4683],[5.3601,5.5163,0.0],[5.3535,5.5262,0.3695],[5.3529,5.5335,1.5457],[5.3579,5.5335,0.3184],[5.3574,5.5376,0.0],[5.361,5.5415,0.6601],[5.3546,5.5501,4.7767],[5.3535,5.5568,0.0],[5.3565,5.5657,2.5711],[5.3726,5.5788,1.8164],[5.374,5.5835,0.0],[5.3732,5.5857,0.5901],[5.3615,5.5832,3.7648],[5.3443,5.5832,0.9554],[5.3296,5.5851,1.4353],[5.3126,5.5901,4.8372],[5.3085,5.5857,4.3246],[5.3038,5.5835,10.5349],[5.3088,5.5868,4.3246],[5.3104,5.5921,0.0],[5.301,5.594,3.2769],[5.2896,5.599,0.0],[5.2818,5.5982,1.3996],[5.2729,5.6004,3.2509],[5.2388,5.6029,0.0],[5.2129,5.6013,0.0],[5.206,5.5985,0.0],[5.2043,5.5929,0.0],[5.2057,5.5901,1.3044],[5.2051,5.5862,3.5793],[5.2035,5.584,2.067],[5.2032,5.5862,0.0],[5.2015,5.5862,1.9405],[5.1835,5.5699,1.8368],[5.179,5.5688,0.0],[5.171,5.5529,0.2368],[5.1671,5.5485,1.2982],[5.1629,5.5482,0.6334],[5.1596,5.5446,0.0],[5.1582,5.5376,0.8126],[5.1629,5.5301,0.0],[5.1796,5.5104,0.0],[5.2035,5.4776,3.9804],[5.2204,5.4593,3.3369],[5.2282,5.4538,6.1166],[5.2293,5.4504,0.0],[5.2313,5.4507,3.7931],[5.2565,5.4332,2.0095],[5.286,5.4229,5.7192],[5.3157,5.4071,5.8169],[5.3388,5.4001,0.0],[5.3501,5.3929,2.5371],[5.3824,5.3907,2.1665],[5.3896,5.3924,4.2348],[5.4015,5.391,0.0],[5.4037,5.3924,2.1017],[5.4143,5.3899,0.0],[5.4246,5.391,2.2885],[5.4324,5.3882,0.0],[5.434,5.3954,0.0],[5.4321,5.399,0.9724]]],
[[[5.4099,5.5088,0.0],[5.4099,5.5121,0.0],[5.4007,5.5118,1.9137],[5.3982,5.5104,0.0],[5.394,5.5035,0.0],[5.3946,5.4896,5.1553],[5.3951,5.4874,2.0465],[5.3996,5.4857,1.1081],[5.3993,5.4793,1.2383],[5.4026,5.4796,2.0546],[5.3999,5.4857,1.1081],[5.4001,5.489,7.5232],[5.4021,5.491,3.1764],[5.4057,5.4926,1.4475],[5.4146,5.4921,0.4047],[5.416,5.4932,1.0565],[5.4165,5.4985,2.8346],[5.411,5.504,0.0],[5.4099,5.5088,0.0]]],
[[[5.3651,5.5379,1.0586],[5.3596,5.5376,0.5274],[5.3593,5.5329,0.3184],[5.3543,5.529,0.0],[5.3554,5.5251,1.2941],[5.3615,5.5174,2.1224],[5.3599,5.5132,2.4791],[5.3562,5.5107,2.6711],[5.3601,5.5007,1.8318],[5.3665,5.4976,2.1142],[5.3682,5.489,2.4597],[5.3743,5.4849,4.7478],[5.3749,5.4754,0.0],[5.3762,5.4749,0.0],[5.3835,5.4796,2.6354],[5.3868,5.4796,2.463],[5.394,5.4754,0.0],[5.3951,5.4779,0.0],[5.3918,5.489,0.0],[5.3926,5.4988,0.0],[5.3913,5.5037,0.0],[5.4018,5.5238,0.0],[5.4018,5.5271,0.0],[5.4004,5.5293,1.1255],[5.3965,5.5307,0.0],[5.3807,5.529,1.3537],[5.3651,5.5379,1.0586]]]]}}