{"type":"Feature","properties":{"ISO3166-1-Alpha-3":"NGA","country":"Nigeria","fill":"#F0F","id":"2860","name":"Delta"},
"geometry":{"type": "Polygon","coordinates": [[[6.60573,5.72317,15.4633],[6.60945,5.7658,22.6909],[6.61606,5.79275,25.2771],[6.62598,5.81851,14.0288],[6.64541,5.85269,18.586],[6.68531,5.90576,13.0],[6.68903,5.91429,13.5],[6.69048,5.92364,13.5],[6.68903,5.94103,25.5107],[6.68996,5.95002,24.0428],[6.70329,6.00093,20.8591],[6.69936,6.0534,20.9502],[6.7037,6.07593,14.0],[6.72345,6.09182,14.0],[6.73657,6.09655,16.89],[6.7468,6.10159,18.4486],[6.75383,6.10955,14.9587],[6.75766,6.12288,14.0],[6.76086,6.16712,16.2703],[6.759,6.18107,14.0],[6.75393,6.19438,14.0],[6.74081,6.21952,14.5],[6.73667,6.23329,20.5326],[6.73275,6.27223,16.1157],[6.71497,6.32109,20.0077],[6.70877,6.3761,15.0],[6.68097,6.474,16.0],[6.67663,6.5034,18.2057],[6.67673,6.53511,22.9755],[6.64562,6.49738,26.819],[6.6172,6.48782,34.9501],[6.58185,6.4941,44.1151],[6.54599,6.49332,44.9823],[6.48542,6.46738,108.1379],[6.36378,6.39455,215.7501],[6.26911,6.35563,146.8606],[6.24275,6.3392,165.944],[6.20131,6.28706,159.6676],[6.17319,6.28755,187.5491],[6.15294,6.32018,191.3453],[6.12772,6.34623,89.0519],[6.09361,6.34948,125.6773],[6.07026,6.32788,86.6471],[6.0561,6.29936,83.2928],[6.05279,6.26391,146.1372],[6.08493,6.20799,148.0367],[6.08803,6.17435,135.3408],[6.09992,6.13474,131.5845],[6.13051,6.08444,87.2058],[6.19045,6.02932,139.6196],[6.20906,6.02516,141.4918],[6.22239,6.01354,94.807],[6.22249,5.97457,53.8959],[6.21071,5.93669,38.4659],[6.16947,5.88918,31.5334],[6.11366,5.84724,29.9509],[6.07274,5.79879,20.0067],[6.02147,5.76195,19.0333],[5.92349,5.7411,9.0882],[5.90561,5.74037,17.4089],[5.88877,5.74624,8.0703],[5.88742,5.76249,8.8958],[5.89145,5.77381,12.4477],[5.88608,5.78538,10.0614],[5.87502,5.79528,10.3267],[5.87027,5.80662,14.1185],[5.89176,5.8415,25.3578],[5.89611,5.87838,32.4592],[5.86799,5.89941,33.9067],[5.83451,5.91755,25.5402],[5.77994,5.97684,28.6945],[5.66335,6.03994,16.0193],[5.60186,6.03749,17.4175],[5.54595,6.00341,14.0795],[5.53995,5.98997,17.2547],[5.53013,5.98214,9.3222],[5.52042,5.98431,12.2789],[5.50212,5.99095,2.8889],[5.46326,6.01855,7.0698],[5.42606,6.02136,14.7102],[5.39608,6.01651,7.0526],[5.33139,6.01979,13.3856],[5.32115,5.9954,9.1189],[5.32632,5.96238,15.2753],[5.26875,5.91277,0.0],[5.25108,5.90566,14.8086],[5.23134,5.9207,10.1448],[5.22318,5.97279,14.8401],[5.23237,6.03855,15.5914],[5.18504,6.09317,14.8387],[5.11517,6.12691,14.606],[5.00365,5.85621,7.1848],[5.00303,5.85481,0.7933],[5.00302,5.85478,0.7933],[5.00733,5.84919,3.7852],[5.04469,5.76748,0.0],[5.05502,5.76659,0.0],[5.10548,5.81367,0.0],[5.11997,5.82416,0.0],[5.19581,5.864,0.0],[5.23536,5.87592,0.0],[5.26954,5.9064,0.0],[5.29038,5.9101,0.0],[5.26743,5.87189,8.5899],[5.18539,5.84203,28.2595],[5.15398,5.81452,23.5015],[5.15309,5.80463,15.668],[5.15699,5.7945,11.9072],[5.15919,5.78559,8.4787],[5.15398,5.7792,5.9966],[5.14649,5.78107,21.8701],[5.12648,5.79702,20.9861],[5.115,5.80093,22.3112],[5.10271,5.7932,21.1469],[5.09344,5.77473,20.238],[5.08741,5.7521,13.8136],[5.08497,5.732,14.8055],[5.08863,5.70873,1.4907],[5.09783,5.69086,0.0],[5.10727,5.67699,0.7016],[5.11671,5.64883,0.0],[5.12916,5.62812,0.0],[5.14487,5.60863,0.0],[5.16017,5.59479,0.0],[5.17359,5.58539,0.0],[5.1797,5.58259,0.0],[5.20493,5.59199,0.0],[5.22828,5.60562,0.0],[5.23911,5.60847,0.0],[5.26303,5.61054,0.0],[5.28028,5.6175,0.0],[5.29322,5.63032,12.0178],[5.30405,5.65005,0.0],[5.33139,5.72455,8.2761],[5.33758,5.72455,5.8257],[5.3392,5.70588,22.8706],[5.33692,5.69115,0.7846],[5.31821,5.63666,12.2907],[5.31788,5.61957,3.5162],[5.32602,5.60541,0.0],[5.34498,5.59479,0.0],[5.3615,5.59365,0.0],[5.37965,5.59797,0.0],[5.39601,5.6059,0.0],[5.4065,5.6153,12.1306],[5.41896,5.6459,0.0],[5.42848,5.65583,1.7017],[5.44744,5.65624,1.9366],[5.46485,5.64863,1.3325],[5.48512,5.63434,1.6415],[5.50213,5.61725,0.0],[5.50953,5.60163,1.8656],[5.50961,5.59064,0.0],[5.50807,5.58454,1.1797],[5.50294,5.58177,2.9498],[5.49252,5.5812,4.4],[5.49,5.58584,0.0],[5.48439,5.60798,1.8505],[5.4817,5.6153,2.5378],[5.47104,5.62279,1.4531],[5.45582,5.62739,1.703],[5.43995,5.62767,2.3526],[5.42701,5.62214,2.9754],[5.4192,5.61054,1.8482],[5.4026,5.57477,7.6245],[5.39283,5.56061,0.0],[5.386,5.56061,1.6128],[5.36524,5.57233,1.9694],[5.32814,5.57844,13.1923],[5.23024,5.58251,1.0732],[5.22283,5.5812,4.1734],[5.2142,5.57514,10.2921],[5.19793,5.55756,11.2784],[5.19117,5.55386,3.5526],[5.18849,5.54413,6.8116],[5.1906,5.52285,3.5166],[5.19801,5.50145,7.6806],[5.2186,5.48713,9.0346],[5.25017,5.4582,3.7969],[5.25392,5.45279,3.1308],[5.25847,5.44184,9.9459],[5.26319,5.43651,10.6549],[5.37599,5.39883,11.8601],[5.43385,5.39558,0.0],[5.4275,5.40396,0.0],[5.42107,5.41779,0.0],[5.4183,5.43081,0.0],[5.42359,5.43651,0.0],[5.43605,5.43464,9.9606],[5.43995,5.42988,7.4792],[5.44158,5.42349,0.9269],[5.44744,5.41669,14.1356],[5.4686,5.40778,10.9206],[5.48487,5.41153,0.0],[5.49806,5.42642,0.0],[5.50953,5.45075,1.7612],[5.50318,5.47647,0.0],[5.5171,5.4986,2.6497],[5.54103,5.51048,0.0],[5.56414,5.50544,0.0],[5.56886,5.51044,0.0],[5.57521,5.51484,0.0],[5.57789,5.51972,3.0017],[5.5962,5.51423,0.0],[5.61052,5.52192,2.9591],[5.62387,5.5336,6.372],[5.6399,5.54019,7.0867],[5.62574,5.51789,6.7918],[5.61402,5.50495,5.4934],[5.60206,5.49925,3.5937],[5.5687,5.4999,4.8615],[5.55356,5.49689,1.9173],[5.54029,5.48835,4.3978],[5.53395,5.47639,3.3677],[5.53191,5.46064,2.6114],[5.53321,5.44424,3.7],[5.53688,5.43032,3.5268],[5.5464,5.41551,5.4598],[5.57032,5.39468,4.6662],[5.57789,5.38198,0.0],[5.57154,5.38198,6.9252],[5.56129,5.38886,0.0],[5.54607,5.38947,0.0],[5.52963,5.38638,0.0],[5.49488,5.37287,6.606],[5.48911,5.36884,7.7988],[5.48365,5.36229,9.7355],[5.47608,5.34732,3.7391],[5.46803,5.34089,6.7065],[5.45948,5.35297,0.0],[5.4568,5.35956,0.0],[5.45427,5.36884,0.0],[5.43531,5.36335,2.1812],[5.36899,5.36205,0.0],[5.34571,5.35716,2.7274],[5.34018,5.34394,13.4832],[5.36109,5.25397,12.8412],[5.36557,5.20775,21.0602],[5.36362,5.17158,10.6407],[5.36557,5.16348,18.3965],[5.37615,5.15819,14.6297],[5.40016,5.16234,17.1181],[5.41334,5.15664,17.999],[5.42791,5.16205,16.9067],[5.43491,5.16315,13.409],[5.44435,5.16348,10.2468],[5.44801,5.16763,9.3946],[5.44711,5.18594,0.0],[5.45086,5.19013,0.0],[5.46119,5.18415,15.8132],[5.48854,5.1542,3.7927],[5.49586,5.14232,5.0201],[5.4756,5.14704,5.5537],[5.45427,5.14912,0.0],[5.46021,5.13378,9.325],[5.48683,5.11108,3.0368],[5.52579,5.08625,5.8177],[5.57168,5.07096,11.8972],[5.62243,5.04305,4.9634],[5.64134,5.0284,9.1442],[5.66584,5.02504,8.0676],[5.6832,5.02742,0.6633],[5.6986,5.02667,9.2299],[5.73519,5.04613,4.5465],[5.76898,5.07,8.0078],[5.78769,5.07597,2.3742],[5.80588,5.08424,3.6776],[5.8251,5.09041,10.1444],[5.84371,5.08615,11.8797],[5.87399,5.09202,5.0306],[5.90169,5.10669,4.2541],[5.93466,5.15343,13.4927],[5.94747,5.15953,4.5929],[5.98179,5.12925,2.5],[6.00277,5.1169,7.8382],[6.02344,5.10814,16.8411],[6.0502,5.10457,9.9417],[6.06674,5.11341,3.0],[6.09547,5.15281,5.9819],[6.10426,5.15671,15.8245],[6.11583,5.15454,15.8836],[6.12844,5.15075,16.1268],[6.14023,5.14909,14.8313],[6.15356,5.15204,13.2861],[6.16079,5.15741,3.0],[6.16627,5.16385,10.8123],[6.17433,5.1702,15.2356],[6.19862,5.17764,13.0446],[6.2103,5.18371,6.9157],[6.21526,5.19379,16.4257],[6.21309,5.20271,20.1863],[6.20379,5.21738,18.0499],[6.20162,5.22854,3.0],[6.20947,5.2526,14.0264],[6.22828,5.25927,17.7636],[6.27055,5.25896,23.9873],[6.28854,5.26361,7.7565],[6.29071,5.26929,12.1685],[6.29102,5.28348,3.5],[6.29298,5.29544,11.6706],[6.29815,5.30567,14.5362],[6.3058,5.31482,18.4126],[6.31489,5.32353,17.2462],[6.33329,5.33709,18.6517],[6.34962,5.34259,15.7925],[6.47912,5.362,19.6294],[6.49535,5.3713,8.5],[6.49307,5.39303,16.7471],[6.47602,5.43649,27.4054],[6.47467,5.43851,27.3583],[6.48067,5.44269,21.4986],[6.49038,5.45354,25.7206],[6.49617,5.45804,26.7466],[6.51436,5.46504,18.7402],[6.51984,5.46876,23.2012],[6.53948,5.48948,8.5],[6.54692,5.50096,24.6651],[6.55188,5.51382,23.2664],[6.55632,5.54129,23.4175],[6.55984,5.5617,20.6353],[6.57989,5.60772,27.5335],[6.60573,5.72317,15.4633]]]}}