{"type": "Feature","bbox": [7.521,4.6517,7.7905,4.9656],"geometry": {"type": "MultiPolygon","coordinates": [[[[7.7211,4.9656,48.4453],[7.7084,4.943,53.9251],[7.7043,4.9323,49.8598],[7.6811,4.911,38.5081],[7.6634,4.8989,49.9741],[7.6607,4.8911,49.8348],[7.6615,4.8796,42.9812],[7.659,4.866,43.3668],[7.6391,4.8371,38.1284],[7.6323,4.8317,35.8513],[7.6276,4.8253,39.835],[7.5825,4.7996,29.8543],[7.5337,4.7783,15.5599],[7.521,4.7743,12.4979],[7.5278,4.7608,1.0],[7.531,4.7428,1.0],[7.5381,4.7235,11.4608],[7.5369,4.706,1.0],[7.5304,4.6929,0.5],[7.5237,4.6586,4.8348],[7.5547,4.653,7.4775],[7.5916,4.6517,21.7676],[7.6025,4.657,27.4211],[7.6291,4.6748,18.2585],[7.6491,4.686,20.0935],[7.6575,4.693,28.8982],[7.6656,4.7051,25.153],[7.6787,4.7175,29.7393],[7.6872,4.7321,25.8979],[7.7059,4.7571,31.4334],[7.7216,4.7866,32.1929],[7.7296,4.7984,30.5665],[7.7441,4.8118,35.8948],[7.7548,4.8282,45.6699],[7.7644,4.8386,43.5546],[7.784,4.8655,46.9026],[7.7867,4.8754,49.7766],[7.7905,4.8815,43.4029],[7.7851,4.8904,26.2652],[7.7825,4.9008,13.3875],[7.7783,4.8988,14.1997],[7.7758,4.9027,15.476],[7.7786,4.9209,41.3008],[7.7716,4.9397,32.7618],[7.7675,4.9437,23.9883],[7.7514,4.9455,50.4158],[7.7435,4.9588,47.6796],[7.7369,4.9645,50.8664],[7.7211,4.9656,48.4453]]]]}
,"properties": {"GID_2": "NGA.3.26_1","GID_0": "NGA","country": "Nigeria","GID_1": "NGA.3_1","province": "AkwaIbom","NL_NAME_1": "NA","county": "OrukAnam","VARNAME_2": "NA","NL_NAME_2": "NA","TYPE_2": "LocalAuthority","ENGTYPE_2": "LocalAuthority","CC_2": "NA","HASC_2": "NA","name": "Oruk_Anam.county","area_km2": 469.9707,"hist_schema_id": "Elevation0-9000","hist_area_km2": {"0": 25.3987,"25": 291.1148,"50": 153.2038,"75": 0.2535}}}