{"type": "Feature","bbox": [4.201,8.097,4.6832,8.6943],"geometry": {"type": "MultiPolygon","coordinates": [[[[4.6147,8.4065,367.1926],[4.6099,8.4092,341.3501],[4.6094,8.4064,347.8477],[4.6062,8.4069,339.966],[4.5698,8.3995,309.9732],[4.5571,8.3999,303.0093],[4.5458,8.4137,292.6077],[4.5349,8.424,319.9029],[4.5279,8.4467,313.0122],[4.5242,8.4715,313.1714],[4.5279,8.4753,315.4559],[4.5299,8.4856,304.6337],[4.5393,8.4929,311.7433],[4.5194,8.5079,306.936],[4.5122,8.5175,309.503],[4.5136,8.5311,319.3638],[4.5158,8.5363,324.9891],[4.5117,8.5449,316.3164],[4.5162,8.5511,310.534],[4.5105,8.5689,266.8886],[4.4985,8.582,308.1104],[4.4988,8.5852,319.0671],[4.4891,8.5995,324.9862],[4.4608,8.6299,359.3774],[4.4482,8.6354,330.1758],[4.4345,8.646,336.9345],[4.4258,8.6494,309.4824],[4.4008,8.6724,331.2707],[4.3675,8.6836,295.087],[4.3405,8.6849,305.5939],[4.3293,8.687,297.0185],[4.3126,8.6863,280.2686],[4.2947,8.6903,296.507],[4.2852,8.6896,296.7149],[4.2562,8.6914,321.213],[4.2239,8.6899,313.3165],[4.2179,8.6932,311.8885],[4.2124,8.6943,313.8016],[4.201,8.6935,331.043],[4.2067,8.6629,313.0748],[4.2182,8.6321,310.6112],[4.2266,8.6199,323.5814],[4.2362,8.6135,325.3859],[4.245,8.6014,334.2376],[4.2551,8.5724,295.2067],[4.2762,8.5314,330.8524],[4.2935,8.4871,367.7952],[4.3021,8.4779,363.4367],[4.3078,8.4619,350.3194],[4.3253,8.4448,328.9461],[4.3342,8.4195,323.3284],[4.3353,8.4063,345.4558],[4.338,8.4003,358.8276],[4.3362,8.3899,355.1707],[4.3395,8.3663,370.4806],[4.3592,8.3111,382.7361],[4.3678,8.3003,369.7123],[4.374,8.2857,366.4875],[4.3819,8.2735,349.8131],[4.3887,8.2679,354.6991],[4.4068,8.2429,363.7836],[4.4136,8.2363,353.3514],[4.4395,8.2248,332.2001],[4.4628,8.2066,366.4291],[4.4633,8.1937,356.0583],[4.4758,8.1831,368.3441],[4.4764,8.1649,384.1881],[4.4822,8.1385,386.0443],[4.5005,8.097,378.861],[4.514,8.1018,371.6105],[4.5339,8.1056,369.4932],[4.5678,8.117,382.9427],[4.6046,8.1397,404.8345],[4.6139,8.143,404.7684],[4.6191,8.1507,394.5092],[4.6172,8.163,411.3022],[4.5954,8.1843,456.7743],[4.5914,8.1908,447.2689],[4.5872,8.2033,448.8998],[4.5919,8.2122,451.0732],[4.593,8.2203,458.0283],[4.5976,8.2324,451.4941],[4.6166,8.239,397.0012],[4.6196,8.2514,392.89],[4.6395,8.2856,351.4919],[4.6441,8.2966,343.1359],[4.6573,8.3026,346.8021],[4.6726,8.3182,334.6706],[4.679,8.3329,365.2659],[4.6832,8.3357,366.7321],[4.6417,8.3794,333.0983],[4.6299,8.3881,341.5421],[4.6251,8.3956,363.2826],[4.6149,8.404,364.0697],[4.6147,8.4065,367.1926]]]]}
,"properties": {"GID_2": "NGA.24.1_1","GID_0": "NGA","country": "Nigeria","GID_1": "NGA.24_1","province": "Kwara","NL_NAME_1": "NA","county": "Asa","VARNAME_2": "NA","NL_NAME_2": "NA","TYPE_2": "LocalAuthority","ENGTYPE_2": "LocalAuthority","CC_2": "NA","HASC_2": "NA","name": "Asa.county","area_km2": 1570.409,"hist_schema_id": "Elevation0-9000","hist_area_km2": {"275": 32.138,"300": 198.611,"325": 436.319,"350": 456.727,"375": 235.904,"400": 98.736,"425": 66.081,"450": 32.274,"475": 8.582,"500": 3.148,"525": 1.406,"550": 0.462,"575": 0.021}}}