{"type": "Feature","bbox": [6.8377,6.3688,7.115,6.7154],"geometry": {"type": "MultiPolygon","coordinates": [[[[6.965,6.4186,20.2938],[6.9705,6.4141,23.991],[6.9765,6.4161,21.928],[7.0221,6.4405,23.9408],[7.0186,6.4418,23.5853],[7.0123,6.4505,25.3399],[7.0129,6.4641,26.361],[7.0192,6.478,25.2302],[7.0193,6.4884,32.2908],[7.0292,6.5019,36.9112],[7.0254,6.5095,39.2832],[7.0274,6.516,36.7656],[7.0253,6.5174,38.0677],[7.0374,6.537,40.5754],[7.0553,6.5575,41.3397],[7.0826,6.5759,63.377],[7.0947,6.5933,74.3009],[7.1085,6.6343,90.8896],[7.115,6.649,104.8993],[7.1092,6.6618,88.3544],[7.0914,6.6738,71.0674],[7.0801,6.6766,69.3687],[7.0489,6.6893,52.253],[7.0378,6.6877,45.8087],[7.0235,6.6881,40.7733],[7.0157,6.6906,38.8611],[6.9908,6.7083,38.0175],[6.9763,6.7134,50.8094],[6.9505,6.7154,54.4774],[6.9386,6.7108,25.2173],[6.9261,6.7085,26.1025],[6.9152,6.711,24.4337],[6.9074,6.7064,27.3423],[6.9125,6.6904,25.8599],[6.917,6.685,23.9822],[6.9119,6.6711,25.3313],[6.9091,6.6543,25.1669],[6.9116,6.6365,28.4071],[6.9118,6.6202,25.4693],[6.9024,6.5823,25.0239],[6.8974,6.5697,24.0932],[6.8851,6.5526,23.9016],[6.8851,6.5121,23.5153],[6.878,6.5,23.4786],[6.8766,6.4827,22.3655],[6.8693,6.4746,23.3462],[6.8678,6.4566,23.5827],[6.8489,6.4254,24.545],[6.8484,6.4079,20.5893],[6.8377,6.3688,21.2534],[6.8492,6.3714,19.9856],[6.8568,6.3757,20.9803],[6.8673,6.3829,19.6834],[6.8826,6.3971,23.1274],[6.8937,6.4149,23.1352],[6.8967,6.4276,23.3136],[6.8957,6.4366,23.6922],[6.8979,6.4473,21.0696],[6.9024,6.4549,23.5922],[6.9101,6.4591,23.4854],[6.924,6.4637,27.7634],[6.9328,6.4647,45.2091],[6.9411,6.4634,29.6174],[6.9456,6.459,24.3957],[6.9547,6.4369,16.9496],[6.9613,6.4311,19.1373],[6.9623,6.4232,21.2655],[6.965,6.4186,20.2938]]]]}
,"properties": {"GID_2": "NGA.4.7_1","GID_0": "NGA","country": "Nigeria","GID_1": "NGA.4_1","province": "Anambra","NL_NAME_1": "NA","county": "Ayamelum","VARNAME_2": "NA","NL_NAME_2": "NA","TYPE_2": "LocalAuthority","ENGTYPE_2": "LocalAuthority","CC_2": "NA","HASC_2": "NA","name": "Ayamelum.county","area_km2": 570.7234,"hist_schema_id": "Elevation0-9000","hist_area_km2": {"25": 289.7229,"50": 223.7771,"75": 53.2642,"100": 3.8749,"125": 0.0842}}}