{"type":"Feature","properties":{"GID_2":"NGA.4.4_1","GID_0":"NGA","country":"Nigeria","GID_1":"NGA.4_1","province":"Anambra","NL_NAME_1":"NA","county":"Anaocha","VARNAME_2":"NA","NL_NAME_2":"NA","TYPE_2":"LocalAuthority","ENGTYPE_2":"LocalAuthority","CC_2":"NA","HASC_2":"NA","name":"Anaocha.county"},
"geometry":{"type": "MultiPolygon","coordinates": [[[[7.0201,6.0347,355.989],[7.0198,6.0402,353.7143],[7.0347,6.0648,271.9399],[7.0531,6.0866,281.1758],[7.0475,6.0962,268.323],[7.0425,6.1009,264.2448],[7.0361,6.1033,241.0844],[7.0288,6.109,215.4572],[7.028,6.1166,181.5532],[7.0202,6.1218,127.0258],[7.0121,6.133,180.3442],[7.0169,6.1716,159.6215],[7.0151,6.1746,171.6289],[7.0129,6.1744,194.284],[7.012,6.1691,199.3451],[7.0061,6.1635,160.2876],[7.0053,6.1566,127.9573],[6.9917,6.1439,166.8271],[6.9918,6.1361,126.2772],[6.9888,6.1216,94.5368],[6.9846,6.1152,106.5429],[6.9739,6.1122,77.2536],[6.9662,6.1167,93.1562],[6.9684,6.1109,81.8317],[6.9614,6.0953,149.4147],[6.9567,6.0717,216.5963],[6.9609,6.0633,263.2075],[6.9617,6.0557,252.7371],[6.9575,6.0401,215.548],[6.9586,6.0329,215.2068],[6.9552,6.0247,201.0297],[6.938,6.0094,135.6135],[6.9477,6.0055,142.7408],[6.96,5.9979,165.2329],[6.9681,6.0068,191.4225],[6.9734,6.0085,219.5541],[6.9817,6.0086,236.0567],[6.9969,6.021,308.797],[7.012,6.0263,354.6153],[7.0201,6.0347,355.989]]]]}}