{"type": "Feature","bbox": [6.3956,12.5511,7.064,13.1907],"geometry": {"type": "MultiPolygon","coordinates": [[[[6.7744,13.1907,394.2403],[6.7602,13.1803,404.2081],[6.7444,13.1647,412.9958],[6.7254,13.1497,402.6793],[6.7056,13.139,402.4788],[6.6598,13.1097,402.1218],[6.6331,13.0956,410.5199],[6.6356,13.0874,398.0551],[6.6389,13.062,394.2203],[6.6366,13.0415,356.119],[6.638,13.0164,340.9534],[6.6358,13.0058,344.8322],[6.637,12.9953,338.4521],[6.6503,12.98,340.6162],[6.6669,12.9686,367.2708],[6.6746,12.9492,360.728],[6.6716,12.9351,358.8329],[6.6732,12.9009,388.4695],[6.6678,12.8873,403.3795],[6.6583,12.877,426.6171],[6.6483,12.8693,433.923],[6.6341,12.8613,411.3291],[6.6098,12.8624,428.8906],[6.5889,12.8588,429.9135],[6.5808,12.8619,425.3433],[6.5581,12.8867,403.1152],[6.5489,12.8923,394.273],[6.5378,12.8931,388.9864],[6.5248,12.8873,377.2206],[6.5089,12.8879,376.1865],[6.501,12.8852,373.3274],[6.4932,12.879,361.0364],[6.4704,12.8746,342.6932],[6.4664,12.8768,339.1255],[6.4615,12.886,337.3324],[6.444,12.8993,343.6694],[6.4461,12.9079,341.3458],[6.4452,12.9122,341.0869],[6.4369,12.8992,345.2147],[6.44,12.8832,357.8272],[6.4439,12.8748,353.2848],[6.4458,12.8603,343.6025],[6.4204,12.8329,361.8763],[6.4115,12.8172,371.6863],[6.4285,12.8129,374.9258],[6.449,12.8132,361.2754],[6.4631,12.8065,348.4124],[6.4796,12.7949,346.0124],[6.4827,12.7892,356.2426],[6.4819,12.784,362.88],[6.4726,12.7748,357.081],[6.4655,12.7702,353.9911],[6.4542,12.7683,363.1674],[6.4291,12.757,388.1509],[6.4106,12.746,387.9725],[6.3956,12.7298,400.9655],[6.3979,12.7192,406.364],[6.404,12.7123,412.6096],[6.4121,12.7104,410.7894],[6.4426,12.7139,386.6131],[6.4529,12.7167,392.1029],[6.468,12.7116,392.8063],[6.4761,12.705,380.964],[6.482,12.6923,385.6556],[6.4793,12.684,388.918],[6.4725,12.673,386.6171],[6.4809,12.6777,377.6068],[6.4971,12.6795,398.4053],[6.5063,12.6766,393.3895],[6.5148,12.6792,380.9141],[6.5306,12.6757,379.7666],[6.5478,12.6678,363.8698],[6.61,12.6663,398.1534],[6.666,12.646,418.417],[6.6684,12.647,418.0024],[6.6744,12.6403,415.7234],[6.6824,12.6272,415.7267],[6.6869,12.6166,408.451],[6.7004,12.6108,412.2773],[6.709,12.6039,416.7203],[6.7209,12.602,423.2253],[6.7402,12.5844,445.6228],[6.7494,12.5836,459.1028],[6.777,12.5933,442.0117],[6.7884,12.5913,436.5564],[6.7901,12.5867,444.7148],[6.7873,12.5772,448.2474],[6.7787,12.5621,463.8177],[6.7801,12.5511,468.2896],[6.7849,12.5511,468.9054],[6.7896,12.5521,463.7989],[6.8102,12.5634,457.1116],[6.8347,12.5888,429.1776],[6.8571,12.599,416.4921],[6.8704,12.6023,407.9608],[6.8882,12.6044,422.1489],[6.8966,12.6098,424.3111],[6.9174,12.6051,437.4793],[6.9521,12.6117,444.8452],[6.9688,12.6103,434.3445],[6.986,12.6208,447.418],[7.0148,12.6239,460.8199],[7.038,12.6301,455.1572],[7.0563,12.6312,474.1422],[7.0556,12.6361,470.5795],[7.0605,12.6678,492.6012],[7.0574,12.6989,507.8085],[7.0567,12.732,500.6731],[7.0517,12.7728,493.3742],[7.0407,12.8297,482.308],[7.0455,12.8616,528.8433],[7.0503,12.9273,445.1922],[7.064,13.0012,432.6015],[7.0101,12.9915,476.2226],[6.9466,12.9914,479.5293],[6.9341,12.9886,465.2968],[6.928,12.9899,466.7292],[6.9135,13.0057,443.0065],[6.9048,13.0187,449.0771],[6.8916,13.0318,455.3901],[6.8186,13.118,422.6164],[6.792,13.1586,394.4061],[6.7744,13.1907,394.2403]]]]}
,"properties": {"GID_2": "NGA.37.14_1","GID_0": "NGA","country": "Nigeria","GID_1": "NGA.37_1","province": "Zamfara","NL_NAME_1": "NA","county": "Zurmi","VARNAME_2": "NA","NL_NAME_2": "NA","TYPE_2": "LocalAuthority","ENGTYPE_2": "LocalAuthority","CC_2": "NA","HASC_2": "NA","name": "Zurmi.county","area_km2": 2782.477,"hist_schema_id": "Elevation0-9000","hist_area_km2": {"325": 0.703,"350": 155.919,"375": 343.085,"400": 626.202,"425": 725.815,"450": 581.813,"475": 277.98,"500": 69.08,"525": 1.881}}}