{"type": "Feature","bbox": [2.7063,6.3732,4.3482,6.707],"geometry": {"type": "MultiPolygon","coordinates": [[[[3.3951,6.3965,1.3659],[3.4021,6.3999,0.2981],[3.4037,6.3957,0.0],[3.4029,6.406,2.0734],[3.4071,6.4176,1.4872],[3.4124,6.4215,4.9384],[3.421,6.4226,6.0715],[3.4793,6.4212,0.0],[3.5082,6.4226,3.7061],[3.5129,6.4212,0.0],[3.526,6.4229,1.7464],[3.5693,6.4229,0.0],[3.5929,6.4246,2.6878],[3.6785,6.4251,0.0],[3.7196,6.4279,0.0],[3.8029,6.4396,5.7512],[3.8774,6.4374,4.3743],[3.8904,6.4382,1.8542],[3.9779,6.4299,2.5867],[4.0007,6.4249,0.0],[4.0571,6.4171,7.1067],[4.1513,6.3988,4.7186],[4.1532,6.4026,3.2245],[4.154,6.3982,1.3449],[4.2015,6.3896,0.0],[4.2479,6.3832,0.0],[4.2676,6.3829,2.8736],[4.3021,6.3796,2.7195],[4.3424,6.3732,4.5081],[4.3431,6.3938,6.0053],[4.3469,6.4011,4.921],[4.3482,6.4114,0.0],[4.347,6.4235,1.8213],[4.3426,6.4316,7.1351],[4.3329,6.4366,3.2598],[4.3163,6.4376,0.0],[4.2955,6.4333,10.3265],[4.2925,6.4336,10.7652],[4.2845,6.4386,7.8563],[4.2575,6.4421,5.6611],[4.2394,6.4327,14.7832],[4.2299,6.4349,7.8024],[4.2204,6.4425,0.0],[4.2118,6.4562,0.0],[4.2063,6.4568,0.0],[4.2019,6.4601,0.0],[4.1782,6.4644,0.0],[4.1748,6.4668,0.0],[4.167,6.4685,0.0],[4.1522,6.4805,0.0],[4.1487,6.4919,0.0],[4.1513,6.5004,0.0],[4.1577,6.5086,0.0],[4.2028,6.5297,0.0],[4.211,6.5349,0.0],[4.2209,6.5467,0.0],[4.2191,6.5622,1.4671],[4.2146,6.5704,1.0502],[4.2019,6.586,1.1188],[4.1968,6.5871,1.4466],[4.1723,6.5859,0.0],[4.1462,6.5794,2.2948],[4.131,6.5732,6.0322],[4.1076,6.5526,13.8358],[4.0941,6.5445,0.0],[4.0876,6.5444,0.0],[4.0837,6.5465,0.0],[4.0811,6.5523,11.9908],[4.0763,6.5575,0.1277],[4.0588,6.5622,11.0533],[4.0581,6.5857,7.4169],[4.0549,6.5913,7.5583],[4.0506,6.5935,12.076],[4.0464,6.6058,11.2756],[4.0501,6.6209,7.0791],[4.0583,6.6307,6.053],[4.0605,6.6355,7.8112],[4.0659,6.64,10.1404],[4.0749,6.6422,10.9385],[4.0791,6.6458,10.937],[4.0942,6.6675,11.9956],[4.0918,6.6744,10.3506],[4.0855,6.6819,7.234],[4.0797,6.6836,6.7917],[4.0682,6.6854,15.2438],[3.4599,6.6905,10.2753],[3.4611,6.6916,8.8192],[3.4562,6.691,12.5113],[3.4493,6.6872,5.1479],[3.4354,6.6745,6.8371],[3.4342,6.6695,9.0819],[3.4366,6.6593,7.1105],[3.4397,6.6537,7.2901],[3.4436,6.6511,4.7412],[3.4376,6.6489,5.3838],[3.3698,6.6434,28.7156],[3.3681,6.6487,39.0664],[3.3633,6.6546,24.8116],[3.362,6.6594,6.6208],[3.3586,6.6616,27.9381],[3.3568,6.6664,38.7112],[3.3374,6.6794,16.5932],[3.2936,6.6984,61.5276],[3.2679,6.7069,45.1675],[3.2635,6.707,38.2055],[3.2521,6.7054,72.7392],[3.2524,6.7065,71.0147],[3.2305,6.666,41.762],[3.2315,6.6561,50.8672],[3.2303,6.6515,51.187],[3.2318,6.6453,49.2469],[3.228,6.6262,35.6067],[3.2165,6.6146,38.8481],[3.1953,6.6014,30.8375],[3.1906,6.5811,13.2628],[3.19,6.5601,12.53],[3.183,6.5377,12.4868],[3.1808,6.5333,7.2866],[3.1658,6.5213,17.4991],[3.1628,6.5221,17.0186],[3.155,6.5195,8.1928],[3.1344,6.5184,7.4998],[3.1178,6.521,11.7037],[3.112,6.5195,13.3401],[3.1035,6.5222,16.7053],[3.0804,6.5228,21.7742],[3.0344,6.5183,21.3719],[2.9915,6.5206,16.7855],[2.9806,6.519,17.2478],[2.9687,6.5219,11.8999],[2.9557,6.5222,17.5679],[2.9444,6.5182,20.4288],[2.9211,6.5237,13.1596],[2.8836,6.5262,9.2758],[2.8803,6.5251,9.4814],[2.8796,6.5218,24.2437],[2.8819,6.5116,9.3108],[2.8803,6.499,5.0444],[2.8747,6.4942,25.902],[2.8528,6.4817,8.3027],[2.8395,6.4713,6.6316],[2.8336,6.4645,9.2274],[2.8245,6.4596,10.7388],[2.8142,6.4625,7.3351],[2.8131,6.4648,3.9115],[2.805,6.4668,4.859],[2.7931,6.4739,7.1905],[2.774,6.4736,6.5864],[2.7381,6.467,4.3119],[2.7179,6.4735,3.2408],[2.7107,6.4526,0.0],[2.7063,6.4256,8.1574],[2.7083,6.4094,3.1957],[2.7094,6.3757,3.3559],[2.7113,6.3765,3.1302],[2.7121,6.3754,0.0],[2.8376,6.3918,2.5134],[2.8629,6.3921,3.5768],[2.8976,6.3949,2.4984],[2.9979,6.3968,0.0],[3.0426,6.3996,5.1647],[3.1574,6.4021,3.2688],[3.1979,6.4046,5.1122],[3.2924,6.4054,4.4018],[3.2974,6.404,7.151],[3.3013,6.4057,4.6639],[3.3076,6.404,4.495],[3.3115,6.4051,4.5169],[3.3207,6.4035,3.0998],[3.3285,6.4043,7.9354],[3.3301,6.4029,4.0886],[3.334,6.4037,3.7006],[3.3351,6.4024,4.2337],[3.3393,6.4032,3.9128],[3.3418,6.4018,1.8602],[3.3521,6.4018,3.4573],[3.3526,6.4007,3.4573],[3.3932,6.3965,3.0873],[3.399,6.3918,0.0],[3.3951,6.3965,1.3659]]]]}
,"properties": {"GID_1": "NGA.25_1","GID_0": "NGA","country": "Nigeria","province": "Lagos","VARNAME_1": "NA","NL_NAME_1": "NA","TYPE_1": "State","ENGTYPE_1": "State","CC_1": "NA","HASC_1": "NG.LA","ISO_1": "NG-LA","name": "Lagos.province","area_km2": 3799.052,"hist_schema_id": "Elevation0-9000","hist_area_km2": {"0": 2847.971,"25": 763.673,"50": 178.459,"75": 8.95}}}