{"type":"Feature","properties":{"ISO3166-1-Alpha-3":"NGA","country":"Nigeria","fill":"#F0F","id":"2850","name":"Lagos"},
"geometry":{"type": "Polygon","coordinates": [[[3.40447,6.64316,3.206],[3.36892,6.64471,42.3925],[3.34556,6.67396,46.7106],[3.30019,6.69763,67.0169],[3.27673,6.70473,68.801],[3.24531,6.69259,66.6591],[3.2389,6.67833,49.7966],[3.22454,6.62704,31.193],[3.20903,6.61029,38.9761],[3.19425,6.58957,25.948],[3.18361,6.5411,13.7447],[3.16883,6.52446,9.9115],[3.11013,6.51619,19.9374],[2.89205,6.52573,0.0],[2.8813,6.52053,10.0173],[2.88161,6.50653,10.7884],[2.86249,6.48462,18.8699],[2.83593,6.46694,6.8152],[2.81071,6.46557,6.0355],[2.78477,6.47379,6.4976],[2.75118,6.47066,5.9663],[2.7178,6.47346,3.2408],[2.71192,6.47405,6.5787],[2.70426,6.4293,6.4502],[2.70384,6.36835,0.0],[2.70387,6.36835,0.0],[2.92774,6.38911,0.0],[3.08237,6.3815,0.0],[3.2142,6.39671,0.0],[3.32618,6.39142,0.0],[3.38453,6.39769,3.0801],[3.3895,6.41999,0.0],[3.38413,6.42479,1.7812],[3.38258,6.43073,0.3279],[3.37989,6.43586,0.0],[3.37501,6.44111,5.3325],[3.3698,6.45002,6.6314],[3.37387,6.45612,0.0],[3.38111,6.46162,0.462],[3.38494,6.4687,0.0],[3.38795,6.4807,4.5278],[3.40203,6.50218,0.0],[3.40602,6.51284,0.0],[3.40561,6.52212,0.0],[3.40008,6.53681,2.033],[3.39861,6.54385,2.4098],[3.40235,6.55215,2.9512],[3.41131,6.55435,0.0],[3.42189,6.55475,0.0],[3.42994,6.55781,0.0],[3.45191,6.58177,0.0],[3.46404,6.59223,0.0],[3.48121,6.6022,0.6704],[3.48024,6.58808,0.0],[3.47332,6.56664,1.1304],[3.47438,6.55439,3.7363],[3.47853,6.54145,0.0],[3.48162,6.53832,0.0],[3.48805,6.53327,0.0],[3.50025,6.53392,0.0],[3.51295,6.52945,0.0],[3.51531,6.52709,0.0],[3.52833,6.52778,0.0],[3.54005,6.5301,0.0],[3.55152,6.53417,0.0],[3.58668,6.55288,0.0],[3.59702,6.55427,0.0],[3.61524,6.55439,0.0],[3.66383,6.57022,0.0],[3.71746,6.60114,0.0],[3.77369,6.62238,3.2062],[3.83058,6.60904,0.0],[3.8379,6.61099,0.0],[3.844,6.61083,0.0],[3.85027,6.6081,0.0],[3.85792,6.6022,0.0],[3.77467,6.59007,6.2929],[3.76222,6.58515,1.3984],[3.75685,6.56379,5.3183],[3.74269,6.5478,6.1045],[3.72267,6.53596,0.0],[3.70021,6.52709,0.6576],[3.68678,6.53107,1.9044],[3.64275,6.51708,0.0],[3.62135,6.51284,0.0],[3.58082,6.51284,0.6962],[3.57081,6.50934,0.0],[3.57016,6.50068,0.0],[3.57244,6.48957,0.0],[3.57057,6.47871,3.1144],[3.55681,6.46296,6.061],[3.54135,6.45482,0.7821],[3.52442,6.45181,4.1523],[3.50538,6.45136,2.1407],[3.49244,6.44648,1.4854],[3.48463,6.44684,1.6036],[3.48121,6.45478,3.4472],[3.47535,6.45555,5.3067],[3.4402,6.42341,1.2589],[3.43629,6.4383,5.0881],[3.43426,6.45336,7.0676],[3.42848,6.45873,8.2649],[3.41285,6.44453,4.7454],[3.40691,6.44945,5.5605],[3.40105,6.451,4.3327],[3.3943,6.44937,6.9285],[3.38494,6.44453,0.0],[3.3991,6.43403,0.0],[3.40886,6.42292,5.5023],[3.42115,6.41401,0.0],[3.44361,6.41035,0.0],[3.87029,6.43163,0.0],[4.12582,6.41035,4.2085],[4.34197,6.37059,0.0],[4.34199,6.37059,0.0],[4.3424,6.37315,4.5081],[4.34633,6.40075,4.921],[4.34478,6.42746,15.0276],[4.31718,6.43692,6.6895],[4.26024,6.43899,7.599],[4.23688,6.43359,13.6499],[4.22003,6.44369,0.0],[4.20629,6.45671,0.0],[4.17817,6.46436,0.0],[4.15482,6.4786,0.0],[4.15327,6.50307,0.0],[4.21094,6.53485,0.0],[4.21983,6.5557,0.0],[4.20959,6.57686,0.0],[4.18107,6.58673,0.8321],[4.14841,6.57986,0.0],[4.11792,6.55939,0.0],[4.08764,6.54433,0.0],[4.05922,6.5673,10.8459],[4.05839,6.57991,12.2483],[4.04805,6.60422,9.8976],[4.05663,6.62931,9.3593],[4.08102,6.64807,10.5662],[4.09177,6.67437,10.3506],[4.03214,6.68995,13.6648],[3.44799,6.68683,6.4516],[3.4392,6.67771,5.0419],[3.436,6.66347,5.6173],[3.42422,6.64631,4.0166],[3.40447,6.64316,3.206]]]}}