{"type":"Feature","properties":{"featurecla":"River","scalerank":9,"rivernum":1038,"dissolve":"1038River","name":"Ogun2","name_alt":null,"note":null,"min_zoom":7.1,"strokeweig":0.25,"name_en":"Ogun","min_label":8.1},
"geometry":{"type": "LineString","coordinates": [[3.334228515625,7.00446198124412,17.1504],[3.314208984375,6.96698639530662,17.1677],[3.312744140625,6.9489932312441169,15.1374],[3.3241210937500232,6.92792389530662,14.253],[3.364501953125,6.89984772343162,15.1858],[3.380859375,6.8809756531191084,12.7446],[3.3792968750000232,6.85529205936912,21.7253],[3.3739257812500232,6.8404483093691084,17.1037],[3.366455078125,6.79767487186912,12.671],[3.3648925781250232,6.79791901249412,12.0303],[3.354248046875,6.7851748718691169,15.0196],[3.3509765625000232,6.77997467655662,9.6233],[3.34912109375,6.7717471374941169,14.1687],[3.3482910156250232,6.7518252624941084,10.5324],[3.3468261718750232,6.7426944031191169,13.0116],[3.348388671875,6.73139069218162,8.5456],[3.3558593750000232,6.71808502811912,12.84],[3.37451171875,6.6939639343691084,4.8474],[3.380126953125,6.6822451843691084,6.5025],[3.385986328125,6.6422061218691084,8.3685],[3.3980957031250232,6.6194033874941169,10.0834],[3.414306640625,6.60883209843162,3.0321],[3.434814453125,6.60211823124412,2.0983],[3.4596191406250232,6.5905947937441169,0.0]]}}