{"type":"Feature","properties":{"ISO3166-1-Alpha-3":"NGA","country":"Nigeria","fill":"#000","id":"2851","name":"Niger"},
"geometry":{"type": "Polygon","coordinates": [[[5.4767,10.95719,311.5121],[5.44972,10.96641,330.5338],[5.43701,11.00155,294.1356],[5.43557,11.04077,304.4315],[5.44146,11.11756,324.6624],[5.42554,11.15097,335.9598],[5.39371,11.17092,321.0524],[5.35805,11.23466,344.1409],[5.3443,11.30931,347.5987],[5.28519,11.34448,351.9943],[5.21232,11.34665,340.6006],[4.91673,11.28763,255.7977],[4.77938,11.22694,227.4404],[4.76305,11.16382,210.3907],[4.82651,11.11656,233.9571],[4.89854,11.08671,237.1111],[4.97492,11.0748,243.4271],[4.99197,11.07472,249.784],[5.00541,11.06744,259.2771],[5.01358,11.04977,259.9066],[5.0266,11.0416,239.2316],[5.05409,11.03344,239.5229],[5.06629,11.00468,270.1899],[5.07569,10.96411,262.7404],[5.07827,10.92378,261.4485],[5.03032,10.86376,264.2115],[5.07114,10.81316,247.4424],[5.09305,10.74777,230.6043],[5.06618,10.72658,262.9759],[4.99539,10.70679,211.6598],[4.92831,10.67488,187.292],[4.85886,10.68431,207.1776],[4.82713,10.6731,185.9942],[4.81018,10.60667,199.4374],[4.81555,10.53163,185.67],[4.8109,10.4968,180.3463],[4.81658,10.46329,202.6641],[4.86371,10.40254,283.7573],[4.8942,10.33467,286.1318],[4.8694,10.26917,284.9791],[4.84056,10.24826,265.1237],[4.80646,10.23715,221.9713],[4.69049,10.21287,163.2518],[4.65535,10.20113,155.9801],[4.64481,10.16641,179.8841],[4.6443,10.12628,173.69],[4.63189,10.09931,161.9006],[4.56368,10.10305,160.7473],[4.5395,10.1244,130.0],[4.55469,10.19832,130.0],[4.56099,10.27092,130.0],[4.53939,10.29428,130.0],[4.51366,10.31348,130.0],[4.49836,10.3481,130.0],[4.49433,10.38606,130.0],[4.50064,10.46042,130.0],[4.53836,10.52424,130.0],[4.65473,10.58904,159.4763],[4.65618,10.60716,132.087],[4.6813,10.63237,132.8457],[4.68905,10.64581,134.3476],[4.69091,10.66317,133.8283],[4.6906,10.70098,143.7002],[4.72388,10.87949,138.3309],[4.72212,10.90422,138.4433],[4.65783,10.92352,165.7575],[4.53681,11.00178,180.1745],[4.43542,11.02853,174.1861],[4.33165,11.01328,192.0375],[4.05808,11.00618,319.0695],[4.00516,11.0122,288.7682],[3.89323,11.06289,246.862],[3.80424,11.11756,194.3181],[3.71278,11.1279,199.9907],[3.70564,11.12079,197.6044],[3.70558,11.12073,197.6044],[3.71371,11.1203,209.7664],[3.72208,11.11235,202.6634],[3.71185,11.07351,238.9987],[3.71185,11.05186,244.9022],[3.71588,11.03189,269.574],[3.72332,11.01354,274.5004],[3.73355,10.99646,270.4871],[3.73355,10.9962,270.4871],[3.75412,10.90714,259.2725],[3.75298,10.87768,260.2337],[3.73128,10.82503,273.5476],[3.73004,10.80771,262.7246],[3.7351,10.79578,271.132],[3.74316,10.78746,264.2035],[3.75195,10.78017,255.2237],[3.75949,10.77159,271.4665],[3.76445,10.76087,275.4748],[3.77386,10.72805,293.3148],[3.78326,10.71697,313.2438],[3.79608,10.71312,300.5021],[3.81024,10.71048,284.8047],[3.82295,10.70325,297.5255],[3.83215,10.68392,311.8574],[3.83711,10.65483,331.8545],[3.83725,10.63061,355.9586],[3.83742,10.5999,352.953],[3.82987,10.57308,324.0038],[3.80435,10.52316,311.5931],[3.79535,10.49649,295.6282],[3.79432,10.44487,288.2494],[3.78771,10.42637,299.2],[3.77251,10.40763,318.5448],[3.75691,10.40526,300.8736],[3.69283,10.43838,318.2192],[3.67174,10.44208,334.0248],[3.65211,10.4358,326.4609],[3.63257,10.41665,334.9894],[3.62596,10.40727,343.3201],[3.62317,10.40092,330.5532],[3.62214,10.38123,341.0125],[3.61821,10.36934,329.8926],[3.59299,10.33095,321.691],[3.57242,10.2857,309.2225],[3.57335,10.267,297.4741],[3.58762,10.24418,292.6462],[3.65562,10.17478,288.1681],[3.66461,10.1622,298.3888],[3.66751,10.14657,302.3622],[3.66483,10.12865,295.354],[3.66999,10.12987,293.2979],[3.75773,10.14566,320.1644],[3.91762,10.15036,280.808],[3.98604,10.1414,289.4359],[4.01405,10.11799,288.6118],[4.35036,9.72507,262.4427],[4.36535,9.71344,286.9888],[4.38157,9.70375,263.8663],[4.41578,9.70339,219.8803],[4.43191,9.63605,218.6467],[4.42188,9.55575,166.9925],[4.42074,9.4811,229.1597],[4.45361,9.42542,258.7797],[4.5272,9.43441,197.7789],[4.61443,9.42188,100.0],[4.61618,9.41508,100.0],[4.61887,9.37723,100.0],[4.61763,9.35798,100.0],[4.61877,9.35819,100.0],[4.6198,9.35858,100.0],[4.62052,9.3592,100.0],[4.62114,9.36005,100.0],[4.62145,9.34132,100.0],[4.62497,9.3247,100.0],[4.63344,9.3107,100.0],[4.64864,9.29977,100.0],[4.66455,9.29367,100.0],[4.71458,9.28538,100.0],[4.74258,9.27494,100.0],[4.75478,9.25453,100.0],[4.75602,9.22781,100.0],[4.75065,9.19843,100.0],[4.75251,9.1683,100.0],[4.7708,9.14869,100.0],[4.7986,9.13986,73.0],[4.8293,9.14192,73.0],[4.86981,9.15399,72.0],[4.91436,9.17908,79.2317],[4.97916,9.19972,80.5807],[4.9928,9.19975,72.7384],[5.00593,9.19657,72.0437],[5.03084,9.1852,74.0326],[5.03208,9.17985,71.5075],[5.04965,9.17159,74.9161],[5.08313,9.14869,68.0],[5.13564,9.12409,69.6754],[5.1501,9.11329,71.1552],[5.16716,9.09094,67.0],[5.18431,9.07317,66.5],[5.18917,9.06265,66.5],[5.18979,9.05232,68.8583],[5.18917,9.04167,67.057],[5.19021,9.03022,67.1358],[5.19744,9.01666,79.2783],[5.20953,9.00831,95.5927],[5.22431,9.00377,99.956],[5.3195,8.98829,70.5667],[5.38647,8.99229,67.2721],[5.40105,8.98945,67.9441],[5.41314,8.98328,63.5156],[5.42358,8.97503,64.9602],[5.44208,8.95648,65.0847],[5.45386,8.94697,64.8323],[5.46616,8.94121,66.0555],[5.47959,8.93832,63.2089],[5.51029,8.93666,62.8248],[5.52445,8.93413,62.32],[5.53799,8.9294,60.0],[5.55132,8.92191,64.0952],[5.55721,8.91692,67.4593],[5.57023,8.90015,67.1629],[5.59152,8.88212,60.8484],[5.60062,8.87222,59.5532],[5.60837,8.86176,59.0],[5.61778,8.84429,62.2968],[5.62129,8.8392,64.1921],[5.63431,8.82902,63.7611],[5.65002,8.8238,60.1285],[5.7079,8.82223,64.6971],[5.71565,8.82101,56.8938],[5.73756,8.81259,57.3682],[5.74593,8.81119,57.399],[5.75875,8.79003,58.7647],[5.77363,8.77083,58.8352],[5.78417,8.75236,58.2452],[5.79048,8.74572,56.4119],[5.80236,8.74179,56.0],[5.85559,8.74254,55.0],[5.89962,8.7358,57.4872],[5.91461,8.73544,55.5876],[5.92649,8.73799,55.9833],[5.95812,8.75285,54.0],[5.98272,8.7575,54.0],[6.09237,8.75859,54.8146],[6.10788,8.75618,58.002],[6.12266,8.7505,56.9418],[6.15294,8.72195,52.0],[6.16069,8.71931,51.5],[6.21588,8.72996,53.7702],[6.25991,8.73838,50.0],[6.27737,8.73668,51.3323],[6.28451,8.73058,52.3118],[6.32171,8.70564,49.0],[6.34166,8.70254,61.056399999999996],[6.35768,8.69394,52.7782],[6.3705,8.68094,53.1352],[6.3953,8.63963,49.0],[6.39602,8.62136,50.5022],[6.39788,8.61325,56.1514],[6.41339,8.58201,49.0114],[6.41576,8.57397,48.5],[6.42124,8.57278,48.5],[6.42496,8.56421,52.4003],[6.42713,8.55555,50.6242],[6.42972,8.5262,47.5],[6.44264,8.47809,48.6632],[6.46537,8.43173,49.5706],[6.47333,8.4277,47.7785],[6.57224,8.35357,50.0026],[6.58392,8.34021,46.8551],[6.62288,8.27792,49.0575],[6.66061,8.238,45.7525],[6.67291,8.23182,46.3999],[6.67394,8.22647,45.4301],[6.68851,8.21353,44.8688],[6.69141,8.20694,42.7864],[6.70856,8.22456,46.2514],[6.71538,8.25089,45.8999],[6.72644,8.27567,48.8084],[6.73895,8.28564,114.9806],[6.75311,8.27763,115.9525],[6.75755,8.29404,106.9645],[6.75559,8.31631,73.0242],[6.77161,8.33208,99.0795],[6.79217,8.33913,100.0765],[6.82163,8.36716,64.8443],[6.83496,8.40677,70.2723],[6.78938,8.4121,112.3614],[6.7651,8.45437,150.5078],[6.759,8.47225,185.8279],[6.74959,9.18564,247.633],[6.75404,9.21391,236.2879],[6.77833,9.22517,249.7858],[6.96312,9.23236,237.8286],[7.02338,9.21375,267.2287],[7.11681,9.12368,210.5857],[7.16394,9.09758,265.284],[7.17024,9.09919,311.7746],[7.3108,9.29744,521.2463],[7.28703,9.30295,494.6554],[7.26171,9.29527,475.9129],[7.2552,9.31158,504.0887],[7.26667,9.34165,529.9825],[7.26863,9.35586,541.6271],[7.25168,9.37801,535.0981],[7.23856,9.38602,527.8243],[7.2183,9.41658,523.9506],[7.22688,9.45364,526.7692],[7.28155,9.49213,522.7239],[7.28693,9.51146,519.9835],[7.29013,9.53208,503.5001],[7.30046,9.54818,520.1265],[7.31524,9.5611,534.5789],[7.33808,9.58662,520.5167],[7.33188,9.61786,532.4581],[7.30119,9.63316,490.4354],[7.28724,9.65817,510.18],[7.29519,9.68602,487.6924],[7.27411,9.70372,511.3978],[7.23752,9.71414,492.2902],[7.21727,9.74096,453.7769],[7.23918,9.75801,475.7483],[7.27029,9.76052,485.915],[7.29623,9.78101,494.7808],[7.29829,9.81777,495.3503],[7.27917,9.97758,503.0596],[7.2308,10.01107,482.1148],[7.08249,10.00833,433.6279],[7.00849,10.01706,411.0027],[6.93666,10.04719,430.5742],[6.89212,10.10517,372.8246],[6.9161,10.13269,398.9208],[6.94865,10.15377,430.2873],[6.97542,10.18617,473.913],[7.00756,10.21181,471.9238],[7.04105,10.23304,510.7675],[7.06513,10.26459,488.8734],[7.06751,10.29888,504.2118],[7.03753,10.31878,499.7566],[6.96591,10.34485,546.3808],[6.94452,10.36684,585.14],[6.95785,10.40247,582.1686],[6.95599,10.48236,545.8008],[6.9009,10.52853,589.1447],[6.86628,10.51853,531.8934],[6.84995,10.52248,498.0117],[6.84323,10.60367,548.5603],[6.83517,10.62307,588.821],[6.80385,10.63537,564.3984],[6.76799,10.63777,554.0262],[6.73554,10.6239,521.0533],[6.73988,10.58473,506.9553],[6.71766,10.56881,478.6649],[6.67931,10.57522,606.7887],[6.64118,10.56768,549.3606],[6.56852,10.53468,471.6462],[6.53669,10.54026,461.9095],[6.52377,10.57147,437.3517],[6.49762,10.58897,406.6909],[6.42672,10.57359,384.0833],[6.30735,10.48334,376.5214],[6.25536,10.42768,355.3831],[6.23448,10.39417,347.7954],[6.20813,10.36578,298.529],[6.17381,10.36115,262.0959],[6.15666,10.39497,306.66],[6.13196,10.42526,356.5694],[6.09961,10.44908,352.9482],[6.0931,10.48256,302.102],[6.09723,10.50238,348.9303],[6.10302,10.51484,339.9947],[6.10467,10.52763,356.1215],[6.10509,10.5547,357.6522],[6.10777,10.56713,380.4727],[6.12162,10.60065,361.8253],[6.12638,10.623,365.8289],[6.1271,10.63522,367.4332],[6.12596,10.64708,373.702],[6.10912,10.69728,385.7321],[6.10767,10.72286,379.2009],[6.11366,10.80614,383.098],[6.12214,10.83159,400.7294],[6.14188,10.85342,394.4092],[6.16193,10.86275,393.0262],[6.14643,10.92926,433.9707],[6.06974,11.05635,455.9792],[6.02705,11.11121,479.4387],[5.99636,11.13082,505.0048],[5.96132,11.12896,480.3333],[5.94654,11.11733,478.0686],[5.92132,11.08925,436.9034],[5.91078,11.07359,440.3709],[5.88515,11.05341,453.2738],[5.85042,11.05057,441.8604],[5.81601,11.04142,465.4157],[5.64299,10.96887,438.2486],[5.57664,10.95737,340.6699],[5.4767,10.95719,311.5121]]]}}