{"type":"Feature","properties":{"GID_1":"NGA.27_1","GID_0":"NGA","country":"Nigeria","province":"Niger","VARNAME_1":"NA","NL_NAME_1":"NA","TYPE_1":"State","ENGTYPE_1":"State","CC_1":"NA","HASC_1":"NG.NI","ISO_1":"NG-NI","name":"Niger.province"},
"geometry":{"type": "MultiPolygon","coordinates": [[[[6.75,9.0667,211.3595],[6.7515,9.1188,270.4249],[6.7496,9.1857,247.633],[6.7521,9.2167,234.2422],[6.7576,9.2228,250.0926],[6.801,9.2281,250.9843],[6.8569,9.2292,256.3908],[6.8667,9.2311,274.9876],[6.8876,9.2286,236.75],[6.9206,9.2297,245.6274],[6.9309,9.2327,261.3593],[6.9408,9.2313,258.1118],[6.9632,9.2324,237.8286],[6.979,9.2357,241.2336],[7.0075,9.2256,264.5297],[7.0162,9.2146,263.5822],[7.0631,9.1794,231.4317],[7.0738,9.1663,241.1945],[7.0901,9.1505,331.7018],[7.1177,9.1299,220.5555],[7.1459,9.099,247.7771],[7.156,9.0956,258.9577],[7.171,9.0994,311.7746],[7.1974,9.1411,426.3052],[7.2107,9.1562,446.5125],[7.224,9.1739,585.0454],[7.2351,9.1918,483.7105],[7.2521,9.2137,533.0178],[7.276,9.2525,496.8747],[7.2841,9.2588,502.8801],[7.304,9.2934,517.5255],[7.3109,9.2975,521.2463],[7.3075,9.3015,507.7673],[7.2909,9.3041,501.4381],[7.2572,9.2939,487.545],[7.2512,9.2945,491.154],[7.2503,9.2975,486.5911],[7.2573,9.3103,498.2945],[7.2641,9.336,523.8591],[7.2736,9.3608,538.4851],[7.2663,9.3707,549.7143],[7.2425,9.3835,534.1844],[7.2273,9.3935,526.5082],[7.2187,9.4054,536.8151],[7.2203,9.4427,522.2858],[7.2292,9.4575,536.5599],[7.25,9.4702,524.9182],[7.2689,9.4782,530.8232],[7.2816,9.4922,522.7239],[7.2913,9.5369,516.1542],[7.3005,9.5485,520.1265],[7.3261,9.5684,512.9272],[7.3412,9.5877,515.2451],[7.3398,9.606,541.023],[7.3319,9.6179,532.4581],[7.3189,9.6259,519.2082],[7.3017,9.6311,490.3878],[7.2833,9.6438,511.9814],[7.2872,9.6582,510.18],[7.2942,9.6661,492.3683],[7.2984,9.683,496.6437],[7.2968,9.6923,503.8655],[7.2839,9.7015,504.1383],[7.2561,9.7079,508.3113],[7.2383,9.7141,497.7683],[7.2201,9.7264,476.1238],[7.2173,9.741,453.7769],[7.2219,9.7512,459.106],[7.2363,9.7579,470.1902],[7.2605,9.7584,492.9761],[7.2885,9.7645,501.4246],[7.2944,9.774,506.364],[7.2986,9.7888,475.7676],[7.297,9.8383,501.5067],[7.2821,9.9004,571.0439],[7.2824,9.935,565.526],[7.278,9.9567,525.2586],[7.2794,9.9815,498.9887],[7.2742,9.9977,514.5184],[7.2629,10.0071,525.7935],[7.232,10.0104,471.6803],[7.1808,10.0066,426.0862],[7.1458,10.0082,421.0784],[7.1182,10.0113,394.1187],[7.0808,10.011,425.7346],[7.0441,10.0071,403.8709],[6.9958,10.0205,401.6228],[6.9365,10.0469,408.5579],[6.9087,10.0736,357.0],[6.8921,10.1052,372.8246],[6.9069,10.125,389.0892],[6.9419,10.1469,405.8289],[6.968,10.1737,440.2102],[6.9818,10.1974,453.5421],[6.9978,10.2075,477.3095],[7.0258,10.2198,496.6806],[7.0503,10.2391,511.689],[7.0668,10.2676,504.0158],[7.0718,10.2993,513.2604],[7.0474,10.3142,497.2686],[7.0196,10.3273,493.3671],[6.9416,10.3538,489.1939],[6.9452,10.3703,549.6612],[6.9549,10.393,577.3381],[6.9634,10.4201,599.3611],[6.9643,10.4612,578.3519],[6.9471,10.4963,572.3654],[6.9323,10.5219,565.4935],[6.9061,10.529,601.4413],[6.8858,10.5274,587.1714],[6.8698,10.5182,534.3851],[6.8474,10.5205,495.9159],[6.8479,10.5392,506.0212],[6.8437,10.5664,535.4515],[6.8429,10.5925,556.8616],[6.8351,10.6231,588.821],[6.8253,10.6313,586.8413],[6.7489,10.6393,565.51],[6.7298,10.6201,564.4697],[6.7407,10.5819,505.1277],[6.7304,10.5661,476.3082],[6.6925,10.5754,578.5988],[6.6661,10.5751,674.8281],[6.6366,10.5656,541.2646],[6.6127,10.5559,504.8782],[6.574,10.5374,478.4852],[6.5428,10.5295,475.8831],[6.5309,10.5504,466.3517],[6.5262,10.572,438.0872],[6.5096,10.588,418.4126],[6.4857,10.5901,415.3726],[6.4626,10.5859,397.0825],[6.4287,10.5761,380.8652],[6.412,10.5641,379.5429],[6.389,10.5521,363.1163],[6.3472,10.514,398.1895],[6.3235,10.4953,380.3749],[6.2987,10.4802,380.6954],[6.257,10.4302,358.6951],[6.2356,10.3974,367.8642],[6.2117,10.368,300.2768],[6.1889,10.3539,281.2188],[6.1658,10.3634,263.4007],[6.1579,10.3922,301.0425],[6.1461,10.4197,332.4678],[6.1149,10.4349,382.9293],[6.0968,10.4518,346.7293],[6.0934,10.4737,305.8117],[6.0987,10.5107,342.2066],[6.1153,10.5224,380.1278],[6.1284,10.5394,365.432],[6.1245,10.6003,359.6764],[6.1365,10.6323,378.4034],[6.1343,10.6558,370.3979],[6.111,10.6939,383.6788],[6.1115,10.7202,389.2277],[6.119,10.7392,387.0902],[6.1174,10.7704,393.9918],[6.1442,10.8088,416.3834],[6.1578,10.8373,410.7883],[6.166,10.8489,409.6775],[6.1676,10.8698,394.1013],[6.142,10.9351,434.7792],[6.119,10.9725,442.0175],[6.0806,11.041,461.0634],[6.0531,11.0752,483.7201],[6.0291,11.1096,481.7877],[6.005,11.1287,504.0789],[5.9918,11.1323,493.3133],[5.975,11.1345,491.4012],[5.9614,11.129,480.3333],[5.9517,11.1151,483.4461],[5.9342,11.0989,453.6412],[5.9199,11.0905,435.0098],[5.8992,11.0554,428.3893],[5.8719,11.0512,442.8982],[5.8556,11.0513,443.4225],[5.8357,11.0488,447.8382],[5.7473,11.016,420.7116],[5.7113,10.9965,453.4904],[5.6403,10.9678,427.272],[5.6148,10.9636,420.3895],[5.5932,10.9627,355.5394],[5.5696,10.9594,339.63],[5.5547,10.9602,339.1324],[5.5288,10.9574,336.7534],[5.4697,10.9596,318.7989],[5.4679,10.9568,322.4348],[5.4527,10.9629,331.1657],[5.4413,10.9767,320.8096],[5.4356,11.0408,304.4315],[5.4405,11.082,313.6615],[5.4415,11.1176,324.6624],[5.4338,11.146,326.3986],[5.4149,11.1613,325.1929],[5.3938,11.171,321.0524],[5.3732,11.1853,333.2729],[5.3601,11.2055,327.1625],[5.3558,11.2254,341.0939],[5.3557,11.2491,336.155],[5.352,11.281,341.1227],[5.3443,11.3094,347.5987],[5.329,11.3286,339.1997],[5.3171,11.3347,335.8336],[5.3002,11.3384,328.7976],[5.2872,11.3443,346.2311],[5.2711,11.3462,349.1229],[5.2124,11.3467,340.6006],[5.1696,11.3426,335.6001],[5.1522,11.3384,296.7352],[5.1012,11.3305,321.709],[5.0792,11.3241,331.0808],[5.053,11.3214,307.3528],[5.003,11.3098,272.4497],[4.9847,11.3015,264.7168],[4.9474,11.2986,231.4453],[4.8544,11.2664,258.5125],[4.8379,11.2579,252.427],[4.812,11.2412,249.6718],[4.789,11.2324,241.9391],[4.776,11.2251,219.7758],[4.7611,11.2097,212.9103],[4.7538,11.192,227.6627],[4.7565,11.1676,206.5339],[4.7706,11.1475,189.9923],[4.7934,11.1325,232.3868],[4.8291,11.1153,238.8525],[4.9164,11.0804,235.0322],[4.9564,11.0742,220.8516],[4.9851,11.0752,250.5297],[5.003,11.072,250.5491],[5.02,11.0399,242.6575],[5.0333,11.0434,254.5303],[5.0476,11.0403,231.1648],[5.0601,11.0286,240.2537],[5.071,10.9858,285.0818],[5.0726,10.9585,257.3477],[5.0782,10.9238,261.4485],[5.0742,10.9068,281.3891],[5.0599,10.8996,256.8235],[5.0389,10.8835,254.5572],[5.0288,10.8602,262.2184],[5.0367,10.837,236.4389],[5.081,10.811,230.9254],[5.0998,10.7892,233.8068],[5.0988,10.7562,223.8932],[5.0825,10.7325,219.1636],[5.0504,10.7217,233.7054],[5.0211,10.7168,198.6656],[4.972,10.6949,207.6544],[4.9368,10.6747,189.4395],[4.9184,10.6722,181.5365],[4.8862,10.6836,193.8469],[4.856,10.6831,206.605],[4.8411,10.6808,211.222],[4.831,10.6762,205.5179],[4.8164,10.6643,172.6095],[4.8128,10.6433,167.3937],[4.8158,10.6147,187.7811],[4.8128,10.5912,193.7488],[4.8121,10.5638,180.9316],[4.8155,10.5355,176.7769],[4.8157,10.5111,187.2511],[4.8084,10.4892,191.061],[4.8144,10.4669,203.8342],[4.8287,10.444,213.4212],[4.8579,10.4124,256.2396],[4.888,10.3639,305.0652],[4.9001,10.325,268.8018],[4.8956,10.3004,272.6848],[4.867,10.2664,274.6277],[4.8447,10.2514,267.0781],[4.8244,10.2413,247.3327],[4.8065,10.2372,221.9713],[4.7881,10.2382,205.0503],[4.7698,10.2371,183.4266],[4.7281,10.2205,182.7115],[4.7028,10.2124,168.4688],[4.661,10.2053,155.1209],[4.6498,10.1971,148.9319],[4.6471,10.1784,178.3397],[4.6417,10.1034,162.8157],[4.6327,10.0957,170.0114],[4.563,10.1031,160.0538],[4.5466,10.1099,135.4146],[4.5401,10.119,130.0],[4.5378,10.14,130.0],[4.5396,10.1555,130.0],[4.5488,10.191,130.0],[4.5563,10.2079,134.3941],[4.5609,10.2373,130.0],[4.5595,10.2525,130.0],[4.561,10.271,130.0],[4.5507,10.2851,130.0],[4.5137,10.3135,130.0],[4.5047,10.3272,130.0],[4.4955,10.3521,130.0],[4.4964,10.3706,130.0],[4.4937,10.3915,130.0],[4.4946,10.4252,130.0],[4.4983,10.4382,130.0],[4.4985,10.4532,130.0],[4.5045,10.4755,130.0],[4.5221,10.5053,134.2392],[4.5362,10.5221,130.0],[4.5518,10.5373,130.0],[4.5758,10.5535,130.0],[4.639,10.5765,149.2285],[4.6513,10.5856,155.5855],[4.7136,10.6472,147.7079],[4.7205,10.6666,152.5912],[4.7375,10.7565,162.462],[4.7507,10.8042,182.769],[4.7528,10.8182,181.2547],[4.7561,10.883,159.5692],[4.7478,10.8947,150.0202],[4.727,10.9054,134.9482],[4.7013,10.9118,138.0057],[4.691,10.913,150.3275],[4.6757,10.9102,162.4382],[4.667,10.9177,152.3734],[4.625,10.9456,162.4759],[4.606,10.9562,157.9909],[4.584,10.9719,158.8768],[4.5666,10.9814,163.2661],[4.5553,10.9914,161.1931],[4.54,11.0012,176.8243],[4.512,11.0112,190.5106],[4.4553,11.0281,184.0086],[4.4079,11.0269,188.3585],[4.3888,11.0244,189.5782],[4.3694,11.0207,199.0131],[4.3594,11.0171,206.3531],[4.3351,11.0134,196.6327],[4.3014,11.013,222.8257],[4.2897,11.0161,234.2863],[4.2351,11.0191,229.8555],[4.1854,11.013,198.6171],[4.1682,11.0163,229.6051],[4.1377,11.0118,267.5563],[4.1079,11.0117,294.0715],[4.0708,11.0048,325.8441],[4.0385,11.0063,304.6612],[4.0085,11.0108,285.3588],[3.9522,11.0335,274.5856],[3.8907,11.0642,243.5862],[3.8203,11.1073,210.0719],[3.7989,11.1153,203.2529],[3.7738,11.1305,209.045],[3.7581,11.1347,195.7686],[3.7272,11.1362,199.4774],[3.7119,11.1281,199.9907],[3.7175,11.1278,197.4673],[3.7259,11.1241,207.9754],[3.7275,11.1177,213.7786],[3.7192,11.0867,223.7063],[3.7238,11.0556,238.1791],[3.7215,11.0425,252.9041],[3.7173,11.0352,268.3959],[3.7169,11.0243,270.2728],[3.7342,11.0198,284.8194],[3.7515,11.0114,260.2145],[3.7595,10.9972,249.6268],[3.7712,10.9308,242.2904],[3.7691,10.8981,251.303],[3.7492,10.8375,261.0828],[3.7495,10.8247,253.4114],[3.7522,10.8159,251.2905],[3.7722,10.7852,255.4036],[3.7852,10.7535,269.876],[3.7975,10.7352,299.6467],[3.8127,10.7232,287.1739],[3.8331,10.7123,301.0037],[3.841,10.7049,298.9868],[3.844,10.6929,301.7988],[3.8459,10.6711,317.64],[3.848,10.6677,324.0406],[3.8513,10.6019,342.4055],[3.8484,10.5888,354.8869],[3.8318,10.5686,333.7948],[3.8062,10.503,303.5066],[3.801,10.4853,300.1353],[3.8022,10.4552,288.1788],[3.786,10.4054,303.7762],[3.7693,10.4158,317.0003],[3.7607,10.4186,308.5148],[3.6951,10.4538,330.8196],[3.6877,10.4564,344.3681],[3.6654,10.4425,334.0191],[3.6461,10.4351,332.3139],[3.6377,10.4276,328.5435],[3.6316,10.4168,334.9894],[3.6347,10.3949,321.7275],[3.6339,10.3899,319.2379],[3.6263,10.3736,327.1729],[3.6144,10.3557,332.1661],[3.5842,10.2784,306.1832],[3.5922,10.2533,293.5118],[3.5977,10.2418,290.2618],[3.6125,10.2217,300.664],[3.6232,10.2141,287.9056],[3.6463,10.1894,303.5703],[3.6553,10.1841,306.5321],[3.6725,10.1838,283.6273],[3.6781,10.1783,281.4338],[3.679,10.1698,289.5565],[3.6759,10.156,292.6501],[3.6761,10.1493,299.6159],[3.6701,10.1299,293.2979],[3.677,10.1326,286.9247],[3.7259,10.1421,291.6894],[3.757,10.1446,316.6972],[3.8511,10.1459,270.4034],[3.8688,10.1435,275.3636],[3.94,10.1501,283.61],[3.9861,10.1414,289.4359],[3.9983,10.1353,283.422],[4.0069,10.1197,283.2762],[4.0401,10.0894,290.0021],[4.0737,10.0543,290.9235],[4.0856,10.0412,277.1406],[4.0966,10.0252,291.5101],[4.1412,9.9706,280.9016],[4.1711,9.938,272.059],[4.1884,9.9164,263.8004],[4.2242,9.8813,251.5047],[4.2439,9.8574,220.7112],[4.2563,9.8317,212.0576],[4.2761,9.8127,203.4143],[4.3027,9.7762,239.0813],[4.3469,9.7279,252.7983],[4.3687,9.7101,272.4445],[4.384,9.7026,262.5967],[4.4115,9.7054,226.6632],[4.4281,9.6977,208.3218],[4.4323,9.6788,202.6307],[4.4326,9.6506,201.3856],[4.4281,9.6367,224.8482],[4.4208,9.5761,187.4479],[4.4226,9.5438,183.2829],[4.4217,9.4897,249.2312],[4.4263,9.4514,252.069],[4.4359,9.4307,260.2679],[4.4569,9.4245,258.5097],[4.5128,9.429,186.2606],[4.5513,9.4361,176.8569],[4.5792,9.4373,153.5494],[4.5927,9.4254,107.2788],[4.5998,9.3994,102.8919],[4.5963,9.3656,100.0],[4.5967,9.3444,122.8597],[4.6024,9.3218,127.1365],[4.613,9.3055,100.0],[4.6459,9.2779,118.3393],[4.6649,9.2667,115.0703],[4.687,9.2614,106.582],[4.7139,9.2605,100.0],[4.7312,9.2517,100.0],[4.7406,9.2379,100.0],[4.7459,9.2179,100.0],[4.7485,9.2056,100.0],[4.7548,9.1424,100.0],[4.7577,9.1304,100.0],[4.7765,9.1158,206.6314],[4.7882,9.1092,259.8844],[4.8003,9.106,281.4193],[4.8207,9.1093,155.5015],[4.9123,9.1423,75.1444],[4.9686,9.1665,71.2276],[4.9914,9.1695,70.4372],[5.0076,9.1691,70.7493],[5.0491,9.1476,71.3898],[5.1101,9.1208,76.1809],[5.133,9.1031,72.0295],[5.1647,9.0629,67.314],[5.1836,9.0497,69.0169],[5.2198,9.0039,105.8724],[5.2242,8.994,113.6084],[5.2322,8.9906,105.4779],[5.2356,8.9871,106.4708],[5.2552,8.9824,72.0361],[5.2579,8.9795,71.4651],[5.2719,8.9758,71.9942],[5.287,8.9814,69.6628],[5.3,8.983,70.1524],[5.3181,8.9914,66.5583],[5.336,8.9946,63.0],[5.3459,8.9935,66.1895],[5.3686,8.9844,65.4929],[5.3777,8.989,62.9711],[5.3969,8.9825,62.0],[5.4089,8.9816,62.0],[5.4268,8.9702,64.542],[5.4408,8.9663,65.7131],[5.4537,8.9668,62.9353],[5.4692,8.9556,63.5776],[5.4795,8.9601,64.354],[5.4973,8.9466,62.6619],[5.5288,8.9292,61.4659],[5.5425,8.9189,60.0],[5.5882,8.8902,59.5],[5.625,8.8649,61.7799],[5.6697,8.8424,60.3373],[5.7535,8.7835,56.0],[5.7645,8.7695,56.0],[5.7685,8.7595,56.0],[5.7921,8.748,57.5476],[5.8218,8.7385,58.0393],[5.8688,8.7343,59.1359],[5.9013,8.7333,59.492],[5.9307,8.7378,55.6625],[5.9396,8.7428,54.0],[5.9561,8.748,60.1079],[5.9692,8.7459,58.4749],[6.0203,8.7543,66.1152],[6.0776,8.7529,53.5176],[6.0966,8.7463,56.2466],[6.1079,8.7443,57.109],[6.1354,8.7433,52.5],[6.1788,8.7285,51.0],[6.2239,8.7236,58.7049],[6.2357,8.7204,57.4783],[6.2613,8.7096,56.4499],[6.2757,8.699,56.2051],[6.2913,8.6909,55.534],[6.3073,8.68,53.8748],[6.3161,8.6687,57.3209],[6.3384,8.6492,53.9795],[6.3482,8.6387,53.3509],[6.3705,8.6046,54.2649],[6.3791,8.5945,50.5582],[6.3824,8.5843,52.0504],[6.389,8.578,51.9606],[6.3928,8.5692,50.8804],[6.396,8.5537,51.4796],[6.4044,8.5321,52.1296],[6.4153,8.4929,51.9931],[6.4315,8.4485,50.2191],[6.434,8.4365,49.7918],[6.4557,8.4209,50.374],[6.4939,8.3995,48.1093],[6.5017,8.3926,49.7288],[6.513,8.3779,48.7386],[6.5378,8.3563,51.3774],[6.5903,8.2903,46.8488],[6.6108,8.2577,125.3108],[6.6545,8.2076,52.3184],[6.6701,8.1983,49.8682],[6.6874,8.198,41.5],[6.6963,8.1944,44.759],[6.7017,8.2001,45.5265],[6.7073,8.2148,45.6154],[6.7117,8.2465,45.1063],[6.7318,8.2872,63.9101],[6.7348,8.2913,122.564],[6.7463,8.2835,156.0612],[6.7508,8.2772,147.8004],[6.7582,8.2787,90.2421],[6.7556,8.3164,73.0242],[6.7592,8.3265,136.5226],[6.7839,8.3394,111.6537],[6.7864,8.3403,97.3266],[6.7898,8.3382,131.607],[6.7924,8.3393,100.0765],[6.8169,8.3545,52.2403],[6.8218,8.3701,69.7929],[6.8272,8.3779,108.6444],[6.8342,8.3985,68.3101],[6.8349,8.4068,70.2723],[6.8054,8.4034,72.0355],[6.7825,8.411,113.4053],[6.751,8.4899,137.0496],[6.7523,8.5037,225.556],[6.7585,8.5119,126.4607],[6.7513,8.9714,208.6519],[6.7482,8.9809,204.5585],[6.7482,8.9911,220.7138],[6.7463,8.9975,212.1552],[6.7476,8.9975,209.5219],[6.7468,9.009,202.4327],[6.75,9.0667,211.3595]]]]}}