{"type":"Feature","properties":{"featurecla":"River","scalerank":7,"rivernum":376,"dissolve":"376River","name":"Kaduna","name_alt":null,"note":null,"min_zoom":6.0,"strokeweig":0.25,"name_en":"Kaduna","min_label":7.0},
"geometry":{"type": "LineString","coordinates": [[5.906494140625,9.6846865906191084,98.2804],[5.904541015625,9.6588076843691084,88.396],[5.9059082031250227,9.64923737186912,84.8682],[5.9117675781250227,9.6401553406191169,83.6352],[5.9232421875000227,9.6361026062441084,84.4475],[5.9332519531250227,9.6404971374941084,85.0571],[5.9413085937500227,9.6419619812441084,83.002],[5.94677734375,9.62897369999412,83.1357],[5.9479003906250227,9.6077822937441084,82.8368],[5.9453125,9.58576080936912,83.3663],[5.93115234375,9.54035065311912,76.9141],[5.88134765625,9.4331240906191169,118.4428],[5.876708984375,9.41412994999412,75.212],[5.87548828125,9.3536319031191084,77.0034],[5.8128906250000227,9.01752350468162,66.2657],[5.8154296875,8.9915713562441084,68.4526],[5.82763671875,8.97650787968162,64.9147],[5.8448730468750227,8.96454498905662,66.5841],[5.8631835937500227,8.94830963749412,64.9605],[5.8741699218750227,8.92731354374412,60.5],[5.873779296875,8.90729401249412,64.5277],[5.86474609375,8.88788483280662,63.4503],[5.762939453125,8.78558991093162,58.3866]]}}