{"type":"Feature","properties":{"featurecla":"River","scalerank":7,"rivernum":376,"dissolve":"376River","name":"Kaduna1","name_alt":null,"note":null,"min_zoom":6.0,"strokeweig":0.2,"name_en":"Kaduna","min_label":7.0},
"geometry":{"type": "LineString","coordinates": [[6.0855957031250227,10.490594793744108,332.4035],[6.05810546875,10.47138092655662,272.8248],[6.0478515625,10.458270574994117,287.624],[6.04296875,10.44208405155662,284.6725],[6.0400390625,10.401727606244108,232.9993],[6.0489746093750227,10.322284246869117,218.9157],[6.0489746093750227,10.301385809369108,236.6353],[6.0450683593750227,10.28082916874412,213.2388],[6.0263671875,10.220575262494108,211.7957],[6.023681640625,10.199725653119117,208.422],[6.0260253906250227,10.13837311405662,217.0096],[6.024658203125,10.131463934369108,213.5889],[6.018798828125,10.118036199994108,206.8104],[6.0174804687500227,10.11090729374412,199.1965],[6.019287109375,10.106073309369108,208.6569],[6.0234375,10.10321686405662,213.254],[6.02734375,10.099872137494117,204.057],[6.0284667968750227,10.093524481244117,196.7844],[6.02294921875,10.07941315311912,205.1877],[6.00390625,10.05426666874412,204.7894],[5.99755859375,10.03961823124412,203.6986],[5.9969726562500227,10.027215887494108,174.9357],[5.99951171875,10.01801178593162,175.6116],[6.0029296875,10.00934479374412,176.5876],[6.00537109375,9.99848053593162,177.8735],[6.004150390625,9.9853701843691169,176.7017],[5.9962402343750227,9.96613190311912,184.2471],[5.9967285156250227,9.9525088562441084,196.1232],[5.9912109375,9.92340729374412,205.373],[5.9677734375,9.9046572937441084,159.207],[5.91552734375,9.88007233280662,113.543],[5.9061523437500227,9.86188385624412,89.0658],[5.904052734375,9.83478424686912,92.9164],[5.9098144531250227,9.7291201843691084,100.7471],[5.906494140625,9.6846865906191084,98.2804]]}}