{"type": "Feature","bbox": [6.4905,5.1633,6.7602,5.7188],"geometry": {"type": "MultiPolygon","coordinates": [[[[6.6121,5.7185,15.5185],[6.611,5.7188,14.354],[6.6084,5.7129,9.0],[6.6229,5.6697,8.5],[6.6259,5.6556,9.6552],[6.6238,5.6418,8.5],[6.6176,5.6292,10.7145],[6.6126,5.6042,20.0169],[6.6073,5.5904,21.261],[6.5983,5.5758,16.1243],[6.5918,5.5722,13.9027],[6.5777,5.5598,9.7649],[6.5651,5.5528,8.5],[6.5594,5.543,19.6313],[6.5539,5.5288,24.887],[6.5507,5.5049,23.9598],[6.5557,5.4676,17.1473],[6.555,5.4538,16.8638],[6.5509,5.443,19.9752],[6.5432,5.4397,8.5],[6.5332,5.4325,8.5],[6.5225,5.4311,10.8261],[6.5032,5.4222,8.5],[6.4941,5.4138,15.5813],[6.4905,5.4081,15.5243],[6.4918,5.4031,22.146],[6.5,5.3898,21.2696],[6.5043,5.3878,25.4991],[6.5167,5.3852,24.0316],[6.5307,5.3912,24.4316],[6.5642,5.3932,22.1941],[6.5951,5.3798,23.4875],[6.6075,5.3703,12.5237],[6.6109,5.3543,21.74],[6.6177,5.3455,21.3922],[6.62,5.3293,25.4695],[6.6181,5.3141,20.5397],[6.6126,5.3019,15.4212],[6.6027,5.2901,18.2302],[6.5773,5.2728,20.5354],[6.5746,5.2624,18.9222],[6.576,5.2553,24.5686],[6.5813,5.2487,22.2875],[6.5809,5.2434,14.9816],[6.5767,5.24,4.0097],[6.5649,5.2359,12.8263],[6.556,5.2307,21.2655],[6.5527,5.2102,3.5],[6.5798,5.2066,15.4207],[6.591,5.2034,12.4912],[6.6024,5.2051,13.2793],[6.6157,5.2035,15.1206],[6.6261,5.2003,13.6282],[6.634,5.1942,15.2021],[6.6412,5.1837,12.9299],[6.6477,5.1813,17.8807],[6.6753,5.1633,15.949],[6.6788,5.1658,13.0126],[6.6868,5.1769,12.4282],[6.6934,5.1819,15.4151],[6.7066,5.1828,14.1632],[6.705,5.1902,15.7116],[6.696,5.2049,14.1702],[6.6952,5.2116,15.5008],[6.7002,5.2502,13.8388],[6.7071,5.2623,14.9112],[6.713,5.2671,15.7332],[6.7559,5.2714,34.4625],[6.7602,5.2732,37.1434],[6.7541,5.2841,35.8625],[6.7328,5.2946,24.7094],[6.7244,5.3051,24.414],[6.7201,5.3273,22.0069],[6.7227,5.3427,24.1083],[6.7377,5.372,26.5518],[6.7461,5.4469,17.1713],[6.7414,5.4601,18.0506],[6.7389,5.4737,19.5573],[6.7334,5.4798,17.5368],[6.7047,5.4863,14.0295],[6.6641,5.4771,27.3738],[6.6486,5.4755,24.1769],[6.6243,5.4826,25.7701],[6.6242,5.493,27.4723],[6.6266,5.4987,18.4617],[6.6609,5.6647,27.2995],[6.6619,5.6831,28.811],[6.6688,5.6943,30.2248],[6.6438,5.6931,22.4009],[6.63,5.6978,21.7499],[6.6191,5.7069,16.057],[6.6121,5.7185,15.5185]]]]}
,"properties": {"GID_2": "NGA.33.16_1","GID_0": "NGA","country": "Nigeria","GID_1": "NGA.33_1","province": "Rivers","NL_NAME_1": "NA","county": "Ogba/Egbema/Ndoni","VARNAME_2": "NA","NL_NAME_2": "NA","TYPE_2": "LocalAuthority","ENGTYPE_2": "LocalAuthority","CC_2": "NA","HASC_2": "NA","name": "Ogba_Egbema_Ndoni.county","area_km2": 700.6459,"hist_schema_id": "Elevation0-9000","hist_area_km2": {"0": 53.9766,"25": 646.1204,"50": 0.5489}}}