{"type":"Feature","properties":{"GID_2":"NGA.18.26_1","GID_0":"NGA","country":"Nigeria","GID_1":"NGA.18_1","province":"Jigawa","NL_NAME_1":"NA","county":"Taura","VARNAME_2":"NA","NL_NAME_2":"NA","TYPE_2":"LocalAuthority","ENGTYPE_2":"LocalAuthority","CC_2":"NA","HASC_2":"NA","name":"Taura.county"},
"geometry":{"type": "MultiPolygon","coordinates": [[[[9.489,12.3481,369.8742],[9.474,12.3252,372.6996],[9.463,12.3163,372.53],[9.4558,12.3082,373.7189],[9.4435,12.2996,373.8235],[9.4198,12.2876,373.6949],[9.3758,12.2733,377.5296],[9.3528,12.2669,377.9289],[9.3251,12.2618,377.9325],[9.2751,12.2565,378.8441],[9.25,12.257,380.5992],[9.2303,12.2619,379.3438],[9.2061,12.2711,380.7404],[9.1636,12.297,381.6505],[9.121,12.2956,382.015],[9.0962,12.2918,381.1382],[9.0784,12.2909,382.8795],[9.0872,12.2594,384.4233],[9.1231,12.2002,384.7919],[9.1517,12.1811,385.8876],[9.1623,12.1794,386.0447],[9.1858,12.1705,385.6463],[9.2148,12.1725,386.0052],[9.2941,12.1275,386.8858],[9.3033,12.1159,386.5175],[9.3125,12.1235,387.2382],[9.3137,12.1303,387.752],[9.3163,12.1332,383.616],[9.3324,12.1464,380.5962],[9.3663,12.1534,377.6083],[9.375,12.1523,377.2062],[9.3869,12.1544,377.5285],[9.3995,12.1492,378.3201],[9.4065,12.1515,377.3944],[9.4278,12.1715,375.5237],[9.4369,12.1749,375.4535],[9.4629,12.1721,374.6443],[9.4716,12.1687,375.3114],[9.478,12.1685,373.1874],[9.485,12.1708,373.1598],[9.5099,12.1849,373.7877],[9.5113,12.1954,371.7026],[9.5166,12.202,373.2177],[9.5487,12.2718,371.5552],[9.572,12.3037,369.6586],[9.5718,12.3248,372.1851],[9.5738,12.3307,370.1638],[9.5698,12.3417,366.7496],[9.5603,12.3493,373.2061],[9.5582,12.3533,367.3344],[9.5548,12.3547,367.8309],[9.5367,12.3515,369.683],[9.5102,12.3514,370.1971],[9.489,12.3481,369.8742]]]]}}