{"type":"Feature","properties":{"GID_2":"NGA.34.11_1","GID_0":"NGA","country":"Nigeria","GID_1":"NGA.34_1","province":"Sokoto","NL_NAME_1":"NA","county":"Kware","VARNAME_2":"NA","NL_NAME_2":"NA","TYPE_2":"LocalAuthority","ENGTYPE_2":"LocalAuthority","CC_2":"NA","HASC_2":"NA","name":"Kware.county"},
"geometry":{"type": "MultiPolygon","coordinates": [[[[5.5169,13.0056,288.4028],[5.503,13.0433,290.8722],[5.4951,13.0571,275.6709],[5.4911,13.07,269.0995],[5.4788,13.0807,264.3718],[5.4618,13.0911,259.0717],[5.4422,13.0876,255.637],[5.4045,13.0708,254.1595],[5.3994,13.0691,255.2936],[5.3973,13.0702,255.3783],[5.3942,13.0866,251.8865],[5.3974,13.1087,271.8896],[5.392,13.1064,274.5378],[5.3788,13.1122,301.198],[5.3647,13.1338,307.5786],[5.3563,13.1646,313.3289],[5.3546,13.1973,255.8927],[5.3475,13.218,250.1118],[5.3485,13.2273,250.3975],[5.3524,13.2319,250.7467],[5.3899,13.246,254.0646],[5.3914,13.248,256.014],[5.3763,13.2581,251.8456],[5.3632,13.2618,283.8447],[5.3551,13.2691,286.0845],[5.3446,13.2697,289.6693],[5.3403,13.2722,288.6794],[5.3324,13.2873,284.742],[5.3265,13.305,288.6201],[5.3169,13.3213,288.4962],[5.3126,13.3256,287.7211],[5.3091,13.326,288.0519],[5.3046,13.3306,288.0056],[5.2869,13.3389,285.6443],[5.2655,13.3315,279.2286],[5.2139,13.2905,269.8357],[5.2016,13.2839,274.5732],[5.1895,13.2743,278.8422],[5.1901,13.2699,286.5737],[5.1806,13.2495,318.6241],[5.1723,13.2416,321.5948],[5.1643,13.2288,320.0912],[5.1632,13.2223,324.1922],[5.1555,13.2079,323.4991],[5.1514,13.1869,299.4597],[5.1391,13.1735,308.051],[5.1566,13.1493,307.6208],[5.1637,13.1448,312.5215],[5.179,13.1378,279.7276],[5.2234,13.127,279.9445],[5.2328,13.1133,266.1957],[5.2355,13.1046,243.1576],[5.2353,13.0882,244.3039],[5.2453,13.0878,245.7555],[5.2589,13.0919,245.632],[5.2839,13.0936,274.4245],[5.2937,13.0928,286.5606],[5.2966,13.0903,261.9498],[5.2995,13.0811,248.3428],[5.2997,13.07,251.9399],[5.3117,13.0519,280.291],[5.312,13.0471,265.6547],[5.31,13.0387,260.2846],[5.2958,13.0317,263.7708],[5.2898,13.0258,276.6926],[5.3,13.0031,273.1793],[5.3045,12.9977,272.0258],[5.3284,13.0011,269.6367],[5.3479,13.0078,291.6852],[5.3543,13.0028,293.9995],[5.3577,12.9966,314.0442],[5.366,12.9896,287.8661],[5.3768,12.9858,284.2096],[5.3986,12.9828,289.8058],[5.422,12.987,294.7266],[5.4517,13.0021,276.9034],[5.4575,13.0024,278.9982],[5.479,12.993,317.4175],[5.497,12.9899,299.8669],[5.5169,13.0056,288.4028]]]]}}