{"type":"Feature","properties":{"GID_2":"NGA.28.18_1","GID_0":"NGA","country":"Nigeria","GID_1":"NGA.28_1","province":"Ogun","NL_NAME_1":"NA","county":"OgunWaterside","VARNAME_2":"NA","NL_NAME_2":"NA","TYPE_2":"LocalAuthority","ENGTYPE_2":"LocalAuthority","CC_2":"NA","HASC_2":"NA","name":"Ogun_Waterside.county"},
"geometry":{"type": "MultiPolygon","coordinates": [[[[4.3424,6.3732,4.5081],[4.3521,6.3707,7.1914],[4.3562,6.371,6.0436],[4.3579,6.3726,3.9255],[4.3599,6.3693,4.9094],[4.3743,6.3651,3.3007],[4.3776,6.3654,1.7557],[4.3807,6.3685,2.0637],[4.3812,6.3637,1.8662],[4.3907,6.3626,4.3956],[4.3993,6.3593,3.7445],[4.401,6.3601,3.0379],[4.404,6.3576,3.1473],[4.4068,6.3582,2.9979],[4.4076,6.3565,3.2898],[4.4118,6.3563,2.8294],[4.4132,6.3582,5.8793],[4.4185,6.3529,4.1565],[4.4479,6.3435,2.4201],[4.4729,6.3326,2.4374],[4.4921,6.3224,3.4016],[4.5181,6.323,4.593],[4.542,6.3154,2.8292],[4.5587,6.3174,8.3596],[4.5626,6.3197,6.9551],[4.572,6.3453,15.1018],[4.5686,6.3627,10.6847],[4.5387,6.3801,3.9987],[4.5153,6.3908,1.0247],[4.494,6.3905,0.0],[4.4702,6.3868,10.7734],[4.4544,6.3937,8.2787],[4.4636,6.4051,5.2399],[4.4757,6.4155,10.1735],[4.4917,6.418,0.1539],[4.5146,6.4171,5.3909],[4.5325,6.4281,5.55],[4.545,6.4466,8.9065],[4.5653,6.4541,13.1648],[4.5845,6.4572,7.9277],[4.5923,6.4719,8.3388],[4.596,6.4866,14.261],[4.5856,6.5138,7.7718],[4.5824,6.5443,15.1271],[4.5864,6.5601,28.6832],[4.586,6.6072,65.6253],[4.5826,6.6165,32.4603],[4.5722,6.6291,55.7819],[4.5595,6.6286,34.2766],[4.5437,6.6208,32.4199],[4.5336,6.6099,39.1599],[4.5262,6.5941,34.2366],[4.517,6.5841,19.9422],[4.5002,6.5731,36.9699],[4.4941,6.567,20.498],[4.4883,6.5662,18.3119],[4.4798,6.5677,36.9189],[4.4717,6.5651,34.3088],[4.4645,6.565,28.2404],[4.457,6.5676,40.7353],[4.4314,6.5692,36.6318],[4.4056,6.5759,29.2405],[4.3869,6.578,53.1329],[4.3605,6.5983,19.2068],[4.3544,6.6097,13.3106],[4.3531,6.6182,13.3352],[4.3476,6.6145,13.7747],[4.3407,6.6128,12.8344],[4.3044,6.6201,10.6276],[4.2988,6.6195,8.8794],[4.2907,6.6155,7.7589],[4.276,6.6044,11.2832],[4.2661,6.5968,6.2873],[4.2621,6.5869,5.9235],[4.2562,6.5833,3.5232],[4.2507,6.5818,3.5762],[4.2265,6.5832,9.2041],[4.2211,6.5768,1.7628],[4.2113,6.5748,0.0],[4.2191,6.5622,1.4671],[4.2209,6.5467,0.0],[4.211,6.5349,0.0],[4.2028,6.5297,0.0],[4.1577,6.5086,0.0],[4.1513,6.5004,0.0],[4.1487,6.4919,0.0],[4.1522,6.4805,0.0],[4.167,6.4685,0.0],[4.1748,6.4668,0.0],[4.1782,6.4644,0.0],[4.2019,6.4601,0.0],[4.2063,6.4568,0.0],[4.2118,6.4562,0.0],[4.2204,6.4425,0.0],[4.2299,6.4349,7.8024],[4.2394,6.4327,14.7832],[4.2575,6.4421,5.6611],[4.2845,6.4386,7.8563],[4.2925,6.4336,10.7652],[4.3163,6.4376,0.0],[4.3283,6.4374,5.0879],[4.3329,6.4366,3.2598],[4.3426,6.4316,7.1351],[4.347,6.4235,1.8213],[4.3482,6.4114,0.0],[4.3469,6.4011,4.921],[4.3431,6.3938,6.0053],[4.3424,6.3732,4.5081]]]]}}