{"type": "Feature","bbox": [7.6664,5.6903,7.8937,5.9537],"geometry": {"type": "MultiPolygon","coordinates": [[[[7.6749,5.8178,63.5433],[7.7694,5.8138,62.4922],[7.7799,5.8041,78.4224],[7.7895,5.7837,91.7916],[7.7931,5.7483,103.9917],[7.8044,5.7315,149.9646],[7.8196,5.7197,203.2034],[7.8418,5.7059,129.5181],[7.8562,5.6937,99.7231],[7.8778,5.6903,51.2416],[7.8805,5.6984,48.0883],[7.8808,5.7187,108.5623],[7.8871,5.7349,83.1819],[7.8937,5.7428,43.678],[7.8857,5.7488,45.8108],[7.8833,5.7594,44.8755],[7.8751,5.7766,73.0601],[7.8714,5.8064,33.9069],[7.8597,5.84,30.0617],[7.861,5.8455,48.2244],[7.8581,5.853,34.6874],[7.8509,5.8962,35.1281],[7.85,5.9066,26.8137],[7.8531,5.9169,30.0574],[7.8514,5.9236,24.2691],[7.8533,5.934,23.1895],[7.8447,5.9407,33.9968],[7.8349,5.9439,41.9919],[7.8224,5.9446,46.2266],[7.8161,5.9537,50.5233],[7.8124,5.9533,40.9064],[7.8049,5.9437,37.0692],[7.8034,5.9352,41.4978],[7.8008,5.9316,43.9487],[7.7975,5.9309,43.2841],[7.7852,5.9365,42.6533],[7.778,5.9366,50.6763],[7.7608,5.9272,40.2493],[7.7523,5.9174,36.4828],[7.7374,5.9094,36.4374],[7.7274,5.9077,34.9844],[7.7139,5.8808,33.5859],[7.7088,5.8626,38.6326],[7.6873,5.8453,47.5774],[7.6836,5.8324,46.3623],[7.6664,5.8183,57.6306],[7.6749,5.8178,63.5433]]]]}
,"properties": {"GID_2": "NGA.11.3_1","GID_0": "NGA","country": "Nigeria","GID_1": "NGA.11_1","province": "Ebonyi","NL_NAME_1": "NA","county": "AfikpoSouth","VARNAME_2": "NA","NL_NAME_2": "NA","TYPE_2": "LocalAuthority","ENGTYPE_2": "LocalAuthority","CC_2": "NA","HASC_2": "NA","name": "Afikpo_South.county","area_km2": 331.5525,"hist_schema_id": "Elevation0-9000","hist_area_km2": {"25": 64.1779,"50": 159.1362,"75": 40.205,"100": 16.117,"125": 16.0961,"150": 13.0371,"175": 11.0541,"200": 7.3623,"225": 3.7972,"250": 0.5063,"275": 0.0633}}}