{"type": "Feature","bbox": [6.4002,11.3233,7.1576,12.3805],"geometry": {"type": "MultiPolygon","coordinates": [[[[6.9025,11.3479,609.5679],[6.904,11.3631,600.6691],[6.9028,11.3851,586.6025],[6.9113,11.4105,598.4548],[6.9129,11.4341,617.0967],[6.9231,11.4822,610.1492],[6.9145,11.502,638.2835],[6.9084,11.541,672.1054],[6.8893,11.5574,655.3559],[6.8775,11.5713,677.204],[6.8751,11.5884,679.0477],[6.8765,11.6106,685.0584],[6.8833,11.6293,660.8187],[6.8823,11.6483,640.9213],[6.8945,11.6801,626.1825],[6.8694,11.6867,620.3696],[6.8317,11.6994,606.3236],[6.8055,11.6934,629.8815],[6.7694,11.7034,596.7534],[6.7465,11.7175,598.4127],[6.7195,11.729,572.8931],[6.6993,11.7508,570.7512],[6.6938,11.7715,554.6316],[6.6852,11.8338,576.0617],[6.6951,11.8799,548.21489999999994],[6.6961,11.9175,563.5881],[6.7001,11.9492,553.2937],[6.7101,11.999,504.598],[6.744,12.0594,481.1859],[6.7759,12.0863,490.9855],[6.8399,12.1301,492.6011],[6.8786,12.145,510.2711],[6.9145,12.1521,489.1801],[6.9842,12.1493,466.2039],[7.0161,12.1441,559.3641],[7.0526,12.1354,487.8096],[7.1397,12.0914,503.2846],[7.1416,12.1026,499.8077],[7.1575,12.1541,491.9973],[7.1576,12.1739,493.926],[7.1422,12.2132,513.1689],[7.1443,12.2398,510.4957],[7.1387,12.2596,489.0591],[7.1356,12.2808,469.7883],[7.1275,12.3055,460.8936],[7.0928,12.371,443.6034],[7.0946,12.3805,433.6025],[7.0257,12.3611,454.9518],[6.9985,12.3657,453.8498],[6.9627,12.3665,464.5603],[6.9175,12.3598,458.9759],[6.8716,12.3494,426.2301],[6.8358,12.3465,423.5856],[6.8277,12.343,416.7187],[6.8247,12.3434,415.4057],[6.8273,12.3404,414.8365],[6.8217,12.3402,417.3505],[6.8223,12.3198,420.0583],[6.8202,12.266,448.1523],[6.83,12.2032,505.327],[6.8321,12.1767,617.5029],[6.8272,12.1515,495.877],[6.8196,12.1442,484.9139],[6.801,12.1371,463.4065],[6.7769,12.1383,463.7411],[6.7524,12.1452,463.1465],[6.7351,12.1545,454.1943],[6.7174,12.1677,467.3132],[6.6866,12.23,459.502],[6.6828,12.242,454.1682],[6.6704,12.2596,465.9804],[6.6643,12.2714,463.6566],[6.6351,12.2863,433.7055],[6.6213,12.2813,432.1401],[6.6016,12.2592,428.7873],[6.5954,12.2476,428.9293],[6.5913,12.2311,408.0314],[6.5882,12.2048,422.2884],[6.5804,12.1643,443.4371],[6.579,12.1303,470.2947],[6.5817,12.1146,476.1447],[6.5783,12.1003,475.1264],[6.5725,12.0863,491.2585],[6.5569,12.0714,484.4311],[6.5545,12.0598,482.3078],[6.5611,12.0363,476.3719],[6.5663,12.0013,486.6659],[6.5628,11.9811,478.9862],[6.5575,11.9668,487.2304],[6.5364,11.9303,480.4097],[6.5349,11.9166,495.1026],[6.5262,11.9027,507.2929],[6.5064,11.8829,521.1636],[6.4972,11.8701,519.3961],[6.4934,11.8455,501.4446],[6.488,11.8312,482.5767],[6.4822,11.8242,480.8761],[6.4814,11.8161,489.642],[6.4834,11.7983,508.3284],[6.4784,11.7773,530.4825],[6.4633,11.7561,544.2727],[6.4358,11.7279,507.8896],[6.4074,11.7072,521.8696],[6.4017,11.6982,510.6801],[6.4002,11.6875,497.8749],[6.4095,11.6823,506.6954],[6.4198,11.6734,522.3341],[6.4344,11.6749,542.0004],[6.4461,11.6695,549.1512],[6.4745,11.6612,567.4312],[6.4926,11.6598,563.955],[6.5019,11.6627,548.1575],[6.5181,11.6617,561.5472],[6.5768,11.6495,570.7732],[6.5901,11.6409,573.2043],[6.607,11.6212,591.2493],[6.6239,11.5932,562.5129],[6.636,11.59,576.6412],[6.6528,11.5893,599.2683],[6.666,11.5832,601.0294],[6.6702,11.5705,605.6067],[6.6776,11.5563,583.3643],[6.6833,11.5261,632.394],[6.7081,11.4908,626.4933],[6.7231,11.4746,662.8882],[6.7332,11.4675,642.9712],[6.7536,11.4366,593.298],[6.7674,11.4268,589.2395],[6.7773,11.4142,601.3293],[6.7866,11.4124,612.1163],[6.8038,11.4057,619.4411],[6.809,11.3907,607.5314],[6.8161,11.3809,619.8068],[6.8347,11.3742,618.4214],[6.8345,11.3689,602.6157],[6.8428,11.3516,598.771],[6.8507,11.3441,586.5848],[6.8634,11.3233,574.6024],[6.8712,11.33,575.7943],[6.8862,11.3484,590.6792],[6.9025,11.3479,609.5679]]]]}
,"properties": {"GID_2": "NGA.37.7_1","GID_0": "NGA","country": "Nigeria","GID_1": "NGA.37_1","province": "Zamfara","NL_NAME_1": "NA","county": "Gusau","VARNAME_2": "NA","NL_NAME_2": "NA","TYPE_2": "LocalAuthority","ENGTYPE_2": "LocalAuthority","CC_2": "NA","HASC_2": "NA","name": "Gusau.county","area_km2": 3062.235,"hist_schema_id": "Elevation0-9000","hist_area_km2": {"400": 6.443,"425": 144.91,"450": 428.76,"475": 548.565,"500": 373.737,"525": 306.646,"550": 311.818,"575": 220.284,"600": 176.199,"625": 173.025,"650": 153.157,"675": 113.667,"700": 73.348,"725": 26.215,"750": 3.78,"775": 0.893,"800": 0.374,"825": 0.395}}}