{"type":"Feature","properties":{"GID_2":"NGA.20.6_1","GID_0":"NGA","country":"Nigeria","GID_1":"NGA.20_1","province":"Kano","NL_NAME_1":"NA","county":"Bunkure","VARNAME_2":"NA","NL_NAME_2":"NA","TYPE_2":"LocalAuthority","ENGTYPE_2":"LocalAuthority","CC_2":"NA","HASC_2":"NA","name":"Bunkure.county"},
"geometry":{"type": "MultiPolygon","coordinates": [[[[8.6182,11.7289,444.2979],[8.6116,11.7231,441.2878],[8.6067,11.7215,441.4851],[8.6031,11.7212,441.1245],[8.5943,11.7246,441.2794],[8.5844,11.7367,438.0547],[8.5823,11.7436,426.5273],[8.5626,11.7638,434.2537],[8.5541,11.7669,435.8336],[8.5446,11.7678,435.2854],[8.5248,11.7603,445.8566],[8.5029,11.7498,437.3036],[8.4967,11.7453,437.5457],[8.4851,11.7345,447.4899],[8.4761,11.7187,450.7382],[8.464,11.7024,465.0995],[8.4329,11.6952,477.0717],[8.4247,11.6905,484.1085],[8.4175,11.6734,489.1381],[8.418,11.6713,489.2578],[8.4173,11.6724,489.1381],[8.4136,11.6668,494.915],[8.4131,11.6546,497.6436],[8.4193,11.6478,494.2977],[8.4427,11.6345,475.7577],[8.4401,11.6306,474.8096],[8.4412,11.6246,477.6055],[8.4526,11.6113,484.4828],[8.452,11.6081,485.4924],[8.4589,11.592,494.6643],[8.4617,11.5654,504.871],[8.4707,11.5643,513.625],[8.4758,11.5653,510.5417],[8.5037,11.5778,501.9175],[8.5163,11.586,509.9681],[8.538,11.5924,509.1751],[8.5386,11.5845,521.9443],[8.5418,11.5804,515.0756],[8.5412,11.5703,518.9694],[8.5446,11.5583,518.6481],[8.5548,11.5618,520.4496],[8.5591,11.5667,521.8146],[8.5652,11.5793,514.7125],[8.5698,11.5832,511.0576],[8.5717,11.5913,496.9365],[8.5899,11.5984,490.5652],[8.6105,11.5998,480.7441],[8.6542,11.6099,452.2558],[8.6691,11.6093,457.3842],[8.6864,11.6125,461.3869],[8.6949,11.6091,466.3286],[8.7025,11.6101,471.4865],[8.7173,11.6174,468.4305],[8.7191,11.6153,473.6028],[8.7238,11.6174,475.1738],[8.725,11.6272,473.0359],[8.7276,11.6332,470.1345],[8.7247,11.6415,468.0537],[8.7288,11.657,456.7844],[8.7243,11.7223,432.9415],[8.7269,11.7265,430.5652],[8.7129,11.7472,427.0551],[8.7092,11.7492,422.5071],[8.6991,11.7489,423.7156],[8.6941,11.7461,427.8534],[8.6847,11.7347,418.0826],[8.6705,11.6962,438.9401],[8.6697,11.6805,435.1665],[8.6655,11.6606,436.9047],[8.6617,11.6559,435.4617],[8.6546,11.6526,446.7357],[8.6435,11.656,445.3973],[8.6375,11.6626,445.3959],[8.634,11.6709,444.1797],[8.6334,11.6871,441.5326],[8.6309,11.6963,434.1904],[8.6182,11.7289,444.2979]]]]}}