{"type":"Feature","properties":{"GID_2":"NGA.36.6_1","GID_0":"NGA","country":"Nigeria","GID_1":"NGA.36_1","province":"Yobe","NL_NAME_1":"NA","county":"Geidam","VARNAME_2":"NA","NL_NAME_2":"NA","TYPE_2":"LocalAuthority","ENGTYPE_2":"LocalAuthority","CC_2":"NA","HASC_2":"NA","name":"Geidam.county"},
"geometry":{"type": "MultiPolygon","coordinates": [[[[12.4893,12.6786,312.4668],[12.488,12.7043,313.3899],[12.4818,12.7323,313.2752],[12.4639,12.7445,312.7088],[12.4368,12.7682,315.4094],[12.4042,12.7931,315.0708],[12.3809,12.822,316.3478],[12.3717,12.8472,315.4948],[12.3609,12.8831,316.8],[12.3665,12.9346,316.1395],[12.3817,12.9935,309.7304],[12.3611,12.989,310.4827],[12.3412,12.9822,310.4117],[12.3027,12.9634,311.923],[12.2849,12.9519,312.5046],[12.2604,12.9453,317.2245],[12.2538,12.9392,318.0077],[12.2258,12.932,322.6599],[12.1966,12.9204,320.3302],[12.1775,12.9196,326.0855],[12.123,12.9084,324.9247],[12.06,12.9047,329.241],[12.0268,12.9079,325.1801],[11.9927,12.9218,322.8661],[11.9728,12.9336,344.0216],[11.9549,12.9394,325.8445],[11.9451,12.9464,326.3411],[11.9199,12.9353,345.3992],[11.9021,12.9298,317.373],[11.8934,12.9121,319.629],[11.8985,12.8964,318.4588],[11.8975,12.8778,317.3772],[11.8859,12.8708,318.8676],[11.8359,12.8588,329.627],[11.7965,12.8437,327.9457],[11.7541,12.8365,330.2223],[11.739,12.8215,328.2755],[11.7234,12.8103,328.861],[11.733,12.7974,329.6755],[11.7487,12.7652,329.9756],[11.7555,12.748,328.2433],[11.7585,12.7243,330.1225],[11.7724,12.687,330.8635],[11.774,12.657,330.0633],[11.7787,12.6293,332.3652],[11.7799,12.5996,336.4057],[11.7725,12.567,331.2943],[11.761,12.5471,332.1554],[11.7442,12.5252,330.8381],[11.7014,12.4814,336.9061],[11.6861,12.4531,336.7406],[11.6811,12.4225,340.2207],[11.6867,12.4038,339.6485],[11.7038,12.3842,335.7104],[11.7296,12.3693,339.2356],[11.7718,12.3609,339.4625],[11.7976,12.3582,340.7799],[11.8388,12.3569,339.7894],[11.8797,12.3634,338.8459],[11.9319,12.3648,340.701],[11.9538,12.3562,339.4539],[11.9715,12.3554,337.6863],[12.0143,12.3574,337.6153],[12.0444,12.3466,334.999],[12.1034,12.3695,333.6276],[12.1131,12.3761,332.8902],[12.1399,12.3825,332.936],[12.1616,12.386,332.1036],[12.1864,12.3871,332.6188],[12.22,12.382,335.2133],[12.2434,12.3913,333.1014],[12.2614,12.4066,330.8635],[12.2729,12.4202,329.903],[12.2838,12.4249,334.7274],[12.293,12.4255,332.7944],[12.3006,12.4299,333.5723],[12.3075,12.4571,330.8801],[12.3206,12.4735,330.1523],[12.3962,12.5293,329.9611],[12.4216,12.5573,323.2286],[12.4598,12.6062,316.8822],[12.4896,12.673,312.741],[12.4893,12.6786,312.4668]]]]}}