{"type":"Feature","properties":{"GID_2":"NGA.9.8_1","GID_0":"NGA","country":"Nigeria","GID_1":"NGA.9_1","province":"CrossRiver","NL_NAME_1":"NA","county":"Calabar","VARNAME_2":"CalabarMunicipal","NL_NAME_2":"NA","TYPE_2":"LocalAuthority","ENGTYPE_2":"LocalAuthority","CC_2":"NA","HASC_2":"NA","name":"Calabar.county"},
"geometry":{"type": "MultiPolygon","coordinates": [[[[8.3519,5.0836,43.2641],[8.3466,5.0785,78.2819],[8.3095,5.0792,36.3613],[8.2963,5.0762,14.8544],[8.2928,5.0739,13.7103],[8.2878,5.0643,1.5],[8.286,5.0517,14.1963],[8.2891,5.0443,11.704],[8.2881,5.0381,15.4841],[8.2893,5.0291,15.8121],[8.2771,5.0189,15.4686],[8.2716,5.0165,28.5618],[8.2628,5.0157,42.7067],[8.2581,5.0116,47.8567],[8.253,4.9981,25.0243],[8.2514,4.9825,7.7112],[8.2538,4.9746,9.2626],[8.2562,4.954,6.7709],[8.2792,4.9444,8.9094],[8.2855,4.9381,7.4711],[8.3049,4.9263,6.6025],[8.3055,4.9228,5.3087],[8.3439,4.9242,10.5873],[8.346,4.9253,7.9714],[8.347,4.9313,7.9674],[8.3498,4.9356,6.3272],[8.3486,4.9423,27.5146],[8.3503,4.9474,28.7818],[8.356,4.948,1.8727],[8.3762,4.9391,15.518],[8.3817,4.9386,14.3586],[8.3859,4.9396,15.1083],[8.3878,4.9419,14.1921],[8.3911,4.9511,5.6766],[8.3922,4.9575,16.0049],[8.3879,4.9617,11.8511],[8.3766,4.9654,12.4358],[8.3718,4.9696,3.8223],[8.3722,4.9804,10.9254],[8.3684,4.9828,13.1089],[8.3529,4.983,61.2266],[8.3419,4.9888,52.1486],[8.3377,4.996,60.8728],[8.3401,5.0176,69.0784],[8.3523,5.043,68.3414],[8.3572,5.0493,69.5215],[8.3609,5.0613,36.2216],[8.3601,5.0721,29.2965],[8.3519,5.0836,43.2641]]]]}}