{"type":"Feature","properties":{"GID_2":"NGA.31.16_1","GID_0":"NGA","country":"Nigeria","GID_1":"NGA.31_1","province":"Oyo","NL_NAME_1":"NA","county":"Iseyin","VARNAME_2":"NA","NL_NAME_2":"NA","TYPE_2":"LocalAuthority","ENGTYPE_2":"LocalAuthority","CC_2":"NA","HASC_2":"NA","name":"Iseyin.county"},
"geometry":{"type": "MultiPolygon","coordinates": [[[[3.7265,7.845,205.5901],[3.7232,7.8564,189.959],[3.724,7.8746,192.6291],[3.7187,7.8904,198.2885],[3.7184,7.9141,216.9914],[3.72,7.9305,220.2108],[3.7258,7.9453,220.4142],[3.7417,7.9725,208.5466],[3.7436,7.9918,218.5048],[3.7366,8.0131,215.6582],[3.7328,8.0392,237.9335],[3.713,8.0407,243.8352],[3.6688,8.0477,258.4889],[3.6386,8.0461,306.213],[3.6142,8.0484,327.3234],[3.6001,8.0475,328.3342],[3.5737,8.0399,343.4675],[3.5452,8.0348,355.9738],[3.5227,8.037,320.8917],[3.5154,8.0454,362.8291],[3.5035,8.0505,307.8977],[3.4573,8.0471,311.1743],[3.4672,8.02,265.74],[3.4685,8.0128,266.3813],[3.4622,8.0079,259.4411],[3.4583,7.9939,264.2531],[3.4494,7.974,258.9809],[3.4495,7.9618,281.7213],[3.4546,7.9483,227.1069],[3.4534,7.937,219.8097],[3.4454,7.9264,234.9595],[3.4294,7.9193,230.0754],[3.3899,7.8736,220.8813],[3.3752,7.8317,181.5269],[3.3221,7.8148,170.0771],[3.3016,7.8184,206.4276],[3.2852,7.8187,177.8406],[3.2742,7.8212,166.3575],[3.2649,7.8158,171.3466],[3.247,7.8106,171.4828],[3.273,7.7772,157.4595],[3.2781,7.7667,147.0436],[3.2789,7.7566,152.2959],[3.2752,7.7309,177.1289],[3.2823,7.7095,144.5577],[3.2879,7.7021,143.0725],[3.2982,7.6957,144.2387],[3.3419,7.6611,174.1852],[3.4025,7.6798,134.6554],[3.4183,7.6904,144.6202],[3.4231,7.7012,155.9239],[3.4191,7.7095,133.1996],[3.4247,7.7285,151.6397],[3.4278,7.7354,145.2193],[3.4355,7.7387,150.2563],[3.4504,7.7362,152.5357],[3.4657,7.7419,169.6579],[3.4793,7.741,171.7228],[3.4982,7.7358,194.4189],[3.5145,7.7339,214.2473],[3.5279,7.7346,198.5811],[3.5435,7.7406,186.0431],[3.5473,7.75,211.767],[3.5465,7.7852,214.684],[3.5526,7.7925,215.8753],[3.5648,7.7905,189.8299],[3.5707,7.7855,195.1899],[3.5858,7.7781,195.4165],[3.6834,7.7384,190.5354],[3.6955,7.7539,173.7461],[3.7001,7.7559,191.3603],[3.7105,7.7557,204.0609],[3.7191,7.7593,177.7817],[3.7343,7.7586,210.4384],[3.7446,7.7547,206.2792],[3.7584,7.7522,198.28],[3.7556,7.7619,192.6405],[3.7564,7.7699,180.7981],[3.7495,7.7855,180.992],[3.7463,7.7998,197.6233],[3.7299,7.8319,198.3548],[3.7265,7.845,205.5901]]]]}}