{"type":"Feature","properties":{"GID_2":"NGA.31.31_1","GID_0":"NGA","country":"Nigeria","GID_1":"NGA.31_1","province":"Oyo","NL_NAME_1":"NA","county":"SakiEast","VARNAME_2":"NA","NL_NAME_2":"NA","TYPE_2":"LocalAuthority","ENGTYPE_2":"LocalAuthority","CC_2":"NA","HASC_2":"NA","name":"Saki_East.county"},
"geometry":{"type": "MultiPolygon","coordinates": [[[[3.4016,8.8279,441.9395],[3.3988,8.7865,418.4936],[3.4045,8.7583,437.388],[3.3763,8.7301,421.2999],[3.3763,8.7132,436.5959],[3.3706,8.6963,448.6902],[3.3763,8.685,381.5395],[3.3763,8.668,445.4411],[3.3875,8.6567,437.9049],[3.4101,8.6567,481.5525],[3.427,8.6455,482.5879],[3.4496,8.6229,457.1521],[3.4533,8.5672,424.9673],[3.4624,8.5646,384.0915],[3.5199,8.5343,409.3885],[3.5416,8.5211,375.5485],[3.5732,8.509,372.505],[3.6288,8.4942,387.3005],[3.6499,8.4904,376.7174],[3.6677,8.4903,349.1705],[3.7168,8.4847,327.1588],[3.7605,8.4777,335.9406],[3.7715,8.4745,304.1652],[3.785,8.4681,311.5358],[3.785,8.4416,315.8832],[3.7891,8.4231,310.3304],[3.7957,8.4161,302.5106],[3.7954,8.4262,321.2443],[3.8049,8.4283,319.8046],[3.8149,8.4328,337.3489],[3.8228,8.4391,336.3692],[3.8224,8.4568,336.7469],[3.819,8.4744,315.0371],[3.8213,8.5013,351.5446],[3.8203,8.5276,361.1439],[3.8178,8.5415,347.0308],[3.8227,8.5863,360.3895],[3.828,8.5996,387.5103],[3.8333,8.6276,381.1691],[3.83,8.6429,354.5076],[3.8254,8.6538,353.5009],[3.8165,8.6627,361.0692],[3.7933,8.6795,382.6102],[3.7792,8.6963,377.5823],[3.7549,8.7025,370.6733],[3.7487,8.7056,389.8709],[3.7392,8.7163,377.6237],[3.7187,8.7215,408.6567],[3.7073,8.7279,381.1146],[3.6992,8.7412,357.1682],[3.6958,8.7562,364.4951],[3.6883,8.81,357.3611],[3.6766,8.8665,366.8818],[3.6717,8.8774,368.4503],[3.6569,8.8942,398.9728],[3.6468,8.8967,413.2381],[3.645,8.899,408.3687],[3.6379,8.9012,416.4804],[3.635,8.908,407.1948],[3.6197,8.9299,386.6735],[3.6154,8.9332,384.7623],[3.61,8.9474,392.0831],[3.5984,8.9389,401.4645],[3.585,8.9354,406.2206],[3.5594,8.9245,401.9595],[3.5493,8.9162,412.4515],[3.5258,8.9059,387.7961],[3.5149,8.8974,388.6104],[3.4963,8.8905,400.3968],[3.4776,8.8772,431.6769],[3.466,8.8714,429.6058],[3.4465,8.854,419.8924],[3.4257,8.8403,438.2976],[3.412,8.8354,421.0251],[3.4074,8.8362,432.7288],[3.4016,8.8279,441.9395]]]]}}