{"type":"Feature","properties":{"GID_2":"NGA.18.14_1","GID_0":"NGA","country":"Nigeria","GID_1":"NGA.18_1","province":"Jigawa","NL_NAME_1":"NA","county":"Jahun","VARNAME_2":"NA","NL_NAME_2":"NA","TYPE_2":"LocalAuthority","ENGTYPE_2":"LocalAuthority","CC_2":"NA","HASC_2":"NA","name":"Jahun.county"},
"geometry":{"type": "MultiPolygon","coordinates": [[[[9.4201,11.891,390.8138],[9.4349,11.8954,390.3704],[9.4674,11.9096,389.4454],[9.4962,11.9253,391.5042],[9.5139,11.9385,381.998],[9.5723,11.9482,390.9462],[9.597,11.9578,396.4604],[9.6119,11.9563,378.0819],[9.6243,11.9496,378.0168],[9.6321,11.9418,376.2768],[9.6307,11.9382,384.608],[9.6384,11.9206,382.4229],[9.6439,11.9168,384.0115],[9.6513,11.9155,388.1721],[9.6713,11.9192,382.9408],[9.6938,11.9291,383.0298],[9.7268,11.9398,378.0761],[9.739,11.9421,376.9805],[9.7669,11.9519,375.9908],[9.807,11.9633,373.5892],[9.8267,11.967,372.2419],[9.8191,11.98,374.1334],[9.8179,11.9901,372.5325],[9.8197,11.9971,372.0083],[9.8178,12.0232,370.5143],[9.819,12.0387,370.9943],[9.8169,12.0796,375.0046],[9.8179,12.0835,364.1784],[9.8057,12.0834,381.2447],[9.7614,12.072,365.0948],[9.7406,12.0704,369.1252],[9.7349,12.0744,367.0638],[9.7336,12.0877,367.0223],[9.7372,12.0927,380.1542],[9.735,12.099,372.1425],[9.7222,12.1041,371.0252],[9.6912,12.1134,368.8858],[9.6655,12.1124,371.0635],[9.6477,12.109,371.8845],[9.6386,12.111,371.9404],[9.6065,12.1235,372.0419],[9.5945,12.1329,371.0837],[9.5718,12.131,371.5231],[9.5566,12.1319,375.1754],[9.5531,12.1348,373.1166],[9.5474,12.1501,372.8357],[9.5408,12.1485,374.8499],[9.5254,12.1491,372.7147],[9.5001,12.1533,374.416],[9.4888,12.1714,374.7135],[9.5005,12.1798,374.3952],[9.485,12.1708,373.1598],[9.478,12.1685,373.1874],[9.4716,12.1687,375.3114],[9.4629,12.1721,374.6443],[9.4369,12.1749,375.4535],[9.4278,12.1715,375.5237],[9.4065,12.1515,377.3944],[9.3995,12.1492,378.3201],[9.3869,12.1544,377.5285],[9.375,12.1523,377.2062],[9.3663,12.1534,377.6083],[9.3324,12.1464,380.5962],[9.3163,12.1332,383.616],[9.3137,12.1303,387.752],[9.3125,12.1235,387.2382],[9.3033,12.1159,386.5175],[9.3061,12.1084,386.2381],[9.2998,12.0919,389.1799],[9.292,12.079,387.4148],[9.2903,12.069,389.6099],[9.2923,12.0515,383.206],[9.2884,12.0404,385.8781],[9.2769,12.0238,387.0285],[9.337,11.9951,383.3112],[9.3418,11.9907,385.5058],[9.352,11.972,385.8506],[9.3655,11.9536,386.9636],[9.3653,11.9412,388.9785],[9.3681,11.9385,389.1411],[9.3783,11.9081,387.8951],[9.3971,11.8902,390.1936],[9.4049,11.8878,390.9971],[9.4201,11.891,390.8138]]]]}}