{"type":"Feature","properties":{"GID_2":"NGA.8.24_1","GID_0":"NGA","country":"Nigeria","GID_1":"NGA.8_1","province":"Borno","NL_NAME_1":"NA","county":"Mobbar","VARNAME_2":"NA","NL_NAME_2":"NA","TYPE_2":"LocalAuthority","ENGTYPE_2":"LocalAuthority","CC_2":"NA","HASC_2":"NA","name":"Mobbar.county"},
"geometry":{"type": "MultiPolygon","coordinates": [[[[12.5761,13.2536,303.2537],[12.5746,13.2499,302.8738],[12.566,13.2402,303.5432],[12.5662,13.2374,303.1679],[12.5724,13.2312,303.6285],[12.5682,13.2261,302.5894],[12.5574,13.2226,303.2122],[12.5535,13.2191,303.5234],[12.5529,13.2037,303.9297],[12.5501,13.2009,304.2994],[12.547,13.2011,304.4015],[12.5406,13.2128,303.8536],[12.5361,13.2124,303.9699],[12.5375,13.2074,304.996],[12.5368,13.2037,304.6042],[12.5403,13.1959,304.1696],[12.5436,13.1924,303.405],[12.5483,13.1906,303.862],[12.5532,13.191,304.3542],[12.5614,13.1982,304.376],[12.5652,13.1931,304.0477],[12.5556,13.1814,304.229],[12.5534,13.1761,304.3055],[12.5541,13.1614,305.8202],[12.5588,13.1577,304.44],[12.5499,13.1533,304.7051],[12.5462,13.1492,305.1771],[12.5424,13.1404,304.8687],[12.5396,13.1393,304.9736],[12.538,13.1404,305.3877],[12.537,13.1462,305.4244],[12.5262,13.1462,305.3326],[12.5187,13.1499,305.7944],[12.5121,13.1432,305.4932],[12.5044,13.139,305.7424],[12.4948,13.1289,305.9817],[12.4908,13.1197,305.7153],[12.4964,13.1098,306.9299],[12.4917,13.1018,305.9107],[12.4924,13.0983,306.4395],[12.4969,13.0937,305.577],[12.4906,13.09,306.9846],[12.4917,13.0882,306.8684],[12.4964,13.087,306.2956],[12.4969,13.0838,306.053],[12.4809,13.0836,306.683],[12.4793,13.081,306.6381],[12.4826,13.0707,306.676],[12.4805,13.0647,307.0839],[12.4767,13.0624,307.4513],[12.4709,13.0633,306.7386],[12.4612,13.0695,307.7073],[12.4528,13.0718,306.6336],[12.4335,13.0711,308.0349],[12.4098,13.0787,307.4357],[12.407,13.079,307.1359],[12.4004,13.0741,307.3431],[12.4021,13.0773,308.1198],[12.3864,13.0768,308.2262],[12.385,13.0101,311.9111],[12.3781,12.9757,313.7923],[12.3665,12.9346,316.1395],[12.3609,12.8831,316.8],[12.3809,12.822,316.3478],[12.4042,12.7931,315.0708],[12.4368,12.7682,315.4094],[12.4639,12.7445,312.7088],[12.4818,12.7323,313.2752],[12.488,12.7043,313.3899],[12.4893,12.6786,312.4668],[12.5494,12.7059,310.8437],[12.5784,12.7241,309.6095],[12.6161,12.7413,307.5324],[12.6453,12.7625,304.9588],[12.6997,12.7937,303.5937],[12.7348,12.8445,302.7448],[12.7999,12.9042,301.0049],[12.8367,12.9527,299.4503],[12.8662,12.9809,296.3432],[12.904,13.0455,298.848],[12.9307,13.0737,295.4442],[12.9464,13.0845,296.0833],[12.9832,13.089,298.0174],[12.9985,13.0939,291.1931],[13.0746,13.0907,293.423],[13.1485,13.0756,292.7426],[13.1755,13.0752,294.0073],[13.1632,13.0955,291.6259],[13.1608,13.1156,295.5287],[13.1418,13.1353,293.8734],[13.1234,13.1496,294.4465],[13.0905,13.1713,292.8718],[13.0761,13.198,292.3768],[13.0585,13.2208,298.9804],[13.0285,13.2494,293.8877],[13.0055,13.2688,294.5093],[12.985,13.279,293.6844],[12.9689,13.2938,294.7339],[12.9357,13.3097,297.7117],[12.9235,13.3225,298.6691],[12.8897,13.3449,298.1071],[12.8873,13.3509,297.9984],[12.8791,13.3626,299.3781],[12.8389,13.3908,299.157],[12.8319,13.3987,297.1475],[12.8279,13.3968,298.4111],[12.8253,13.4072,298.4287],[12.8222,13.4056,298.8221],[12.8192,13.4007,298.776],[12.821,13.3966,298.3292],[12.8196,13.3931,298.4328],[12.8003,13.381,297.9309],[12.7975,13.3807,298.4789],[12.7942,13.375,302.3665],[12.7954,13.3718,301.7218],[12.7942,13.3688,300.9544],[12.7874,13.3612,301.5435],[12.7724,13.3541,298.7247],[12.763,13.3518,299.0411],[12.7548,13.352,299.3299],[12.7533,13.3536,299.4825],[12.7404,13.3403,300.0287],[12.7376,13.335,299.1815],[12.7385,13.3318,299.7824],[12.743,13.3288,299.5262],[12.7421,13.3251,301.8511],[12.7383,13.3214,300.2143],[12.7305,13.3189,299.4704],[12.7146,13.3168,300.5743],[12.7139,13.3145,299.7956],[12.7216,13.3067,302.4869],[12.7143,13.3042,302.4005],[12.7037,13.3134,299.9776],[12.6981,13.3122,299.9254],[12.6929,13.3132,300.4149],[12.6906,13.3088,300.4591],[12.6939,13.3005,301.4775],[12.6892,13.2904,302.2827],[12.6765,13.2743,301.2416],[12.6737,13.2729,303.2504],[12.6683,13.2738,302.8555],[12.6638,13.2846,300.8098],[12.6598,13.2856,300.7528],[12.6551,13.2835,300.7749],[12.6509,13.2837,300.8973],[12.6483,13.286,301.9648],[12.647,13.3005,303.0185],[12.6451,13.3004,303.1092],[12.6403,13.297,302.1642],[12.6338,13.2797,301.2086],[12.6261,13.2723,302.2206],[12.6181,13.2718,302.5222],[12.6094,13.2766,301.6125],[12.5977,13.2758,302.0408],[12.5892,13.2778,301.9247],[12.5923,13.2675,302.2625],[12.5914,13.2633,302.7651],[12.581,13.2702,302.2595],[12.5789,13.2683,302.2168],[12.5761,13.2536,303.2537]]]]}}