{"type":"Feature","properties":{"GID_2":"NGA.17.8_1","GID_0":"NGA","country":"Nigeria","GID_1":"NGA.17_1","province":"Imo","NL_NAME_1":"NA","county":"Ikeduru","VARNAME_2":"NA","NL_NAME_2":"NA","TYPE_2":"LocalAuthority","ENGTYPE_2":"LocalAuthority","CC_2":"NA","HASC_2":"NA","name":"Ikeduru.county"},
"geometry":{"type": "MultiPolygon","coordinates": [[[[7.2197,5.503,128.7433],[7.221,5.5151,143.1559],[7.2228,5.5139,139.5511],[7.2281,5.5228,139.0469],[7.2262,5.5382999999999996,146.0096],[7.2294,5.5479,151.1405],[7.2269,5.5632,127.4663],[7.2377,5.578,153.2107],[7.2385,5.5863,156.9741],[7.2359,5.5937,143.9986],[7.237,5.5983,159.2766],[7.2249,5.5996,129.1686],[7.217,5.5956,169.7236],[7.2027,5.5942,171.4783],[7.1889,5.6,170.6321],[7.182,5.6105,156.9157],[7.1544,5.6217,168.2463],[7.1338,5.6161,160.1853],[7.1254,5.6105,159.3522],[7.1174,5.6012,160.4489],[7.1138,5.5914,160.1337],[7.1165,5.5851,150.4523],[7.1042,5.5669,149.6273],[7.0962,5.5578,126.8408],[7.0926,5.5484,128.7764],[7.0757,5.5338,121.9239],[7.085,5.5227,116.2056],[7.0896,5.5197,114.2542],[7.1231,5.5071,112.8849],[7.1418,5.4967,78.3449],[7.1478,5.4959,91.2826],[7.1578,5.4869,125.4284],[7.1673,5.4748,122.0037],[7.1878,5.4846,127.7177],[7.198,5.492,120.4409],[7.2084,5.4935,118.0416],[7.2197,5.503,128.7433]]]]}}