{"type":"Feature","properties":{"GID_2":"NGA.23.5_1","GID_0":"NGA","country":"Nigeria","GID_1":"NGA.23_1","province":"Kogi","NL_NAME_1":"NA","county":"Dekina","VARNAME_2":"NA","NL_NAME_2":"NA","TYPE_2":"LocalAuthority","ENGTYPE_2":"LocalAuthority","CC_2":"NA","HASC_2":"NA","name":"Dekina.county"},
"geometry":{"type": "MultiPolygon","coordinates": [[[[7.482,7.4938,348.3379],[7.4722,7.5102,360.8244],[7.4705,7.5208,349.5806],[7.4648,7.538,328.116],[7.4554,7.557,287.2406],[7.4482,7.5797,325.4757],[7.4372,7.6,367.249],[7.4327,7.6332,377.0361],[7.4304,7.6787,400.7274],[7.4242,7.6942,407.5916],[7.3972,7.7373,266.7679],[7.3904,7.7432,302.0552],[7.3827,7.7544,233.6163],[7.3704,7.7767,221.5157],[7.3643,7.7835,195.3009],[7.3484,7.8144,239.0348],[7.3385,7.8268,229.9023],[7.3356,7.8335,216.8891],[7.3327,7.8264,198.6596],[7.3249,7.8159,214.5408],[7.3193,7.8096,158.7837],[7.3113,7.8042,227.911],[7.2729,7.7924,294.0165],[7.2413,7.7784,335.5331],[7.1898,7.7641,400.7868],[7.1817,7.7594,290.6257],[7.1528,7.7297,168.7155],[7.1397,7.7184,401.5634],[7.1338,7.7074,393.7061],[7.1071,7.6869,285.1888],[7.0897,7.6789,267.5431],[7.0284,7.6664,241.7727],[7.0053,7.669,265.7122],[6.9894,7.6679,283.3931],[6.9764,7.6647,198.1561],[6.948,7.6338,283.0992],[6.9416,7.6234,257.8011],[6.932,7.6125,217.8801],[6.9173,7.6026,200.1945],[6.8733,7.5952,371.7935],[6.8571,7.5902,477.6018],[6.8468,7.5828,295.016],[6.8246,7.5627,254.4858],[6.8078,7.5249,344.1647],[6.8081,7.509,177.4654],[6.8062,7.4913,131.5612],[6.8077,7.4597,88.1287],[6.8055,7.426,66.4613],[6.8074,7.4259,67.3468],[6.8078,7.4215,79.0918],[6.8149,7.4207,76.3159],[6.8295,7.411,105.5601],[6.8425,7.3995,133.759],[6.8509,7.388,148.6357],[6.8677,7.3767,136.5697],[6.8877,7.3842,145.633],[6.9208,7.3894,165.6306],[6.9378,7.3884,256.8299],[6.9494,7.3914,377.8336],[6.9612,7.3921,321.2909],[7.0103,7.3913,273.3915],[7.0201,7.396,210.1013],[7.0239,7.4019,185.4059],[7.0284,7.4233,216.0721],[7.0283,7.4311,235.2961],[7.0436,7.452,346.8795],[7.06,7.466,331.705],[7.0709,7.4716,383.0166],[7.0774,7.4727,336.4488],[7.0847,7.4705,414.0041],[7.0901,7.4623,375.7954],[7.0916,7.4515,356.1708],[7.0888,7.4404,364.9004],[7.0891,7.4291,337.9498],[7.0945,7.4224,362.5142],[7.1142,7.3842,371.6872],[7.1456,7.3418,329.4437],[7.157,7.3333,281.2057],[7.1747,7.3291,227.2656],[7.2066,7.3334,199.4746],[7.2191,7.3369,235.6833],[7.2296,7.3436,242.3553],[7.2377,7.3582,220.6291],[7.239,7.3676,207.7596],[7.2428,7.3768,238.6727],[7.2506,7.3889,266.2398],[7.2576,7.391,273.8807],[7.2659,7.3907,266.9727],[7.2854,7.3837,299.9388],[7.2994,7.3804,319.4227],[7.3209,7.3803,304.7172],[7.3597,7.3831,258.9996],[7.3838,7.3799,307.1611],[7.4566,7.3847,303.5068],[7.4733,7.3904,310.2088],[7.4764,7.4007,306.2038],[7.4756,7.4076,304.8131],[7.481,7.4426,314.4643],[7.4805,7.4921,344.883],[7.482,7.4938,348.3379]]]]}}