{"type":"Feature","properties":{"GID_2":"NGA.34.10_1","GID_0":"NGA","country":"Nigeria","GID_1":"NGA.34_1","province":"Sokoto","NL_NAME_1":"NA","county":"Kebbe","VARNAME_2":"NA","NL_NAME_2":"NA","TYPE_2":"LocalAuthority","ENGTYPE_2":"LocalAuthority","CC_2":"NA","HASC_2":"NA","name":"Kebbe.county"},
"geometry":{"type": "MultiPolygon","coordinates": [[[[5.0235,11.6806,271.0126],[5.0274,11.7302,237.2838],[5.0282,11.7604,284.0838],[5.0266,11.7897,289.4761],[5.0311,11.817,299.0825],[5.0334,11.8602,305.5506],[5.0342,11.8999,296.0823],[5.0308,11.9364,265.7882],[5.0311,11.9953,255.5837],[5.0347,12.0316,229.641],[5.0337,12.0687,243.1477],[5.0352,12.1052,240.3839],[5.0322,12.1498,218.2861],[5.0325,12.1895,224.476],[5.0341,12.2128,219.1575],[5.038,12.2304,222.2562],[5.0216,12.2221,226.3245],[5.0131,12.2139,225.4494],[5.0108,12.209,220.8472],[4.9943,12.2017,219.6863],[4.9745,12.1989,228.2463],[4.9653,12.2009,238.8342],[4.9255,12.2013,269.1961],[4.9154,12.2061,276.1838],[4.9021,12.2057,281.4113],[4.888,12.2078,277.0041],[4.8711,12.2069,275.3765],[4.8532,12.2019,262.3342],[4.8431,12.1909,258.6991],[4.8307,12.1601,235.0657],[4.8231,12.1496,209.2167],[4.797,12.1251,225.7798],[4.7776,12.1112,254.8969],[4.756,12.1024,255.3702],[4.7364,12.0987,241.8861],[4.7153,12.0971,249.4966],[4.7049,12.0935,263.9928],[4.6864,12.0917,285.0461],[4.6743,12.0876,278.121],[4.6413,12.0718,264.9526],[4.6064,12.0499,284.0016],[4.6082,12.027,287.6099],[4.6141,12.0053,284.8068],[4.6171,11.9636,247.5234],[4.6155,11.9307,281.1365],[4.6091,11.889099999999999,307.6413],[4.5987,11.8645,287.7713],[4.5925,11.843,263.7497],[4.5812,11.775,270.3704],[4.539,11.6853,213.846],[4.5274,11.6476,199.5939],[4.5203,11.6094,205.1384],[4.5268,11.5926,216.1354],[4.5433,11.5702,216.7643],[4.5614,11.5512,214.3864],[4.5737,11.543,228.5291],[4.6021,11.5383,234.2937],[4.6187,11.5385,237.4568],[4.6308,11.5439,234.8649],[4.6462,11.56,222.2796],[4.6588,11.5807,215.2347],[4.685,11.6078,228.3207],[4.7236,11.6285,222.0531],[4.7522,11.6376,236.5327],[4.7752,11.6478,245.4973],[4.8048,11.6572,257.4842],[4.8266,11.6692,312.1046],[4.8485,11.6768,268.454],[4.8789,11.6945,251.5058],[4.8933,11.6988,283.4367],[4.9062,11.6964,245.8166],[4.9172,11.6924,250.2153],[4.9229,11.6872,247.0056],[4.9368,11.6827,260.9858],[4.9563,11.6915,272.4638],[4.9698,11.6942,266.5801],[4.9726,11.6905,259.9248],[4.9768,11.6765,268.5743],[4.9821,11.6664,292.071],[4.9973,11.6652,323.1188],[5.0235,11.6806,271.0126]]]]}}