{"type":"Feature","properties":{"GID_2":"NGA.17.23_1","GID_0":"NGA","country":"Nigeria","GID_1":"NGA.17_1","province":"Imo","NL_NAME_1":"NA","county":"OruWest","VARNAME_2":"NA","NL_NAME_2":"NA","TYPE_2":"LocalAuthority","ENGTYPE_2":"LocalAuthority","CC_2":"NA","HASC_2":"NA","name":"Oru_West.county"},
"geometry":{"type": "MultiPolygon","coordinates": [[[[6.8586,5.7498,67.4758],[6.858,5.7482,69.1872],[6.862,5.7378,65.4428],[6.8626,5.7187,67.2771],[6.8719,5.6934,71.0992],[6.8779,5.6836,61.2744],[6.8887,5.6774,45.6375],[6.8908,5.6804,70.7642],[6.9083,5.6932,79.784],[6.9213,5.6969,89.0877],[6.9284,5.6961,106.397],[6.9369,5.7031,126.4025],[6.9426,5.7139,128.6447],[6.9424,5.7182,119.0497],[6.9482,5.7373,110.1311],[6.9586,5.7634,134.3059],[6.963,5.7677,124.1721],[6.9449,5.7723,144.8931],[6.941,5.7754,144.4657],[6.9357,5.7746,139.0542],[6.9277,5.7763,136.959],[6.9242,5.7785,138.1081],[6.9232,5.7833,132.4845],[6.9281,5.7911,137.89],[6.9412,5.8001,141.0995],[6.9523,5.8038,161.5701],[6.9565,5.8073,164.327],[6.9502,5.8144,160.8279],[6.9427,5.8196,162.4525],[6.932,5.8319,160.6831],[6.8933,5.756,90.488],[6.8586,5.7498,67.4758]]]]}}