{"type":"Feature","properties":{"GID_2":"NGA.36.17_1","GID_0":"NGA","country":"Nigeria","GID_1":"NGA.36_1","province":"Yobe","NL_NAME_1":"NA","county":"Yusufari","VARNAME_2":"NA","NL_NAME_2":"NA","TYPE_2":"LocalAuthority","ENGTYPE_2":"LocalAuthority","CC_2":"NA","HASC_2":"NA","name":"Yusufari.county"},
"geometry":{"type": "MultiPolygon","coordinates": [[[[10.6665,13.3564,344.485],[10.6547,13.3541,346.2616],[10.562,13.3205,347.0287],[10.5465,13.3131,348.1456],[10.4844,13.2908,345.7912],[10.4664,13.2825,345.1651],[10.4033,13.2775,346.2779],[10.2692,13.2706,353.6267],[10.2578,13.2714,353.8311],[10.2359,13.2692,355.42],[10.2224,13.2274,353.8981],[10.2227,13.1962,352.0458],[10.2185,13.1682,350.4951],[10.2072,13.1328,347.276],[10.207,13.0891,347.0067],[10.2044,13.0677,347.7782],[10.2093,13.0351,347.5061],[10.2187,13.035,346.5426],[10.2337,13.0561,346.5292],[10.2391,13.0776,347.1093],[10.2526,13.09,345.2215],[10.2737,13.1009,346.3645],[10.2937,13.1078,346.2757],[10.3219,13.1146,346.7297],[10.353,13.1089,344.8434],[10.4514,13.0661,343.523],[10.4731,13.039,342.3585],[10.5049,13.0085,342.1669],[10.5282,12.9915,342.0346],[10.5774,12.9939,339.859],[10.6236,12.9918,340.4742],[10.6583,12.9939,339.1611],[10.6716,12.9931,338.8769],[10.7061,13.0008,343.2911],[10.7111,13.0116,340.5732],[10.7006,13.0215,340.4206],[10.6859,13.0244,340.0421],[10.6635,13.0198,339.1606],[10.6521,13.0195,339.3933],[10.6439,13.026,339.2896],[10.6418,13.0393,339.4138],[10.6446,13.0483,340.0768],[10.6521,13.0567,340.1709],[10.6727,13.0725,338.8741],[10.6899,13.0822,340.3422],[10.7103,13.0886,338.4872],[10.7374,13.0912,342.3046],[10.7757,13.0992,346.5759],[10.8159,13.102,342.2832],[10.8358,13.0861,341.0217],[10.8601,13.085,340.217],[10.8671,13.0556,336.1337],[10.8687,13.0383,336.2889],[10.854,13.0189,337.887],[10.8448,12.9952,338.3304],[10.8521,12.9871,337.8279],[10.8562,12.9799,337.8155],[10.8786,12.9703,336.9555],[10.8959,12.969,336.6382],[10.9223,12.9696,337.0798],[10.9592,12.9762,337.9276],[10.9805,12.9698,336.4826],[11.0145,12.9546,337.3643],[11.0352,12.9394,336.7434],[11.0426,12.9119,335.1389],[11.0435,12.8746,337.1678],[11.0478,12.8699,337.7017],[11.051,12.8762,337.7296],[11.0605,12.8829,332.3144],[11.0728,12.9003,334.7465],[11.1087,12.9238,334.919],[11.1233,12.9295,334.2573],[11.1496,12.9355,334.593],[11.1925,12.9367,333.1481],[11.2687,12.9426,332.7304],[11.2979,12.9483,332.7048],[11.3407,12.9608,332.2037],[11.3668,12.9706,331.5613],[11.3925,12.9878,331.4703],[11.4035,13.0166,341.2363],[11.4018,13.0385,328.0649],[11.38,13.0663,335.6758],[11.3537,13.0919,333.1649],[11.3234,13.115,331.7237],[11.305,13.1358,332.8335],[11.2917,13.1551,338.6775],[11.2748,13.1756,331.9316],[11.2811,13.2075,331.0222],[11.2788,13.2249,336.0725],[11.2637,13.2509,338.1284],[11.252,13.2885,337.6644],[11.2364,13.3303,337.1125],[11.236,13.3354,337.4875],[11.2584,13.3744,338.4281],[11.1455,13.3761,339.9408],[11.0687,13.374,341.9681],[11.0651,13.3756,343.6968],[11.0588,13.3739,340.6617],[11.025,13.3724,339.9773],[10.9855,13.3738,335.9525],[10.8815,13.3664,343.2687],[10.8604,13.3666,345.733],[10.6665,13.3564,344.485]]]]}}