{"type": "Feature","bbox": [12.9252,12.0619,13.4689,12.8692],"geometry": {"type": "MultiPolygon","coordinates": [[[[12.9252,12.3905,304.3909],[12.9519,12.362,303.6381],[12.9831,12.3411,304.3785],[13.0174,12.3135,303.3155],[13.0825,12.2785,300.3532],[13.143,12.2305,300.3064],[13.2004,12.1968,296.3624],[13.2256,12.1465,297.3155],[13.2631,12.0845,298.1116],[13.2775,12.0698,299.983],[13.2927,12.0724,299.122],[13.3045,12.0678,299.6155],[13.3095,12.0625,299.8712],[13.3214,12.0619,298.7921],[13.3274,12.0655,298.5135],[13.3313,12.0728,297.8455],[13.3436,12.0878,296.8702],[13.3478,12.1275,295.7794],[13.3473,12.157,294.784],[13.327,12.2541,293.2889],[13.3204,12.2777,294.2706],[13.3095,12.2967,293.9715],[13.3053,12.3186,292.6521],[13.3066,12.3589,292.7406],[13.3026,12.3868,292.897],[13.304,12.415,292.2138],[13.3138,12.4457,293.727],[13.3378,12.484,289.9603],[13.3623,12.5147,290.4581],[13.3988,12.5361,290.9409],[13.4293,12.5633,290.6182],[13.4689,12.5799,288.5934],[13.4656,12.5867,289.8181],[13.4527,12.5949,290.6761],[13.441,12.6001,288.8198],[13.4297,12.6088,292.0583],[13.4114,12.6277,289.7829],[13.3963,12.6378,291.3093],[13.3842,12.6355,292.9205],[13.3642,12.6284,289.4755],[13.3418,12.6344,291.6651],[13.3177,12.6385,290.5861],[13.315,12.6456,291.8317],[13.2857,12.676,292.686],[13.2614,12.7299,292.2697],[13.2559,12.7578,292.7294],[13.2477,12.7704,293.391],[13.2327,12.7733,292.7227],[13.2176,12.7798,290.7054],[13.2052,12.7806,291.2965],[13.2032,12.8234,290.557],[13.2002,12.8398,290.1053],[13.191,12.8563,288.1599],[13.1674,12.8578,291.8985],[13.1602,12.8634,295.957],[13.144,12.8682,295.073],[13.1225,12.8692,293.1803],[13.1056,12.8635,293.9508],[13.0885,12.8564,295.9295],[13.0824,12.8509,293.6421],[13.0689,12.8329,293.0544],[13.0479,12.8125,294.4498],[13.0422,12.8102,296.1801],[13.0475,12.7987,296.9866],[13.0532,12.7763,296.6329],[13.0536,12.7598,294.9271],[13.052,12.7428,294.9184],[13.0333,12.6666,295.1614],[13.0152,12.6179,297.2503],[12.9859,12.5265,297.4394],[12.9775,12.5048,298.3206],[12.9507,12.4564,301.1941],[12.9405,12.4459,302.1517],[12.9365,12.4396,301.2569],[12.9295,12.4235,301.4563],[12.9252,12.3905,304.3909]]]]}
,"properties": {"GID_2": "NGA.8.27_1","GID_0": "NGA","country": "Nigeria","GID_1": "NGA.8_1","province": "Borno","NL_NAME_1": "NA","county": "Nganzai","VARNAME_2": "NA","NL_NAME_2": "NA","TYPE_2": "LocalAuthority","ENGTYPE_2": "LocalAuthority","CC_2": "NA","HASC_2": "NA","name": "Nganzai.county","area_km2": 2501.498,"hist_schema_id": "Elevation0-9000","hist_area_km2": {"275": 0.021,"300": 2501.478}}}