{"type": "Feature","bbox": [9.2234,11.2393,9.689,11.7032],"geometry": {"type": "MultiPolygon","coordinates": [[[[9.6442,11.7032,389.8581],[9.6295,11.6876,395.4728],[9.6164,11.6801,400.155],[9.607,11.676,401.6293],[9.5848,11.6715,403.357],[9.571,11.6667,404.0041],[9.5475,11.6519,400.2767],[9.5395,11.6417,404.5341],[9.5231,11.6324,404.7244],[9.4957,11.6203,409.2061],[9.4867,11.611,407.479],[9.4605,11.5905,413.913],[9.4482,11.5783,411.8441],[9.417,11.5562,424.5527],[9.3952,11.5335,424.9605],[9.3861,11.5271,423.9249],[9.3766,11.5226,427.6917],[9.362,11.5189,426.9529],[9.3488,11.5199,415.7607],[9.3339,11.5249,416.5488],[9.3185,11.5094,420.3344],[9.2868,11.4841,422.9885],[9.253,11.4537,433.5498],[9.241,11.4374,436.3638],[9.2305,11.4057,439.5363],[9.2234,11.3782,454.0108],[9.2283,11.3519,461.4459],[9.2247,11.3425,467.4567],[9.2409,11.3455,467.4986],[9.3378,11.328,455.1382],[9.3883,11.308,475.7107],[9.4414,11.2923,441.8916],[9.4578,11.2895,443.5196],[9.5119,11.3128,443.8559],[9.549,11.3011,458.6697],[9.5686,11.2681,466.1198],[9.5779,11.2427,449.7807],[9.6284,11.2393,440.6613],[9.6515,11.2409,442.1338],[9.6505,11.2456,444.6287],[9.6522,11.2587,451.2188],[9.6558,11.2677,452.1714],[9.6508,11.2846,449.7502],[9.6501,11.3047,441.9022],[9.6427,11.3344,431.8288],[9.6495,11.371,431.9921],[9.6494,11.3892,426.429],[9.6526,11.3958,425.7747],[9.6483,11.4233,418.0577],[9.6529,11.4348,417.1438],[9.6506,11.4474,408.1601],[9.6509,11.4553,409.2637],[9.658,11.4734,412.4943],[9.6583,11.4824,416.6776],[9.6516,11.4841,405.1157],[9.643,11.4969,401.3715],[9.6464,11.5026,403.5766],[9.6566,11.509,413.4141],[9.6551,11.5268,413.3937],[9.6505,11.5459,404.5551],[9.655,11.5656,399.1572],[9.6602,11.5784,397.3333],[9.666,11.6123,396.0922],[9.6652,11.6305,394.5165],[9.6678,11.6425,393.5085],[9.6678,11.6621,393.9435],[9.6771,11.6889,391.4231],[9.689,11.7018,390.6308],[9.6486,11.7012,390.3989],[9.6442,11.7032,389.8581]]]]}
,"properties": {"GID_2": "NGA.18.4_1","GID_0": "NGA","country": "Nigeria","GID_1": "NGA.18_1","province": "Jigawa","NL_NAME_1": "NA","county": "BirninKudu","VARNAME_2": "NA","NL_NAME_2": "NA","TYPE_2": "LocalAuthority","ENGTYPE_2": "LocalAuthority","CC_2": "NA","HASC_2": "NA","name": "Birnin_Kudu.county","area_km2": 1435.429,"hist_schema_id": "Elevation0-9000","hist_area_km2": {"400": 227.54,"425": 577.402,"450": 556.436,"475": 72.429,"500": 1.268,"525": 0.312,"550": 0.042}}}