{"type":"Feature","properties":{"GID_2":"NGA.36.4_1","GID_0":"NGA","country":"Nigeria","GID_1":"NGA.36_1","province":"Yobe","NL_NAME_1":"NA","county":"Fika","VARNAME_2":"NA","NL_NAME_2":"NA","TYPE_2":"LocalAuthority","ENGTYPE_2":"LocalAuthority","CC_2":"NA","HASC_2":"NA","name":"Fika.county"},
"geometry":{"type": "MultiPolygon","coordinates": [[[[10.9459,11.3772,460.2303],[10.9403,11.3563,474.3146],[10.9389,11.3251,462.1245],[10.9488,11.3113,427.4778],[10.9652,11.3007,394.2314],[11.0142,11.2948,421.8087],[11.0289,11.3089,428.2676],[11.0626,11.3234,435.6957],[11.0963,11.333,454.45],[11.1316,11.3331,375.2677],[11.1616,11.3302,388.3785],[11.2097,11.3141,382.9979],[11.2449,11.2936,399.4678],[11.2878,11.2667,356.2201],[11.3204,11.241,324.9174],[11.3408,11.2271,314.2416],[11.382,11.1936,304.703],[11.4076,11.1604,286.5485],[11.429,11.1288,262.6609],[11.4589,11.0915,284.4503],[11.4974,11.0494,291.1573],[11.514,11.0345,287.5576],[11.5165,11.0383,290.5287],[11.5212,11.0543,299.2477],[11.528,11.0662,353.8927],[11.5379,11.0764,357.8809],[11.5669,11.1462,303.2241],[11.595,11.2053,296.3134],[11.5954,11.2398,286.4091],[11.5839,11.275,285.5533],[11.5662,11.3212,310.7873],[11.5643,11.357,335.4249],[11.5494,11.3652,337.5706],[11.5324,11.3657,342.1897],[11.5061,11.3571,315.3707],[11.4887,11.3566,323.2742],[11.4481,11.3648,349.7553],[11.4217,11.3783,380.6899],[11.3727,11.4344,399.8401],[11.3608,11.4562,432.0251],[11.3549,11.4745,421.1849],[11.3561,11.5057,463.1091],[11.353,11.5339,518.1672],[11.3566,11.5711,497.521],[11.3528,11.5897,448.2515],[11.3439,11.6096,437.5875],[11.3231,11.6456,453.8591],[11.3249,11.6506,453.0216],[11.3211,11.6669,428.3932],[11.2715,11.6561,442.0371],[11.2616,11.6571,438.8349],[11.2537,11.6551,443.6199],[11.2449,11.6498,451.9345],[11.2333,11.6284,460.7809],[11.2295,11.616,457.735],[11.2232,11.6081,450.188],[11.2023,11.5918,452.8178],[11.1851,11.5844,456.7517],[11.1693,11.5813,467.3743],[11.1457,11.5794,477.9056],[11.1285,11.5844,476.1876],[11.0768,11.5764,460.6046],[11.0636,11.575,448.6686],[11.057,11.5767,439.9497],[11.0382,11.5482,451.9732],[11.0167,11.5272,469.9357],[10.9748,11.4956,490.9105],[10.9718,11.4766,494.2723],[10.9547,11.4331,500.3884],[10.9528,11.4025,494.8522],[10.9459,11.3772,460.2303]]]]}}