{"type": "Feature","bbox": [11.4001,7.4444,13.7279,10.9815],"geometry": {"type": "MultiPolygon","coordinates": [[[[12.2507,8.1726,371.2802],[12.2574,8.1765,369.5622],[12.2562,8.2113,411.3193],[12.2548,8.2169,394.6415],[12.2573,8.2255,374.9693],[12.2388,8.3391,427.7233],[12.2517,8.3551,906.2153],[12.2515,8.3613,999.2217],[12.2546,8.3629,1072.4214],[12.2594,8.3624,957.8609],[12.2647,8.3701,995.8808],[12.2598,8.3803,1338.3647],[12.258,8.3818,1422.3119],[12.2532,8.3789,1296.8724],[12.2479,8.383,1144.1913],[12.2474,8.3859,1084.2532],[12.2535,8.411,536.4316],[12.2604,8.4188,519.9913],[12.2586,8.4276,496.7471],[12.2604,8.4374,480.2443],[12.2638,8.4434,484.8722],[12.2716,8.4465,452.2446],[12.2995,8.4438,411.8061],[12.3059,8.4395,412.5356],[12.3084,8.4305,405.3256],[12.3134,8.4258,384.837],[12.3356,8.4305,367.4773],[12.3391,8.4322,375.3322],[12.3348,8.4408,408.3183],[12.3372,8.4461,428.8232],[12.344,8.4533,554.4992],[12.3501,8.4569,782.1841],[12.354,8.4622,711.8556],[12.3626,8.4669,786.7839],[12.3765,8.4796,758.4897],[12.3818,8.4822,670.5356],[12.3947,8.4747,506.1261],[12.3967,8.4754,560.7482],[12.3946,8.4786,583.0074],[12.3947,8.4857,496.7271],[12.4032,8.4904,502.0244],[12.408,8.4888,551.7947],[12.4141,8.4898,585.0473],[12.4244,8.4886,645.3088],[12.4247,8.4905,621.0969],[12.4213,8.4947,570.5662],[12.4369,8.5112,757.8182],[12.4478,8.5175,1003.0574],[12.4609,8.5211,424.8922],[12.4657,8.5244,386.5612],[12.4593,8.5388,394.4918],[12.4585,8.548,418.7901],[12.4537,8.5588,429.4923],[12.4463,8.5641,445.868],[12.4438,8.5813,448.9883],[12.4461,8.5941,442.471],[12.4457,8.6009,433.8435],[12.437,8.6092,421.1605],[12.432,8.6184,409.9742],[12.4322,8.6213,413.7945],[12.4352,8.6226,415.9471],[12.4392,8.6195,422.3683],[12.4466,8.619,432.0347],[12.4553,8.6225,445.3819],[12.4643,8.6222,455.6605],[12.4689,8.6289,465.9953],[12.4775,8.635,487.0395],[12.4826,8.6432,531.2499],[12.4858,8.6435,779.9741],[12.492,8.6413,865.4692],[12.5071,8.641,1044.1919],[12.5161,8.6339,1287.9961],[12.5249,8.6305,1568.2937],[12.5377,8.6309,1481.9854],[12.5463,8.6264,1433.988],[12.5445,8.6236,1546.5131],[12.5505,8.6217,1586.5198],[12.5532,8.6221,1500.5997],[12.5567,8.6261,1248.394],[12.5599,8.6261,1295.2],[12.5753,8.614,1160.8384],[12.5863,8.6198,1126.2853],[12.5927,8.62,1220.6786],[12.5975,8.6234,1270.6947],[12.6069,8.624,1091.5391],[12.6081,8.6267,1078.8192],[12.6058,8.6321,1341.5967],[12.6153,8.6391,1417.1912],[12.6225,8.6358,1462.1094],[12.6323,8.636,1366.0693],[12.6361,8.646,1380.2345],[12.643,8.6453,1226.3579],[12.6492,8.6472,1333.2485],[12.6525,8.6501,1192.2551],[12.6587,8.6511,1385.3362],[12.6607,8.6534,1261.3352],[12.6734,8.6467,1309.1475],[12.6868,8.6532,1230.8608],[12.6879,8.6591,1010.3234],[12.6932,8.6622,1226.748],[12.6961,8.669,1621.3583],[12.7014,8.6679,1618.8862],[12.7021,8.6697,1620.9873],[12.6985,8.6759,1618.1146],[12.7039,8.6855,1646.5183],[12.7046,8.6918,1610.8558],[12.7106,8.7016,1597.8943],[12.7058,8.7158,1410.7772],[12.7113,8.7313,894.1344],[12.7094,8.7381,1019.4793],[12.7138,8.7397,925.7216],[12.7139,8.7454,932.9537],[12.716,8.7506,961.0602],[12.715,8.7542,808.2375],[12.7184,8.7566,688.8347],[12.7203,8.7608,944.3607],[12.7249,8.7621,890.0424],[12.7377,8.7559,759.8867],[12.7407,8.7559,941.7979],[12.7421,8.7592,916.6094],[12.7588,8.7604,907.8384],[12.7655,8.7472,1035.6958],[12.7746,8.7479,1054.7112],[12.7831,8.7425,1161.3733],[12.7858,8.7431,1103.7665],[12.7923,8.7566,1105.8755],[12.7934,8.7747,1068.4293],[12.798,8.7878,807.0252],[12.8096,8.7957,658.6266],[12.8118,8.8004,732.5121],[12.8102,8.8151,807.915],[12.811,8.8178,937.3617],[12.8144,8.819,1005.3276],[12.8154,8.8237,990.6954],[12.8198,8.8311,958.7686],[12.818,8.8346,1033.4819],[12.8133,8.8342,1008.4895],[12.8094,8.8361,1037.8954],[12.8009,8.8533,1022.8794],[12.8045,8.8618,929.4822],[12.8158,8.8629,989.9795],[12.8155,8.8666,996.9955],[12.8075,8.8748,914.1071],[12.8075,8.8863,782.8333],[12.8127,8.8911,787.1949],[12.8159,8.8917,772.1183],[12.8188,8.899,719.8018],[12.8128,8.9055,823.6361],[12.8105,8.9049,861.3777],[12.8097,8.9026,867.0278],[12.8065,8.9024,901.4891],[12.804,8.9165,612.2534],[12.8115,8.9222,721.3544],[12.8209,8.9357,617.6718],[12.8229,8.9491,674.723],[12.8279,8.9553,676.2133],[12.8263,8.9726,261.3465],[12.8351,8.9913,417.8784],[12.8385,9.0073,229.5259],[12.8733,9.0657,201.5591],[12.8776,9.076,195.3547],[12.8836,9.0848,188.0093],[12.8876,9.0877,183.1979],[12.8887,9.096,182.6639],[12.8868,9.1009,183.3733],[12.8903,9.1104,182.5793],[12.8956,9.1118,181.8741],[12.8979,9.1148,181.7056],[12.8981,9.1169,181.5309],[12.8909,9.1266,180.6863],[12.894,9.1346,179.7423],[12.8908,9.1412,180.0378],[12.8838,9.1466,179.4638],[12.8827,9.1498,179.0957],[12.8841,9.1535,178.4215],[12.8836,9.1586,178.293],[12.8846,9.1633,177.8593],[12.8892,9.1672,177.7589],[12.889,9.1749,177.6809],[12.886,9.1803,178.7583],[12.8907,9.1839,176.9292],[12.8894,9.189,177.1241],[12.8959,9.1956,176.5725],[12.8987,9.2046,175.9664],[12.8973,9.2083,175.6268],[12.8979,9.2181,175.3679],[12.9021,9.2229,173.8837],[12.9064,9.2246,173.8109],[12.91,9.2318,172.0],[12.9096,9.2357,172.8573],[12.9136,9.2516,171.0],[12.9096,9.2595,173.2222],[12.9099,9.2649,172.1894],[12.9145,9.2717,170.0],[12.916,9.2768,170.0],[12.913,9.2816,170.5872],[12.9087,9.2847,171.8991],[12.9086,9.2921,170.9185],[12.9144,9.3001,169.0],[12.9135,9.305,168.5],[12.916,9.3143,169.7386],[12.9127,9.317,168.0],[12.912,9.3206,169.3423],[12.917,9.3286,167.5],[12.9166,9.3379,168.3859],[12.914,9.3415,167.2689],[12.9082,9.3484,166.5],[12.9012,9.3526,167.6137],[12.8924,9.355,167.752],[12.8774,9.3474,167.5775],[12.8668,9.3525,165.7118],[12.8657,9.3588,165.0],[12.8595,9.3605,165.0],[12.8538,9.359,167.3289],[12.8493,9.3628,166.3699],[12.8484,9.3689,165.1409],[12.8438,9.3727,164.5],[12.8453,9.3753,165.1356],[12.848,9.3762,168.772],[12.8526,9.3725,165.1642],[12.8648,9.3699,166.6418],[12.8678,9.3718,168.6313],[12.8655,9.3773,168.3163],[12.866,9.3818,168.0404],[12.87,9.3869,168.0907],[12.871,9.3914,169.5873],[12.8829,9.3944,171.8571],[12.9105,9.4072,177.3601],[12.9175,9.4131,177.9995],[12.9236,9.4132,178.8457],[12.9368,9.4193,183.6763],[12.9422,9.4249,182.8326],[12.9414,9.4282,183.2869],[12.9459,9.4358,185.288],[12.95,9.4395,186.3099],[12.9593,9.4427,188.1244],[12.9671,9.4513,190.2037],[12.9702,9.4582,190.446],[12.9723,9.4711,198.0723],[12.9744,9.473,197.9748],[12.9814,9.4693,192.0442],[12.9863,9.4756,193.3964],[13.0049,9.4834,197.7942],[13.009,9.4907,199.1066],[13.0196,9.4972,200.5358],[13.0343,9.5113,206.0299],[13.0468,9.507,205.8786],[13.058,9.512,208.4338],[13.0635,9.5177,208.5499],[13.0674,9.5176,209.6412],[13.0738,9.5144,211.0605],[13.0771,9.5147,211.532],[13.0802,9.5197,212.01],[13.0853,9.5204,213.681],[13.0926,9.527,216.3401],[13.1055,9.5248,218.1666],[13.1127,9.5289,219.2219],[13.1259,9.5285,220.875],[13.139,9.5366,225.2659],[13.1563,9.543,229.3051],[13.1617,9.5399,230.4068],[13.1741,9.5454,233.3256],[13.1923,9.5603,238.6693],[13.2005,9.5562,242.1736],[13.2077,9.5578,243.3195],[13.2139,9.5663,245.4134],[13.2219,9.5825,249.5325],[13.2247,9.5849,250.8804],[13.2237,9.6022,255.7724],[13.2361,9.621,259.875],[13.2353,9.6249,262.4575],[13.231,9.6279,262.5041],[13.2299,9.6392,267.4067],[13.2313,9.6455,268.9735],[13.229,9.6489,269.9735],[13.2289,9.6522,271.3058],[13.2339,9.6568,272.4064],[13.2367,9.6621,275.8141],[13.2351,9.6671,276.9188],[13.2298,9.6741,291.157],[13.2297,9.6791,289.9153],[13.2331,9.688,293.2864],[13.2468,9.6916,292.0003],[13.2478,9.6954,294.943],[13.2526,9.7003,299.0036],[13.2514,9.7052,301.7216],[13.2475,9.7096,305.0553],[13.2481,9.7129,314.0475],[13.2518,9.7168,311.2525],[13.2493,9.7212,317.7067],[13.2546,9.7298,322.4592],[13.2582,9.743,327.0417],[13.2549,9.7548,336.1619],[13.2558,9.7641,340.2973],[13.2591,9.7675,342.6243],[13.2579,9.7742,346.1047],[13.2589,9.7776,359.7835],[13.2719,9.793,383.4734],[13.2841,9.8017,400.6167],[13.2865,9.8052,410.1743],[13.288,9.814,420.7232],[13.2991,9.8277,433.1127],[13.2948,9.8358,433.6955],[13.2905,9.8373,429.1001],[13.2836,9.8442,434.3492],[13.2746,9.8481,439.8438],[13.2729,9.8512,441.0684],[13.2691,9.8528,442.1543],[13.2644,9.851,442.9562],[13.256,9.8583,446.9],[13.2489,9.8562,453.1702],[13.2471,9.8609,448.6293],[13.2421,9.864,454.8571],[13.2447,9.8755,459.1742],[13.2377,9.8849,462.4172],[13.2368,9.9197,491.2238],[13.2411,9.9253,492.6223],[13.254,9.932,505.8521],[13.2694,9.9332,496.2508],[13.2712,9.9392,503.3965],[13.2799,9.9415,510.4609],[13.2776,9.9481,518.0493],[13.281,9.9522,523.5099],[13.2818,9.9568,523.7145],[13.286,9.958,525.2166],[13.2843,9.9698,533.6995],[13.2878,9.9802,541.8483],[13.2776,9.9912,566.1844],[13.2722,9.9944,588.0157],[13.2614,9.9959,630.8705],[13.2476,10.0005,617.0527],[13.2481,10.0109,655.8785],[13.2497,10.015,652.8712],[13.2481,10.0185,722.484],[13.248,10.0263,730.9611],[13.25,10.0289,742.3038],[13.2464,10.031,818.0845],[13.2478,10.0358,757.4902],[13.2516,10.0357,788.6196],[13.2522,10.0422,878.9136],[13.275,10.0513,1123.4016],[13.2877,10.063,1072.2362],[13.2912,10.0753,1037.6962],[13.2907,10.0831,1006.8676],[13.2981,10.092,1044.551],[13.317,10.101,1028.7472],[13.3429,10.1228,965.4827],[13.3465,10.1136,1020.2178],[13.3572,10.1128,960.5862],[13.3625,10.1144,1071.1206],[13.3648,10.1193,1018.1306],[13.369,10.1206,1035.6038],[13.3858,10.1206,908.0217],[13.3918,10.1249,1009.5313],[13.4072,10.1259,999.2731],[13.4243,10.1308,882.8944],[13.4341,10.1348,941.9187],[13.4361,10.1372,965.0314],[13.4373,10.1458,988.434],[13.4434,10.1539,1013.7567],[13.4675,10.164,936.6315],[13.4657,10.1771,939.7661],[13.4693,10.1842,942.6046],[13.4691,10.1943,969.0869],[13.4728,10.1975,941.2594],[13.4828,10.1994,854.6589],[13.4832,10.2013,850.8155],[13.4753,10.2227,765.7276],[13.4749,10.2318,734.9647],[13.4686,10.2358,723.6271],[13.4656,10.2462,836.3409],[13.4714,10.2743,873.4622],[13.4787,10.2853,726.4236],[13.4802,10.2912,733.7581],[13.4874,10.2954,734.3252],[13.4894,10.3179,708.8409],[13.4871,10.3265,683.4672],[13.4814,10.3326,652.5284],[13.4821,10.3354,652.2675],[13.4874,10.3383,688.6753],[13.4951,10.3378,706.9811],[13.4983,10.3395,690.6962],[13.4952,10.3558,715.2343],[13.4984,10.3676,720.6716],[13.4934,10.3868,762.3608],[13.4941,10.391,766.2296],[13.4977,10.3947,773.8824],[13.509,10.3971,794.5015],[13.5239,10.4039,836.1347],[13.5258,10.4064,884.8529],[13.5282,10.4183,871.215],[13.5362,10.4237,908.3553],[13.5348,10.431,900.386],[13.5383,10.4519,951.2601],[13.5281,10.4662,962.9722],[13.5265,10.476,1011.5933],[13.5275,10.4791,994.5615],[13.5384,10.4799,992.2839],[13.5493,10.4952,982.5225],[13.5558,10.5129,1041.1333],[13.5662,10.5233,866.1042],[13.574,10.5353,863.2472],[13.5682,10.5464,985.9443],[13.5583,10.5584,930.4347],[13.56,10.5711,1024.1785],[13.5668,10.5837,896.7437],[13.5641,10.5884,929.6382],[13.5577,10.591,760.5817],[13.5549,10.5942,824.826],[13.5535,10.6055,874.0428],[13.5464,10.6154,793.8359],[13.5458,10.6183,837.4647],[13.5474,10.6212,874.9779],[13.565,10.63,759.0933],[13.5709,10.6347,863.2087],[13.5743,10.6579,1026.1116],[13.5815,10.6625,988.6958],[13.5858,10.6722,994.1205],[13.5869,10.6799,1009.0],[13.5801,10.6871,1026.2576],[13.5784,10.6916,1005.3819],[13.587,10.7048,911.9529],[13.5966,10.7029,927.2776],[13.6039,10.7037,950.1677],[13.6112,10.7127,1004.6443],[13.6213,10.719,999.5889],[13.6227,10.7253,1014.4248],[13.6277,10.7343,984.4346],[13.629,10.7433,947.5193],[13.6418,10.7635,1242.7084],[13.6414,10.7699,1061.0295],[13.6434,10.776,804.7421],[13.6552,10.7843,968.0983],[13.654,10.7898,957.0661],[13.6509,10.7914,952.9723],[13.637,10.7924,763.3498],[13.6519,10.8206,660.3359],[13.6628,10.8181,934.1758],[13.6712,10.8183,976.6317],[13.6744,10.8232,971.15239999999994],[13.678,10.8387,963.908],[13.6833,10.8425,989.3152],[13.6937,10.8466,985.9062],[13.7013,10.8466,1046.2214],[13.7139,10.8599,1061.6881],[13.7188,10.8764,1071.5911],[13.7205,10.9031,1032.2943],[13.7279,10.9233,1036.2673],[13.7261,10.9315,1027.0402],[13.7127,10.9442,981.1296],[13.7099,10.9491,989.6951],[13.708,10.972,926.8475],[13.7244,10.9815,904.4536],[13.7073,10.9788,832.8203],[13.6947,10.9668,644.1486],[13.6917,10.939,741.2139],[13.663,10.9324,493.6507],[13.601,10.9113,456.6999],[13.5385,10.9066,438.3612],[13.4988,10.9162,423.0781],[13.478,10.9249,424.8743],[13.468,10.9366,426.0307],[13.4181,10.9298,426.8621],[13.4141,10.8923,422.1587],[13.4169,10.847,428.2616],[13.4136,10.8018,444.354],[13.3994,10.7363,463.3975],[13.3797,10.6783,472.526],[13.3359,10.5874,508.2234],[13.3196,10.5173,489.2912],[13.312,10.4634,519.294],[13.2935,10.4439,530.1276],[13.2592,10.4401,496.6712],[13.2226,10.4437,493.2786],[13.1842,10.46,537.5273],[13.145,10.4784,509.3421],[13.0991,10.5281,537.9763],[13.0574,10.553,510.8898],[13.0111,10.5695,487.8689],[12.9479,10.5797,466.2556],[12.8735,10.5821,441.3648],[12.8329,10.5585,431.1931],[12.7988,10.524,593.7355],[12.7631,10.4649,486.2878],[12.7251,10.4466,463.3222],[12.6715,10.4444,428.7889],[12.6583,10.4018,422.6406],[12.6188,10.36,449.8284],[12.5792,10.3419,367.3408],[12.5235,10.3244,476.1671],[12.468,10.3211,341.7178],[12.422,10.3165,323.5634],[12.3813,10.3026,343.9083],[12.3428,10.2645,481.8907],[12.3147,10.2281,502.2739],[12.2812,10.1897,538.3025],[12.2428,10.1396,610.6771],[12.2209,10.1009,657.9507],[12.1935,10.0705,691.9568],[12.1653,10.0534,571.0099],[12.1313,10.041,499.2338],[12.0916,10.0322,268.0556],[12.0479,10.0292,206.3748],[11.9866,10.0357,179.9955],[11.9456,10.0448,184.0226],[11.9359,9.9365,202.2342],[11.9345,9.8809,200.5198],[11.9429,9.8216,197.1899],[11.9252,9.7843,231.8551],[11.889,9.7562,494.3636],[11.8323,9.7201,455.2875],[11.7249,9.6586,452.2849],[11.6804,9.6295,757.7528],[11.6261,9.6065,326.718],[11.5673,9.5956,221.7214],[11.5259,9.592,200.5486],[11.5363,9.567,292.2303],[11.5779,9.497,141.9453],[11.614,9.4288,132.8431],[11.6374,9.3979,130.2103],[11.6581,9.396,136.9178],[11.7126,9.3806,160.5228],[11.7463,9.36,183.1938],[11.7686,9.3268,212.8408],[11.7905,9.2842,247.1661],[11.8053,9.2496,324.2751],[11.821,9.2251,316.235],[11.8311,9.2023,309.6631],[11.8237,9.1675,360.6824],[11.826,9.1239,563.5444],[11.8292,9.1058,580.8784],[11.8478,9.0812,472.1426],[11.8722,9.0586,421.7709],[11.8968,9.0455,377.1469],[11.939,9.0349,343.8909],[11.9717,8.9734,314.729],[11.9759,8.9443,350.0315],[11.9711,8.9161,365.9589],[11.9598,8.8861,378.1523],[11.9307,8.8365,481.9717],[11.9174,8.8068,506.0302],[11.8973,8.7674,518.8955],[11.8872,8.7551,580.6581],[11.8728,8.73,556.1023],[11.8629,8.7022,532.4988],[11.8621,8.6738,889.5886],[11.8635,8.6435,554.8081],[11.8691,8.6093,888.0116],[11.8621,8.576,637.6823],[11.8226,8.5478,1034.3708],[11.7632,8.4919,486.5229],[11.7222,8.4383,960.4207],[11.7002,8.4039,840.8039],[11.6237,8.3067,524.5786],[11.5874,8.2722,450.5695],[11.5417,8.2185,494.3321],[11.4802,8.1667,419.6682],[11.4429,8.1255,476.1888],[11.4135,8.0897,375.805],[11.4001,8.0644,361.2681],[11.4281,8.0007,340.3437],[11.4343,7.9746,382.5867],[11.441,7.9559,323.1764],[11.4767,7.9027,313.041],[11.4879,7.8803,310.884],[11.5316,7.8408,271.8466],[11.5441,7.8462,285.8339],[11.5588,7.857,318.2306],[11.5756,7.8728,335.2968],[11.5964,7.8986,276.2421],[11.6011,7.9093,308.081],[11.6213,7.9374,456.8365],[11.6477,7.9436,449.7582],[11.6707,7.9366,374.6051],[11.6954,7.9185,401.7239],[11.7078,7.8978,473.0628],[11.7357,7.8679,353.3913],[11.7679,7.8434,540.4083],[11.8055,7.8059,422.0178],[11.8401,7.7641,411.7031],[11.857,7.7316,377.4048],[11.8476,7.6431,534.1467],[11.8596,7.6152,373.4891],[11.8657,7.5582,1085.1052],[11.8893,7.5088,1087.6917],[11.8971,7.4837,1431.1006],[11.8962,7.4584,1115.2913],[11.916,7.4444,1282.2836],[11.9244,7.4526,1341.6543],[11.9356,7.4701,1252.4004],[11.9507,7.4878,1515.8094],[11.9604,7.495,1669.2583],[11.9709,7.498,1452.679],[11.9921,7.4993,957.6953],[12.0073,7.508,1054.1312],[12.0124,7.5076,832.9257],[12.0251,7.5137,989.3386],[12.0343,7.5211,948.5514],[12.0344,7.523,954.3597],[12.0278,7.5291,1214.3207],[12.0205,7.5397,892.6989],[12.0211,7.5604,1252.4662],[12.0154,7.5736,1319.6045],[12.019,7.5868,1200.8457],[12.0167,7.5981,1208.5642],[12.0188,7.6224,1273.23],[12.0166,7.6288,1091.7903],[12.0165,7.6354,1026.4872],[12.0077,7.6564,1035.9932],[12.0078,7.6619,976.7529],[12.0116,7.6636,811.2833],[12.0261,7.6638,686.8066],[12.027,7.6653,697.7453],[12.0261,7.676,677.2175],[12.0312,7.6915,644.8205],[12.0294,7.7006,633.9103],[12.0319,7.7302,624.8698],[12.0416,7.7397,634.0135],[12.0463,7.7478,632.5175],[12.0553,7.7572,981.7676],[12.0561,7.7625,761.3429],[12.0525,7.7726,652.2611],[12.063,7.7807,872.6187],[12.0619,7.7889,1107.019],[12.0633,7.7948,897.0649],[12.0765,7.8051,998.1375],[12.0885,7.8364,640.9252],[12.0999,7.8491,617.8594],[12.1081,7.8555,572.9034],[12.1267,7.8654,540.8618],[12.1322,7.8702,531.34],[12.1553,7.8975,465.2283],[12.1592,7.914,476.8419],[12.1673,7.9255,444.29],[12.1719,7.9311,454.755],[12.176,7.9327,453.4525],[12.1807,7.9398,447.786],[12.188,7.9433,422.4501],[12.1897,7.9537,421.5787],[12.1876,7.9588,425.2023],[12.2045,7.9691,404.082],[12.2071,7.9724,396.634],[12.2063,7.9795,399.0814],[12.2115,7.9837,394.1425],[12.213,7.9904,394.0461],[12.217,7.9938,395.3571],[12.2173,8.0002,401.118],[12.2213,8.0026,396.5265],[12.2232,8.0147,393.3101],[12.2219,8.0221,407.4189],[12.2165,8.031,441.8816],[12.219,8.0528,433.7815],[12.2184,8.069,410.774],[12.2123,8.0772,379.9519],[12.2092,8.094,399.24],[12.2113,8.1066,426.3935],[12.2163,8.1129,426.3125],[12.2197,8.1215,451.1977],[12.2284,8.1258,440.8605],[12.2269,8.1362,409.0314],[12.2389,8.1451,401.4696],[12.2416,8.1499,401.9357],[12.2422,8.1647,383.8291],[12.2507,8.1726,371.2802]]]]}
,"properties": {"GID_1": "NGA.2_1","GID_0": "NGA","country": "Nigeria","province": "Adamawa","VARNAME_1": "NA","NL_NAME_1": "NA","TYPE_1": "State","ENGTYPE_1": "State","CC_1": "NA","HASC_1": "NG.AD","ISO_1": "NG-AD","name": "Adamawa.province","area_km2": 34431.1,"hist_schema_id": "Elevation0-9000","hist_area_km2": {"125": 279.91,"150": 1560.25,"175": 1976.23,"200": 2057.16,"225": 1886.65,"250": 1625.48,"275": 1324.27,"300": 1165.23,"325": 1000.52,"350": 908.38,"375": 1025.32,"400": 1261.14,"425": 1486.32,"450": 1728.03,"475": 2134.01,"500": 2262.83,"525": 1988.06,"550": 1525.5,"575": 1050.2,"600": 737.45,"625": 609.14,"650": 527.55,"675": 439.22,"700": 353.81,"725": 284.9,"750": 243.25,"775": 237.66,"800": 239.27,"825": 238.65,"850": 219.21,"875": 192.04,"900": 171.26,"925": 159.16,"950": 154.76,"975": 147.44,"1000": 136.65,"1025": 149.78,"1050": 133.1,"1075": 103.12,"1100": 115.71,"1125": 112.44,"1150": 69.08,"1175": 50.65,"1200": 45.92,"1225": 42.42,"1250": 39.18,"1275": 34.53,"1300": 32.96,"1325": 30.46,"1350": 23.83,"1375": 19.7,"1400": 17.04,"1425": 12.63,"1450": 11.25,"1475": 11.4,"1500": 9.47,"1525": 7.12,"1550": 5.23,"1575": 4.11,"1600": 3.95,"1625": 4.24,"1650": 2.81,"1675": 1.39,"1700": 0.42}}}