{"type": "Feature","id": "2881","bbox": [11.4043,7.45356,13.74984,10.94244],"geometry": {"type": "Polygon","coordinates": [[[13.39267,10.11696,1036.401],[13.40195,10.12238,1017.4448],[13.42324,10.13848,920.6478],[13.43492,10.15341,999.8425],[13.45084,10.18716,921.3525],[13.45301,10.20052,815.1956],[13.45135,10.21212,824.3445],[13.44453,10.23248,733.0999],[13.44484,10.24547,849.2496],[13.46717,10.30759,891.3239],[13.50127,10.49634,1010.147],[13.53879,10.62142,655.038],[13.56628,10.67901,626.9616],[13.74441,10.9305,997.3987],[13.74984,10.94244,904.2845],[13.74927,10.94241,904.2845],[13.6917,10.93892,741.2139],[13.54639,10.90711,440.259],[13.51311,10.91158,426.1921],[13.48117,10.92347,423.762],[13.46991,10.93212,427.3466],[13.45616,10.93491,429.7858],[13.42216,10.93029,429.2852],[13.41337,10.87301,416.5389],[13.41379,10.805,441.66],[13.40045,10.7357,463.3975],[13.34526,10.60119,506.6173],[13.30971,10.46789,520.9033],[13.25917,10.44003,496.6712],[13.19106,10.455,534.7268],[13.13287,10.49243,527.4291],[13.07717,10.54083,514.8256],[13.00926,10.56969,487.476],[12.92296,10.58147,460.0585],[12.8409,10.56315,439.7654],[12.78726,10.50065,484.5331],[12.72835,10.4481,467.8258],[12.69094,10.44621,436.4591],[12.66623,10.42761,409.5656],[12.64784,10.39192,456.041],[12.62014,10.36138,443.6591],[12.5479,10.32947,420.4222],[12.4679,10.32105,341.7178],[12.39473,10.30498,335.7619],[12.33716,10.25726,499.0082],[12.23422,10.12432,632.2131],[12.10689,10.03603,332.8069],[11.94556,10.04471,184.0226],[11.93512,9.95764,207.8291],[11.94039,9.82573,199.1651],[11.92509,9.78421,231.8551],[11.88778,9.75382,642.6961],[11.70268,9.64396,557.1702],[11.61782,9.60665,299.0789],[11.52594,9.59197,200.5486],[11.61844,9.4202,133.4543],[11.64283,9.39744,136.0246],[11.67663,9.39137,140.9563],[11.7095,9.38147,157.8188],[11.76727,9.3301,215.2363],[11.80169,9.25788,294.5824],[11.82029,9.22864,311.1646],[11.83011,9.19766,308.6956],[11.82546,9.16288,368.1068],[11.82577,9.12776,571.454],[11.8606,9.0696,429.787],[11.92364,9.03932,356.6964],[11.9654,8.98824,316.7833],[11.9715,8.91899,377.4098],[11.87104,8.7127,532.3138],[11.86349,8.64345,554.8081],[11.86866,8.60689,750.3803],[11.85926,8.57387,650.2418],[11.79218,8.51935,1053.277],[11.5338,8.21146,766.1088],[11.46838,8.15361,657.7482],[11.41349,8.08964,375.805],[11.4043,8.05845,368.8612],[11.44781,7.9515,345.5023],[11.48791,7.88027,310.884],[11.51519,7.85221,271.0426],[11.54785,7.84898,297.1585],[11.57411,7.87179,336.8992],[11.59633,7.89859,276.2421],[11.61576,7.92934,407.698],[11.64769,7.94357,449.7582],[11.68304,7.92763,392.5701],[11.70784,7.89771,473.0628],[11.805,7.80645,422.0178],[11.85316,7.69157,390.8723],[11.85305,7.62468,370.6646],[11.86566,7.55809,1085.1052],[11.89047,7.50484,1130.2354],[11.90256,7.45438,1080.4893],[11.90318,7.45386,1082.17],[11.90355,7.45356,1143.7756],[11.96617,7.51443,1119.0254],[11.99284,7.55401,1168.8188],[12.00855,7.56486,1509.009],[12.02105,7.57623,1075.3474],[12.02498,7.59659,954.984],[12.01072,7.65524,880.977],[12.00906,7.67633,901.4601],[12.01217,7.69834,625.9921],[12.01899,7.71886,536.0261],[12.05495,7.78392,747.0966],[12.15428,7.92133,470.6784],[12.1921,7.96065,414.2],[12.19779,7.97517,407.8698],[12.1951,7.99171,407.4206],[12.18818,8.01626,411.6584],[12.1827,8.05465,407.9948],[12.18259,8.09349,462.2373],[12.18828,8.11777,432.5221],[12.2291,8.1755,404.6468],[12.23371,8.18845,433.1309],[12.23675,8.19699,435.5155],[12.23768,8.21689,386.319],[12.22177,8.29766,417.7416],[12.21928,8.34316,693.2161],[12.22704,8.38631,1041.8566],[12.24998,8.41876,522.453],[12.27179,8.42778,689.7509],[12.31024,8.42135,407.493],[12.33132,8.42429,385.1442],[12.3432,8.43274,375.9147],[12.35116,8.44424,416.3967],[12.35757,8.45636,456.9802],[12.36512,8.46656,796.2819],[12.39519,8.48734,464.9668],[12.40387,8.49654,482.5773],[12.40325,8.52424,474.0731],[12.40046,8.53842,526.7704],[12.377,8.59511,442.931],[12.36884,8.60958,418.1842],[12.39633,8.60077,442.0723],[12.41059,8.59849,426.0467],[12.42444,8.59979,435.8655],[12.44025,8.60661,425.8606],[12.45183,8.61469,437.6465],[12.46433,8.62115,452.5275],[12.48252,8.62325,485.7579],[12.49555,8.61955,517.2422],[12.52779,8.60485,1013.2104],[12.54257,8.60201,871.8866],[12.55797,8.60568,1313.4067],[12.66039,8.65932,961.0055],[12.67817,8.6787,1113.031],[12.69285,8.71089,1565.8687],[12.70163,8.73916,725.8579],[12.70887,8.75091,916.0593],[12.72024,8.75647,669.8413],[12.7345,8.7559,693.6726],[12.74721,8.75363,800.7234],[12.75961,8.75342,889.9261],[12.77295,8.75905,835.7727],[12.79455,8.78861,802.2849],[12.80571,8.8315,664.0641],[12.82824,9.01997,225.1462],[12.82101,9.05643,238.3058],[12.82214,9.09681,246.0929],[12.84219,9.14443,190.9453],[12.88839,9.22672,177.5235],[12.89459,9.24396,180.436],[12.89842,9.26243,183.2312],[12.89935,9.30202,169.8451],[12.89129,9.33199,171.0644],[12.88157,9.35222,166.783],[12.85315,9.35664,167.3779],[12.84839,9.35995,167.7868],[12.85542,9.37811,170.4975],[12.86204,9.38289,167.976],[12.92074,9.41049,177.9043],[12.92901,9.41612,181.2081],[12.94007,9.4271,184.4257],[12.96901,9.46407,192.7091],[12.98244,9.47459,192.7178],[13.05169,9.50451,207.2836],[13.13034,9.51653,232.5633],[13.19545,9.54221,253.0372],[13.22346,9.61314,259.5361],[13.22842,9.67791,290.4663],[13.24134,9.74532,343.0895],[13.25106,9.76925,360.5206],[13.26046,9.78571,371.4228],[13.26294,9.80173,403.3002],[13.25199,9.82423,469.9158],[13.22294,9.85413,491.8849],[13.21271,9.87015,516.5034],[13.21106,9.89276,518.8845],[13.21871,9.91304,517.676],[13.24227,9.94976,521.1979],[13.24641,9.97348,559.1815],[13.24248,9.99267,706.5392],[13.23049,10.02536,907.3503],[13.23018,10.04533,674.8392],[13.24796,10.07941,975.3308],[13.28134,10.0921,754.8867],[13.35978,10.10055,1039.1882],[13.37839,10.10861,1024.8303],[13.39267,10.11696,1036.401]]]}
,"properties": {"ISO3166-1-Alpha-3": "NGA","country": "Nigeria","fill": "#00F","name": "Adamawa","area_km2": 33753.27,"hist_schema_id": "Elevation0-9000","hist_area_km2": {"125": 280.14,"150": 1560.33,"175": 1923.0,"200": 2030.62,"225": 1881.68,"250": 1613.49,"275": 1319.08,"300": 1161.44,"325": 993.85,"350": 908.74,"375": 1022.89,"400": 1218.43,"425": 1438.69,"450": 1681.85,"475": 2102.86,"500": 2230.43,"525": 1968.87,"550": 1508.93,"575": 1042.19,"600": 732.3,"625": 607.03,"650": 523.92,"675": 433.64,"700": 344.23,"725": 273.15,"750": 227.27,"775": 219.2,"800": 219.85,"825": 221.5,"850": 201.29,"875": 172.53,"900": 150.72,"925": 139.92,"950": 136.28,"975": 128.86,"1000": 123.62,"1025": 141.66,"1050": 124.92,"1075": 95.32,"1100": 107.43,"1125": 104.87,"1150": 63.03,"1175": 45.85,"1200": 42.78,"1225": 40.0,"1250": 36.64,"1275": 32.24,"1300": 31.28,"1325": 28.97,"1350": 22.47,"1375": 18.21,"1400": 15.82,"1425": 11.23,"1450": 9.82,"1475": 9.65,"1500": 7.58,"1525": 5.54,"1550": 4.13,"1575": 3.17,"1600": 2.54,"1625": 2.14,"1650": 1.53,"1675": 1.05,"1700": 0.4}}}