{"type":"Feature","properties":{"featurecla":"River","scalerank":8,"rivernum":859,"dissolve":"859River","name":"Gongola1","name_alt":null,"note":null,"min_zoom":7.0,"strokeweig":0.2,"name_en":"Gongola","min_label":8.0},
"geometry":{"type": "LineString","coordinates": [[9.5199218750000227,9.8747744812441169,599.0143],[9.5335937500000227,9.8747744812441169,589.8058],[9.5602050781250227,9.86957428593162,589.6564],[9.573974609375,9.8686709656191169,594.2349],[9.6554199218750227,9.88275787968162,567.4233],[9.69580078125,9.89594147343162,547.8414],[9.75390625,9.92206452030662,550.7407],[9.85693359375,9.94623444218162,525.2379],[9.91943359375,9.95258209843162,505.5983],[9.9452148437500227,9.96295807499412,509.2719],[9.95361328125,9.9707217468691169,514.3157],[9.9688964843750227,9.98969147343162,505.1465],[9.97900390625,9.9978213562441169,502.8845],[10.011474609375,10.01850006718162,508.4821],[10.020410156250023,10.026239324994108,500.391],[10.033349609375023,10.044549871869108,507.5556],[10.059472656250023,10.10565827030662,496.8028],[10.082666015625023,10.14337799686912,494.1865],[10.115136718750023,10.226678778119108,459.7427],[10.128662109375,10.242059637494108,638.4401],[10.169677734375,10.25263092655662,472.3182],[10.20947265625,10.290887762494108,468.0794],[10.229638671875023,10.30609772343162,445.743],[10.241943359375,10.310321356244117,440.3117],[10.267236328125023,10.31513092655662,427.4522],[10.279687500000023,10.318963934369108,448.8359],[10.294921875,10.32709381718162,434.5718],[10.388330078125023,10.39069244999412,360.287],[10.408203125,10.408807684369108,353.2141],[10.4248046875,10.432879949994117,349.6727],[10.433837890625,10.45221588749412,360.1453],[10.438867187500023,10.46930573124412,345.7539],[10.460205078125,10.591083074994117,333.619],[10.486718750000023,10.66986725468162,327.4688],[10.511962890625,10.71369049686912,322.666],[10.68994140625,10.932147528119117,302.7878],[10.830810546875,11.03046295780662,288.5909],[10.870263671875023,11.05084869999412,290.6954],[10.9125,11.065301824994108,285.1202],[10.979736328125,11.07770416874412,280.1956],[10.998779296875,11.078631903119117,282.5837],[11.017578125,11.07733795780662,300.0021],[11.050439453125023,11.070428778119108,300.0724],[11.05908203125,11.067645574994117,289.9332],[11.068115234375,11.065936590619117,293.9217],[11.080078125,11.066278387494108,279.2114],[11.087792968750023,11.068475653119108,287.9146],[11.1025390625,11.076288153119108,276.4275],[11.110107421875,11.07880280155662,285.3557],[11.117333984375023,11.07831452030662,290.6016],[11.130029296875023,11.073114324994108,282.9606],[11.136962890625,11.072870184369108,274.1983],[11.266357421875,11.11151764530662,266.4966],[11.31494140625,11.112665106244108,263.2956],[11.368408203125,11.100213934369108,261.0622],[11.412109375,11.076288153119108,256.2668],[11.450097656250023,11.042352606244108,254.2642],[11.486474609375023,10.99994537968162,252.992],[11.511621093750023,10.961444403119117,249.98],[11.525634765625,10.92316315311912,247.7519],[11.535400390625,10.83685944218162,244.7606],[11.5322265625,10.79767487186912,243.6536],[11.5146484375,10.72077057499412,239.0],[11.512451171875,10.681903387494117,239.0],[11.522119140625023,10.55914948124412,239.0],[11.515869140625,10.519305731244117,239.0],[11.50625,10.497333074994117,239.0],[11.482421875,10.462665106244117,239.0],[11.475488281250023,10.44098541874412,239.0],[11.46826171875,10.346307684369108,239.0],[11.474365234375,10.32587311405662,270.6862],[11.488427734375023,10.309686590619108,220.9507],[11.510888671875023,10.29718659061912,218.2128],[11.564843750000023,10.28034088749412,232.2764],[11.584130859375023,10.26923248905662,238.6862],[11.628320312500023,10.212665106244117,209.2252],[11.645898437500023,10.19977448124412,208.2089],[11.66748046875,10.19269440311912,215.1305],[11.694482421875023,10.19721100468162,245.4753],[11.742333984375023,10.22772858280662,206.6728],[11.768212890625023,10.233172918744117,206.4091],[11.790429687500023,10.223407293744117,230.9855],[11.80224609375,10.20380280155662,243.8105],[11.807031250000023,10.179706121869117,204.4196],[11.807519531250023,10.156512762494117,209.5303],[11.800439453125023,10.115106512494108,191.0386],[11.800439453125023,10.097284246869108,198.1059],[11.8095703125,10.07684967655662,195.2627],[11.827783203125023,10.05829498905662,192.341],[11.850732421875023,10.04572174686912,191.5931],[11.902490234375023,10.03119537968162,186.6802],[11.934326171875,10.02948639530662,183.892],[11.959228515625,10.03156159061912,188.6346],[11.97607421875,10.025165106244117,191.6534],[11.984619140625,9.99835846561912,177.5564],[12.014404296875,9.75995514530662,168.5],[12.0107421875,9.70722077030662,168.5],[12.014794921875023,9.6897158874941169,168.5],[12.025634765625,9.6756533874941084,152.375],[12.061279296875,9.65582916874412,151.4981],[12.06640625,9.6418643249941169,151.6539],[12.024658203125,9.46393463749412,153.4882]]}}