{"type":"Feature","properties":{"featurecla":"River","scalerank":4,"rivernum":137,"dissolve":"137River","name":"Benue","name_alt":null,"note":null,"min_zoom":4.0,"strokeweig":0.25,"name_en":"Benue","min_label":5.0},
"geometry":{"type": "LineString","coordinates": [[11.924072265625,9.49054596561912,141.1853],[11.907617187500023,9.4971865906191084,138.9092],[11.873046875,9.50543854374412,139.8511],[11.819726562500023,9.5090518249941169,137.6855],[11.777001953125023,9.5064639343691084,137.5076],[11.736718750000023,9.4985537781191169,136.3124],[11.695458984375023,9.4760928406191169,134.2337],[11.666748046875,9.4653506531191169,130.7394],[11.65283203125,9.45612213749412,131.9937],[11.626953125,9.43475983280662,133.6963],[11.6015625,9.4182315124941169,131.5063],[11.42626953125,9.33148834843162,129.3593],[11.375634765625023,9.29474518436912,125.1627],[11.34521484375,9.26239655155662,126.6648],[11.334130859375023,9.2537783874941084,124.9386],[11.301416015625023,9.24494049686912,126.0921],[11.286376953125,9.23688385624412,122.0374],[11.280029296875,9.2199893249941169,123.0226],[11.263330078125023,9.19891998905662,125.8371],[11.224365234375,9.18598053593162,128.2135],[11.149804687500023,9.17182037968162,121.1112],[11.086181640625,9.1407412781191084,115.5813],[11.028564453125,9.09393952030662,118.5899],[10.97998046875,9.03644440311912,112.0],[10.915771484375,8.9161319031191084,114.6985],[10.905908203125023,8.8870791687441084,115.7666],[10.902099609375,8.8533877624941084,115.2346],[10.892968750000023,8.82062409061912,114.4496],[10.870019531250023,8.79230377811912,114.1595],[10.841064453125,8.76959869999412,114.1803],[10.752587890625023,8.7193545593691084,110.7786],[10.733154296875,8.71478912968162,107.643],[10.68359375,8.7193545593691084,103.0],[10.650146484375,8.71076080936912,111.6228],[10.58642578125,8.67536041874412,107.5888],[10.55322265625,8.67096588749412,106.5262],[10.539941406250023,8.67621491093162,105.4519],[10.513330078125023,8.6938662781191169,106.3148],[10.498681640625023,8.6988467468691084,106.3628],[10.479394531250023,8.69782135624412,110.078],[10.462792968750023,8.6907901062441084,106.7733],[10.432861328125,8.6678408874941084,103.5907],[10.421875,8.66669342655662,103.3773],[10.390625,8.68121979374412,105.3499],[10.37451171875,8.6851748718691084,103.413],[10.357812500000023,8.6844424499941084,106.0265],[10.342187500000023,8.68195221561912,100.1011],[10.327539062500023,8.67755768436912,105.8969],[10.313720703125,8.67096588749412,104.3626],[10.284326171875023,8.67157623905662,105.1142],[10.26953125,8.6396670593691169,101.5001],[10.2578125,8.60138580936912,100.9589],[10.23828125,8.58283112186912,101.2146],[10.22119140625,8.57868073124412,103.4671],[10.21044921875,8.5686221374941169,103.0543],[10.18896484375,8.5379580749941084,101.8439],[10.183496093750023,8.5215029968691169,100.4431],[10.177978515625,8.5147647156191084,100.553],[10.169677734375,8.5108584656191084,101.3259],[10.14111328125,8.5070986999941169,103.5704],[10.11328125,8.49677155155662,99.0746],[10.1123046875,8.45661041874412,100.1854],[10.1064453125,8.44525787968162,99.2803],[10.095117187500023,8.4383486999941084,97.1699],[10.068115234375,8.43390534061912,100.8503],[10.05517578125,8.42792389530662,97.3525],[10.047998046875023,8.4199404968691169,98.042],[10.043359375000023,8.4102725281191084,97.7615],[10.0302734375,8.36493561405662,96.5812],[10.021386718750023,8.35077545780662,94.7431],[10.019677734375023,8.34564850468162,96.3571],[10.012109375000023,8.3443545593691084,95.6017],[9.9903808593750227,8.3349795593691169,96.9889],[9.980712890625,8.33307526249412,86.0],[9.9505859375000227,8.33197662968162,99.3859],[9.9150390625,8.3233584656191084,94.2978],[9.880859375,8.30866119999412,93.0151],[9.859375,8.28986237186912,90.498],[9.8470703125000227,8.2722354187441169,94.1323]]}}