{"type":"Feature","properties":{"GID_2":"NGA.8.6_1","GID_0":"NGA","country":"Nigeria","GID_1":"NGA.8_1","province":"Borno","NL_NAME_1":"NA","county":"Chibok","VARNAME_2":"NA","NL_NAME_2":"NA","TYPE_2":"LocalAuthority","ENGTYPE_2":"LocalAuthority","CC_2":"NA","HASC_2":"NA","name":"Chibok.county"},
"geometry":{"type": "MultiPolygon","coordinates": [[[[13.1204,10.8171,440.0618],[13.0927,10.8691,451.3121],[13.0617,10.9189,429.5385],[13.0419,10.942,427.09],[13.0084,10.9764,432.5738],[12.9905,10.9857,429.2505],[12.9542,10.9888,421.2498],[12.9215,10.9893,424.8435],[12.8948,10.9842,427.3284],[12.8798,10.9794,439.3947],[12.8465,10.9741,440.3498],[12.826,10.9669,463.1786],[12.7968,10.9602,469.7711],[12.7524,10.9376,462.7599],[12.7028,10.9096,466.2481],[12.6824,10.8961,465.1738],[12.6651,10.879,468.9261],[12.647,10.8547,446.9526],[12.6229,10.8285,445.5366],[12.6002,10.8083,425.8516],[12.61,10.8059,419.9455],[12.6176,10.7811,413.5728],[12.6423,10.7427,417.4077],[12.6621,10.7168,406.0986],[12.6903,10.7037,449.05],[12.7135,10.7031,454.4381],[12.7444,10.7153,448.6931],[12.7611,10.713,450.5514],[12.797,10.7045,459.6181],[12.8334,10.7056,473.6741],[12.8731,10.6955,475.7588],[12.898,10.6917,479.6066],[12.9542,10.6968,488.0739],[12.9868,10.7034,491.9265],[13.0055,10.702,510.1391],[13.0357,10.7031,505.2531],[13.0923,10.6911,458.0378],[13.1029,10.7082,452.4146],[13.1079,10.7204,442.7538],[13.1124,10.741,450.2114],[13.1143,10.7664,449.4102],[13.1104,10.8036,454.8027],[13.113,10.8144,449.0987],[13.1204,10.8171,440.0618]]]]}}