{"type": "Feature","bbox": [4.1838,8.5341,4.8978,9.1359],"geometry": {"type": "MultiPolygon","coordinates": [[[[4.5162,8.5511,310.534],[4.524,8.5611,295.9396],[4.5307,8.5624,291.9028],[4.5376,8.5604,302.2922],[4.5554,8.5606,289.7391],[4.5678,8.5583,281.674],[4.6059,8.5452,290.7198],[4.622,8.5442,302.7658],[4.6458,8.5341,374.2812],[4.6858,8.554,325.2286],[4.6997,8.5549,338.6686],[4.7407,8.5957,337.1366],[4.7482,8.6006,311.6498],[4.755,8.6079,320.2776],[4.7746,8.6211,279.0984],[4.795,8.6436,309.2242],[4.8242,8.6671,272.4368],[4.8366,8.674,283.0669],[4.845,8.6826,330.0152],[4.862,8.7091,390.0202],[4.8714,8.7147,337.393],[4.8763,8.7219,312.7129],[4.8756,8.7367,254.347],[4.8659,8.7601,221.3526],[4.8432,8.7859,189.8553],[4.834,8.7989,211.2685],[4.8273,8.8117,177.5666],[4.8161,8.8472,179.4652],[4.8149,8.8624,188.2543],[4.8158,8.8767,209.4574],[4.812,8.8952,220.9727],[4.8247,8.9516,186.2716],[4.8322,8.9589,153.3755],[4.8365,8.9699,140.1162],[4.855,8.9861,149.9986],[4.8588,8.9925,134.6889],[4.867,8.9949,157.7344],[4.8733,9.0091,118.246],[4.873,9.0137,109.0179],[4.8771,9.0246,92.852],[4.8768,9.0295,96.6931],[4.882,9.0448,93.2814],[4.8854,9.0501,92.2991],[4.8966,9.0585,91.9714],[4.8978,9.0662,89.8409],[4.8965,9.078,85.3969],[4.8926,9.0898,88.5705],[4.8946,9.1359,75.8478],[4.8207,9.1093,155.5015],[4.8003,9.106,281.4193],[4.7882,9.1092,259.8844],[4.7765,9.1158,206.6314],[4.758,9.1302,100.0],[4.7527,9.1223,100.0],[4.7359,9.0878,133.2619],[4.7188,9.0758,154.3865],[4.6915,9.067,161.2181],[4.65,9.0617,186.7522],[4.6269,9.0623,232.768],[4.601,9.0667,237.4971],[4.5644,9.0653,278.5401],[4.5357,9.0608,273.6735],[4.5289,9.0549,277.6036],[4.4641,9.0314,335.1285],[4.4012,9.0039,314.259],[4.4074,9.0039,329.1115],[4.3907,8.9901,289.795],[4.3816,8.9856,295.2258],[4.3746,8.9793,293.6454],[4.3367,8.9576,287.166],[4.3217,8.9369,310.4292],[4.3084,8.9247,423.9084],[4.3,8.9084,312.3809],[4.2881,8.8983,330.9475],[4.2576,8.8812,349.9476],[4.2489,8.8749,347.261],[4.2398,8.8654,356.5189],[4.234,8.8397,394.9035],[4.2201,8.8341,390.6587],[4.2004,8.8149,418.4098],[4.1961,8.8057,426.8414],[4.1863,8.7733,378.8396],[4.1875,8.7553,373.3986],[4.1838,8.7425,365.8222],[4.197,8.7171,318.1536],[4.201,8.6935,331.043],[4.2124,8.6943,313.8016],[4.2179,8.6932,311.8885],[4.2239,8.6899,313.3165],[4.2562,8.6914,321.213],[4.2852,8.6896,296.7149],[4.2947,8.6903,296.507],[4.3126,8.6863,280.2686],[4.3293,8.687,297.0185],[4.3405,8.6849,305.5939],[4.3675,8.6836,295.087],[4.4008,8.6724,331.2707],[4.4258,8.6494,309.4824],[4.4345,8.646,336.9345],[4.4482,8.6354,330.1758],[4.4608,8.6299,359.3774],[4.4676,8.6229,329.1823],[4.4891,8.5995,324.9862],[4.4988,8.5852,319.0671],[4.4985,8.582,308.1104],[4.5105,8.5689,266.8886],[4.5162,8.5511,310.534]]]]}
,"properties": {"GID_2": "NGA.24.12_1","GID_0": "NGA","country": "Nigeria","GID_1": "NGA.24_1","province": "Kwara","NL_NAME_1": "NA","county": "Moro","VARNAME_2": "NA","NL_NAME_2": "NA","TYPE_2": "LocalAuthority","ENGTYPE_2": "LocalAuthority","CC_2": "NA","HASC_2": "NA","name": "Moro.county","area_km2": 3184.251,"hist_schema_id": "Elevation0-9000","hist_area_km2": {"75": 6.029,"100": 40.114,"125": 58.25,"150": 89.268,"175": 137.049,"200": 192.164,"225": 275.952,"250": 423.36,"275": 560.333,"300": 557.569,"325": 412.489,"350": 264.148,"375": 123.948,"400": 36.727,"425": 6.159,"450": 0.566,"475": 0.126}}}