{"type":"Feature","properties":{"GID_2":"NGA.31.26_1","GID_0":"NGA","country":"Nigeria","GID_1":"NGA.31_1","province":"Oyo","NL_NAME_1":"NA","county":"OnaAra","VARNAME_2":"NA","NL_NAME_2":"NA","TYPE_2":"LocalAuthority","ENGTYPE_2":"LocalAuthority","CC_2":"NA","HASC_2":"NA","name":"Ona_Ara.county"},
"geometry":{"type": "MultiPolygon","coordinates": [[[[4.0771,7.1125,122.21],[4.0901,7.1864,114.6251],[4.0965,7.2121,113.9181],[4.1105,7.2502,127.1879],[4.1148,7.2713,155.8343],[4.1134,7.287,158.6237],[4.1156,7.3061,156.9183],[4.1191,7.3175,132.6749],[4.106,7.3202,156.886],[4.0776,7.3352,165.9172],[4.0613,7.3369,185.8246],[4.0486,7.3401,200.6475],[4.0253,7.3522,183.9191],[4.0121,7.3617,156.3412],[4.0,7.3679,178.5524],[3.9873,7.3704,216.151],[3.9702,7.3695,210.9239],[3.9575,7.3681,197.9948],[3.9452,7.3642,213.356],[3.9431,7.3624,196.6884],[3.9425,7.3546,199.4205],[3.9364,7.3382,179.5526],[3.9407,7.3295,174.6212],[3.9623,7.3061,213.2334],[3.9769,7.2957,181.2897],[3.9902,7.2899,128.2261],[3.9974,7.2838,138.6224],[4.013,7.2633,162.2917],[4.0189,7.2422,157.6802],[4.0139,7.2197,153.1108],[4.0134,7.2011,117.7769],[4.0082,7.1675,117.0825],[4.0054,7.1341,87.5704],[4.0095,7.1038,101.4415],[4.0172,7.1053,115.5709],[4.0288,7.1035,121.7397],[4.0667,7.109,112.6225],[4.0771,7.1125,122.21]]]]}}