{"type": "Feature","bbox": [11.4001,7.4444,12.2574,8.3882],"geometry": {"type": "MultiPolygon","coordinates": [[[[12.2564,8.1758,370.156],[12.2574,8.1765,369.5622],[12.2562,8.2113,411.3193],[12.2548,8.2169,394.6415],[12.2573,8.2255,374.9693],[12.2535,8.2459,388.6492],[12.2377,8.2504,408.1049],[12.2187,8.2501,443.9457],[12.208,8.2454,453.1111],[12.1951,8.2442,451.0867],[12.1766,8.2265,453.6018],[12.1581,8.2146,477.1758],[12.1424,8.2127,511.3842],[12.1325,8.2142,534.8083],[12.1115,8.2023,556.5343],[12.1021,8.2018,563.9896],[12.0698,8.2046,541.8368],[12.0343,8.2178,557.1707],[12.0069,8.2326,587.723],[11.9942,8.2344,595.8703],[11.9778,8.244,620.3708],[11.9651,8.2471,648.3347],[11.9551,8.2533,706.2397],[11.9488,8.2554,719.4926],[11.9402,8.2544,763.2015],[11.9185,8.2693,1098.9497],[11.9008,8.2784,1023.4576],[11.8919,8.2853,895.2559],[11.883,8.2875,1064.0713],[11.8507,8.3033,839.7841],[11.812,8.3186,458.28],[11.7934,8.3221,401.1067],[11.7677,8.3319,522.2778],[11.7554,8.3392,552.3101],[11.7477,8.3471,497.0611],[11.7332,8.353,709.1918],[11.7218,8.3554,770.3792],[11.7142,8.3616,858.113],[11.703,8.3678,775.4422],[11.7006,8.3736,695.8774],[11.6899,8.3837,446.84],[11.6876,8.3882,658.5925],[11.6237,8.3067,524.5786],[11.5874,8.2722,450.5695],[11.5417,8.2185,494.3321],[11.4802,8.1667,419.6682],[11.4429,8.1255,476.1888],[11.4135,8.0897,375.805],[11.4001,8.0644,361.2681],[11.4281,8.0007,340.3437],[11.4343,7.9746,382.5867],[11.441,7.9559,323.1764],[11.4767,7.9027,313.041],[11.4879,7.8803,310.884],[11.5316,7.8408,271.8466],[11.5441,7.8462,285.8339],[11.5588,7.857,318.2306],[11.5756,7.8728,335.2968],[11.5964,7.8986,276.2421],[11.6011,7.9093,308.081],[11.6213,7.9374,456.8365],[11.6477,7.9436,449.7582],[11.6707,7.9366,374.6051],[11.6954,7.9185,401.7239],[11.7078,7.8978,473.0628],[11.7357,7.8679,353.3913],[11.7679,7.8434,540.4083],[11.8055,7.8059,422.0178],[11.8401,7.7641,411.7031],[11.857,7.7316,377.4048],[11.8476,7.6431,534.1467],[11.8596,7.6152,373.4891],[11.8657,7.5582,1085.1052],[11.8893,7.5088,1087.6917],[11.8971,7.4837,1431.1006],[11.8962,7.4584,1115.2913],[11.916,7.4444,1282.2836],[11.9244,7.4526,1341.6543],[11.9356,7.4701,1252.4004],[11.9507,7.4878,1515.8094],[11.9604,7.495,1669.2583],[11.9709,7.498,1452.679],[11.9921,7.4993,957.6953],[12.0073,7.508,1054.1312],[12.0124,7.5076,832.9257],[12.0251,7.5137,989.3386],[12.0343,7.5211,948.5514],[12.0344,7.523,954.3597],[12.0278,7.5291,1214.3207],[12.0205,7.5397,892.6989],[12.0211,7.5604,1252.4662],[12.0154,7.5736,1319.6045],[12.019,7.5868,1200.8457],[12.0167,7.5981,1208.5642],[12.0188,7.6224,1273.23],[12.0166,7.6288,1091.7903],[12.0165,7.6354,1026.4872],[12.0077,7.6564,1035.9932],[12.0078,7.6619,976.7529],[12.0116,7.6636,811.2833],[12.0261,7.6638,686.8066],[12.027,7.6653,697.7453],[12.0261,7.676,677.2175],[12.0312,7.6915,644.8205],[12.0294,7.7006,633.9103],[12.0319,7.7302,624.8698],[12.0416,7.7397,634.0135],[12.0463,7.7478,632.5175],[12.0553,7.7572,981.7676],[12.0561,7.7625,761.3429],[12.0525,7.7726,652.2611],[12.063,7.7807,872.6187],[12.0619,7.7889,1107.019],[12.0633,7.7948,897.0649],[12.0765,7.8051,998.1375],[12.0885,7.8364,640.9252],[12.0999,7.8491,617.8594],[12.1081,7.8555,572.9034],[12.1267,7.8654,540.8618],[12.1322,7.8702,531.34],[12.1553,7.8975,465.2283],[12.1592,7.914,476.8419],[12.1673,7.9255,444.29],[12.1719,7.9311,454.755],[12.176,7.9327,453.4525],[12.1807,7.9398,447.786],[12.188,7.9433,422.4501],[12.1897,7.9537,421.5787],[12.1876,7.9588,425.2023],[12.2045,7.9691,404.082],[12.2071,7.9724,396.634],[12.2063,7.9795,399.0814],[12.2115,7.9837,394.1425],[12.213,7.9904,394.0461],[12.217,7.9938,395.3571],[12.2173,8.0002,401.118],[12.2213,8.0026,396.5265],[12.2232,8.0147,393.3101],[12.2219,8.0221,407.4189],[12.2165,8.031,441.8816],[12.219,8.0528,433.7815],[12.2184,8.069,410.774],[12.2123,8.0772,379.9519],[12.2092,8.094,399.24],[12.2113,8.1066,426.3935],[12.2163,8.1129,426.3125],[12.2197,8.1215,451.1977],[12.2284,8.1258,440.8605],[12.2269,8.1362,409.0314],[12.237,8.1428,398.5598],[12.2416,8.1499,401.9357],[12.2422,8.1647,383.8291],[12.2436,8.167,382.1808],[12.2564,8.1758,370.156]]]]}
,"properties": {"GID_2": "NGA.2.19_1","GID_0": "NGA","country": "Nigeria","GID_1": "NGA.2_1","province": "Adamawa","NL_NAME_1": "NA","county": "Teungo","VARNAME_2": "NA","NL_NAME_2": "NA","TYPE_2": "LocalAuthority","ENGTYPE_2": "LocalAuthority","CC_2": "NA","HASC_2": "NA","name": "Teungo.county","area_km2": 4585.047,"hist_schema_id": "Elevation0-9000","hist_area_km2": {"250": 7.266,"275": 41.661,"300": 106.639,"325": 116.162,"350": 109.269,"375": 136.759,"400": 201.906,"425": 252.945,"450": 273.043,"475": 320.287,"500": 356.544,"525": 322.779,"550": 259.546,"575": 206.284,"600": 164.505,"625": 126.881,"650": 111.723,"675": 98.663,"700": 83.963,"725": 77.306,"750": 75.332,"775": 81.606,"800": 82.192,"825": 85.299,"850": 80.367,"875": 70.146,"900": 65.403,"925": 61.581,"950": 59.713,"975": 54.547,"1000": 55.654,"1025": 77.103,"1050": 72.818,"1075": 49.625,"1100": 57.239,"1125": 55.539,"1150": 21.837,"1175": 10.716,"1200": 9.519,"1225": 8.805,"1250": 8.364,"1275": 7.125,"1300": 6.789,"1325": 6.326,"1350": 5.255,"1375": 5.066,"1400": 4.477,"1425": 4.582,"1450": 5.108,"1475": 4.792,"1500": 4.225,"1525": 3.111,"1550": 2.607,"1575": 1.913,"1600": 1.871,"1625": 1.682,"1650": 1.156,"1675": 0.862,"1700": 0.378,"1725": 0.189}}}