{"type":"Feature","properties":{"GID_2":"NGA.26.6_1","GID_0":"NGA","country":"Nigeria","GID_1":"NGA.26_1","province":"Nasarawa","NL_NAME_1":"NA","county":"Keffi","VARNAME_2":"NA","NL_NAME_2":"NA","TYPE_2":"LocalAuthority","ENGTYPE_2":"LocalAuthority","CC_2":"NA","HASC_2":"NA","name":"Keffi.county"},
"geometry":{"type": "MultiPolygon","coordinates": [[[[7.903,8.8177,292.7441],[7.9055,8.8405,305.0432],[7.8988,8.8558,300.4854],[7.8788,8.8725,312.0283],[7.8237,8.8886,333.3501],[7.7971,8.8939,371.3723],[7.7967,8.8861,348.3796],[7.7853,8.8692,354.5522],[7.7692,8.8557,344.2756],[7.7531,8.8278,358.3226],[7.7482,8.8127,321.0076],[7.7675,8.7824,284.076],[7.7802,8.7778,296.5144],[7.7932,8.7698,286.3412],[7.8215,8.7663,274.164],[7.8356,8.7704,278.9835],[7.8494,8.782,291.0292],[7.8609,8.8037,308.0752],[7.8781,8.814,296.2523],[7.8952,8.8153,283.2691],[7.903,8.8177,292.7441]]]]}}