{"type":"Feature","properties":{"GID_2":"NGA.30.10_1","GID_0":"NGA","country":"Nigeria","GID_1":"NGA.30_1","province":"Osun","NL_NAME_1":"NA","county":"Ejigbo","VARNAME_2":"NA","NL_NAME_2":"NA","TYPE_2":"LocalAuthority","ENGTYPE_2":"LocalAuthority","CC_2":"NA","HASC_2":"NA","name":"Ejigbo.county"},
"geometry":{"type": "MultiPolygon","coordinates": [[[[4.3648,7.6327,241.1057],[4.3674,7.6419,265.8802],[4.3614,7.6489,243.0947],[4.3448,7.6802,250.0233],[4.3415,7.6918,259.2584],[4.332,7.704,286.3429],[4.3296,7.7098,268.2065],[4.3364,7.7325,293.4114],[4.349,7.7523,301.3248],[4.3699,7.7757,304.7449],[4.3671,7.7884,309.4213],[4.3606,7.803,295.017],[4.3696,7.816,319.7695],[4.3851,7.8319,334.8715],[4.3879,7.8371,330.0817],[4.3893,7.845,321.9849],[4.3742,7.8372,330.48],[4.3653,7.845,330.6624],[4.3568,7.8636,333.834],[4.3384,7.895,366.2675],[4.3163,7.9268,370.848],[4.2902,7.942,365.7132],[4.2779,7.9516,406.5856],[4.2676,7.9564,459.1498],[4.2594,7.9517,391.3011],[4.2466,7.931,369.2259],[4.2222,7.903,334.9937],[4.2173,7.8985,332.8784],[4.2052,7.8938,317.5536],[4.2032,7.8842,317.2913],[4.2052,7.8666,295.6096],[4.203,7.8567,312.3763],[4.1984,7.8469,294.9052],[4.1905,7.8408,276.0896],[4.1773,7.8385,275.9103],[4.1628,7.8295,273.9437],[4.1529,7.8287,269.7751],[4.1101,7.838,264.6882],[4.0894,7.8453,282.367],[4.0835,7.8502,267.5562],[4.0737,7.8458,244.7786],[4.0684,7.8302,242.1441],[4.0683,7.7989,241.936],[4.0766,7.7972,279.0162],[4.1011,7.7858,330.6716],[4.1136,7.7897,368.3568],[4.1184,7.7889,286.7011],[4.1325,7.7921,264.7769],[4.1379,7.795,269.723],[4.1608,7.8011,310.4476],[4.1873,7.8117,334.2446],[4.2104,7.8129,310.2686],[4.2253,7.8101,337.8176],[4.2397,7.8122,323.9574],[4.2456,7.8093,337.4339],[4.2636,7.7938,315.1287],[4.288,7.7642,290.718],[4.2956,7.7594,315.4158],[4.3225,7.7541,287.7769],[4.3175,7.7457,300.3951],[4.2994,7.7243,260.281],[4.2965,7.7184,260.6088],[4.3097,7.691,247.975],[4.3195,7.6588,251.5777],[4.329,7.645,263.7195],[4.3351,7.6385,266.1322],[4.3498,7.6304,235.2141],[4.3592,7.6298,243.9748],[4.3648,7.6327,241.1057]]]]}}