{"type":"Feature","properties":{"GID_2":"NGA.20.28_1","GID_0":"NGA","country":"Nigeria","GID_1":"NGA.20_1","province":"Kano","NL_NAME_1":"NA","county":"Madobi","VARNAME_2":"NA","NL_NAME_2":"NA","TYPE_2":"LocalAuthority","ENGTYPE_2":"LocalAuthority","CC_2":"NA","HASC_2":"NA","name":"Madobi.county"},
"geometry":{"type": "MultiPolygon","coordinates": [[[[8.2814,11.704,489.7742],[8.3319,11.7205,453.5496],[8.3426,11.7284,454.7204],[8.3561,11.7417,458.1107],[8.3634,11.7679,456.4964],[8.3704,11.7823,457.1076],[8.3855,11.7981,449.1567],[8.3963,11.8142,452.5605],[8.4147,11.8277,445.3955],[8.4387,11.8313,443.351],[8.4491,11.8302,451.1517],[8.4799,11.8376,441.2204],[8.491,11.8384,444.8769],[8.4916,11.8414,439.231],[8.4981,11.8456,430.4652],[8.5249,11.8562,450.8509],[8.5233,11.8579,447.6068],[8.536,11.8591,454.2388],[8.5328,11.862,451.327],[8.5216,11.8663,435.3453],[8.5157,11.8663,433.9332],[8.509,11.8704,436.5638],[8.5014,11.8718,438.4852],[8.4916,11.8701,433.2286],[8.4823,11.873,430.0848],[8.4788,11.8712,442.2568],[8.4604,11.8697,447.752],[8.4391,11.8716,449.9069],[8.4272,11.8764,441.4442],[8.411,11.8876,453.3819],[8.3971,11.9003,453.2758],[8.3929,11.9081,444.7442],[8.3943,11.9132,437.0],[8.3832,11.9165,449.4355],[8.3844,11.9103,446.2172],[8.3832,11.907,446.4994],[8.3374,11.8705,454.14],[8.314,11.8402,455.2067],[8.3014,11.8345,461.5456],[8.2991,11.831,456.0155],[8.2937,11.8285,455.4842],[8.2907,11.824,458.0851],[8.2923,11.8236,458.5206],[8.268,11.8011,467.5468],[8.2648,11.7924,465.862],[8.2602,11.7904,462.6854],[8.2538,11.7839,462.0662],[8.2493,11.7822,465.6406],[8.2465,11.7706,478.6047],[8.2582,11.7236,494.6405],[8.256,11.709,493.1915],[8.2661,11.7147,487.8505],[8.2696,11.7081,482.3143],[8.2788,11.7061,484.339],[8.2814,11.704,489.7742]]]]}}