{"type": "Feature","bbox": [7.6625,5.0368,7.8369,5.3177],"geometry": {"type": "MultiPolygon","coordinates": [[[[7.7937,5.0795,75.6782],[7.8078,5.084,82.0774],[7.8142,5.0807,79.7201],[7.8205,5.067,72.7114],[7.8237,5.0418,72.5593],[7.8292,5.0368,68.9554],[7.8318,5.0433,69.7363],[7.8347,5.0603,67.9806],[7.8369,5.1017,77.7959],[7.8345,5.1365,94.2965],[7.8356,5.1469,95.9049],[7.8337,5.1559,80.7915],[7.8343,5.1794,49.6766],[7.8365,5.1893,70.5023],[7.8343,5.1939,60.115],[7.8305,5.2163,81.9731],[7.8304,5.2368,85.7361],[7.8226,5.2542,98.5822],[7.8092,5.2688,41.6022],[7.8074,5.2745,38.5518],[7.8067,5.2842,31.5568],[7.8093,5.2931,32.8003],[7.7979,5.2998,42.6343],[7.7943,5.3054,58.9092],[7.7855,5.3136,69.0121],[7.7627,5.3177,44.2992],[7.7463,5.3148,87.8845],[7.7271,5.3003,123.0949],[7.7023,5.289,117.2538],[7.6914,5.2873,102.2809],[7.6734,5.2893,118.9605],[7.6625,5.2885,106.224],[7.6735,5.2775,117.0962],[7.6794,5.2751,119.818],[7.6884,5.2745,113.0155],[7.6921,5.2604,106.6519],[7.7054,5.2535,101.1597],[7.7094,5.2469,102.5168],[7.7111,5.2391,97.8897],[7.7107,5.2262,94.5864],[7.7171,5.2229,103.2708],[7.7269,5.2038,100.8535],[7.732,5.1899,96.7572],[7.7335,5.179,79.9199],[7.742,5.1651,88.6287],[7.741,5.1602,86.1959],[7.7436,5.1519,92.1747],[7.7549,5.1365,90.7336],[7.7586,5.1346,90.9041],[7.7756,5.1322,89.8489],[7.7829,5.1277,82.0589],[7.7854,5.1217,86.5061],[7.7848,5.0998,79.4307],[7.7876,5.0906,80.0107],[7.7937,5.0795,75.6782]]]]}
,"properties": {"GID_2": "NGA.3.12_1","GID_0": "NGA","country": "Nigeria","GID_1": "NGA.3_1","province": "AkwaIbom","NL_NAME_1": "NA","county": "Ikono","VARNAME_2": "NA","NL_NAME_2": "NA","TYPE_2": "LocalAuthority","ENGTYPE_2": "LocalAuthority","CC_2": "NA","HASC_2": "NA","name": "Ikono.county","area_km2": 270.2047,"hist_schema_id": "Elevation0-9000","hist_area_km2": {"25": 5.1936,"50": 33.7184,"75": 86.8275,"100": 115.4146,"125": 29.0507}}}