{"type":"Feature","properties":{"GID_2":"NGA.15.5_1","GID_0":"NGA","country":"Nigeria","GID_1":"NGA.15_1","province":"FederalCapitalTerritory","NL_NAME_1":"NA","county":"Kuje","VARNAME_2":"NA","NL_NAME_2":"NA","TYPE_2":"LocalAuthority","ENGTYPE_2":"LocalAuthority","CC_2":"NA","HASC_2":"NA","name":"Kuje.county"},
"geometry":{"type": "MultiPolygon","coordinates": [[[[6.9692,8.4109,228.5204],[7.0072,8.415,187.7708],[7.0214,8.4219,185.2689],[7.0637,8.4237,171.711],[7.0912,8.4306,136.3409],[7.1579,8.4398,187.8336],[7.1799,8.4471,241.6297],[7.2048,8.4591,225.1215],[7.2634,8.4715,191.7592],[7.2797,8.4763,179.3065],[7.2874,8.4833,185.5187],[7.3158,8.496,388.0145],[7.3566,8.5209,185.0453],[7.3733,8.5252,191.9182],[7.3921,8.5348,207.5914],[7.4029,8.5432,227.3463],[7.4086,8.5532,213.3434],[7.4374,8.5933,270.0677],[7.4531,8.609,494.3791],[7.4711,8.6392,596.1987],[7.4648,8.6334,563.4645],[7.4578,8.6305,565.4174],[7.4296,8.625,585.5997],[7.4154,8.6296,585.835],[7.4118,8.6373,572.5776],[7.4158,8.6434,569.8806],[7.4235,8.6475,555.6914],[7.4452,8.6651,576.3931],[7.4551,8.6764,549.5059],[7.4743,8.6918,585.7327],[7.4809,8.7002,592.4508],[7.4955,8.7366,767.1151],[7.5004,8.7533,903.9196],[7.4935,8.755,753.5615],[7.4868,8.7542,702.9362],[7.4623,8.7632,639.9169],[7.454,8.7787,646.6083],[7.4565,8.7932,589.8528],[7.4528,8.8039,576.0392],[7.4493,8.8056,516.6444],[7.4411,8.8075,517.2853],[7.4136,8.8041,468.3783],[7.3905,8.8049,360.4878],[7.374,8.8091,382.5644],[7.3582,8.8055,393.6612],[7.3411,8.8039,414.8423],[7.317,8.808,479.4793],[7.2729,8.8201,406.5632],[7.1519,8.8832,240.1632],[7.1411,8.8875,234.7718],[7.1151,8.8926,232.4603],[7.1039,8.8994,208.0564],[7.0729,8.901,183.4848],[7.0665,8.8941,185.1271],[7.0597,8.892,189.0322],[7.0721,8.8857,199.9877],[7.0819,8.8784,207.4734],[7.0856,8.8677,205.9333],[7.0962,8.8625,212.0374],[7.1106,8.8401,273.418],[7.1428,8.8246,412.5488],[7.1615,8.7959,248.5096],[7.1651,8.7862,230.7196],[7.163,8.774,222.6898],[7.1513,8.7640999999999991,214.2896],[7.1279,8.7585,213.8933],[7.1075,8.7514,206.2643],[7.0961,8.7452,185.4791],[7.0865,8.7345,176.4995],[7.0803,8.724,161.3211],[7.0786,8.7171,164.293],[7.0784,8.7047,187.3176],[7.0798,8.6922,201.5037],[7.0841,8.6758,202.0923],[7.0919,8.6676,204.9456],[7.1002,8.641,189.0071],[7.0889,8.6151,191.3387],[7.0735,8.6029,189.2384],[7.0556,8.5783,310.9774],[7.0109,8.5542,307.3886],[7.0002,8.5461,317.6372],[6.994,8.5349,230.1031],[6.9876,8.5138,190.1145],[6.9783,8.5052,245.477],[6.9675,8.4904,183.8875],[6.9733,8.4814,167.6481],[6.9834,8.4805,197.3354],[6.9852,8.4752,187.8719],[6.9839,8.4524,147.1745],[6.9789,8.4444,171.1261],[6.9692,8.4109,228.5204]]]]}}