{"type":"Feature","properties":{"GID_2":"NGA.17.1_1","GID_0":"NGA","country":"Nigeria","GID_1":"NGA.17_1","province":"Imo","NL_NAME_1":"NA","county":"Aboh-Mbaise","VARNAME_2":"NA","NL_NAME_2":"NA","TYPE_2":"LocalAuthority","ENGTYPE_2":"LocalAuthority","CC_2":"NA","HASC_2":"NA","name":"Aboh-Mbaise.county"},
"geometry":{"type": "MultiPolygon","coordinates": [[[[7.317,5.3925,49.1043],[7.3034,5.4036,87.7932],[7.2933,5.4185,124.3081],[7.2849,5.4272,117.2674],[7.2819,5.4314,119.0574],[7.2749,5.4506,110.9912],[7.2715,5.4541,99.9194],[7.2713,5.459,105.6978],[7.2735,5.4642,106.8666],[7.2929,5.4807,120.5634],[7.3001,5.4838,136.1406],[7.3131,5.5015,156.7649],[7.2722,5.5018,145.4254],[7.2512,5.4996,145.8769],[7.2401,5.4955,134.9601],[7.2318,5.4958,136.4857],[7.2279,5.4966,135.8628],[7.2254,5.4998,129.287],[7.2241,5.5061,127.7485],[7.2084,5.4935,118.0416],[7.198,5.492,120.4409],[7.1878,5.4846,127.7177],[7.1673,5.4748,122.0037],[7.1802,5.4421,110.1925],[7.1927,5.4361,113.479],[7.2112,5.4349,113.6991],[7.2174,5.4371,116.5125],[7.2253,5.4374,115.6028],[7.2317,5.4343,115.3827],[7.2364,5.4275,120.7167],[7.2384,5.4211,114.8573],[7.2372,5.4174,115.543],[7.2261,5.4035,115.6699],[7.219,5.39,111.5446],[7.2217,5.3732,101.4849],[7.2457,5.3615,102.5539],[7.2517,5.3464,103.3293],[7.2674,5.3319,84.376],[7.2762,5.3209,55.4362],[7.2873,5.3114,43.0556],[7.3015,5.3608,51.1273],[7.317,5.3925,49.1043]]]]}}