{"type":"Feature","properties":{"GID_2":"NGA.13.13_1","GID_0":"NGA","country":"Nigeria","GID_1":"NGA.13_1","province":"Ekiti","NL_NAME_1":"NA","county":"Irepodun/Ifelodun","VARNAME_2":"NA","NL_NAME_2":"NA","TYPE_2":"LocalAuthority","ENGTYPE_2":"LocalAuthority","CC_2":"NA","HASC_2":"NA","name":"Irepodun_Ifelodun.county"},
"geometry":{"type": "MultiPolygon","coordinates": [[[[5.386,7.652,375.1711],[5.3957,7.6624,388.3789],[5.4042,7.6849,394.1214],[5.4094,7.6911,385.3204],[5.4013,7.7205,462.5324],[5.3876,7.7172,572.924],[5.3683,7.7201,443.722],[5.3618,7.7181,448.6171],[5.3543,7.7233,396.8835],[5.3421,7.7256,390.8431],[5.3297,7.7311,454.4308],[5.2969,7.7535,462.3223],[5.2749,7.7659,535.6823],[5.2689,7.7657,549.1337],[5.2566,7.7717,564.5974],[5.2486,7.7728,558.9956],[5.2422,7.766,560.3461],[5.2202,7.762,514.7482],[5.2045,7.7634,535.8624],[5.1872,7.7602,579.6157],[5.1722,7.7612,587.1565],[5.1566,7.7649,574.132],[5.1452,7.7625,544.4634],[5.1099,7.7488,524.3518],[5.1062,7.7309,566.9263],[5.1052,7.6985,546.3204],[5.0899,7.648,562.8076],[5.0844,7.6222,573.0535],[5.1126,7.5993,569.4772],[5.1306,7.6137,525.3267],[5.1389,7.6166,515.0551],[5.1595,7.6314,545.6125],[5.1773,7.633,470.4168],[5.2079,7.6412,422.7908],[5.2328,7.656,383.2957],[5.2411,7.6595,383.2719],[5.249,7.6599,371.239],[5.2625,7.6686,375.0472],[5.2701,7.6676,371.4279],[5.2861,7.6707,376.6917],[5.2965,7.671,383.5866],[5.3556,7.6624,358.2011],[5.365,7.6586,364.9717],[5.3745,7.6582,367.6755],[5.386,7.652,375.1711]]]]}}