{"type": "Feature","bbox": [6.9979,5.7325,7.1239,5.8854],"geometry": {"type": "MultiPolygon","coordinates": [[[[7.0716,5.8854,185.0328],[7.0591,5.8854,141.5085],[7.056,5.8841,111.0042],[7.0476,5.8775,53.3346],[7.0378,5.8666,57.9606],[7.0343,5.8526,79.8297],[7.0327,5.8248,139.5368],[7.0244,5.8083,141.4462],[7.0115,5.795,172.4707],[6.9979,5.8,171.152],[6.9985,5.7901,169.2309],[7.0039,5.7713,166.0264],[7.0045,5.761,165.969],[7.0084,5.7473,149.9974],[7.0149,5.7373,160.7952],[7.0191,5.7365,164.3506],[7.0399,5.7433,151.5396],[7.0519,5.745,177.1752],[7.06,5.7411,186.4925],[7.0654,5.7325,187.5216],[7.0902,5.7452,208.3819],[7.0956,5.7497,201.5938],[7.114,5.7566,170.5071],[7.1239,5.7639,160.6863],[7.1222,5.764,161.2182],[7.1189,5.774,90.5877],[7.1214,5.7873,119.8311],[7.1024,5.798,110.2208],[7.0984,5.8041,119.2633],[7.0842,5.8122,129.4109],[7.079,5.8194,129.4185],[7.0781,5.8346,150.3675],[7.0853,5.8508,187.0299],[7.0873,5.863,203.603],[7.0856,5.8707,211.8911],[7.0735,5.8817,180.0497],[7.0716,5.8854,185.0328]]]]}
,"properties": {"GID_2": "NGA.17.20_1","GID_0": "NGA","country": "Nigeria","GID_1": "NGA.17_1","province": "Imo","NL_NAME_1": "NA","county": "Orlu","VARNAME_2": "NA","NL_NAME_2": "NA","TYPE_2": "LocalAuthority","ENGTYPE_2": "LocalAuthority","CC_2": "NA","HASC_2": "NA","name": "Orlu.county","area_km2": 130.1485,"hist_schema_id": "Elevation0-9000","hist_area_km2": {"50": 8.5633,"75": 21.9368,"100": 12.3606,"125": 7.1927,"150": 16.8328,"175": 39.6152,"200": 17.3398,"225": 6.3075}}}