{"type":"Feature","properties":{"GID_1":"NGA.22_1","GID_0":"NGA","country":"Nigeria","province":"Kebbi","VARNAME_1":"NA","NL_NAME_1":"NA","TYPE_1":"State","ENGTYPE_1":"State","CC_1":"NA","HASC_1":"NG.KE","ISO_1":"NG-KE","name":"Kebbi.province"},
"geometry":{"type": "MultiPolygon","coordinates": [[[[5.0601,11.0286,240.2537],[5.0476,11.0403,231.1648],[5.0333,11.0434,254.5303],[5.02,11.0399,242.6575],[5.003,11.072,250.5491],[4.9851,11.0752,250.5297],[4.9564,11.0742,220.8516],[4.9164,11.0804,235.0322],[4.8291,11.1153,238.8525],[4.7934,11.1325,232.3868],[4.7706,11.1475,189.9923],[4.7565,11.1676,206.5339],[4.7538,11.192,227.6627],[4.7611,11.2097,212.9103],[4.776,11.2251,219.7758],[4.789,11.2324,241.9391],[4.812,11.2412,249.6718],[4.8379,11.2579,252.427],[4.8544,11.2664,258.5125],[4.9474,11.2986,231.4453],[4.9847,11.3015,264.7168],[5.003,11.3098,272.4497],[5.053,11.3214,307.3528],[5.0792,11.3241,331.0808],[5.1012,11.3305,321.709],[5.1522,11.3384,296.7352],[5.1696,11.3426,335.6001],[5.2124,11.3467,340.6006],[5.2711,11.3462,349.1229],[5.2872,11.3443,346.2311],[5.3002,11.3384,328.7976],[5.3171,11.3347,335.8336],[5.329,11.3286,339.1997],[5.3443,11.3094,347.5987],[5.352,11.281,341.1227],[5.3557,11.2491,336.155],[5.3558,11.2254,341.0939],[5.3601,11.2055,327.1625],[5.3732,11.1853,333.2729],[5.3938,11.171,321.0524],[5.4149,11.1613,325.1929],[5.4338,11.146,326.3986],[5.4415,11.1176,324.6624],[5.4405,11.082,313.6615],[5.4356,11.0408,304.4315],[5.4413,10.9767,320.8096],[5.4527,10.9629,331.1657],[5.4679,10.9568,322.4348],[5.4697,10.9596,318.7989],[5.5288,10.9574,336.7534],[5.5547,10.9602,339.1324],[5.5696,10.9594,339.63],[5.5932,10.9627,355.5394],[5.6148,10.9636,420.3895],[5.6403,10.9678,427.272],[5.7113,10.9965,453.4904],[5.7473,11.016,420.7116],[5.8357,11.0488,447.8382],[5.8556,11.0513,443.4225],[5.8719,11.0512,442.8982],[5.8992,11.0554,428.3893],[5.9199,11.0905,435.0098],[5.9342,11.0989,453.6412],[5.9517,11.1151,483.4461],[5.9614,11.129,480.3333],[5.975,11.1345,491.4012],[5.9918,11.1323,493.3133],[6.005,11.1287,504.0789],[6.027,11.1113,479.4387],[6.0271,11.1574,495.7819],[6.0232,11.18,474.2685],[6.0235,11.1987,491.9764],[6.0179,11.2298,480.4351],[6.0103,11.2919,497.8988],[6.0013,11.3195,497.0006],[5.988,11.3459,490.4147],[5.9701,11.3675,504.3658],[5.9454,11.3825,495.3131],[5.8831,11.4107,473.9784],[5.8832,11.4299,456.2577],[5.8929,11.4487,445.9697],[5.8985,11.476,436.6743],[5.9163,11.5332,420.1049],[5.9165,11.5725,406.6537],[5.9132,11.5803,400.6456],[5.9072,11.5907,403.4662],[5.8936,11.6067,394.5779],[5.8233,11.6349,400.2467],[5.7451,11.6448,403.2533],[5.7253,11.6319,402.4829],[5.7047,11.625,379.7484],[5.6852,11.6225,388.9597],[5.6672,11.6267,395.9962],[5.6407,11.6275,383.0395],[5.6239,11.6305,376.7421],[5.5988,11.6239,375.3539],[5.5744,11.6216,393.8448],[5.557,11.6174,386.5818],[5.5355,11.6184,374.6284],[5.5174,11.6278,372.0095],[5.499,11.6471,356.2802],[5.4766,11.6568,361.0375],[5.4625,11.6588,362.0372],[5.4302,11.6586,377.7388],[5.4176,11.6736,375.5399],[5.4114,11.6944,365.1628],[5.403,11.7111,348.8865],[5.3925,11.7182,349.7293],[5.3855,11.7201,351.474],[5.3271,11.7099,360.44],[5.3089,11.7103,358.2626],[5.2934,11.7147,370.146],[5.2788,11.725,407.1173],[5.266,11.7225,357.4438],[5.2488,11.7126,355.2373],[5.2404,11.6971,363.5154],[5.2355,11.6758,385.3122],[5.2081,11.6669,452.3282],[5.195,11.6677,375.1653],[5.1331,11.6524,342.9821],[5.1134,11.6612,337.0705],[5.1055,11.6724,315.9668],[5.0668,11.6884,270.0056],[5.0373,11.6883,294.412],[4.9973,11.6652,323.1188],[4.9821,11.6664,292.071],[4.9768,11.6765,268.5743],[4.9726,11.6905,259.9248],[4.9698,11.6942,266.5801],[4.9563,11.6915,272.4638],[4.9368,11.6827,260.9858],[4.9229,11.6872,247.0056],[4.9172,11.6924,250.2153],[4.9062,11.6964,245.8166],[4.8933,11.6988,283.4367],[4.8789,11.6945,251.5058],[4.8485,11.6768,268.454],[4.8266,11.6692,312.1046],[4.8048,11.6572,257.4842],[4.7752,11.6478,245.4973],[4.7522,11.6376,236.5327],[4.7236,11.6285,222.0531],[4.685,11.6078,228.3207],[4.6588,11.5807,215.2347],[4.6462,11.56,222.2796],[4.6308,11.5439,234.8649],[4.6187,11.5385,237.4568],[4.6021,11.5383,234.2937],[4.5737,11.543,228.5291],[4.5614,11.5512,214.3864],[4.5433,11.5702,216.7643],[4.5268,11.5926,216.1354],[4.5203,11.6094,205.1384],[4.5274,11.6476,199.5939],[4.539,11.6853,213.846],[4.5812,11.775,270.3704],[4.5925,11.843,263.7497],[4.5987,11.8645,287.7713],[4.6091,11.889099999999999,307.6413],[4.6155,11.9307,281.1365],[4.6171,11.9636,247.5234],[4.6141,12.0053,284.8068],[4.6082,12.027,287.6099],[4.6053,12.0653,275.3617],[4.6051,12.0925,249.9563],[4.6074,12.1112,241.2646],[4.6027,12.1382,235.837],[4.6073,12.2867,238.6252],[4.605,12.2962,241.2174],[4.6212,12.3562,252.373],[4.6419,12.3797,252.2331],[4.6807,12.394,268.1127],[4.7057,12.3985,253.5965],[4.7274,12.4017,254.6169],[4.749,12.3987,250.9465],[4.8003,12.3663,281.8221],[4.8166,12.3669,298.4316],[4.8242,12.3797,269.2101],[4.827,12.3918,251.9607],[4.8319,12.4269,250.5672],[4.8331,12.4542,257.021],[4.8333,12.486,263.2856],[4.8309,12.519,283.0618],[4.8188,12.5646,293.9793],[4.8039,12.6067,290.7226],[4.8031,12.639,279.7057],[4.8093,12.6795,281.9971],[4.8241,12.7351,230.7802],[4.8223,12.7656,254.5114],[4.8271,12.7878,270.6636],[4.8166,12.8135,259.5644],[4.8109,12.8331,260.0001],[4.798,12.8556,256.6054],[4.7834,12.8713,258.285],[4.773,12.8793,261.9035],[4.7679,12.8896,255.1367],[4.7748,12.9484,243.0114],[4.7831,12.9565,241.2185],[4.7876,12.9841,238.6477],[4.7977,12.9955,237.5674],[4.7962,13.0336,237.5638],[4.8002,13.0459,243.406],[4.805,13.0519,241.9306],[4.8138,13.0712,232.4929],[4.816,13.0837,229.3923],[4.8224,13.0958,231.7786],[4.816,13.1156,231.0047],[4.8093,13.1261,236.2245],[4.7984,13.1295,238.776],[4.7868,13.1284,243.7056],[4.7798,13.1246,239.618],[4.7701,13.1148,227.8054],[4.7626,13.1004,228.3701],[4.7456,13.0792,227.6419],[4.7395,13.0662,227.9037],[4.7293,13.0573,228.2297],[4.7165,13.0526,226.9941],[4.7,13.0505,226.603],[4.6688,13.055,241.1497],[4.6504,13.0613,255.1279],[4.6029,13.094,255.8527],[4.5507,13.1105,257.7818],[4.5117,13.12,229.0764],[4.4879,13.1294,232.7408],[4.4596,13.1438,233.4926],[4.4484,13.1435,223.7635],[4.4313,13.1608,219.9906],[4.4044,13.1739,236.756],[4.3798,13.1896,256.6858],[4.3615,13.2092,257.3701],[4.3531,13.2232,258.7998],[4.3409,13.2282,254.053],[4.3224,13.2263,251.0104],[4.3077,13.2211,277.2263],[4.2906,13.2105,293.9131],[4.2661,13.2031,231.6492],[4.2551,13.205,231.3061],[4.236,13.2147,280.3921],[4.2189,13.2155,255.5757],[4.1291,13.2127,220.786],[4.1282,13.1865,211.0538],[4.1296,13.1483,233.9521],[4.1226,13.1103,239.4375],[4.0961,12.9958,234.8562],[4.0516,12.9303,269.8196],[4.0307,12.9041,269.7038],[4.0186,12.8834,236.4302],[4.0036,12.8644,221.6957],[3.9422,12.7642,258.197],[3.9325,12.7559,266.1603],[3.9276,12.7493,265.1775],[3.8665,12.7055,234.0772],[3.8334,12.6787,260.976],[3.8172,12.6682,260.5162],[3.7223,12.5898,249.6237],[3.7024,12.5698,215.4014],[3.6963,12.5664,222.5402],[3.6426,12.5201,210.9933],[3.6414,12.5038,214.9568],[3.6472,12.4449,213.69],[3.6497,12.3658,265.0002],[3.6536,12.3345,221.4216],[3.6552,12.2817,255.6201],[3.6575,12.2685,221.9652],[3.6369,12.2002,213.7182],[3.6381,12.1904,244.4818],[3.6349,12.1632,210.2399],[3.6343,12.1408,207.4504],[3.6308,12.1172,229.1431],[3.6679,11.9916,231.5476],[3.6688,11.9779,229.0469],[3.6667,11.9733,225.7826],[3.6261,11.9305,179.9019],[3.6193,11.9254,175.149],[3.6177,11.9169,170.5455],[3.6226,11.8528,164.1669],[3.6268,11.8394,162.0208],[3.6344,11.8311,159.2807],[3.6659,11.8105,175.9745],[3.6712,11.7994,180.2077],[3.6794,11.7636,175.4109],[3.6792,11.7585,171.0845],[3.6102,11.7021,155.4909],[3.6002,11.692,155.2483],[3.5916,11.6746,154.9918],[3.5864,11.6567,161.1865],[3.5783,11.6437,166.5495],[3.566,11.617,192.7361],[3.5613,11.6016,218.2095],[3.5356,11.4764,247.6356],[3.5072,11.3505,257.754],[3.496,11.2921,253.3989],[3.6919,11.1282,200.2737],[3.7128,11.1279,199.9907],[3.7272,11.1362,199.4774],[3.7581,11.1347,195.7686],[3.7738,11.1305,209.045],[3.7989,11.1153,203.2529],[3.8203,11.1073,210.0719],[3.8907,11.0642,243.5862],[3.9522,11.0335,274.5856],[4.0085,11.0108,285.3588],[4.0385,11.0063,304.6612],[4.0708,11.0048,325.8441],[4.1079,11.0117,294.0715],[4.1377,11.0118,267.5563],[4.1682,11.0163,229.6051],[4.1854,11.013,198.6171],[4.2351,11.0191,229.8555],[4.2897,11.0161,234.2863],[4.3014,11.013,222.8257],[4.3351,11.0134,196.6327],[4.3594,11.0171,206.3531],[4.3694,11.0207,199.0131],[4.3888,11.0244,189.5782],[4.4079,11.0269,188.3585],[4.4553,11.0281,184.0086],[4.512,11.0112,190.5106],[4.54,11.0012,176.8243],[4.5553,10.9914,161.1931],[4.5666,10.9814,163.2661],[4.584,10.9719,158.8768],[4.606,10.9562,157.9909],[4.625,10.9456,162.4759],[4.667,10.9177,152.3734],[4.6757,10.9102,162.4382],[4.691,10.913,150.3275],[4.7013,10.9118,138.0057],[4.727,10.9054,134.9482],[4.7478,10.8947,150.0202],[4.7561,10.883,159.5692],[4.7528,10.8182,181.2547],[4.7507,10.8042,182.769],[4.7375,10.7565,162.462],[4.7205,10.6666,152.5912],[4.7136,10.6472,147.7079],[4.6513,10.5856,155.5855],[4.639,10.5765,149.2285],[4.5758,10.5535,130.0],[4.5518,10.5373,130.0],[4.5362,10.5221,130.0],[4.5221,10.5053,134.2392],[4.5045,10.4755,130.0],[4.4985,10.4532,130.0],[4.4983,10.4382,130.0],[4.4946,10.4252,130.0],[4.4937,10.3915,130.0],[4.4964,10.3706,130.0],[4.4955,10.3521,130.0],[4.5047,10.3272,130.0],[4.5137,10.3135,130.0],[4.5507,10.2851,130.0],[4.561,10.271,130.0],[4.5595,10.2525,130.0],[4.5609,10.2373,130.0],[4.5563,10.2079,134.3941],[4.5488,10.191,130.0],[4.5396,10.1555,130.0],[4.5378,10.14,130.0],[4.5401,10.119,130.0],[4.5466,10.1099,135.4146],[4.563,10.1031,160.0538],[4.6327,10.0957,170.0114],[4.6417,10.1034,162.8157],[4.6471,10.1784,178.3397],[4.6498,10.1971,148.9319],[4.661,10.2053,155.1209],[4.7028,10.2124,168.4688],[4.7281,10.2205,182.7115],[4.7698,10.2371,183.4266],[4.7881,10.2382,205.0503],[4.8065,10.2372,221.9713],[4.8244,10.2413,247.3327],[4.8447,10.2514,267.0781],[4.867,10.2664,274.6277],[4.8956,10.3004,272.6848],[4.9001,10.325,268.8018],[4.888,10.3639,305.0652],[4.8579,10.4124,256.2396],[4.8287,10.444,213.4212],[4.8144,10.4669,203.8342],[4.8084,10.4892,191.061],[4.8157,10.5111,187.2511],[4.8155,10.5355,176.7769],[4.8121,10.5638,180.9316],[4.8128,10.5912,193.7488],[4.8158,10.6147,187.7811],[4.8128,10.6433,167.3937],[4.8164,10.6643,172.6095],[4.831,10.6762,205.5179],[4.8411,10.6808,211.222],[4.856,10.6831,206.605],[4.8862,10.6836,193.8469],[4.9184,10.6722,181.5365],[4.9368,10.6747,189.4395],[4.972,10.6949,207.6544],[5.0211,10.7168,198.6656],[5.0504,10.7217,233.7054],[5.0825,10.7325,219.1636],[5.0988,10.7562,223.8932],[5.0998,10.7892,233.8068],[5.081,10.811,230.9254],[5.0367,10.837,236.4389],[5.0288,10.8602,262.2184],[5.0389,10.8835,254.5572],[5.0599,10.8996,256.8235],[5.0742,10.9068,281.3891],[5.0782,10.9238,261.4485],[5.0726,10.9585,257.3477],[5.071,10.9858,285.0818],[5.0601,11.0286,240.2537]]]]}}