{"type":"Feature","properties":{"ISO3166-1-Alpha-3":"NGA","country":"Nigeria","fill":"#00F","id":"2879","name":"Kebbi"},
"geometry":{"type": "Polygon","coordinates": [[[4.71003,13.05143,226.2974],[4.67199,13.0545,243.8895],[4.63603,13.07127,264.5984],[4.60285,13.09393,255.8527],[4.56802,13.10628,258.2045],[4.53185,13.11488,243.3852],[4.46384,13.13982,224.5981],[4.40183,13.1755,239.0423],[4.37155,13.20457,262.0358],[4.34085,13.22813,254.053],[4.30457,13.22064,283.7275],[4.26995,13.20418,235.1579],[4.20505,13.21454,243.5401],[4.12908,13.2126,220.786],[4.12032,13.21061,221.6025],[4.08877,12.99624,232.9465],[3.92909,12.75039,265.1775],[3.86439,12.68967,242.1085],[3.6457,12.52854,219.9629],[3.64157,12.518,208.9598],[3.65149,12.26902,220.0213],[3.62451,12.13766,205.3625],[3.624,12.09425,220.1061],[3.6489,12.02102,216.1058],[3.65355,11.98681,220.8145],[3.6366,11.95359,191.1982],[3.61955,11.93628,178.7193],[3.60849,11.92196,170.198],[3.60394,11.90558,161.824],[3.60973,11.84879,175.0346],[3.61294,11.83897,177.2312],[3.61862,11.82837,175.3027],[3.62203,11.82502,170.7866],[3.62627,11.82254,166.7373],[3.64973,11.79783,160.0919],[3.66203,11.77949,166.4278],[3.66699,11.7597,161.3702],[3.65986,11.7381,159.2322],[3.64777,11.726,157.8286],[3.5964,11.69577,155.2084],[3.57439,11.67304,161.5363],[3.50493,11.55656,212.4741],[3.49305,11.51149,246.0114],[3.48674,11.49628,253.6509],[3.46669,11.44248,218.6259],[3.46845,11.41948,251.1958],[3.48333,11.3923,261.9569],[3.66255,11.14315,212.4225],[3.68673,11.12049,209.9193],[3.695,11.11912,210.0754],[3.7044,11.1208,196.1251],[3.70558,11.12073,197.6044],[3.70564,11.12079,197.6044],[3.71278,11.1279,199.9907],[3.80424,11.11756,194.3181],[3.89323,11.06289,246.862],[4.00516,11.0122,288.7682],[4.05808,11.00618,319.0695],[4.33165,11.01328,192.0375],[4.43542,11.02853,174.1861],[4.53681,11.00178,180.1745],[4.65783,10.92352,165.7575],[4.72212,10.90422,138.4433],[4.72388,10.87949,138.3309],[4.6906,10.70098,143.7002],[4.69091,10.66317,133.8283],[4.68905,10.64581,134.3476],[4.6813,10.63237,132.8457],[4.65618,10.60716,132.087],[4.65473,10.58904,159.4763],[4.53836,10.52424,130.0],[4.50064,10.46042,130.0],[4.49433,10.38606,130.0],[4.49836,10.3481,130.0],[4.51366,10.31348,130.0],[4.53939,10.29428,130.0],[4.56099,10.27092,130.0],[4.55469,10.19832,130.0],[4.5395,10.1244,130.0],[4.56368,10.10305,160.7473],[4.63189,10.09931,161.9006],[4.6443,10.12628,173.69],[4.64481,10.16641,179.8841],[4.65535,10.20113,155.9801],[4.69049,10.21287,163.2518],[4.80646,10.23715,221.9713],[4.84056,10.24826,265.1237],[4.8694,10.26917,284.9791],[4.8942,10.33467,286.1318],[4.86371,10.40254,283.7573],[4.81658,10.46329,202.6641],[4.8109,10.4968,180.3463],[4.81555,10.53163,185.67],[4.81018,10.60667,199.4374],[4.82713,10.6731,185.9942],[4.85886,10.68431,207.1776],[4.92831,10.67488,187.292],[4.99539,10.70679,211.6598],[5.06618,10.72658,262.9759],[5.09305,10.74777,230.6043],[5.07114,10.81316,247.4424],[5.03032,10.86376,264.2115],[5.07827,10.92378,261.4485],[5.07569,10.96411,262.7404],[5.06629,11.00468,270.1899],[5.05409,11.03344,239.5229],[5.0266,11.0416,239.2316],[5.01358,11.04977,259.9066],[5.00541,11.06744,259.2771],[4.99197,11.07472,249.784],[4.97492,11.0748,243.4271],[4.89854,11.08671,237.1111],[4.82651,11.11656,233.9571],[4.76305,11.16382,210.3907],[4.77938,11.22694,227.4404],[4.91673,11.28763,255.7977],[5.21232,11.34665,340.6006],[5.28519,11.34448,351.9943],[5.3443,11.30931,347.5987],[5.35805,11.23466,344.1409],[5.39371,11.17092,321.0524],[5.42554,11.15097,335.9598],[5.44146,11.11756,324.6624],[5.43557,11.04077,304.4315],[5.43701,11.00155,294.1356],[5.44972,10.96641,330.5338],[5.4767,10.95719,311.5121],[5.57664,10.95737,340.6699],[5.64299,10.96887,438.2486],[5.81601,11.04142,465.4157],[5.85042,11.05057,441.8604],[5.88515,11.05341,453.2738],[5.91078,11.07359,440.3709],[5.92132,11.08925,436.9034],[5.94654,11.11733,478.0686],[5.96132,11.12896,480.3333],[5.99636,11.13082,505.0048],[6.02705,11.11121,479.4387],[6.01817,11.26417,469.3611],[5.94158,11.38398,488.9877],[5.9021,11.39938,469.2884],[5.88319,11.42982,456.2577],[5.9082,11.50491,421.4698],[5.91326,11.57312,407.6303],[5.86634,11.61823,384.9295],[5.82831,11.631,398.9162],[5.75431,11.6434,419.675],[5.73767,11.6395,400.6262],[5.72216,11.63076,403.3698],[5.56982,11.62048,394.8568],[5.5106,11.63314,371.7797],[5.42378,11.6698,374.6046],[5.40921,11.69869,351.5247],[5.38534,11.71835,350.2474],[5.3286,11.70993,360.4279],[5.30482,11.7114,361.9811],[5.28343,11.72122,394.1061],[5.26152,11.71993,354.785],[5.24395,11.70285,359.6242],[5.2363,11.67905,385.3199],[5.21821,11.66921,389.7448],[5.19496,11.66763,375.1653],[5.14246,11.65482,322.544],[5.12168,11.65869,312.0711],[5.10546,11.67236,315.9668],[5.06453,11.68797,271.9027],[5.0235,11.68061,271.0126],[5.00376,11.66823,294.1526],[4.98205,11.66632,292.071],[4.97151,11.68205,264.6328],[4.95621,11.69143,272.4638],[4.94505,11.68701,267.1478],[4.93317,11.68381,269.3239],[4.91725,11.69236,250.2153],[4.89596,11.69735,265.2175],[4.87508,11.69226,266.2243],[4.68502,11.60774,228.3207],[4.64998,11.56511,213.6781],[4.60637,11.53826,225.7213],[4.56151,11.55278,214.5902],[4.52937,11.58903,211.4645],[4.53753,11.68433,214.9715],[4.58177,11.77827,276.2764],[4.61567,11.9341,279.2809],[4.60905,12.31852,250.4172],[4.64492,12.38095,256.4633],[4.71644,12.39852,248.1633],[4.78465,12.37682,265.4189],[4.8295,12.39937,241.0034],[4.83322,12.47479,272.0164],[4.80315,12.63561,282.5473],[4.8078,12.67336,282.2859],[4.81752,12.71026,268.7285],[4.82589,12.78263,267.7427],[4.80274,12.84513,257.1606],[4.76987,12.90138,250.1514],[4.77586,12.94154,240.0183],[4.78682,12.97972,239.2435],[4.79302,12.99332,232.336],[4.79695,13.00872,244.9186],[4.79674,13.0275,236.5959],[4.80015,13.04582,243.406],[4.81472,13.07551,229.4527],[4.81845,13.10651,231.3757],[4.80077,13.12796,238.6473],[4.77493,13.11966,227.3036],[4.75612,13.09582,228.2014],[4.74103,13.06951,227.326],[4.71003,13.05143,226.2974]]]}}