{"type":"Feature","properties":{"GID_2":"NGA.28.9_1","GID_0":"NGA","country":"Nigeria","GID_1":"NGA.28_1","province":"Ogun","NL_NAME_1":"NA","county":"IjebuEast","VARNAME_2":"NA","NL_NAME_2":"NA","TYPE_2":"LocalAuthority","ENGTYPE_2":"LocalAuthority","CC_2":"NA","HASC_2":"NA","name":"Ijebu_East.county"},
"geometry":{"type": "MultiPolygon","coordinates": [[[[4.2113,6.5748,0.0],[4.2211,6.5768,1.7628],[4.2265,6.5832,9.2041],[4.2507,6.5818,3.5762],[4.2562,6.5833,3.5232],[4.2621,6.5869,5.9235],[4.2661,6.5968,6.2873],[4.2907,6.6155,7.7589],[4.2988,6.6195,8.8794],[4.3044,6.6201,10.6276],[4.3407,6.6128,12.8344],[4.3476,6.6145,13.7747],[4.3531,6.6182,13.3352],[4.3523,6.6234,11.8139],[4.3558,6.6344,15.7084],[4.3539,6.6649,43.7163],[4.3633,6.685,26.5616],[4.3839,6.7179,36.481],[4.3968,6.7331,21.3755],[4.4021,6.7444,48.7776],[4.4292,6.7667,33.8059],[4.4607,6.7973,38.8766],[4.4746,6.8056,53.957],[4.4939,6.8129,43.6256],[4.5087,6.8258,62.3158],[4.5208,6.8335,58.2428],[4.5385,6.8574,86.1981],[4.5416,6.8762,101.1958],[4.5491,6.8994,102.3089],[4.5513,6.9224,109.2815],[4.5508,6.931,107.9288],[4.5526,6.933,97.927],[4.5556,6.9457,91.3543],[4.5597,6.9546,91.4147],[4.5582,6.9768,92.7906],[4.566,7.0046,106.0705],[4.561,7.0067,94.5851],[4.546,7.007,181.9097],[4.5288,7.0003,149.8911],[4.5164,7.0047,131.8324],[4.4937,7.0026,133.9638],[4.4779,6.9964,172.2246],[4.4728,6.9921,132.7783],[4.4596,6.9877,131.4914],[4.4506,6.9888,106.6065],[4.441,6.9988,88.2451],[4.4233,6.9984,81.3311],[4.4072,6.9925,91.0474],[4.4018,6.9859,93.3545],[4.3871,6.9781,74.1345],[4.3801,6.9703,76.6504],[4.3738,6.9668,69.1666],[4.3641,6.9805,75.3855],[4.3577,7.0012,96.8096],[4.3533,7.0243,154.1375],[4.3258,7.0815,157.8919],[4.2982,7.0906,148.3019],[4.271,7.091,177.1986],[4.2552,7.0878,148.858],[4.2482,7.0824,157.8458],[4.2233,7.0699,110.3234],[4.2088,7.0591,97.3758],[4.2038,7.0576,93.5121],[4.2011,7.041,96.8888],[4.1968,7.0304,96.5383],[4.1892,7.0193,87.7534],[4.1839,7.0143,84.9951],[4.1791,7.0042,90.5666],[4.1689,6.9906,79.0072],[4.1513,6.9706,64.7702],[4.1355,6.9612,72.2899],[4.1124,6.9441,72.8072],[4.0797,6.9417,76.2314],[4.0938,6.9218,57.4689],[4.0794,6.9015,51.1944],[4.0721,6.8957,50.6981],[4.0567,6.8715,58.1741],[4.055,6.8637,54.2339],[4.0581,6.8579,54.4476],[4.0605,6.8461,55.9366],[4.058,6.8379,55.6595],[4.0555,6.8351,43.4333],[4.0479,6.8378,48.4748],[4.04,6.8471,49.4893],[4.0292,6.8526,49.6883],[4.0119,6.8541,71.9275],[4.0012,6.8573,64.091],[3.9874,6.851,75.5464],[3.9827,6.8428,119.5137],[3.9759,6.8383,112.5734],[3.9753,6.8372,112.5734],[3.9823,6.8348,110.4684],[3.9859,6.8271,103.698],[3.9854,6.8246,102.7055],[3.9771,6.8125,83.9684],[3.9589,6.7976,57.632],[3.9558,6.7919,47.9968],[3.9538,6.7799,57.1653],[3.9532,6.7735,57.0272],[3.9547,6.7691,41.5486],[3.9581,6.7654,24.5712],[3.965,6.7625,33.5224],[3.9763,6.7618,19.4524],[4.0034,6.7653,43.7714],[4.0056,6.7611,39.888],[4.0032,6.7577,51.1853],[4.0034,6.7515,45.2155],[4.0015,6.7485,36.62],[3.9856,6.7365,30.8856],[4.0019,6.7321,32.8382],[4.0286,6.7317,30.1755],[4.0381,6.7292,24.7738],[4.0443,6.7183,32.5462],[4.0482,6.6975,15.2154],[4.0585,6.6918,13.1459],[4.063,6.6871,12.3546],[4.0628,6.6855,13.5659],[4.0747,6.6846,7.8191],[4.0855,6.6819,7.234],[4.0918,6.6744,10.3506],[4.0942,6.6675,11.9956],[4.0791,6.6458,10.937],[4.0749,6.6422,10.9385],[4.0635,6.6385,6.687],[4.0501,6.6209,7.0791],[4.0464,6.6058,11.2756],[4.0506,6.5935,12.076],[4.0549,6.5913,7.5583],[4.0581,6.5857,7.4169],[4.0588,6.5622,11.0533],[4.0763,6.5575,0.1277],[4.0811,6.5523,11.9908],[4.0837,6.5465,0.0],[4.0876,6.5444,0.0],[4.0941,6.5445,0.0],[4.1076,6.5526,13.8358],[4.131,6.5732,6.0322],[4.1605,6.5833,0.0],[4.1723,6.5859,0.0],[4.1998,6.5868,0.8032],[4.2053,6.5828,1.1528],[4.2113,6.5748,0.0]]]]}}