{"type": "Feature","bbox": [3.8041,11.9349,4.1426,12.2509],"geometry": {"type": "MultiPolygon","coordinates": [[[[3.8044,12.0969,239.0049],[3.8041,12.0869,240.2384],[3.8117,12.0793,234.9515],[3.8237,12.0508,223.892],[3.832,12.0424,220.9263],[3.8454,12.0352,221.314],[3.8579,12.0328,223.0697],[3.8652,12.0291,220.604],[3.9141,12.0147,225.9533],[3.9316,12.0135,227.8018],[3.9442,12.0056,230.8396],[3.9551,11.9971,226.9291],[3.9662,11.9857,232.5419],[3.9756,11.9692,231.3211],[3.9834,11.9504,224.2805],[3.9946,11.9349,227.3493],[4.0607,11.9739,231.3929],[4.0792,11.9875,174.7188],[4.0926,12.0015,174.5276],[4.1101,12.0158,175.8401],[4.1426,12.0362,177.897],[4.1359,12.0747,203.0349],[4.1359,12.0911,205.752],[4.1252,12.1178,186.3899],[4.121,12.1334,180.9094],[4.1027,12.1519,199.0483],[4.0571,12.1646,203.3685],[4.0346,12.1821,189.1459],[4.0251,12.2062,192.978],[3.9998,12.2371,183.8065],[3.9881,12.2398,184.2272],[3.9173,12.2468,208.4039],[3.9005,12.2468,216.4246],[3.8947,12.2509,214.3783],[3.8876,12.2458,218.4211],[3.8706,12.2382,219.956],[3.8464,12.2146,235.7617],[3.8375,12.2034,245.9324],[3.8288,12.1901,248.7608],[3.8174,12.1676,256.8144],[3.8116,12.1518,269.9667],[3.8103,12.1274,260.581],[3.8048,12.1056,242.1285],[3.806,12.1008,239.1154],[3.8044,12.0969,239.0049]]]]}
,"properties": {"GID_2": "NGA.22.7_1","GID_0": "NGA","country": "Nigeria","GID_1": "NGA.22_1","province": "Kebbi","NL_NAME_1": "NA","county": "Bunza","VARNAME_2": "NA","NL_NAME_2": "NA","TYPE_2": "LocalAuthority","ENGTYPE_2": "LocalAuthority","CC_2": "NA","HASC_2": "NA","name": "Bunza.county","area_km2": 808.2348,"hist_schema_id": "Elevation0-9000","hist_area_km2": {"175": 191.7238,"200": 203.413,"225": 287.1043,"250": 116.2712,"275": 9.7225}}}