{"type":"Feature","properties":{"GID_2":"NGA.34.8_1","GID_0":"NGA","country":"Nigeria","GID_1":"NGA.34_1","province":"Sokoto","NL_NAME_1":"NA","county":"Illela","VARNAME_2":"NA","NL_NAME_2":"NA","TYPE_2":"LocalAuthority","ENGTYPE_2":"LocalAuthority","CC_2":"NA","HASC_2":"NA","name":"Illela.county"},
"geometry":{"type": "MultiPolygon","coordinates": [[[[5.5363,13.8879,296.9239],[5.5242,13.8695,317.3843],[5.5162,13.8399,316.0664],[5.5157,13.8113,316.9458],[5.5118,13.8045,317.9232],[5.5066,13.7825,322.5634],[5.5085,13.75,322.0187],[5.5128,13.7268,323.5632],[5.5127,13.7173,323.9684],[5.5294,13.667,328.504],[5.531,13.6568,328.4702],[5.5599,13.5889,300.3101],[5.5777,13.5729,292.7328],[5.5864,13.5691,298.1171],[5.5911,13.5687,299.9021],[5.6107,13.5731,357.4362],[5.6791,13.5983,351.5277],[5.6882,13.5966,341.832],[5.7003,13.5732,330.2132],[5.7342,13.4536,281.443],[5.7427,13.4484,303.3819],[5.7563,13.4476,314.6223],[5.7651,13.451,320.1263],[5.7679,13.4558,316.5425],[5.7753,13.4783,273.5003],[5.7886,13.5405,272.8016],[5.7954,13.5556,273.5825],[5.8026,13.5848,286.8994],[5.8145,13.5923,292.418],[5.8215,13.5931,285.9453],[5.8374,13.5898,276.5573],[5.8527,13.5845,276.1497],[5.8568,13.5794,283.3449],[5.8735,13.5729,300.2645],[5.8884,13.575,310.029],[5.9241,13.5867,283.8521],[5.9585,13.6171,289.1477],[5.9764,13.6411,292.9615],[5.9935,13.6512,297.2798],[5.9997,13.6587,301.8492],[6.0022,13.6668,286.1971],[6.0274,13.7004,287.1872],[5.9909,13.7137,288.3127],[5.8857,13.7479,287.473],[5.7532,13.7944,398.395],[5.5363,13.8879,296.9239]]]]}}