{"type": "Feature","bbox": [8.3672,12.6184,8.6809,12.832],"geometry": {"type": "MultiPolygon","coordinates": [[[[8.3672,12.6488,454.8405],[8.401,12.6616,448.581],[8.4106,12.6585,459.4899],[8.4142,12.6555,476.8765],[8.4182,12.6555,459.7579],[8.43,12.6647,476.7398],[8.4353,12.6707,509.5123],[8.4376,12.6768,496.0251],[8.4552,12.691,465.1645],[8.4639,12.702,458.7209],[8.4732,12.7072,450.3847],[8.4798,12.7086,444.6479],[8.4854,12.7078,443.1226],[8.4948,12.7044,438.45],[8.5064,12.6977,427.6488],[8.5095,12.694,426.5086],[8.5191,12.6909,421.8341],[8.5235,12.6847,419.9002],[8.5182,12.6736,419.8443],[8.5113,12.6641,419.4848],[8.5057,12.646,417.2277],[8.5042,12.6351,415.23],[8.5055,12.6262,416.2115],[8.5091,12.6204,414.2454],[8.5298,12.6184,414.3684],[8.5455,12.6197,411.6248],[8.5571,12.6229,411.7667],[8.5653,12.6292,410.6337],[8.5664,12.632,409.9449],[8.5706,12.6341,410.1953],[8.6153,12.6508,407.5152],[8.6613,12.6655,399.3764],[8.669,12.67,402.6663],[8.6774,12.6818,401.4745],[8.6809,12.6906,401.3428],[8.6802,12.6977,402.4503],[8.6657,12.688,404.2702],[8.6509,12.6899,403.6798],[8.6241,12.6997,406.6757],[8.5881,12.7228,413.884],[8.5771,12.7377,416.5346],[8.5749,12.7496,417.8469],[8.5695,12.7616,422.6479],[8.5543,12.8119,436.8305],[8.5481,12.8213,443.6271],[8.5355,12.8313,431.5365],[8.5149,12.832,433.556],[8.4948,12.8255,446.255],[8.4749,12.8285,456.2141],[8.4414,12.8254,460.9488],[8.4281,12.8215,449.4771],[8.3797,12.8192,459.6519],[8.3763,12.8102,466.4296],[8.3698,12.7806,472.8165],[8.3701,12.7721,466.0702],[8.3735,12.7634,458.1115],[8.3737,12.75,464.2126],[8.3712,12.7474,467.2451],[8.3736,12.7239,462.2185],[8.3723,12.6988,460.6482],[8.3735,12.6843,463.6143],[8.37,12.6626,458.8972],[8.371,12.6577,456.5085],[8.3672,12.6488,454.8405]]]]}
,"properties": {"GID_2": "NGA.18.27_1","GID_0": "NGA","country": "Nigeria","GID_1": "NGA.18_1","province": "Jigawa","NL_NAME_1": "NA","county": "Yankwashi","VARNAME_2": "NA","NL_NAME_2": "NA","TYPE_2": "LocalAuthority","ENGTYPE_2": "LocalAuthority","CC_2": "NA","HASC_2": "NA","name": "Yankwashi.county","area_km2": 448.137,"hist_schema_id": "Elevation0-9000","hist_area_km2": {"400": 74.4485,"425": 126.016,"450": 201.267,"475": 39.0013,"500": 4.5086,"525": 1.5719,"550": 0.5791,"575": 0.5998,"600": 0.1448}}}