{"type":"Feature","properties":{"GID_2":"NGA.9.13_1","GID_0":"NGA","country":"Nigeria","GID_1":"NGA.9_1","province":"CrossRiver","NL_NAME_1":"NA","county":"Obubra","VARNAME_2":"NA","NL_NAME_2":"NA","TYPE_2":"LocalAuthority","ENGTYPE_2":"LocalAuthority","CC_2":"NA","HASC_2":"NA","name":"Obubra.county"},
"geometry":{"type": "MultiPolygon","coordinates": [[[[8.4556,5.7431,287.9444],[8.4528,5.7652,202.9248],[8.4517,5.7964,204.0818],[8.4485,5.8137,213.2876],[8.4481,5.8328,114.0623],[8.4455,5.8437,81.3082],[8.441,5.8491,94.3491],[8.4381,5.856,143.2759],[8.436,5.8697,124.8839],[8.4443,5.8829,93.01],[8.4632,5.8948,101.7683],[8.4681,5.8993,110.6636],[8.47,5.9034,106.691],[8.471,5.9087,99.6062],[8.4634,5.9254,63.8118],[8.4557,5.9336,56.7242],[8.4572,5.9555,55.4402],[8.4647,5.9625,54.1164],[8.4966,5.9811,39.1328],[8.5107,5.9954,38.8635],[8.5122,6.0029,40.882],[8.5092,6.0145,36.4084],[8.5049,6.0233,35.0881],[8.4988,6.0308,44.7661],[8.4791,6.039,49.2552],[8.4643,6.0367,29.4595],[8.4495,6.0478,29.0457],[8.4408,6.0645,24.6677],[8.4399,6.0691,24.8885],[8.4423,6.0756,34.2687],[8.4212,6.107,27.4486],[8.4154,6.1214,23.4101],[8.4108,6.1526,24.0616],[8.4104,6.1708,25.3144],[8.4032,6.1976,22.1352],[8.4038,6.2046,24.1404],[8.4196,6.2232,29.5206],[8.4406,6.2383,22.904],[8.4391,6.2482,29.2699],[8.44,6.2622,26.9339],[8.4467,6.2743,31.1128],[8.4518,6.2784,28.9996],[8.4447,6.2808,27.5184],[8.4094,6.2819,27.5099],[8.3985,6.2807,32.8367],[8.3985,6.2658,30.2674],[8.3861,6.2455,29.0883],[8.3358,6.1871,25.3062],[8.3244,6.1803,23.7504],[8.295,6.1338,23.2745],[8.2866,6.1302,20.2961],[8.2738,6.1065,19.006],[8.2761,6.0916,20.5966],[8.271,6.0754,20.1829],[8.2722,6.0645,20.9723],[8.2616,6.0404,16.9424],[8.2612,6.0273,16.9037],[8.2476,6.0125,21.3258],[8.2386,6.0143,15.7113],[8.2236,6.0286,17.5242],[8.2123,6.033,30.4963],[8.1876,6.0306,19.3592],[8.182,6.0282,19.7846],[8.1775,6.007,23.4886],[8.1695,5.9993,17.365],[8.1525,5.9897,16.9155],[8.142,5.9795,16.0316],[8.1348,5.975,22.5526],[8.1369,5.9641,32.5586],[8.1466,5.9502,52.9109],[8.1535,5.9438,62.1925],[8.1695,5.9346,26.973],[8.1808,5.9362,21.2917],[8.195,5.9334,19.3276],[8.2009,5.9255,21.3328],[8.2047,5.9153,33.4284],[8.2057,5.9054,56.2964],[8.2049,5.8985,61.6655],[8.2013,5.8905,69.8604],[8.1994,5.8771,49.5728],[8.2055,5.8692,33.4753],[8.2438,5.852,51.6399],[8.2562,5.8329,59.9377],[8.2607,5.8171,52.5302],[8.2828,5.7815,78.827],[8.2842,5.7716,88.7809],[8.2924,5.7629,102.859],[8.2918,5.7569,165.6691],[8.3015,5.7434,175.2421],[8.3051,5.7322,143.6569],[8.3244,5.7435,158.7207],[8.3378,5.7589,161.4814],[8.3564,5.7694,230.3281],[8.3637,5.778,190.2772],[8.3719,5.7834,169.1514],[8.39,5.7898,200.1209],[8.4169,5.7854,276.2656],[8.4258,5.7827,200.4133],[8.4311,5.7792,179.179],[8.4347,5.7621,266.4949],[8.4405,5.7502,253.8069],[8.4556,5.7431,287.9444]]]]}}