{"type": "Feature","bbox": [5.7854,7.6073,6.113,8.1062],"geometry": {"type": "MultiPolygon","coordinates": [[[[5.8114,7.7561,536.6599],[5.817,7.7554,512.2026],[5.8508,7.7633,498.9342],[5.8682,7.7651,438.0151],[5.8766,7.7689,416.5986],[5.8861,7.7704,417.0478],[5.9094,7.7695,415.2092],[5.9204,7.7672,453.3458],[5.9266,7.7634,433.9243],[5.9228,7.7563,424.8542],[5.9193,7.7255,372.2022],[5.9159,7.7179,370.0247],[5.9151,7.6967,371.1469],[5.9318,7.6736,395.5724],[5.9423,7.6635,390.9422],[5.9481,7.6533,362.5589],[5.9597,7.6427,357.6031],[5.9803,7.6285,353.1788],[6.0023,7.6073,347.2454],[6.019,7.6169,329.6891],[6.1057,7.6553,407.3075],[6.113,7.6545,395.2001],[6.0891,7.6728,379.243],[6.0861,7.6844,394.3047],[6.0871,7.6904,401.9657],[6.0858,7.6973,396.177],[6.0818,7.7036,395.1992],[6.0767,7.7184,411.5323],[6.0665,7.7303,463.4421],[6.0436,7.7376,375.1226],[6.0342,7.7449,393.777],[6.0128,7.7734,388.6826],[6.0132,7.7863,432.6331],[6.0031,7.8052,426.9124],[6.0089,7.817,456.6477],[6.0178,7.83,427.0045],[6.0239,7.847,463.6917],[6.052,7.9589,542.4082],[6.0494,7.9993,580.705],[6.0381,8.0288,579.2863],[6.0239,8.0467,569.1542],[6.0096,8.0749,502.0487],[6.0068,8.0878,462.1413],[6.0017,8.0994,463.6493],[6.0018,8.1062,468.3987],[5.9763,8.0973,437.4574],[5.9221,8.0434,355.4614],[5.9075,8.0245,378.5015],[5.8957,7.9941,361.5935],[5.8689,7.9494,386.4085],[5.8631,7.9324,383.2656],[5.8481,7.9168,408.2319],[5.836,7.8999,432.9478],[5.8083,7.8731,489.567],[5.8173,7.8394,508.5827],[5.8196,7.8221,486.7151],[5.8134,7.7973,507.0598],[5.8059,7.7785,522.9885],[5.8003,7.7713,521.4451],[5.7854,7.7659,527.9035],[5.8016,7.7575,521.2953],[5.8114,7.7561,536.6599]]]]}
,"properties": {"GID_2": "NGA.23.9_1","GID_0": "NGA","country": "Nigeria","GID_1": "NGA.23_1","province": "Kogi","NL_NAME_1": "NA","county": "Ijumu","VARNAME_2": "NA","NL_NAME_2": "NA","TYPE_2": "LocalAuthority","ENGTYPE_2": "LocalAuthority","CC_2": "NA","HASC_2": "NA","name": "Ijumu.county","area_km2": 915.2922,"hist_schema_id": "Elevation0-9000","hist_area_km2": {"325": 2.9631,"350": 55.3643,"375": 127.6434,"400": 140.9558,"425": 167.6136,"450": 144.0505,"475": 105.8716,"500": 78.004,"525": 55.9716,"550": 20.7697,"575": 8.0844,"600": 3.9896,"625": 2.9187,"650": 0.9868,"675": 0.105}}}