{"type": "Feature","bbox": [5.2903,12.2478,5.7069,12.7112],"geometry": {"type": "MultiPolygon","coordinates": [[[[5.2903,12.6753,274.6779],[5.3049,12.6544,288.334],[5.3102,12.6439,276.6819],[5.3158,12.6301,270.7092],[5.3187,12.6101,261.1047],[5.3182,12.5838,255.7471],[5.3141,12.5775,250.6811],[5.3121,12.5673,264.1349],[5.3055,12.5561,270.0965],[5.3026,12.5192,271.4884],[5.3056,12.5065,286.262],[5.3099,12.4999,283.2822],[5.3275,12.4816,311.634],[5.3326,12.4715,335.6897],[5.3354,12.457,307.1041],[5.3296,12.42,288.9995],[5.3401,12.3627,272.6449],[5.3433,12.3367,265.5816],[5.3431,12.3053,271.2882],[5.3408,12.2879,265.5229],[5.3451,12.2661,277.2171],[5.3452,12.2478,281.1366],[5.3666,12.2517,292.4919],[5.4056,12.2547,317.7665],[5.4262,12.2501,299.4426],[5.4775,12.2569,317.3602],[5.499,12.2553,299.3932],[5.5249,12.2584,278.3027],[5.5647,12.2854,310.9759],[5.5716,12.3088,310.9855],[5.5766,12.3336,321.6405],[5.5676,12.3748,326.8295],[5.5661,12.4011,319.7317],[5.5508,12.4603,310.6335],[5.5429,12.4747,303.3437],[5.5427,12.492,305.5037],[5.5382,12.5125,292.5406],[5.5421,12.5204,294.6147],[5.58,12.546,284.3855],[5.5916,12.5508,281.1492],[5.6221,12.5804,302.0561],[5.6438,12.6133,294.042],[5.6711,12.6477,308.2819],[5.7069,12.706,309.74],[5.7012,12.7108,310.0639],[5.6921,12.7112,301.2622],[5.6727,12.7086,299.0683],[5.6434,12.6981,282.8514],[5.6309,12.6887,282.424],[5.6155,12.6826,281.5314],[5.5803,12.6618,279.1868],[5.5164,12.6304,273.1393],[5.5054,12.6333,273.1012],[5.4987,12.6399,274.2867],[5.4865,12.6427,272.55],[5.4472,12.6573,272.9636],[5.4236,12.6702,269.0596],[5.4097,12.6718,273.2441],[5.3914,12.6783,279.9204],[5.38,12.6858,282.9299],[5.3704,12.6861,284.434],[5.325,12.6734,283.5752],[5.2903,12.6753,274.6779]]]]}
,"properties": {"GID_2": "NGA.34.20_1","GID_0": "NGA","country": "Nigeria","GID_1": "NGA.34_1","province": "Sokoto","NL_NAME_1": "NA","county": "Tureta","VARNAME_2": "NA","NL_NAME_2": "NA","TYPE_2": "LocalAuthority","ENGTYPE_2": "LocalAuthority","CC_2": "NA","HASC_2": "NA","name": "Tureta.county","area_km2": 1292.8147,"hist_schema_id": "Elevation0-9000","hist_area_km2": {"250": 65.5694,"275": 617.9909,"300": 532.8575,"325": 75.714,"350": 0.6829}}}