{"type": "Feature","bbox": [8.0146,5.6485,8.3051,5.976],"geometry": {"type": "MultiPolygon","coordinates": [[[[8.0146,5.7953,26.9855],[8.0209,5.7935,31.1616],[8.0215,5.7843,27.1385],[8.0259,5.772,19.7601],[8.0333,5.7622,22.1882],[8.0393,5.7439,27.6038],[8.0492,5.729,39.5022],[8.0651,5.7158,22.7905],[8.0818,5.6923,35.4134],[8.0891,5.6855,25.7675],[8.0966,5.6687,54.6445],[8.099,5.6592,68.8053],[8.1035,5.6539,88.5521],[8.1145,5.6488,77.0089],[8.1215,5.6485,101.0036],[8.1275,5.6537,126.2179],[8.1399,5.65,111.8108],[8.1531,5.6505,96.4454],[8.1574,5.6486,106.4592],[8.2139,5.6727,95.7852],[8.2223,5.6802,109.1572],[8.2372,5.6857,110.0349],[8.2554,5.6995,120.5801],[8.2824,5.7131,147.9534],[8.2873,5.7199,140.7954],[8.2978,5.7255,124.5876],[8.3051,5.7322,143.6569],[8.3015,5.7434,175.2421],[8.2918,5.7569,165.6691],[8.2924,5.7629,102.859],[8.2842,5.7716,88.7809],[8.2828,5.7815,78.827],[8.2607,5.8171,52.5302],[8.2562,5.8329,59.9377],[8.2438,5.852,51.6399],[8.2055,5.8692,33.4753],[8.1994,5.8771,49.5728],[8.2013,5.8905,69.8604],[8.2049,5.8985,61.6655],[8.2057,5.9054,56.2964],[8.2047,5.9153,33.4284],[8.2009,5.9255,21.3328],[8.195,5.9334,19.3276],[8.1808,5.9362,21.2917],[8.1695,5.9346,26.973],[8.1535,5.9438,62.1925],[8.1466,5.9502,52.9109],[8.1369,5.9641,32.5586],[8.1347,5.976,21.3211],[8.1215,5.9704,22.3491],[8.1186,5.9708,25.9029],[8.1188,5.9688,21.8584],[8.1234,5.9662,26.189],[8.1288,5.9465,43.5219],[8.1264,5.9387,60.25],[8.1286,5.935,78.7885],[8.1249,5.9199,65.9884],[8.1219,5.9167,60.5339],[8.1156,5.915,63.3454],[8.1041,5.9158,49.2013],[8.0909,5.9128,12.0],[8.0878,5.9196,104.8399],[8.0803,5.9114,19.3998],[8.0797,5.9054,17.052],[8.0707,5.9028,24.643],[8.0631,5.9053,23.2184],[8.0457,5.8986,12.0],[8.0428,5.8602,62.3792],[8.0449,5.8362,41.031],[8.0411,5.8282,45.0028],[8.025,5.8179,34.7382],[8.0146,5.7953,26.9855]]]]}
,"properties": {"GID_2": "NGA.9.17_1","GID_0": "NGA","country": "Nigeria","GID_1": "NGA.9_1","province": "CrossRiver","NL_NAME_1": "NA","county": "Yakurr","VARNAME_2": "NA","NL_NAME_2": "NA","TYPE_2": "LocalAuthority","ENGTYPE_2": "LocalAuthority","CC_2": "NA","HASC_2": "NA","name": "Yakurr.county","area_km2": 671.0211,"hist_schema_id": "Elevation0-9000","hist_area_km2": {"0": 1.2021,"25": 115.7387,"50": 255.5226,"75": 159.0048,"100": 86.875,"125": 39.8725,"150": 9.3035,"175": 2.194,"200": 1.1392,"225": 0.1266,"250": 0.0422}}}