{"type":"Feature","properties":{"GID_2":"NGA.12.4_1","GID_0":"NGA","country":"Nigeria","GID_1":"NGA.12_1","province":"Edo","NL_NAME_1":"NA","county":"EsanNorth-East","VARNAME_2":"NA","NL_NAME_2":"NA","TYPE_2":"LocalAuthority","ENGTYPE_2":"LocalAuthority","CC_2":"NA","HASC_2":"NA","name":"Esan_North-East.county"},
"geometry":{"type": "MultiPolygon","coordinates": [[[[6.2425,6.6327,270.037],[6.2647,6.647,288.5579],[6.285,6.6497,303.1466],[6.288,6.6464,311.8949],[6.3145,6.6469,282.2134],[6.3229,6.6513,286.3681],[6.3292,6.657,300.3284],[6.3413,6.6745,343.7849],[6.3439,6.6837,346.0852],[6.3493,6.6896,350.1606],[6.3589,6.6947,351.3206],[6.3855,6.7019,247.7303],[6.3984,6.6961,213.186],[6.4165,6.7025,167.222],[6.4151,6.7168,183.8996],[6.4128,6.7215,205.5589],[6.4135,6.7327,168.1767],[6.4092,6.7397,199.6091],[6.4097,6.754,213.4971],[6.413,6.7599,197.3295],[6.4314,6.7684,165.101],[6.4427,6.7714,166.2536],[6.4514,6.7667,174.8737],[6.4704,6.7696,188.8076],[6.5097,6.779,87.5225],[6.509,6.7917,80.5229],[6.505,6.8024,75.184],[6.5032,6.819,55.6032],[6.5107,6.8265,58.1222],[6.5046,6.8457,56.8213],[6.5072,6.8503,50.1696],[6.5083,6.859,39.9284],[6.5043,6.8715,42.4253],[6.4985,6.8813,47.5401],[6.4882,6.8909,55.8206],[6.4754,6.8969,56.5344],[6.4727,6.9009,50.846],[6.4741,6.9036,48.8203],[6.4707,6.91,56.8538],[6.4567,6.8968,63.8173],[6.4442,6.8795,78.5295],[6.4252,6.8581,96.7435],[6.4136,6.8399,111.8785],[6.4083,6.8268,150.1572],[6.3986,6.8127,201.7059],[6.3869,6.8021,195.0826],[6.3684,6.796,213.912],[6.3587,6.7971,231.2536],[6.3548,6.7556,309.0187],[6.3503,6.7495,321.4283],[6.3394,6.7446,340.3588],[6.3276,6.7418,351.493],[6.3092,6.7444,378.7855],[6.2555,6.7375,409.1839],[6.2398,6.7341,386.9553],[6.2134,6.7251,409.8434],[6.2128,6.7173,403.6154],[6.2229,6.703,368.4328],[6.2255,6.6928,349.9125],[6.226,6.6792,324.4327],[6.2288,6.6649,291.0325],[6.2323,6.6538,270.6187],[6.2425,6.6327,270.037]]]]}}