{"type":"Feature","properties":{"GID_2":"NGA.12.8_1","GID_0":"NGA","country":"Nigeria","GID_1":"NGA.12_1","province":"Edo","NL_NAME_1":"NA","county":"EtsakoEast","VARNAME_2":"NA","NL_NAME_2":"NA","TYPE_2":"LocalAuthority","ENGTYPE_2":"LocalAuthority","CC_2":"NA","HASC_2":"NA","name":"Etsako_East.county"},
"geometry":{"type": "MultiPolygon","coordinates": [[[[6.2364,7.1909,266.3694],[6.2361,7.1892,270.4861],[6.2423,7.1863,268.3585],[6.2501,7.1876,285.3353],[6.2689,7.1788,239.584],[6.285,7.1743,216.849],[6.3025,7.1729,211.6953],[6.3346,7.1622,191.5414],[6.3537,7.1598,153.5715],[6.3587,7.1567,197.5497],[6.3762,7.1537,166.6238],[6.3877,7.1491,176.0937],[6.4291,7.1447,242.2073],[6.4622,7.1481,190.2791],[6.4741,7.1449,203.6313],[6.4846,7.1348,190.5263],[6.4999,7.1099,266.7314],[6.5063,7.0927,235.1662],[6.518,7.0731,155.8522],[6.5187,7.0639,110.9063],[6.5161,7.0557,76.3835],[6.5147,7.0407,55.5603],[6.5108,7.0311,57.0101],[6.5096,7.0132,60.2359],[6.517,7.0013,37.9604],[6.5302,6.9911,35.9854],[6.5626,6.9782,35.9065],[6.6304,6.9625,30.7047],[6.6584,6.9588,27.3725],[6.6708,6.9596,29.0598],[6.6733,6.9933,27.0],[6.6697,7.0254,32.3297],[6.6814,7.0497,27.0],[6.6844,7.0642,27.0799],[6.6958,7.0889,27.0],[6.6963,7.1027,45.8437],[6.701,7.12,39.8661],[6.697,7.1477,55.2055],[6.6984,7.1749,27.0],[6.6907,7.1854,34.6805],[6.6858,7.2074,31.5939],[6.6623,7.2249,35.6729],[6.6564,7.2358,61.8637],[6.6559,7.2481,63.1318],[6.6533,7.259,97.6779],[6.6251,7.2818,153.389],[6.6181,7.2785,157.8891],[6.595,7.2752,231.8576],[6.5889,7.2695,126.3681],[6.5801,7.2676,226.4362],[6.5714,7.2592,234.1144],[6.5643,7.2653,266.5402],[6.5307,7.2551,77.5939],[6.5112,7.2508,289.8362],[6.5038,7.2518,255.3604],[6.4932,7.2781,156.0237],[6.4979,7.2815,156.2321],[6.497,7.2863,323.748],[6.4851,7.2953,173.1782],[6.4773,7.3233,158.4958],[6.4708,7.3248,245.2653],[6.4636,7.3333,338.872],[6.4625,7.3529,140.7377],[6.4564,7.3576,151.487],[6.4542,7.368,164.8554],[6.4495,7.3732,179.2381],[6.4453,7.3852,171.1355],[6.43,7.3839,173.7023],[6.4102,7.3851,170.2968],[6.404,7.3878,169.5009],[6.3963,7.3863,176.5885],[6.3921,7.3795,178.9191],[6.3888,7.3798,183.8431],[6.3647,7.3522,199.8947],[6.3541,7.3427,268.507],[6.3411,7.3335,361.0664],[6.3365,7.3329,308.5997],[6.3278,7.3273,311.6273],[6.3261,7.3174,431.5345],[6.323,7.3122,473.8146],[6.3147,7.316,373.3935],[6.3013,7.328,470.9981],[6.2778,7.3424,491.7792],[6.2645,7.3459,467.7432],[6.2463,7.3471,516.8361],[6.2378,7.3392,438.8885],[6.2412,7.3318,450.638],[6.2373,7.3238,408.9355],[6.2465,7.3029,514.1132],[6.2414,7.2776,416.7652],[6.2435,7.2605,272.1418],[6.2402,7.229,235.8197],[6.2415,7.2101,257.0483],[6.2364,7.1909,266.3694]]]]}}