{"type": "Feature","bbox": [9.9356,9.4942,11.0802,10.3069],"geometry": {"type": "MultiPolygon","coordinates": [[[[9.9356,9.8056,581.3673],[9.9881,9.7797,626.6249],[10.0296,9.7715,763.7625],[10.0708,9.7497,589.6494],[10.1105,9.7326,443.4335],[10.1791,9.6924,307.5868],[10.2454,9.6627,405.4097],[10.3127,9.638,388.8542],[10.358,9.6164,365.8666],[10.4578,9.5516,268.4836],[10.5581,9.4942,190.0398],[10.5695,9.5051,208.3319],[10.6346,9.5392,227.5269],[10.6569,9.5391,224.8658],[10.6948,9.5292,229.751],[10.7291,9.5267,268.2117],[10.8341,9.5765,316.5246],[10.8715,9.5908,403.9499],[10.9002,9.6044,394.8648],[10.9277,9.6033,431.3687],[11.0043,9.587,316.8868],[11.0423,9.584,325.0627],[11.0603,9.5842,345.2178],[11.0781,9.589,354.4455],[11.0802,9.6042,358.0956],[11.0529,9.6383,352.7971],[11.0112,9.7229,303.0791],[11.0013,9.8221,318.8485],[10.9949,9.8531,327.8322],[10.9814,9.8829,381.6201],[10.9493,9.9094,413.9037],[10.8742,9.9635,567.577],[10.8337,9.9963,482.7613],[10.7933,10.0189,420.794],[10.7603,10.0467,374.8117],[10.724,10.0891,318.478],[10.7187,10.115,299.6112],[10.7398,10.1456,329.7871],[10.772,10.1602,355.4208],[10.8349,10.1703,405.8257],[10.8477,10.1971,462.9727],[10.791,10.1934,398.5742],[10.7782,10.1899,381.0566],[10.7547,10.1803,349.459],[10.728,10.164,347.8831],[10.6494,10.1412,297.6418],[10.6281,10.1523,271.8792],[10.5976,10.1727,333.9849],[10.5543,10.1705,360.8397],[10.5345,10.1781,385.542],[10.5183,10.1882,402.283],[10.49,10.2132,401.8006],[10.4593,10.2442,365.1536],[10.4344,10.2738,350.623],[10.4032,10.2956,382.6021],[10.3754,10.3033,407.6921],[10.348,10.3069,416.151],[10.3176,10.3059,438.1979],[10.3133,10.2358,446.1707],[10.3164,10.1845,519.8392],[10.3041,10.1387,440.1927],[10.2898,10.0959,347.1956],[10.2931,10.0572,346.7293],[10.2921,10.0232,424.4133],[10.2814,10.0167,441.2564],[10.261,10.0151,411.6676],[10.2097,10.0231,463.1165],[10.174,10.0328,568.5541],[10.1448,10.0366,609.7918],[10.0931,10.0409,555.939],[10.036,10.0404,506.2961],[10.0073,10.0198,503.9772],[9.9915,9.9925,512.1094],[9.9771,9.9577,534.7512],[9.9648,9.9089,541.0084],[9.9563,9.8648,545.6919],[9.9425,9.8341,555.927],[9.9356,9.8056,581.3673]]]]}
,"properties": {"GID_2": "NGA.5.1_1","GID_0": "NGA","country": "Nigeria","GID_1": "NGA.5_1","province": "Bauchi","NL_NAME_1": "NA","county": "Alkaleri","VARNAME_2": "NA","NL_NAME_2": "NA","TYPE_2": "LocalAuthority","ENGTYPE_2": "LocalAuthority","CC_2": "NA","HASC_2": "NA","name": "Alkaleri.county","area_km2": 6136.869,"hist_schema_id": "Elevation0-9000","hist_area_km2": {"200": 39.769,"225": 127.274,"250": 291.659,"275": 558.116,"300": 692.238,"325": 633.626,"350": 526.227,"375": 526.174,"400": 516.764,"425": 433.904,"450": 353.406,"475": 272.931,"500": 239.408,"525": 210.486,"550": 210.026,"575": 195.914,"600": 120.978,"625": 64.333,"650": 50.484,"675": 33.65,"700": 19.322,"725": 12.45,"750": 6.058,"775": 1.671}}}