{"type":"Feature","properties":{"GID_2":"NGA.2.10_1","GID_0":"NGA","country":"Nigeria","GID_1":"NGA.2_1","province":"Adamawa","NL_NAME_1":"NA","county":"Madagali","VARNAME_2":"NA","NL_NAME_2":"NA","TYPE_2":"LocalAuthority","ENGTYPE_2":"LocalAuthority","CC_2":"NA","HASC_2":"NA","name":"Madagali.county"},
"geometry":{"type": "MultiPolygon","coordinates": [[[[13.6377,10.7568,1066.4189],[13.6418,10.7635,1242.7084],[13.6414,10.7699,1061.0295],[13.6434,10.776,804.7421],[13.6552,10.7843,968.0983],[13.654,10.7898,957.0661],[13.6509,10.7914,952.9723],[13.637,10.7924,763.3498],[13.6519,10.8206,660.3359],[13.6628,10.8181,934.1758],[13.6712,10.8183,976.6317],[13.6744,10.8232,971.15239999999994],[13.678,10.8387,963.908],[13.6892,10.8451,970.1805],[13.7034,10.8479,1035.0687],[13.7139,10.8599,1061.6881],[13.716,10.8647,1083.4098],[13.7188,10.8764,1071.5911],[13.7205,10.9031,1032.2943],[13.7279,10.9233,1036.2673],[13.7261,10.9315,1027.0402],[13.7127,10.9442,981.1296],[13.7099,10.9491,989.6951],[13.708,10.972,926.8475],[13.7244,10.9815,904.4536],[13.7073,10.9788,832.8203],[13.6947,10.9668,644.1486],[13.6917,10.939,741.2139],[13.663,10.9324,493.6507],[13.601,10.9113,456.6999],[13.5385,10.9066,438.3612],[13.4988,10.9162,423.0781],[13.478,10.9249,424.8743],[13.468,10.9366,426.0307],[13.4181,10.9298,426.8621],[13.4141,10.8923,422.1587],[13.4169,10.847,428.2616],[13.4141,10.8083,439.9003],[13.4602,10.7748,550.6406],[13.4803,10.762,506.5067],[13.5854,10.7019,899.3798],[13.587,10.7048,911.9529],[13.5966,10.7029,927.2776],[13.6039,10.7037,950.1677],[13.6112,10.7127,1004.6443],[13.6213,10.719,999.5889],[13.6227,10.7253,1014.4248],[13.6277,10.7343,984.4346],[13.629,10.7433,947.5193],[13.6377,10.7568,1066.4189]]]]}}