{"type": "Feature","bbox": [8.9067,7.0458,9.3167,7.6782],"geometry": {"type": "MultiPolygon","coordinates": [[[[8.9523,7.6782,87.6589],[8.9239,7.6257,127.7067],[8.9188,7.6085,147.3723],[8.9169,7.5747,121.9553],[8.9198,7.5675,146.5347],[8.9129,7.5397,149.4786],[8.909,7.5301,162.0788],[8.9067,7.5136,203.8288],[8.9087,7.4963,203.5193],[8.912,7.4895,202.0539],[8.9084,7.4565,192.6154],[8.9572,7.4583,192.6791],[8.9785,7.461,151.274],[8.9785,7.4664,158.3215],[8.9992,7.4711,147.0105],[9.0131,7.4724,137.0349],[9.035,7.4619,151.4566],[9.0456,7.468,167.5699],[9.0673,7.4662,176.1602],[9.0775,7.4582,182.7364],[9.0846,7.4641,188.526],[9.0905,7.4507,205.7735],[9.0966,7.4488,197.1046],[9.1029,7.4316,190.3227],[9.1027,7.4163,153.9492],[9.1109,7.4039,141.3609],[9.1197,7.3679,159.2985],[9.1283,7.3588,140.2158],[9.1311,7.3452,204.7605],[9.142,7.3341,124.3285],[9.1468,7.3415,105.5455],[9.1581,7.3483,128.2281],[9.1798,7.3716,94.78],[9.1843,7.368,115.8561],[9.184,7.358,146.7617],[9.176,7.3362,159.1503],[9.1743,7.3262,156.8914],[9.1662,7.3018,138.8948],[9.16,7.2908,139.9565],[9.1538,7.2836,172.4103],[9.152,7.2766,166.6998],[9.144,7.2678,186.9451],[9.1351,7.2503,169.9291],[9.1212,7.2324,170.787],[9.1175,7.2229,179.9137],[9.1055,7.2136,201.595],[9.0998,7.2019,202.5482],[9.0815,7.1827,200.9666],[9.0667,7.1617,188.3523],[9.0608,7.1566,174.7174],[9.0542,7.1457,177.8921],[9.0432,7.1329,176.4157],[9.0404,7.1259,172.3258],[9.0409,7.1168,168.5005],[9.0461,7.1003,182.3063],[9.0494,7.0991,188.0569],[9.0788,7.0714,176.3506],[9.1238,7.0458,140.1146],[9.1333,7.0496,144.7767],[9.1389,7.047,153.6497],[9.1597,7.0464,165.2303],[9.1871,7.0543,157.7401],[9.1982,7.0553,135.5535],[9.2095,7.0626,128.9235],[9.2308,7.0685,145.3612],[9.244,7.0751,140.8681],[9.2631,7.0931,150.0741],[9.2711,7.0954,142.9986],[9.2826,7.1017,126.3712],[9.3079,7.1322,123.6497],[9.2972,7.1383,102.8326],[9.2895,7.1485,103.5046],[9.281,7.1547,102.8213],[9.2758,7.1657,124.3148],[9.2738,7.1785,133.9902],[9.3101,7.2099,108.1398],[9.3167,7.2191,100.166],[9.3156,7.2389,111.1267],[9.3126,7.2406,113.7281],[9.3092,7.2565,146.8517],[9.2988,7.2909,133.5286],[9.2919,7.2965,131.1541],[9.2879,7.3127,135.7493],[9.2829,7.3434,112.741],[9.2816,7.3625,96.1555],[9.2851,7.3806,104.4532],[9.2879,7.3874,107.5333],[9.3122,7.4367,163.8101],[9.3126,7.4702,133.3749],[9.3111,7.4786,128.1506],[9.3126,7.4964,144.4779],[9.3007,7.5077,118.9265],[9.2924,7.5188,118.4817],[9.2846,7.5238,120.0276],[9.2746,7.5349,132.6237],[9.267,7.539,128.0673],[9.2345,7.5464,120.5639],[9.2261,7.5452,119.2151],[9.1745,7.5468,84.9893],[9.1665,7.5498,80.71],[9.158,7.5586,84.3573],[9.1469,7.5863,109.387],[9.1327,7.602,105.5667],[9.1253,7.6128,135.8515],[9.1144,7.6228,148.4029],[9.1018,7.6375,172.1372],[9.094,7.6403,176.0615],[9.0749,7.6534,148.69],[9.0722,7.6584,135.4123],[9.0567,7.659,152.5863],[9.0362,7.6565,120.3547],[9.0307,7.6501,97.1411],[9.0164,7.6406,99.1368],[9.0051,7.6401,89.8576],[8.991,7.6456,76.6029],[8.991,7.6418,78.3144],[8.9824,7.6445,81.5517],[8.9774,7.6525,82.2495],[8.9667,7.6623,88.0215],[8.9591,7.6749,90.4485],[8.9523,7.6782,87.6589]]]]}
,"properties": {"GID_2": "NGA.7.4_1","GID_0": "NGA","country": "Nigeria","GID_1": "NGA.7_1","province": "Benue","NL_NAME_1": "NA","county": "Bukuru","VARNAME_2": "NA","NL_NAME_2": "NA","TYPE_2": "LocalAuthority","ENGTYPE_2": "LocalAuthority","CC_2": "NA","HASC_2": "NA","name": "Bukuru.county","area_km2": 1590.908,"hist_schema_id": "Elevation0-9000","hist_area_km2": {"75": 68.96,"100": 333.337,"125": 416.235,"150": 375.919,"175": 270.556,"200": 113.305,"225": 11.985,"250": 0.441,"275": 0.168}}}