{"type": "Feature","bbox": [4.9073,7.274,5.8114,8.0715],"geometry": {"type": "MultiPolygon","coordinates": [[[[5.5915,7.4882,328.1598],[5.5987,7.5328,345.3738],[5.6077,7.5587,379.2256],[5.6133,7.5955,407.1457],[5.6237,7.6198,425.0092],[5.6317,7.63,442.3105],[5.6424,7.6389,422.8264],[5.6704,7.67,513.4974],[5.6848,7.6755,513.9133],[5.6935,7.6811,494.4911],[5.7057,7.6934,488.5482],[5.7193,7.7266,556.2855],[5.7377,7.7341,539.3077],[5.7386,7.7313,531.447],[5.7495,7.7328,546.6746],[5.7653,7.7249,501.7334],[5.7736,7.7128,498.6275],[5.7869,7.7176,479.0209],[5.7925,7.7256,513.4977],[5.795,7.7352,502.5477],[5.8032,7.7432,470.1556],[5.8114,7.7561,536.6599],[5.8016,7.7575,521.2953],[5.7633,7.7771,527.7672],[5.7498,7.7801,522.3209],[5.7431,7.7795,538.1578],[5.7195,7.7916,518.462],[5.7094,7.7946,532.6866],[5.7013,7.7947,542.6664],[5.6715,7.822,521.8622],[5.6687,7.8234,524.7185],[5.656,7.8209,479.8242],[5.639,7.8281,510.7103],[5.6295,7.8379,510.0669],[5.6209,7.8503,494.3902],[5.6172,7.861,501.3365],[5.6158,7.8795,510.2479],[5.6081,7.8983,513.4266],[5.6094,7.9234,467.9532],[5.6219,7.9393,456.7293],[5.6291,7.9448,480.6294],[5.6361,7.9599,419.1482],[5.6464,7.9719,416.1271],[5.6681,7.9822,354.9681],[5.6742,7.9911,365.4134],[5.6726,8.0042,362.0872],[5.6635,8.0155,358.5198],[5.641,8.0207,377.8539],[5.5792,8.0134,384.4113],[5.5606,8.0073,384.8116],[5.5376,7.9957,402.6166],[5.5338,7.9909,411.3294],[5.5268,7.9866,394.025],[5.5179,7.9939,401.4113],[5.5173,8.0226,422.4407],[5.5196,8.0546,345.9396],[5.5184,8.0629,338.696],[5.536,8.0696,325.3622],[5.5215,8.0689,332.8891],[5.5169,8.0715,342.4473],[5.4681,8.0642,410.9929],[5.4429,8.0681,427.6239],[5.4096,8.062,390.7786],[5.3931,8.0556,360.1093],[5.3766,8.0467,350.6927],[5.3719,8.0405,350.5208],[5.3719,8.0297,368.3574],[5.3633,8.0109,385.9177],[5.368,8.0007,409.34],[5.3564,7.9815,407.0407],[5.3513,7.9659,426.6873],[5.3456,7.9722,433.0206],[5.3304,7.9748,489.615],[5.3139,7.9681,560.1305],[5.2988,7.9654,553.5846],[5.2825,7.9675,584.7613],[5.2618,7.9755,545.8466],[5.2241,7.9717,536.6349],[5.2088,7.9796,530.2708],[5.1903,8.0074,515.2744],[5.1851,8.0128,509.0068],[5.1697,8.0188,501.9004],[5.1573,8.0199,522.6838],[5.1289,8.0054,512.2585],[5.1084,7.9972,519.4253],[5.0974,7.9986,547.768],[5.085,8.0027,558.2303],[5.0806,8.0065,551.4231],[5.075,8.0266,554.2079],[5.0708,8.0334,574.5074],[5.0641,8.0306,579.2304],[5.0498,7.9819,569.4726],[5.0462,7.9607,572.7114],[5.0397,7.9453,530.9072],[5.0252,7.9315,498.3383],[5.0074,7.9189,519.444],[4.9914,7.9141,496.0988],[4.9723,7.9038,493.3434],[4.9461,7.8796,380.8099],[4.9311,7.8535,475.0276],[4.9235,7.8283,394.5102],[4.9154,7.8111,514.5174],[4.9134,7.7885,549.6168],[4.9266,7.7433,475.1672],[4.9221,7.7222,476.1808],[4.9073,7.6791,473.0848],[4.9185,7.6021,664.7786],[4.9317,7.5758,423.1654],[4.9539,7.523,428.4473],[4.9645,7.5035,440.235],[4.9693,7.4902,436.4542],[4.9728,7.4618,389.6092],[4.978,7.4423,348.2908],[4.9915,7.4149,343.6632],[5.0177,7.4227,334.6328],[5.043,7.4336,336.8598],[5.065,7.4383,344.6763],[5.0966,7.4352,410.7961],[5.1179,7.4379,414.5303],[5.1411,7.434,410.7213],[5.1603,7.4341,389.7466],[5.1907,7.4313,367.7215],[5.2332,7.431,380.8382],[5.2952,7.4365,373.7839],[5.2977,7.4378,388.3509],[5.3033,7.4363,360.3421],[5.3142,7.431,332.4249],[5.3283,7.4278,326.3303],[5.3326,7.4217,332.9705],[5.3337,7.4171,331.254],[5.3443,7.4052,327.0502],[5.3513,7.3921,330.1335],[5.3497,7.3841,320.924],[5.3551,7.3713,324.4552],[5.3625,7.3599,328.0284],[5.368,7.3406,345.6923],[5.3654,7.3268,324.5077],[5.3812,7.2934,331.2001],[5.383,7.2835,336.6716],[5.4198,7.274,319.4814],[5.4451,7.2862,326.4597],[5.4689,7.3004,346.1009],[5.5091,7.3304,321.9131],[5.5348,7.3636,311.2199],[5.5583,7.4017,311.6989],[5.5858,7.465,325.7467],[5.5915,7.4882,328.1598]]]]}
,"properties": {"GID_1": "NGA.13_1","GID_0": "NGA","country": "Nigeria","province": "Ekiti","VARNAME_1": "NA","NL_NAME_1": "NA","TYPE_1": "State","ENGTYPE_1": "State","CC_1": "NA","HASC_1": "NG.EK","ISO_1": "NG-EK","name": "Ekiti.province","area_km2": 5257.949,"hist_schema_id": "Elevation0-9000","hist_area_km2": {"300": 11.648,"325": 155.815,"350": 520.43,"375": 688.587,"400": 603.678,"425": 477.202,"450": 364.859,"475": 347.866,"500": 389.623,"525": 517.392,"550": 619.211,"575": 391.245,"600": 98.753,"625": 34.998,"650": 17.08,"675": 12.06,"700": 5.589,"725": 1.681,"750": 0.231}}}