{"type":"Feature","properties":{"ISO3166-1-Alpha-3":"NGA","country":"Nigeria","fill":"#F0F","id":"2854","name":"Ekiti"},
"geometry":{"type": "Polygon","coordinates": [[[5.53664,7.99241,400.1143],[5.51763,7.99946,400.9153],[5.51608,8.04168,378.5893],[5.53602,8.06959,325.3622],[5.42885,8.06602,422.5869],[5.39309,8.05527,360.3835],[5.3719,8.02961,368.3574],[5.36611,7.9976,393.2213],[5.35371,7.97427,408.5926],[5.34472,7.97161,435.9006],[5.33645,7.97416,459.3978],[5.29439,7.96727,546.9753],[5.26979,7.97236,574.8743],[5.2302,7.97559,546.9556],[5.16395,8.01641,510.5956],[5.10153,7.99801,542.4022],[5.08065,8.00644,551.4231],[5.07559,8.02357,560.4838],[5.06412,8.03057,579.2304],[5.04138,7.94928,556.3021],[5.01058,7.92182,518.1721],[4.97234,7.90376,493.3434],[4.92614,7.84306,435.4844],[4.91797,7.72304,504.9532],[4.90723,7.67901,473.0848],[4.91239,7.62721,600.2651],[4.99146,7.41484,343.6632],[5.06153,7.43753,340.4072],[5.09925,7.43895,425.0946],[5.20871,7.43117,374.0301],[5.27992,7.43526,355.6816],[5.33056,7.41986,340.583],[5.35505,7.37126,324.4552],[5.37614,7.30193,325.9192],[5.43246,7.28007,331.9432],[5.53778,7.36849,309.6911],[5.59256,7.49569,349.9453],[5.61044,7.5907,411.1127],[5.62367,7.61974,425.0092],[5.66708,7.66615,470.3044],[5.69343,7.68108,494.4911],[5.70573,7.69795,476.5759],[5.71544,7.71599,545.1494],[5.74139,7.7302,526.9949],[5.76888,7.71808,487.7686],[5.79368,7.72756,511.8688],[5.81136,7.75609,536.6599],[5.76619,7.7695,529.9385],[5.68764,7.80784,527.5848],[5.67142,7.82195,521.8622],[5.65777,7.82107,485.7167],[5.6248,7.85035,496.3183],[5.61002,7.89334,518.3726],[5.61757,7.9359,442.7201],[5.64641,7.97187,416.1271],[5.66863,7.98489,353.3169],[5.67018,8.00711,344.6303],[5.6554,8.01781,420.5702],[5.63679,8.02036,366.1196],[5.59979,8.01675,384.58],[5.56372,8.00835,391.3108],[5.53664,7.99241,400.1143]]]}}