{"type":"Feature","properties":{"GID_2":"NGA.21.16_1","GID_0":"NGA","country":"Nigeria","GID_1":"NGA.21_1","province":"Katsina","NL_NAME_1":"NA","county":"Jibia","VARNAME_2":"NA","NL_NAME_2":"NA","TYPE_2":"LocalAuthority","ENGTYPE_2":"LocalAuthority","CC_2":"NA","HASC_2":"NA","name":"Jibia.county"},
"geometry":{"type": "MultiPolygon","coordinates": [[[[7.064,13.0012,432.6015],[7.0503,12.9273,445.1922],[7.0455,12.8616,528.8433],[7.0407,12.8297,482.308],[7.0511,12.7758,495.5057],[7.0753,12.7862,515.6934],[7.0856,12.7824,519.9634],[7.0975,12.792,536.5765],[7.1126,12.8251,518.8069],[7.1252,12.8407,521.7864],[7.1285,12.8549,512.1207],[7.1334,12.8621,502.1783],[7.1378,12.8739,508.3842],[7.1386,12.8822,501.4637],[7.143,12.8906,510.2556],[7.1505,12.8964,497.2754],[7.1598,12.8993,506.931],[7.1825,12.8956,485.3329],[7.2012,12.8803,469.0434],[7.2134,12.8652,514.6978],[7.2251,12.8544,536.7007],[7.2339,12.8513,518.1504],[7.2653,12.8504,439.4755],[7.269,12.8546,431.9307],[7.2716,12.8736,446.9431],[7.267,12.8943,433.2247],[7.2451,12.9292,444.5912],[7.2364,12.9465,432.2874],[7.2326,12.9585,430.263],[7.2276,12.967,442.5385],[7.2223,12.9725,448.7688],[7.2183,12.9888,434.9471],[7.2232,13.0043,423.377],[7.2332,13.01,418.6313],[7.2437,13.0066,427.5994],[7.2517,13.0009,422.9463],[7.2606,12.9978,417.3777],[7.3005,12.9774,444.6591],[7.3246,12.9619,446.3314],[7.3308,12.9375,464.8915],[7.3493,12.9143,473.2492],[7.3661,12.9074,492.3225],[7.3712,12.9086,497.6417],[7.3782,12.9055,508.8714],[7.3857,12.906,498.7787],[7.4112,12.8839,510.5273],[7.4214,12.8858,509.7627],[7.441,12.9004,493.6361],[7.4706,12.9175,484.342],[7.4947,12.9254,502.7756],[7.5171,12.9404,521.7122],[7.5252,12.9485,517.9415],[7.5444,12.9614,490.1252],[7.5527,12.9645,495.8989],[7.5532,12.9627,499.3082],[7.5578,12.9706,495.2122],[7.5593,12.981,509.6504],[7.5559,12.9946,503.0121],[7.556,13.0108,506.0245],[7.5516,13.0148,505.5183],[7.5364,13.0232,517.5557],[7.5134,13.0502,499.3444],[7.5021,13.0739,468.4882],[7.4973,13.0907,468.7771],[7.507,13.101,482.5557],[7.5104,13.1114,480.3242],[7.5161,13.1221,491.9828],[7.5226,13.1244,494.5709],[7.5297,13.1314,493.9775],[7.5396,13.1484,483.5112],[7.5416,13.1567,481.7295],[7.5391,13.175,472.4906],[7.5059,13.1558,468.1308],[7.5017,13.1517,469.4095],[7.4741,13.1382,475.9608],[7.4578,13.1267,467.8753],[7.4263,13.1105,459.8508],[7.4008,13.1017,464.2973],[7.3814,13.0988,443.4813],[7.3683,13.0987,447.7813],[7.3315,13.1011,431.7602],[7.2441,13.1109,396.7315],[7.2279,13.1109,398.8566],[7.2123,13.096,402.1216],[7.2119,13.0933,405.1524],[7.2089,13.0923,406.7691],[7.1987,13.0809,425.1317],[7.1931,13.0778,431.8728],[7.1793,13.0609,440.0542],[7.1516,13.0323,472.009],[7.1425,13.0261,481.9677],[7.064,13.0012,432.6015]]]]}}