{"type": "Feature","bbox": [4.3308362323014649,9.842767096973688,4.6946702934362179,10.665809196433827],"geometry": {"type": "Polygon","coordinates": [[[4.67053243501141,10.397349112489735,138.7035],[4.6655282448501794,10.423253155677344,134.7509],[4.6564029569090906,10.442681188068036,136.4718],[4.6478663972222876,10.45298393251764,131.3523],[4.6390354734083417,10.466819046492816,130.0],[4.6331481908657111,10.481242888722278,144.415],[4.6325594626114253,10.494489274443197,146.5571],[4.6381523810269414,10.50067092111297,133.1793],[4.6478663972222876,10.506263839528458,136.1443],[4.6569916851633764,10.514800399215289,138.9403],[4.6599353264346917,10.529224241444723,148.8723],[4.6566973210362326,10.526574964300551,154.004],[4.6410960222982567,10.52157077413932,143.531],[4.6357974680098826,10.52068768175792,140.8219],[4.6316763702300534,10.521865138266435,139.8069],[4.6281440007044523,10.524220051283493,143.197],[4.6257890876873944,10.527458056681951,145.213],[4.6237285387974794,10.531579154461781,146.0456],[4.6213736257804214,10.543648083674185,138.399],[4.6243172670517367,10.554245192250931,135.3554],[4.6458058483323734,10.589863251633858,160.8139],[4.6478663972222876,10.595456170049374,130.0],[4.6519874950021176,10.598694175447804,130.0],[4.6555198645277187,10.603698365609063,130.0],[4.6566973210362326,10.608996919897407,131.4844],[4.6546367721463184,10.61341238180438,130.0],[4.64963258198506,10.615472930694324,133.5048],[4.6446283918238294,10.614884202440066,131.6105],[4.6393298375354561,10.612529289423009,130.616],[4.62637781594168,10.603698365609063,147.0437],[4.6007681368812143,10.576322501785796,144.5972],[4.5939977619571826,10.570729583370309,131.7536],[4.5875217511602946,10.568374670353251,143.8432],[4.5848724740160947,10.573378860514481,142.8163],[4.5842837457618373,10.5866252462354,139.4639],[4.5819288327447794,10.595456170049374,160.3005],[4.5754528219478914,10.597222354812146,157.4364],[4.56367825686263,10.590157615761001,130.0],[4.5601458873370584,10.600165996083462,156.0768],[4.5527867841587408,10.608702555770293,150.612],[4.5430727679634231,10.615178566567181,158.7674],[4.533064387640934,10.617533479584239,141.3053],[4.5248221920812446,10.623126397999727,158.7133],[4.52099545842853,10.636372783720674,163.3032],[4.5192292736657578,10.652562810712908,141.9211],[4.5159912682673,10.665809196433827,145.992],[4.5089265292161258,10.665809196433827,152.3057],[4.50186179016498,10.64608679991602,141.0328],[4.49597450762235,10.635489691339274,144.0331],[4.4886154044440616,10.6310742294323,135.1596],[4.482728121901431,10.635784055466388,130.0],[4.4674211872905687,10.665809196433827,147.4505],[4.461828268875081,10.651679718331508,148.9813],[4.4565297145867078,10.64520370753462,137.994],[4.4538804374425069,10.640199517373389,137.1225],[4.4544691656967643,10.6310742294323,159.1403],[4.45829589934948,10.621360213236954,175.9979],[4.4650662742735108,10.612823653550123,167.4419],[4.4741915622146,10.606347642753235,166.4428],[4.48508303491846,10.603698365609063,154.7689],[4.497740692385122,10.598105447193547,130.0],[4.4915590457153769,10.585742153854028,132.8676],[4.4712479209432843,10.56660848559045,154.9112],[4.4615339047479381,10.553067735742388,153.5414],[4.4556466222053066,10.541293170657127,138.2995],[4.4479931548998763,10.532756610970324,152.013],[4.4332749485433,10.529224241444723,158.466],[4.4512311602983354,10.507735660164116,162.8636],[4.4612395406207952,10.499199100477313,152.577],[4.4747802904688569,10.494489274443197,130.0],[4.4680099155448261,10.484186529993593,154.6613],[4.4630057253835957,10.472411964908332,142.7523],[4.4603564482394233,10.459754307441671,145.7062],[4.4612395406207952,10.446213557593609,136.6267],[4.445049513628561,10.451217747754839,144.7537],[4.4406340517215881,10.453572660771897,146.1502],[4.4612395406207952,10.410595498210682,146.7295],[4.4612395406207952,10.398232204871135,142.2597],[4.4535860733153916,10.393228014709905,130.0],[4.4424002364843886,10.396466020108363,130.0],[4.4294482148905843,10.402058938523851,130.0],[4.4162018291696654,10.405296943922309,130.0],[4.4006005304316886,10.417660237261828,149.0331],[4.3885316012192854,10.4220756991688,145.4555],[4.3752852154983657,10.415599688371913,144.385],[4.3543853624720157,10.397349112489735,159.315],[4.3423164332596116,10.389695645184332,138.7613],[4.3308362323014649,10.384691455023074,141.7106],[4.3487924440565,10.380864721370386,145.9002],[4.3635106504131036,10.389401281057189,137.8269],[4.3776401285154236,10.400587117888193,157.3557],[4.3929470631262566,10.405296943922309,139.6453],[4.4053103564657761,10.397937840744021,154.052],[4.4297425790177272,10.37026761279364,150.6428],[4.4441664212471608,10.364085966123866,162.4754],[4.4482875190270192,10.35437194992852,149.6026],[4.4753690187231143,10.313455336257221,147.6907],[4.4818450295200307,10.306096233078932,131.4682],[4.4862604914270037,10.286962564815383,132.2941],[4.4998012412750654,10.260469793373517,143.2233],[4.4953857793680916,10.248106500033998,137.968],[4.510103985724669,10.228384103516163,130.0],[4.50509979556341,10.20483497334564,131.2672],[4.4833168501556884,10.190705495243321,138.0509],[4.447404426645619,10.19983078318441,147.9229],[4.4553522580781646,10.179519658412318,163.8062],[4.4771352034859149,10.176281653013859,139.6668],[4.52276164319133,10.185406940954948,130.0],[4.5168743606487,10.175692924759602,130.0],[4.5156969041401567,10.165095816182856,130.0],[4.5177574530300717,10.154498707606109,130.0],[4.52276164319133,10.144490327283648,130.0],[4.5168743606487,10.139486137122418,130.0],[4.5139307193773854,10.13624813172396,130.0],[4.5089265292161258,10.124473566638699,132.4012],[4.5027448825463807,10.124473566638699,139.2202],[4.4880266761897758,10.13801431648676,153.8204],[4.4624169971293384,10.143901599029391,167.2115],[4.4397509593401878,10.138603044741018,150.3519],[4.4332749485433,10.117703191714668,153.6259],[4.442988964738646,10.125945387274356,145.7917],[4.4503480679169343,10.127711572037128,139.615],[4.4644775460192534,10.124473566638699,133.56],[4.465949366654911,10.121824289494498,141.2939],[4.4903815892068337,10.110638452663494,135.1157],[4.4953857793680916,10.11034408853638,130.0],[4.4939139587324064,10.09533151805266,134.1169],[4.4585902634766228,10.07531475740771,135.9869],[4.447404426645619,10.055592360889875,153.027],[4.45417480156965,10.060596551051106,158.765],[4.4747802904688569,10.06942747486508,136.3284],[4.470364828561884,10.049410714220102,141.5758],[4.4674211872905687,10.042051611041813,148.9565],[4.4945026869866922,10.071782387882109,141.9439],[4.5027448825463807,10.083556952967399,130.0],[4.5124588987417269,10.080024583441798,141.5852],[4.52276164319133,10.083556952967399,130.0],[4.5365967571665067,10.070016203119337,144.6264],[4.5365967571665067,10.054120540254218,130.0],[4.5277658333525608,10.039107969770498,136.4527],[4.5159912682673,10.029099589448037,140.6404],[4.52276164319133,10.021446122142606,150.2116],[4.5345362082765917,10.034103779609268,149.2119],[4.5407178549463652,10.034398143736411,143.4312],[4.5504318711417113,10.021446122142606,136.6075],[4.5566135178114564,10.017325024362776,136.6965],[4.5630895286083728,10.011437741820117,142.3358],[4.5686824470238614,10.003784274514715,139.3289],[4.5710373600409184,9.993481530065111,130.0],[4.5642669851168884,9.9772915030728484,134.8033],[4.5498431428874264,9.96669439449613,131.9218],[4.5392460343107084,9.955802921792241,138.5268],[4.5430727679634231,9.93902416654575,170.2752],[4.556024789557199,9.9469719979782951,151.0919],[4.562500800354087,9.9334312481302334,131.9536],[4.56279516448123,9.9104708462139683,131.1091],[4.5574966101928567,9.891042813823276,147.5912],[4.5630895286083728,9.8928089985860765,143.8987],[4.5675049905153458,9.8933977268403339,146.5828],[4.5719204524223187,9.8945751833488487,150.1652],[4.5772190067106919,9.89810755287445,162.2993],[4.5848724740160947,9.8907484496961331,171.3382],[4.5901710283044679,9.8807400693736724,131.5168],[4.5910541206858682,9.8692598684155257,143.9998],[4.5848724740160947,9.8571909392031216,136.5344],[4.5848724740160947,9.8645500423814383,130.0],[4.579279555600607,9.8592514880930651,136.4723],[4.5754528219478914,9.85454166205895,144.7995],[4.5730979089308326,9.849243107770576,140.2885],[4.5710373600409184,9.842767096973688,149.7754],[4.5848724740160947,9.8451220099907459,153.893],[4.6031230498982723,9.8527754772961487,131.1954],[4.6190187127633919,9.861606401110123,116.5401],[4.6257890876873944,9.8674936836527536,134.7904],[4.6299101854672529,9.88132879762793,131.6431],[4.6381523810269414,9.8901597214418757,131.1209],[4.6434509353153146,9.9007568300186222,136.5083],[4.6393298375354561,9.9190074059008,145.8855],[4.6216679899075643,9.9101764820868254,130.0],[4.6110708813308179,9.9116483027224831,139.7559],[4.60636105529673,9.9228341395534869,132.9064],[4.6051835987881873,9.9425565360713222,134.1795],[4.6081272400595026,9.9510930957581252,142.9316],[4.6216679899075643,9.9534480087751831,157.9287],[4.6257890876873944,9.960218383699214,155.7011],[4.6237285387974794,9.96581130211473,151.8582],[4.6137201584750187,9.9752309541829334,155.4034],[4.6113652454579608,9.98406187799688,151.7151],[4.6101877889494176,9.99259843768371,130.0],[4.6075385118052452,9.9996631767348561,158.1904],[4.6060666911695876,10.00584482340463,134.1815],[4.6081272400595026,10.01173210594726,131.5977],[4.6190187127633919,10.026155948176722,143.0077],[4.6237285387974794,10.034986871990668,145.9968],[4.6257890876873944,10.042051611041813,135.9181],[4.6184299845091061,10.056475453271275,146.552],[4.6057723270424447,10.063540192322449,147.727],[4.5963526749742414,10.070310567246452,166.2367],[4.5984132238641564,10.083556952967399,137.061],[4.6057723270424447,10.078847126933283,153.1332],[4.6081272400595026,10.084734409475914,149.0089],[4.6051835987881873,10.11034408853638,158.0341],[4.6113652454579608,10.11034408853638,160.2256],[4.6201961692719067,10.107694811392179,150.0477],[4.6222567181618217,10.117408827587525,153.0112],[4.6140145226021332,10.125356659020099,149.9456],[4.5916428489401264,10.117703191714668,136.2515],[4.5863442946517523,10.110638452663494,131.4648],[4.5831062892533234,10.101218800595291,131.0378],[4.5778077349649493,10.093270969162745,130.0],[4.5675049905153458,10.089738599637144,130.0],[4.5589684308285143,10.092682240908459,135.576],[4.5563191536843419,10.099746979959633,170.1102],[4.5586740667014,10.109166632027836,152.9093],[4.56367825686263,10.117703191714668,157.6125],[4.5595571590827717,10.123590474257298,165.9184],[4.5548473330486843,10.129183392672786,150.9837],[4.5492544146331682,10.133893218706902,144.7292],[4.5430727679634231,10.138308680613875,137.5668],[4.5430727679634231,10.144490327283648,130.0],[4.5630895286083728,10.148022696809221,163.1098],[4.5733922730579764,10.162740903165798,157.0092],[4.5825175609990652,10.18216893555649,182.0141],[4.5984132238641564,10.19983078318441,130.0],[4.6084216041866446,10.188644946353406,139.6697],[4.6228454464160791,10.193354772387494,166.5453],[4.6337369191199684,10.206601158108441,142.1182],[4.6325594626114253,10.220141907956474,150.7489],[4.6228454464160791,10.214843353668101,148.6475],[4.6190187127633919,10.213371533032443,145.2475],[4.623139810543222,10.232505201296021,144.0365],[4.6528705873835179,10.295793488629329,137.2929],[4.6572860492904908,10.340831200080459,137.7464],[4.6637620600874072,10.350545216275805,138.6754],[4.6808351794610417,10.336121374046371,136.577],[4.6946702934362179,10.364085966123866,145.4231],[4.6781859023168408,10.374683074700613,139.4989],[4.67053243501141,10.397349112489735,138.7035]]]}
,"properties": {"featurecla": "Reservoir","scalerank": 4,"name": "Kainji Reservoir","name_abb": "Kainji Res.","name_alt": null,"note": null,"delta": null,"dam_name": null,"year": 1968,"admin": null,"min_zoom": 4.0,"min_label": 5.0,"area_km2": 1237.6416,"hist_schema_id": "Elevation0-9000","hist_area_km2": {"100": 0.6267,"125": 1036.4962,"150": 189.0241,"175": 11.2233,"200": 0.2087,"225": 0.0627}}}