{"type":"Feature","properties":{"featurecla":"River","scalerank":7,"rivernum":506,"dissolve":"506River","name":"Sokoto2","name_alt":null,"note":null,"min_zoom":6.0,"strokeweig":0.25,"name_en":"Sokoto","min_label":7.0},
"geometry":{"type": "LineString","coordinates": [[4.1261230468750227,11.856219793744117,169.1689],[4.1422363281250227,11.77191803593162,165.881],[4.1529785156250227,11.75165436405662,164.9591],[4.1559082031250227,11.74127838749412,164.3766],[4.15234375,11.722186590619117,163.6674],[4.13818359375,11.67914459843162,161.0972],[4.140380859375,11.65668366093162,164.5722],[4.145751953125,11.64789459843162,163.4056],[4.167724609375,11.62311432499412,158.5313],[4.1808105468750227,11.59259674686912,158.7424],[4.186767578125,11.582782293744117,159.1054],[4.228515625,11.54498932499412,158.0635],[4.2421875,11.52533600468162,155.5408],[4.2394042968750227,11.500506903119117,153.0],[4.2262207031250227,11.483905340619117,157.0243],[4.1903320312500227,11.460467840619117,152.2213],[4.174072265625,11.44660065311912,150.7329],[4.122314453125,11.386493231244117,147.0]]}}