{"type":"Feature","properties":{"featurecla":"River","scalerank":3,"rivernum":59,"dissolve":"59River","name":"Niger12","name_alt":null,"note":null,"min_zoom":3.0,"strokeweig":0.45,"name_en":"Niger","min_label":4.0},
"geometry":{"type": "LineString","coordinates": [[3.851318359375,11.56989166874412,152.2833],[3.857421875,11.565301824994108,152.3066],[3.9091796875,11.51215241093162,152.0211],[3.91845703125,11.508563543744117,151.2612],[3.9332519531250232,11.50726959843162,150.5],[3.947998046875,11.508417059369108,150.5],[3.9571777343750232,11.51215241093162,151.2663],[3.964599609375,11.51361725468162,150.8113],[3.9735351562500232,11.50812409061912,149.8898],[3.9881835937500232,11.49445221561912,148.5],[4.048828125,11.464471746869108,150.2113],[4.0670410156250227,11.460321356244108,147.5],[4.0792480468750227,11.455340887494117,147.5],[4.0909667968750227,11.44354889530662,149.3735],[4.1103515625,11.419452215619117,147.0],[4.115478515625,11.41461823124412,147.0],[4.116943359375,11.412469793744108,147.0],[4.1219726562500227,11.40021393436912,147.9412],[4.124267578125,11.37457916874412,146.5],[4.1295410156250227,11.37201569218162,146.5],[4.14404296875,11.361102606244117,146.5],[4.1771484375000227,11.34503815311912,147.8765],[4.18603515625,11.33893463749412,147.9886],[4.193603515625,11.331415106244108,147.9983],[4.2000976562500227,11.32221100468162,147.938],[4.2140136718750227,11.291620184369108,147.1249],[4.221435546875,11.28253815311912,146.8852],[4.2474609375000227,11.26032135624412,144.5],[4.2550292968750227,11.251727606244117,146.2786],[4.2791992187500227,11.21295807499412,145.7807],[4.2945800781250227,11.19660065311912,143.5],[4.31494140625,11.18915436405662,145.0896],[4.3685546875000227,11.189715887494117,144.5205],[4.4242187500000227,11.182245184369108,143.7752],[4.4481445312500227,11.17609284061912,143.5148],[4.4715820312500227,11.16730377811912,143.5364],[4.5133300781250227,11.142694403119108,142.7216],[4.5143066406250227,11.13861725468162,142.604],[4.5738769531250227,11.100213934369108,140.9026],[4.5863281250000227,11.08844635624412,140.9966],[4.595703125,11.075458074994117,139.2262],[4.626220703125,11.013934637494117,138.7543],[4.656005859375,10.96796295780662,137.8978],[4.6688476562500227,10.95648834843162,135.5],[4.7005859375000227,10.93817780155662,138.2109],[4.721435546875,10.913592840619117,138.6775],[4.723876953125,10.879510809369108,138.3309],[4.6905761718750227,10.70099518436912,143.7002],[4.69091796875,10.663202215619108,133.8283],[4.6891113281250227,10.645868231244108,134.3476],[4.6812988281250227,10.632440496869108,132.8457],[4.6561523437500227,10.607196356244117,132.087]]}}