{"type":"Feature","properties":{"featurecla":"Lake Centerline","scalerank":3,"rivernum":59,"dissolve":"59Lake Centerline","name":"Niger4","name_alt":null,"note":null,"min_zoom":3.0,"strokeweig":0.6,"name_en":"Niger","min_label":4.0},
"geometry":{"type": "LineString","coordinates": [[4.625732421875,9.8645205749941169,135.0659],[4.6202636718750227,9.87714264530662,141.2967],[4.60986328125,9.89276764530662,130.0],[4.5897460937500227,9.91217682499412,130.0],[4.58349609375,9.94086334843162,130.0],[4.5931640625000227,9.97943756718162,130.0],[4.59130859375,10.00763580936912,130.0],[4.5812011718750227,10.033221746869117,130.0],[4.56640625,10.05878327030662,130.0],[4.5455566406250227,10.08380768436912,130.0],[4.5338378906250227,10.105340887494108,130.0],[4.529541015625,10.126727606244117,130.0],[4.527587890625,10.14105866093162,130.0],[4.533447265625,10.166620184369108,130.0],[4.552001953125,10.204364324994117,130.0],[4.5556640625,10.214618231244117,130.0],[4.556884765625,10.22028229374412,133.0799],[4.557373046875,10.226434637494108,130.0],[4.556884765625,10.232440496869117,130.0],[4.5558105468750227,10.238055731244117,133.5212],[4.553955078125,10.24298737186912,130.0],[4.50244140625,10.33466217655662,130.0],[4.500732421875,10.33869049686912,130.0],[4.4990234375,10.346210028119117,130.0],[4.497314453125,10.36322662968162,130.0],[4.4981933593750227,10.375995184369117,130.0],[4.5025878906250227,10.399920965619117,130.0],[4.5135742187500227,10.431415106244117,130.0],[4.5641113281250227,10.52570221561912,130.749],[4.569580078125,10.53302643436912,135.0832],[4.6566406250000227,10.609247137494108,131.4844]]}}