{"type":"Feature","properties":{"featurecla":"River","scalerank":7,"rivernum":506,"dissolve":"506River","name":"Sokoto1","name_alt":null,"note":null,"min_zoom":6.0,"strokeweig":0.2,"name_en":"Sokoto","min_label":7.0},
"geometry":{"type": "LineString","coordinates": [[6.89599609375,11.797479559369108,552.8736],[6.866943359375,11.844842840619108,529.2391],[6.8197265625000227,11.94586823124412,518.7697],[6.7918945312500227,11.991815496869108,503.9367],[6.739501953125,12.042596746869108,459.8958],[6.724609375,12.061151434369108,457.6356],[6.72021484375,12.07111237186912,444.6071],[6.7140136718750227,12.092157293744108,459.7142],[6.708984375,12.102313543744117,459.1159],[6.6930175781250227,12.12177155155662,456.5645],[6.6192871093750227,12.18842194218162,416.9333],[6.57666015625,12.23822662968162,412.5053],[6.5595703125,12.253290106244108,398.7983],[6.4977050781250227,12.278192449994108,388.7948],[6.406982421875,12.33209869999412,379.1769],[6.400390625,12.340350653119117,371.0245],[6.3917480468750227,12.36017487186912,373.8363],[6.383544921875,12.36798737186912,368.7211],[6.3729492187500227,12.36994049686912,371.1873],[6.36279296875,12.368524481244108,372.8705],[6.353759765625,12.370135809369117,373.3762],[6.341552734375,12.390985418744108,371.5805],[6.33447265625,12.39362213749412,355.0085],[6.325927734375,12.393182684369108,362.1839],[6.3154296875,12.39423248905662,352.6292],[6.3037109375,12.39923737186912,362.628],[6.2892089843750227,12.41181061405662,359.2889],[6.2809082031250227,12.41681549686912,355.0737],[6.2589355468750227,12.42365143436912,338.9155],[6.2489257812500227,12.42853424686912,337.8207],[6.24072265625,12.437127996869108,341.7595],[6.2335449218750227,12.449335028119108,337.2105],[6.2123046875000227,12.49994537968162,332.5],[6.20751953125,12.504754949994108,332.5],[6.1981445312500227,12.51154205936912,332.5],[6.185791015625,12.516961981244108,331.7684],[6.17431640625,12.519549871869117,313.736],[6.1644531250000227,12.52460358280662,312.0831],[6.1444335937500227,12.55963776249412,312.2754],[6.1100097656250227,12.59137604374412,308.9146],[6.09521484375,12.60993073124412,301.3107],[6.092529296875,12.619403387494117,304.9404],[6.0916992187500227,12.63971588749412,305.2804],[6.087158203125,12.649042059369108,297.4285],[6.07373046875,12.65900299686912,296.1168],[6.0619140625000227,12.65949127811912,295.657],[6.05078125,12.65766022343162,294.2402],[6.0396972656250227,12.66083405155662,293.7339],[5.9969726562500227,12.68793366093162,289.636],[5.9755859375,12.693622137494117,288.1798],[5.90478515625,12.692010809369108,284.1451],[5.87939453125,12.708612371869108,284.4924],[5.865234375,12.739129949994108,287.8633],[5.841064453125,12.82001373905662,283.6083],[5.8299804687500227,12.83527252811912,276.3139],[5.7939453125,12.85333893436912,274.1752],[5.7823730468750227,12.869403387494117,274.1075],[5.7721191406250227,12.88776276249412,273.0412],[5.72509765625,12.938006903119117,270.2919],[5.708984375,12.950799871869108,268.8047],[5.6397949218750227,12.974237371869108,263.5],[5.62255859375,12.98749420780662,268.7639],[5.5489746093750227,13.083758856244117,259.6532],[5.51220703125,13.10162994999412,256.7092],[5.462158203125,13.09332916874412,257.3953],[5.42822265625,13.081561590619117,256.6104],[5.3160644531250227,13.063836981244108,268.5182],[5.27880859375,13.06561920780662,247.4009],[5.2142578125000227,13.085565496869108,246.3708],[5.1852050781250227,13.084100653119108,242.3135],[5.1563964843750227,13.07489655155662,241.6371],[5.1292968750000227,13.059588934369117,240.3489],[5.1004882812500227,13.030633856244108,242.7763],[5.0865722656250227,13.023553778119108,239.7086],[5.0244140625,13.00983307499412,240.2546],[4.96142578125,13.00775787968162,267.3066],[4.8355957031250227,13.02509186405662,261.1712],[4.814697265625,13.035028387494108,255.0848],[4.796875,13.04913971561912,237.4446],[4.776611328125,13.05805084843162,227.4999],[4.7489257812500227,13.05231354374412,227.2802],[4.73193359375,13.03974030155662,227.8222],[4.715087890625,13.02008698124412,225.3374],[4.7015625000000227,12.997674871869108,224.0844],[4.6861816406250227,12.95221588749412,222.7031],[4.656982421875,12.91840241093162,220.7054],[4.645751953125,12.898456121869117,219.9606],[4.6273437500000227,12.85578034061912,218.4833],[4.601806640625,12.81635162968162,215.66309999999999],[4.569580078125,12.782831121869108,213.7446],[4.4833007812500227,12.726434637494108,211.0512],[4.42041015625,12.667987371869117,208.1825],[4.3724609375000227,12.635858465619108,205.6834],[4.35205078125,12.615350653119108,204.6625],[4.322509765625,12.57758209843162,203.0457],[4.28466796875,12.543719793744117,200.6555],[4.2574707031250227,12.529315496869117,198.9731],[4.1632324218750227,12.505633856244117,196.0616],[4.1183105468750227,12.48590729374412,194.2504],[4.0714355468750227,12.45770905155662,192.158],[4.0299316406250227,12.42291901249412,189.7749],[4.0011230468750227,12.38324616093162,188.8868],[3.994873046875,12.362079168744117,188.1751],[3.994384765625,12.32074616093162,186.8238],[3.9869628906250232,12.27423737186912,185.1943],[3.9903808593750232,12.258075262494117,184.8936],[4.009765625,12.223993231244108,183.0271],[4.01318359375,12.21466705936912,182.6924],[4.0155273437500227,12.205438543744108,181.8482],[4.0165039062500227,12.19574616093162,182.2772],[4.0162597656250227,12.18524811405662,181.4191],[4.0147949218750227,12.18024323124412,181.3118],[4.0096679687500227,12.169794012494108,181.0571],[4.0084472656250227,12.165790106244117,181.2363],[4.009521484375,12.15704987186912,180.6057],[4.1261230468750227,11.856219793744117,169.1689]]}}