{"type":"Feature","properties":{"GID_2":"NGA.27.18_1","GID_0":"NGA","country":"Nigeria","GID_1":"NGA.27_1","province":"Niger","NL_NAME_1":"NA","county":"Muya","VARNAME_2":"NA","NL_NAME_2":"NA","TYPE_2":"LocalAuthority","ENGTYPE_2":"LocalAuthority","CC_2":"NA","HASC_2":"NA","name":"Muya.county"},
"geometry":{"type": "MultiPolygon","coordinates": [[[[6.918,10.0649,357.0],[6.889,10.0623,357.0],[6.8768,10.0644,357.0],[6.8644,10.0604,516.9695],[6.8485,10.0445,497.8218],[6.8425,10.0354,367.4293],[6.8348,10.0162,371.8158],[6.8357,10.0014,356.7419],[6.7963,9.9862,267.4308],[6.7952,9.9786,289.4641],[6.8084,9.957,336.678],[6.8186,9.9505,348.2428],[6.8331,9.9539,436.505],[6.8423,9.9505,357.0],[6.8419,9.9406,363.063],[6.8276,9.9097,390.0882],[6.8255,9.9093,389.7528],[6.8232,9.891,383.7503],[6.8272,9.8583,382.4127],[6.8266,9.7928,404.9873],[6.8358,9.7646,408.7047],[6.8412,9.7301,401.4492],[6.8308,9.7251,400.5224],[6.8193,9.7222,382.4646],[6.8126,9.7127,370.5124],[6.8053,9.6824,377.5705],[6.8025,9.6586,375.6941],[6.8072,9.6248,337.3414],[6.8129,9.5569,302.7495],[6.812,9.5396,308.4751],[6.8131,9.535,323.2923],[6.8178,9.5191,324.2259],[6.8388,9.509,314.215],[6.8805,9.5183,320.8352],[6.9168,9.5157,348.9936],[6.9272,9.5191,354.4437],[6.9345,9.5295,367.7666],[6.9366,9.5455,418.7845],[6.9491,9.5484,412.7236],[6.9673,9.5339,429.801],[6.9722,9.5325,458.7944],[6.9825,9.5384,471.476],[6.9918,9.5597,460.5406],[7.0006,9.5665,510.9157],[7.0095,9.5841,514.5743],[7.0143,9.6083,491.5623],[7.0193,9.6213,470.5132],[7.0248,9.6303,458.3892],[7.0251,9.64,465.363],[7.032,9.648,453.0895],[7.0521,9.6423,499.3981],[7.0681,9.6197,507.9271],[7.0845,9.6126,490.9255],[7.1127,9.6063,510.1045],[7.1399,9.6116,525.5593],[7.155,9.6289,510.274],[7.159,9.6395,510.4852],[7.1579,9.6554,483.4032],[7.1608,9.6631,495.161],[7.1618,9.6719,497.0841],[7.1608,9.6781,473.6368],[7.159,9.6825,462.9363],[7.1538,9.6859,454.29],[7.1312,9.6925,459.3391],[7.1189,9.6992,476.5082],[7.1148,9.7142,478.7441],[7.1131,9.7323,483.3615],[7.1249,9.743,449.5036],[7.1368,9.7488,425.9038],[7.1571,9.7524,445.0013],[7.1668,9.7509,432.7822],[7.1734,9.7521,434.9515],[7.1883,9.751,439.8185],[7.1991,9.7538,460.256],[7.2219,9.751,459.106],[7.2363,9.7579,470.1902],[7.2605,9.7584,492.9761],[7.2885,9.7645,501.4246],[7.2944,9.774,506.364],[7.2986,9.7888,475.7676],[7.297,9.8383,501.5067],[7.2821,9.9004,571.0439],[7.2824,9.935,565.526],[7.278,9.9567,525.2586],[7.2794,9.9815,498.9887],[7.2742,9.9977,514.5184],[7.2629,10.0071,525.7935],[7.232,10.0104,471.6803],[7.1808,10.0066,426.0862],[7.1458,10.0082,421.0784],[7.1182,10.0113,394.1187],[7.0808,10.011,425.7346],[7.0441,10.0071,403.8709],[6.9958,10.0205,401.6228],[6.9365,10.0469,408.5579],[6.918,10.0649,357.0]]]]}}