{"type":"Feature","properties":{"GID_2":"NGA.28.6_1","GID_0":"NGA","country":"Nigeria","GID_1":"NGA.28_1","province":"Ogun","NL_NAME_1":"NA","county":"Ewekoro","VARNAME_2":"NA","NL_NAME_2":"NA","TYPE_2":"LocalAuthority","ENGTYPE_2":"LocalAuthority","CC_2":"NA","HASC_2":"NA","name":"Ewekoro.county"},
"geometry":{"type": "MultiPolygon","coordinates": [[[[3.1093,7.0862,104.3278],[3.1133,7.0721,123.4994],[3.1147,7.0596,83.8696],[3.111,7.0493,74.436],[3.1007,7.0377,76.7972],[3.0857,7.0343,62.017],[3.0761,7.0282,66.5408],[3.0617,7.022,63.1542],[3.0544,7.0108,47.6232],[3.0546,6.9959,48.5236],[3.05,6.9814,54.2912],[3.0469,6.9485,121.3933],[3.0667,6.9311,135.8637],[3.0787,6.916,127.9923],[3.0795,6.9077,129.1788],[3.075,6.9013,133.1732],[3.0639,6.8985,118.5442],[3.0585,6.8946,118.4974],[3.0487,6.8838,95.5997],[3.0759,6.8881,114.4719],[3.0939,6.8851,91.0319],[3.1035,6.8812,89.8579],[3.1101,6.8779,106.3342],[3.1185,6.869,123.3402],[3.1276,6.8628,118.4208],[3.1762,6.8553,99.7472],[3.2188,6.8535,42.8201],[3.2605,6.8479,17.6011],[3.2756,6.8407,13.7476],[3.2875,6.8329,15.1905],[3.2943,6.8264,10.7127],[3.3007,6.8242,8.3049],[3.3192,6.8287,8.6966],[3.3551,6.832,14.8836],[3.3667,6.8358,16.0258],[3.3521,6.8473,16.9814],[3.338,6.863,18.5774],[3.3235,6.8759,24.8998],[3.3097,6.8962,28.6009],[3.2905,6.9202,41.2017],[3.2839,6.9401,53.4779],[3.2737,6.9629,67.0562],[3.269,6.9881,49.584],[3.2701,6.9982,69.7659],[3.2772,7.0273,31.0973],[3.2784,7.0409,54.7434],[3.2867,7.0705,86.0607],[3.2877,7.1021,36.0397],[3.2834,7.1065,50.8785],[3.2736,7.0887,83.2919],[3.2652,7.0831,53.4634],[3.2488,7.0776,81.3653],[3.2323,7.0744,41.9899],[3.216,7.0784,67.3049],[3.2058,7.0733,69.7869],[3.1997,7.0676,91.9488],[3.1723,7.0736,104.4369],[3.1699,7.0778,74.204],[3.1557,7.0856,90.8988],[3.1544,7.0893,91.7394],[3.1422,7.0937,101.0877],[3.1093,7.0862,104.3278]]]]}}