{"type":"Feature","properties":{"GID_2":"NGA.37.1_1","GID_0":"NGA","country":"Nigeria","GID_1":"NGA.37_1","province":"Zamfara","NL_NAME_1":"NA","county":"Anka","VARNAME_2":"NA","NL_NAME_2":"NA","TYPE_2":"LocalAuthority","ENGTYPE_2":"LocalAuthority","CC_2":"NA","HASC_2":"NA","name":"Anka.county"},
"geometry":{"type": "MultiPolygon","coordinates": [[[[5.9049,11.654,397.0008],[5.9215,11.6543,398.287],[5.9417,11.6575,398.8121],[5.9602,11.6642,415.3283],[6.0619,11.6643,386.3747],[6.0961,11.6665,390.3975],[6.1134,11.6602,413.9435],[6.1365,11.647,409.4855],[6.1563,11.6428,405.2778],[6.1763,11.6435,401.686],[6.2037,11.6609,419.7269],[6.2072,11.6676,425.0797],[6.2116,11.672,426.3682],[6.213,11.694,435.1482],[6.2198,11.7121,441.2956],[6.2376,11.7291,450.7508],[6.2587,11.7693,478.163],[6.2785,11.788,460.6837],[6.3278,11.849,435.8562],[6.3315,11.8672,441.0526],[6.332,11.8737,448.5036],[6.3239,11.8757,433.7386],[6.3102,11.8763,424.8705],[6.2963,11.8886,414.3169],[6.2877,11.8994,420.1761],[6.2767,11.9187,444.0724],[6.2679,11.9421,415.5107],[6.2626,11.9645,431.437],[6.2529,11.9787,416.567],[6.2382,11.9929,397.3048],[6.2097,12.028,369.4025],[6.1951,12.0544,396.1173],[6.1886,12.0839,380.4266],[6.1913,12.1165,390.8071],[6.1907,12.1718,384.6568],[6.1654,12.1632,376.2607],[6.1224,12.1674,358.0662],[6.0736,12.1671,359.868],[6.0348,12.1734,353.7312],[6.0234,12.1872,365.827],[6.0122,12.2459,346.8188],[5.9971,12.2692,370.8222],[5.9978,12.2847,374.9071],[5.9848,12.3238,378.5526],[5.9826,12.3412,380.7319],[5.977,12.3452,384.9032],[5.929,12.3311,348.0581],[5.911,12.3321,336.7068],[5.8908,12.3248,343.0536],[5.8627,12.32,342.8136],[5.8526,12.2985,358.258],[5.8484,12.2776,372.505],[5.841,12.2544,356.549],[5.8354,12.2117,330.5122],[5.8327,12.1647,326.1479],[5.8369,12.1194,308.3136],[5.8394,12.1103,321.6695],[5.8481,12.0979,324.812],[5.8742,12.0934,329.9559],[5.8933,12.0878,340.0036],[5.9068,12.0737,344.7264],[5.9139,12.0455,338.2682],[5.9143,12.0137,343.6696],[5.9244,11.9443,354.9174],[5.9258,11.8956,380.7061],[5.9236,11.8875,384.0762],[5.9234,11.8646,388.6844],[5.9249,11.8193,428.1937],[5.9139,11.7779,435.6845],[5.9139,11.7439,419.4338],[5.9115,11.7067,412.4865],[5.9056,11.6715,407.903],[5.9049,11.654,397.0008]]]]}}