{"type": "Feature","bbox": [7.6332,5.4825,7.8953,5.8178],"geometry": {"type": "MultiPolygon","coordinates": [[[[7.8873,5.5584,39.0639],[7.8855,5.5778,36.4153],[7.8857,5.6092,73.3407],[7.8945,5.6536,41.2487],[7.8953,5.6695,43.1079],[7.8874,5.6851,57.1526],[7.8778,5.6903,51.2416],[7.8562,5.6937,99.7231],[7.8418,5.7059,129.5181],[7.8196,5.7197,203.2034],[7.8044,5.7315,149.9646],[7.7931,5.7483,103.9917],[7.7895,5.7837,91.7916],[7.7799,5.8041,78.4224],[7.7694,5.8138,62.4922],[7.6749,5.8178,63.5433],[7.677,5.807,64.6481],[7.6808,5.803,66.0114],[7.6826,5.7976,74.8893],[7.6829,5.7732,81.9383],[7.6877,5.7464,96.4792],[7.6882,5.7333,120.1302],[7.6859,5.7213,141.1674],[7.6752,5.7015,98.1907],[7.6567,5.6796,115.872],[7.634,5.6452,101.8127],[7.6332,5.6436,102.1427],[7.6407,5.6327,97.2883],[7.6579,5.6271,83.3016],[7.669,5.6306,90.5391],[7.676,5.6358,91.1772],[7.6879,5.6406,50.2006],[7.6953,5.6456,46.5045],[7.7142,5.6395,58.372],[7.726,5.6301,75.7418],[7.7389,5.6121,56.6798],[7.747,5.5873,76.6737],[7.7484,5.5767,42.862],[7.7514,5.5727,40.619],[7.7567,5.5584,84.9386],[7.7623,5.5235,46.743899999999996],[7.7727,5.4825,37.5846],[7.7862,5.4864,28.5572],[7.7923,5.4916,46.4507],[7.8141,5.4998,28.7015],[7.8248,5.5063,64.6196],[7.8475,5.5101,163.596],[7.8671,5.5095,156.0954],[7.8727,5.5269,67.276],[7.872,5.5403,50.0258],[7.8746,5.5483,43.6312],[7.8793,5.5542,51.4877],[7.8873,5.5584,39.0639]]]]}
,"properties": {"GID_2": "NGA.1.10_1","GID_0": "NGA","country": "Nigeria","GID_1": "NGA.1_1","province": "Abia","NL_NAME_1": "NA","county": "Ohafia","VARNAME_2": "NA","NL_NAME_2": "NA","TYPE_2": "LocalAuthority","ENGTYPE_2": "LocalAuthority","CC_2": "NA","HASC_2": "NA","name": "Ohafia.county","area_km2": 568.8492,"hist_schema_id": "Elevation0-9000","hist_area_km2": {"25": 19.1832,"50": 111.4942,"75": 159.4182,"100": 115.1958,"125": 72.1359,"150": 48.3169,"175": 32.1339,"200": 10.1061,"225": 0.865}}}