{"type":"Feature","properties":{"GID_2":"NGA.20.40_1","GID_0":"NGA","country":"Nigeria","GID_1":"NGA.20_1","province":"Kano","NL_NAME_1":"NA","county":"Tsanyawa","VARNAME_2":"NA","NL_NAME_2":"NA","TYPE_2":"LocalAuthority","ENGTYPE_2":"LocalAuthority","CC_2":"NA","HASC_2":"NA","name":"Tsanyawa.county"},
"geometry":{"type": "MultiPolygon","coordinates": [[[[8.1048,12.1896,511.5991],[8.104,12.1961,519.5375],[8.0877,12.222,515.7008],[8.0888,12.2298,521.3339],[8.0829,12.2487,522.5639],[8.0764,12.2608,532.267],[8.0736,12.2767,534.2014],[8.0615,12.3056,550.3344],[8.0605,12.3116,553.2344],[8.0525,12.3186,564.5621],[8.0505,12.3272,555.3203],[8.0597,12.3383,552.7672],[8.0743,12.3484,539.0814],[8.0705,12.3567,543.8337],[8.0702,12.3671,530.3042],[8.0668,12.3707,537.3062],[8.0002,12.3492,549.4447],[7.9614,12.339,550.7136],[7.9391,12.3309,552.1233],[7.8705,12.2933,537.4943],[7.8593,12.2823,531.0375],[7.8649,12.2667,536.1412],[7.8724,12.2613,541.4022],[7.8939,12.2308,532.1415],[7.898,12.2191,542.7787],[7.911,12.2038,543.8138],[7.934,12.195,556.5021],[7.9425,12.1813,554.8528],[7.951,12.1717,558.6328],[7.9825,12.158,549.9346],[7.9956,12.1431,546.7589],[7.9981,12.1334,539.1996],[7.9999,12.1335,538.7892],[8.0061,12.1278,533.9288],[8.0121,12.1327,536.0618],[8.0243,12.149,528.6452],[8.0331,12.1561,534.1439],[8.0437,12.1511,512.6843],[8.0607,12.1462,512.7416],[8.0747,12.1522,531.3745],[8.0839,12.1608,520.2422],[8.088,12.1715,512.9872],[8.089,12.1798,505.0807],[8.0968,12.1806,502.26],[8.1028,12.1839,505.1588],[8.1051,12.1864,507.673],[8.1048,12.1896,511.5991]]]]}}