{"type": "Feature","bbox": [7.4021,7.2753,7.8815,7.6411],"geometry": {"type": "MultiPolygon","coordinates": [[[[7.7547,7.6411,216.6198],[7.6858,7.6352,288.7805],[7.6647,7.6316,281.583],[7.6432,7.626,428.6475],[7.6311,7.6186,433.1629],[7.5824,7.6028,402.736],[7.5728,7.5961,395.0052],[7.5641,7.5868,343.8522],[7.5471,7.5617,410.908],[7.5456,7.553,412.1319],[7.5403,7.5399,419.4648],[7.4962,7.5103,380.7841],[7.4896,7.5009,365.7397],[7.4805,7.4921,344.883],[7.481,7.4426,314.4643],[7.4756,7.4076,304.8131],[7.4764,7.4007,306.2038],[7.4742,7.3894,310.2088],[7.4747,7.3781,308.6667],[7.4713,7.3565,320.7685],[7.4637,7.3378,343.1924],[7.4545,7.3289,331.726],[7.4385,7.3202,254.4052],[7.4185,7.3153,198.5273],[7.4055,7.3083,189.5967],[7.4021,7.2946,301.9289],[7.4046,7.2835,277.3719],[7.4084,7.2803,272.0118],[7.4508,7.2873,226.755],[7.4707,7.2881,196.2267],[7.5288,7.286,219.8262],[7.5509,7.2833,261.0028],[7.5646,7.2914,250.0482],[7.5876,7.3115,257.0435],[7.607,7.3148,249.4671],[7.6397,7.3106,323.4971],[7.6568,7.2958,378.9053],[7.6883,7.2946,382.4612],[7.7244,7.2827,303.3739],[7.7405,7.2849,266.8452],[7.7686,7.2939,199.3217],[7.7898,7.2935,200.1228],[7.8146,7.2871,181.7197],[7.8355,7.2753,190.2644],[7.8415,7.2938,169.2332],[7.8483,7.3572,231.789],[7.8558,7.378,242.8874],[7.8758,7.3975,240.2892],[7.8815,7.4267,249.3428],[7.8576,7.4343,240.5277],[7.8234,7.4282,254.7539],[7.8042,7.4292,270.6556],[7.7837,7.4462,266.8533],[7.7637,7.5353,281.7498],[7.7622,7.5695,283.2618],[7.7574,7.6035,187.7178],[7.7547,7.6411,216.6198]]]]}
,"properties": {"GID_2": "NGA.23.3_1","GID_0": "NGA","country": "Nigeria","GID_1": "NGA.23_1","province": "Kogi","NL_NAME_1": "NA","county": "Ankpa","VARNAME_2": "NA","NL_NAME_2": "NA","TYPE_2": "LocalAuthority","ENGTYPE_2": "LocalAuthority","CC_2": "NA","HASC_2": "NA","name": "Ankpa.county","area_km2": 1268.9863,"hist_schema_id": "Elevation0-9000","hist_area_km2": {"150": 0.3575,"175": 10.6834,"200": 45.9651,"225": 88.9102,"250": 131.8848,"275": 133.3554,"300": 110.9466,"325": 138.8736,"350": 153.9049,"375": 126.8767,"400": 113.3514,"425": 103.0689,"450": 72.21,"475": 32.3332,"500": 6.2226,"525": 0.042}}}