{"type": "Feature","id": "2853","bbox": [4.35491,5.85478,6.0284,7.77043],"geometry": {"type": "Polygon","coordinates": [[[6.0284,7.57336,347.7229],[5.96577,7.64083,361.4603],[5.91585,7.71788,370.0247],[5.92236,7.75692,424.8542],[5.89207,7.77043,416.6207],[5.81136,7.75609,536.6599],[5.79368,7.72756,511.8688],[5.76888,7.71808,487.7686],[5.74139,7.7302,526.9949],[5.71544,7.71599,545.1494],[5.70573,7.69795,476.5759],[5.69343,7.68108,494.4911],[5.66708,7.66615,470.3044],[5.62367,7.61974,425.0092],[5.61044,7.5907,411.1127],[5.59256,7.49569,349.9453],[5.53778,7.36849,309.6911],[5.43246,7.28007,331.9432],[5.37614,7.30193,325.9192],[5.35505,7.37126,324.4552],[5.33056,7.41986,340.583],[5.27992,7.43526,355.6816],[5.20871,7.43117,374.0301],[5.09925,7.43895,425.0946],[5.06153,7.43753,340.4072],[4.99146,7.41484,343.6632],[4.99073,7.37485,332.5705],[4.94185,7.36146,306.4302],[4.89823,7.33914,291.2954],[4.88056,7.29232,284.2411],[4.87229,7.24467,240.3109],[4.8726,7.16954,368.4698],[4.86971,7.14272,274.9489],[4.87198,7.1198,251.6584],[4.86929,7.0982,245.8746],[4.85886,7.09042,312.0135],[4.83229,7.09251,247.8405],[4.81989,7.09822,241.5469],[4.76956,7.13091,247.637],[4.73215,7.14652,238.0094],[4.69256,7.13546,242.7628],[4.65008,7.10169,184.463],[4.6229,7.05544,165.6851],[4.61546,7.02967,155.0103],[4.59975,7.00833,135.1627],[4.5611,6.98828,89.7505],[4.53846,6.85731,86.1981],[4.51924,6.83219,68.2651],[4.42922,6.76667,33.8059],[4.37951,6.71375,77.6474],[4.35522,6.64768,17.5222],[4.35491,6.6174,15.5096],[4.36958,6.59167,20.4762],[4.38302,6.58213,61.7598],[4.41465,6.57198,46.3528],[4.43129,6.56916,26.8114],[4.48307,6.56738,31.1181],[4.52616,6.59407,34.2366],[4.54208,6.61693,60.8338],[4.56709,6.62885,73.6051],[4.586,6.60306,55.8753],[4.5858,6.53177,26.7135],[4.595,6.48529,5.6628],[4.59231,6.47183,8.3388],[4.58125,6.45909,7.0204],[4.56523,6.45408,13.1648],[4.51459,6.4171,5.3909],[4.48182,6.41274,12.2936],[4.46601,6.40638,14.6823],[4.48307,6.38625,7.8708],[4.51304,6.38648,0.0],[4.56864,6.36266,10.6847],[4.57019,6.33576,6.2895],[4.55438,6.31685,2.3067],[4.49402,6.32189,2.4562],[4.493,6.32055,0.5149],[4.49301,6.32054,0.5149],[4.50904,6.31354,3.7352],[4.54737,6.28905,4.0134],[4.60873,6.23176,0.0],[4.64186,6.21088,0.0],[4.71705,6.16364,0.8749],[4.74781,6.13886,0.8514],[4.78273,6.10253,1.3024],[4.80795,6.06306,0.0],[4.82618,6.04255,0.0],[4.86549,6.02562,0.9728],[4.88592,6.00654,0.6852],[5.00302,5.85478,0.7933],[5.00303,5.85481,0.7933],[5.00365,5.85621,7.1848],[5.11517,6.12691,14.606],[5.11558,6.15825,14.1036],[5.09708,6.18686,7.7734],[5.08613,6.19497,7.4255],[5.07373,6.20063,7.4431],[5.06225,6.20066,5.9627],[5.05264,6.20422,10.3992],[5.05016,6.21763,3.1564],[5.02949,6.24236,7.2775],[5.005,6.26293,4.1171],[4.98474,6.2746,4.4829],[4.97926,6.28437,8.0913],[4.98112,6.29181,14.8617],[4.98743,6.29861,11.6169],[4.99363,6.31114,16.3244],[4.99859,6.34044,18.8463],[5.01223,6.36155,24.4768],[5.03435,6.36878,12.903],[5.05967,6.3824,13.7104],[5.07352,6.40687,17.3397],[5.08065,6.43651,39.3897],[5.09739,6.4616,46.7573],[5.12075,6.5141,28.6078],[5.10318,6.56671,46.9528],[5.08603,6.59376,20.03],[5.07734,6.59805,17.8734],[5.07249,6.60644,19.9719],[5.07249,6.63768,20.2979],[5.076,6.65169,26.4294],[5.07993,6.68435,87.7813],[5.09119,6.70525,75.7921],[5.1223,6.74344,69.1613],[5.15786,6.77744,78.0785],[5.17078,6.80452,100.4175],[5.18721,6.8262,87.5225],[5.1871,6.85139,125.9643],[5.19909,6.86472,137.2543],[5.21563,6.87242,155.1182],[5.49561,6.87229,123.7651],[5.5415,6.83607,48.478],[5.52466,6.81113,73.1503],[5.51473,6.78266,133.0543],[5.54099,6.71706,38.1673],[5.56321,6.72044,30.4682],[5.61261,6.7599,32.416],[5.64113,6.75778,39.4295],[5.65395,6.7462,39.1328],[5.68578,6.73897,48.4159],[5.70273,6.7445,56.477],[5.71358,6.75215,34.3558],[5.72764,6.7761,38.6321],[5.73291,6.78943,50.1745],[5.74449,6.85317,93.09],[5.75389,6.87839,137.0411],[5.77663,6.88382,123.9704],[5.77622,6.89932,126.3141],[5.78056,6.90612,120.1036],[5.7849,6.90829,149.063],[5.78914,6.91741,65.6862],[5.78562,6.9296,92.9622],[5.77126,6.95978,168.2452],[5.77353,6.99477,137.6332],[5.78614,7.03099,127.6003],[5.81291,7.05859,119.3998],[5.82665,7.07611,134.1696],[5.83234,7.10011,142.9103],[5.87833,7.20475,199.4788],[5.87554,7.21496,207.2722],[5.87657,7.22809,162.0831],[5.89838,7.25256,225.5882],[5.92277,7.27403,204.8445],[5.9391,7.28483,217.1771],[5.95274,7.29899,264.7319],[5.96204,7.3317,274.515],[5.95884,7.35376,323.0096],[5.95295,7.36777,315.514],[5.94882,7.39895,303.4575],[5.95998,7.42048,279.8762],[5.95481,7.43784,310.5837],[5.92515,7.45727,320.326],[5.93455,7.49215,323.0151],[5.94799,7.50352,306.8373],[5.97496,7.51011,338.5285],[5.98726,7.51572,327.5318],[6.01021,7.54274,324.0115],[6.0284,7.57336,347.7229]]]}
,"properties": {"ISO3166-1-Alpha-3": "NGA","country": "Nigeria","fill": "#FF0","name": "Ondo","area_km2": 14586.69,"hist_schema_id": "Elevation0-9000","hist_area_km2": {"0": 1968.01,"25": 1403.94,"50": 890.27,"75": 636.39,"100": 637.2,"125": 679.4,"150": 664.26,"175": 665.41,"200": 806.49,"225": 849.23,"250": 752.33,"275": 775.99,"300": 892.1,"325": 973.55,"350": 678.22,"375": 407.62,"400": 252.13,"425": 181.69,"450": 137.22,"475": 90.38,"500": 76.48,"525": 62.82,"550": 41.91,"575": 22.99,"600": 16.23,"625": 8.49,"650": 4.35,"675": 3.57,"700": 3.36,"725": 2.1,"750": 1.09,"775": 0.69,"800": 0.36,"825": 0.15,"850": 0.17}}}