{"type":"Feature","properties":{"GID_1":"NGA.29_1","GID_0":"NGA","country":"Nigeria","province":"Ondo","VARNAME_1":"NA","NL_NAME_1":"NA","TYPE_1":"State","ENGTYPE_1":"State","CC_1":"NA","HASC_1":"NG.ON","ISO_1":"NG-ON","name":"Ondo.province"},
"geometry":{"type": "MultiPolygon","coordinates": [[[[4.9976,5.8621,5.2934],[4.996,5.8632,0.2811],[4.9993,5.8588,5.4648],[4.9993,5.8599,5.4648],[4.9976,5.8621,5.2934]]],
[[[4.9913,5.8707,4.4184],[4.9899,5.8715,1.7173],[4.994,5.866,0.8754],[4.994,5.8671,3.0378],[4.9913,5.8707,4.4184]]],
[[[4.9801,5.8868,1.2012],[4.9776,5.8871,0.0],[4.9874,5.8749,3.6509],[4.9863,5.8793,3.8131],[4.9801,5.8868,1.2012]]],
[[[4.991,6.2994,13.5789],[4.9971,6.3201,14.9976],[4.9992,6.3471,16.8226],[5.0065,6.358,20.4541],[5.0135,6.359,22.117],[5.0159,6.368,22.0972],[5.025,6.3715,26.4733],[5.0344,6.3688,12.903],[5.0635,6.3819,16.4933],[5.0736,6.4069,17.3397],[5.0771,6.4424,29.9114],[5.1053,6.4701,51.9525],[5.1187,6.5017,44.5614],[5.1245,6.5295,37.0295],[5.1152,6.5529,62.1781],[5.1032,6.5668,46.9528],[5.1004,6.5802,14.2259],[5.0927,6.5898,17.9255],[5.0728,6.6,19.5136],[5.0723,6.613,17.1617],[5.0754,6.6367,16.5154],[5.0728,6.6459,21.8614],[5.0755,6.6554,29.0244],[5.0858,6.6619,24.7855],[5.0821,6.6622,27.2681],[5.084,6.6688,56.3641],[5.0823,6.6742,65.5565],[5.0843,6.6977,60.4752],[5.0921,6.7132,22.1173],[5.1043,6.7264,63.7817],[5.1205,6.7393,56.3572],[5.1277,6.756,80.7878],[5.1389,6.7648,65.5052],[5.1556,6.7689,58.5343],[5.1613,6.7916,70.6337],[5.1684,6.8056,95.6477],[5.1736,6.8133,85.623],[5.1838,6.8166,92.3855],[5.1872,6.8262,87.5225],[5.1853,6.8482,135.9359],[5.1926,6.8608,161.2814],[5.2031,6.868,131.3184],[5.2282,6.877,139.2201],[5.2448,6.8716,161.2583],[5.2625,6.8706,152.3681],[5.2829,6.8751,144.9195],[5.2993,6.8767,129.7659],[5.3265,6.8709,114.3659],[5.3491,6.8735,118.7201],[5.3713,6.872,124.7464],[5.3937,6.8726,121.1338],[5.4146,6.8694,135.6032],[5.4338,6.8691,127.8185],[5.4747,6.8726,129.7105],[5.487,6.8754,123.3707],[5.5135,6.8698,126.6539],[5.5292,6.8564,98.5327],[5.5416,6.8361,48.478],[5.5396,6.8304,45.0662],[5.5337,6.8217,41.0283],[5.514,6.8057,85.5584],[5.5091,6.7998,101.7918],[5.5163,6.7761,112.9523],[5.5256,6.763,105.827],[5.5307,6.736,42.5606],[5.539,6.7227,41.3836],[5.543,6.7115,33.2786],[5.555,6.712,37.7101],[5.5731,6.7325,26.1285],[5.5798,6.7333,30.2359],[5.5887,6.74,31.6579],[5.6005,6.7541,35.6075],[5.6159,6.7631,36.8626],[5.6375,6.7611,36.7141],[5.6448,6.7545,39.1114],[5.6568,6.7373,51.3435],[5.6698,6.7315,57.027],[5.6794,6.7378,55.8431],[5.7131,6.7481,38.4995],[5.7212,6.7675,38.1695],[5.7329,6.7895,50.1745],[5.7375,6.8028,52.7234],[5.7476,6.8686,118.8519],[5.7529,6.8828,130.088],[5.7569,6.8869,138.6002],[5.7711,6.8832,123.3533],[5.7761,6.8787,106.2862],[5.7785,6.8861,122.551],[5.7761,6.8937,144.5997],[5.7763,6.905,139.5467],[5.781,6.9079,125.4056],[5.7851,6.9083,149.063],[5.7905,6.9132999999999996,156.0377],[5.7906,6.9191,79.9303],[5.788,6.9265,72.7712],[5.7689,6.9471,136.5425],[5.774,6.9653,151.883],[5.7697,6.9686,134.5832],[5.7696,6.9783,138.8487],[5.7754,7.0038,151.7119],[5.7787,7.0111,160.7934],[5.7789,7.0219,157.9053],[5.7845,7.0276,141.1321],[5.7872,7.035,121.2446],[5.7989,7.0488,161.1149],[5.8174,7.0617,112.0355],[5.8234,7.0606,133.6308],[5.8294,7.0744,124.9989],[5.8281,7.0806,133.2505],[5.8244,7.0821,128.1484],[5.8243,7.0878,137.159],[5.8269,7.0952,179.7741],[5.8323,7.1002,142.9103],[5.8396,7.1245,146.1454],[5.8599,7.1631,153.6629],[5.865,7.1827,242.6774],[5.8764,7.1991,183.2961],[5.8783,7.2048,199.4788],[5.874,7.2086,223.3526],[5.874,7.2215,186.5492],[5.8816,7.2382,240.405],[5.8967,7.2562,212.6053],[5.9035,7.2604,203.6672],[5.9101,7.2677,191.591],[5.92,7.2717,215.2951],[5.935,7.2816,234.2344],[5.9447,7.2847,220.1909],[5.9528,7.299,264.7319],[5.9607,7.3321,260.4541],[5.9678,7.3417,275.7751],[5.961,7.3462,305.4593],[5.9595,7.3561,328.0399],[5.9504,7.3775,302.5692],[5.9484,7.3863,307.6471],[5.9489,7.399,303.4575],[5.953,7.4102,283.9728],[5.9577,7.4143,289.5789],[5.9617,7.4237,295.8671],[5.9626,7.4329,296.9503],[5.9578,7.4374,317.0911],[5.9387,7.44,321.9397],[5.9337,7.4454,317.2843],[5.93,7.4462,318.2593],[5.9235,7.4597,328.0562],[5.9264,7.482,358.8143],[5.9312,7.4888,340.1119],[5.9434,7.5011,322.1866],[5.946,7.5075,301.1523],[5.9493,7.5097,293.3764],[5.955,7.5073,288.9106],[5.9744,7.5075,356.5767],[5.9777,7.5109,329.5118],[5.9826,7.5124,306.821],[5.9889,7.5171,314.6322],[6.0021,7.5368,312.8543],[6.0055,7.5464,345.9636],[6.0174,7.5559,330.8186],[6.0284,7.5734,347.7229],[6.0225,7.5844,362.0225],[6.0246,7.586,354.0714],[5.9803,7.6285,353.1788],[5.9597,7.6427,357.6031],[5.9481,7.6533,362.5589],[5.9423,7.6635,390.9422],[5.9318,7.6736,395.5724],[5.9151,7.6967,371.1469],[5.9159,7.7179,370.0247],[5.9193,7.7255,372.2022],[5.9228,7.7563,424.8542],[5.9266,7.7634,433.9243],[5.9204,7.7672,453.3458],[5.9094,7.7695,415.2092],[5.8861,7.7704,417.0478],[5.8766,7.7689,416.5986],[5.8682,7.7651,438.0151],[5.8508,7.7633,498.9342],[5.817,7.7554,512.2026],[5.8114,7.7561,536.6599],[5.8032,7.7432,470.1556],[5.795,7.7352,502.5477],[5.7925,7.7256,513.4977],[5.7869,7.7176,479.0209],[5.7736,7.7128,498.6275],[5.7653,7.7249,501.7334],[5.7495,7.7328,546.6746],[5.7386,7.7313,531.447],[5.7377,7.7341,539.3077],[5.7193,7.7266,556.2855],[5.7057,7.6934,488.5482],[5.6935,7.6811,494.4911],[5.6848,7.6755,513.9133],[5.6704,7.67,513.4974],[5.6424,7.6389,422.8264],[5.6317,7.63,442.3105],[5.6237,7.6198,425.0092],[5.6133,7.5955,407.1457],[5.6077,7.5587,379.2256],[5.5987,7.5328,345.3738],[5.591,7.4845,322.492],[5.5858,7.465,325.7467],[5.5583,7.4017,311.6989],[5.5348,7.3636,311.2199],[5.5091,7.3304,321.9131],[5.4939,7.3182,352.2033],[5.4689,7.3004,346.1009],[5.4451,7.2862,326.4597],[5.4198,7.274,319.4814],[5.383,7.2835,336.6716],[5.3812,7.2934,331.2001],[5.3654,7.3268,324.5077],[5.368,7.3406,345.6923],[5.3625,7.3599,328.0284],[5.3551,7.3713,324.4552],[5.3497,7.3841,320.924],[5.3513,7.3921,330.1335],[5.3443,7.4052,327.0502],[5.3337,7.4171,331.254],[5.3326,7.4217,332.9705],[5.3283,7.4278,326.3303],[5.3142,7.431,332.4249],[5.3033,7.4363,360.3421],[5.2977,7.4378,388.3509],[5.2952,7.4365,373.7839],[5.2332,7.431,380.8382],[5.1907,7.4313,367.7215],[5.1603,7.4341,389.7466],[5.1411,7.434,410.7213],[5.1179,7.4379,414.5303],[5.0966,7.4352,410.7961],[5.065,7.4383,344.6763],[5.043,7.4336,336.8598],[5.0177,7.4227,334.6328],[4.9915,7.4149,343.6632],[4.9993,7.4,338.7295],[5.0015,7.3762,308.9878],[4.9924,7.3717,324.2868],[4.9706,7.3693,330.6144],[4.9068,7.3506,348.8426],[4.8933,7.3413,277.4949],[4.8836,7.2993,266.3381],[4.878,7.283,251.9679],[4.8775,7.2604,327.4144],[4.8681,7.2359,251.4535],[4.8695,7.2114,235.2575],[4.8756,7.1716,258.3021],[4.869,7.1376,272.2225],[4.8727,7.1112,238.4965],[4.8707,7.0997,242.2028],[4.8625,7.0909,248.5998],[4.85,7.0892,270.6446],[4.8332,7.0914,254.1147],[4.8199,7.0983,241.5469],[4.7862,7.1272,260.5471],[4.7696,7.131,247.637],[4.763,7.1343,254.454],[4.7615,7.141,226.5422],[4.7456,7.1473,222.982],[4.7249,7.1497,235.7888],[4.7082,7.147,229.2258],[4.6954,7.1403,207.9402],[4.6926,7.1355,242.7628],[4.6704,7.1211,220.4322],[4.639,7.0914,212.2209],[4.6283,7.072,162.5945],[4.623,7.0555,165.6851],[4.6194,7.0373,150.0628],[4.6118,7.0218,147.8545],[4.6042,7.0113,155.4129],[4.5826,6.9987,117.9929],[4.5733,6.9973,152.8793],[4.5611,6.9883,89.7505],[4.5582,6.9768,92.7906],[4.5597,6.9546,91.4147],[4.5556,6.9457,91.3543],[4.5526,6.933,97.927],[4.5508,6.931,107.9288],[4.5513,6.9224,109.2815],[4.5491,6.8994,102.3089],[4.5416,6.8762,101.1958],[4.5385,6.8574,86.1981],[4.5319,6.8469,156.6145],[4.5208,6.8335,58.2428],[4.5087,6.8258,62.3158],[4.4939,6.8129,43.6256],[4.4746,6.8056,53.957],[4.4607,6.7973,38.8766],[4.4292,6.7667,33.8059],[4.4021,6.7444,48.7776],[4.3968,6.7331,21.3755],[4.3839,6.7179,36.481],[4.3633,6.685,26.5616],[4.3539,6.6649,43.7163],[4.3558,6.6344,15.7084],[4.3523,6.6234,11.8139],[4.3544,6.6097,13.3106],[4.3605,6.5983,19.2068],[4.3869,6.578,53.1329],[4.4056,6.5759,29.2405],[4.4314,6.5692,36.6318],[4.457,6.5676,40.7353],[4.4645,6.565,28.2404],[4.4717,6.5651,34.3088],[4.4798,6.5677,36.9189],[4.4883,6.5662,18.3119],[4.4941,6.567,20.498],[4.5002,6.5731,36.9699],[4.517,6.5841,19.9422],[4.5262,6.5941,34.2366],[4.5336,6.6099,39.1599],[4.5437,6.6208,32.4199],[4.5595,6.6286,34.2766],[4.5722,6.6291,55.7819],[4.5826,6.6165,32.4603],[4.586,6.6072,65.6253],[4.5864,6.5601,28.6832],[4.5824,6.5443,15.1271],[4.5856,6.5138,7.7718],[4.596,6.4866,14.261],[4.5923,6.4719,8.3388],[4.5845,6.4572,7.9277],[4.5653,6.4541,13.1648],[4.545,6.4466,8.9065],[4.5325,6.4281,5.55],[4.5146,6.4171,5.3909],[4.4917,6.418,0.1539],[4.4757,6.4155,10.1735],[4.4636,6.4051,5.2399],[4.4544,6.3937,8.2787],[4.4702,6.3868,10.7734],[4.494,6.3905,0.0],[4.5153,6.3908,1.0247],[4.5387,6.3801,3.9987],[4.5686,6.3627,10.6847],[4.572,6.3453,15.1018],[4.5626,6.3197,6.9551],[4.5587,6.3174,8.3596],[4.542,6.3154,2.8292],[4.5181,6.323,4.593],[4.494,6.3218,2.4562],[4.4963,6.3213,3.2213],[4.5007,6.3154,0.0],[4.5054,6.3146,0.0],[4.5051,6.3132,0.0],[4.5107,6.3087,0.0],[4.5268,6.3007,0.0],[4.5329,6.296,0.0],[4.5376,6.2951,0.0],[4.5379,6.2918,0.0],[4.5454,6.2843,0.0],[4.5543,6.2776,0.0],[4.5671,6.2707,0.0],[4.569,6.271,0.9935],[4.5693,6.269,1.3367],[4.5774,6.2621,0.3824],[4.6096,6.2376,0.0],[4.6149,6.234,0.0],[4.6185,6.2365,0.6381],[4.6179,6.2324,0.0],[4.6324,6.2185,0.0],[4.6537,6.204,1.2125],[4.6621,6.1951,0.0],[4.6754,6.1854,0.0],[4.6804,6.1793,0.1894],[4.6915,6.1704,0.0],[4.6938,6.171,0.325],[4.7113,6.1529,0.0],[4.7374,6.1357,0.9312],[4.7385,6.1324,0.0],[4.7413,6.1318,0.0],[4.7518,6.1221,0.2686],[4.7554,6.121,0.1879],[4.7571,6.1171,0.0],[4.7657,6.1118,0.0],[4.766,6.1096,0.0],[4.7771,6.1018,0.6067],[4.7776,6.0999,0.0],[4.7793,6.1001,0.2944],[4.7834,6.094,0.0],[4.7993,6.0799,0.0],[4.7999,6.0779,0.0],[4.8079,6.0721,0.0],[4.816,6.0626,0.0],[4.8201,6.0607,0.0],[4.821,6.0582,0.0],[4.8315,6.049,0.724],[4.8374,6.041,0.0],[4.8474,6.0329,4.4097],[4.8565,6.0221,1.7514],[4.8668,6.0137,1.3444],[4.886,5.9938,1.7137],[4.929,5.9432,0.0],[4.9296,5.944,3.1149],[4.9274,5.9474,3.6932],[4.9118,5.966,3.5933],[4.914,5.9646,3.0002],[4.9329,5.9429,3.3088],[4.9368,5.9401,2.4638],[4.9349,5.9374,0.3107],[4.9404,5.9368,2.7239],[4.9451,5.9299,4.3802],[4.944,5.9265,3.7595],[4.9638,5.9082,0.0],[4.9742,5.8915,0.0],[4.9771,5.8918,1.6987],[4.9804,5.8888,4.6686],[5.0037,5.8563,7.1848],[5.1191,6.1365,14.3321],[5.1215,6.1456,13.3436],[5.1078,6.1643,12.2671],[5.1068,6.1729,10.2572],[5.1016,6.1822,8.7616],[5.0925,6.1916,6.9332],[5.0802,6.199,7.8554],[5.0737,6.2007,7.4431],[5.055,6.2005,6.8921],[5.0503,6.208,8.7859],[5.0502,6.2177,3.1564],[5.0387,6.2343,10.6067],[5.0323,6.2406,7.7267],[5.0283,6.2481,7.733],[5.0093,6.2583,5.4547],[4.997,6.27,4.2827],[4.9857,6.2709,5.0967],[4.981,6.2782,3.8808],[4.9786,6.2856,5.6701],[4.9827,6.2952,15.5962],[4.9782,6.2881,11.8879],[4.9832,6.297,16.9759],[4.991,6.2994,13.5789]]],
[[[4.9382,5.9349,3.5435],[4.9365,5.9362,3.243],[4.9415,5.9307,2.4086],[4.9413,5.9324,5.7191],[4.9382,5.9349,3.5435]]]]}}