{"type":"Feature","properties":{"GID_2":"NGA.35.4_1","GID_0":"NGA","country":"Nigeria","GID_1":"NGA.35_1","province":"Taraba","NL_NAME_1":"NA","county":"Gashaka","VARNAME_2":"NA","NL_NAME_2":"NA","TYPE_2":"LocalAuthority","ENGTYPE_2":"LocalAuthority","CC_2":"NA","HASC_2":"NA","name":"Gashaka.county"},
"geometry":{"type": "MultiPolygon","coordinates": [[[[12.0124,7.5076,832.9257],[12.0073,7.508,1054.1312],[11.9921,7.4993,957.6953],[11.9709,7.498,1452.679],[11.9604,7.495,1669.2583],[11.9507,7.4878,1515.8094],[11.9356,7.4701,1252.4004],[11.9244,7.4526,1341.6543],[11.916,7.4444,1282.2836],[11.8962,7.4584,1115.2913],[11.8971,7.4837,1431.1006],[11.8893,7.5088,1087.6917],[11.8657,7.5582,1085.1052],[11.8596,7.6152,373.4891],[11.8476,7.6431,534.1467],[11.857,7.7316,377.4048],[11.8401,7.7641,411.7031],[11.8055,7.8059,422.0178],[11.7679,7.8434,540.4083],[11.7357,7.8679,353.3913],[11.7078,7.8978,473.0628],[11.6954,7.9185,401.7239],[11.6707,7.9366,374.6051],[11.6477,7.9436,449.7582],[11.6213,7.9374,456.8365],[11.6011,7.9093,308.081],[11.5964,7.8986,276.2421],[11.5756,7.8728,335.2968],[11.5588,7.857,318.2306],[11.5441,7.8462,285.8339],[11.5316,7.8408,271.8466],[11.4879,7.8803,310.884],[11.4767,7.9027,313.041],[11.441,7.9559,323.1764],[11.4343,7.9746,382.5867],[11.4281,8.0007,340.3437],[11.4001,8.0644,361.2681],[11.4029,8.0695,363.1395],[11.3542,8.065,437.2772],[11.292,8.0639,427.7476],[11.267,8.0573,408.3918],[11.2247,8.0412,282.8877],[11.2077,8.0328,253.902],[11.1922,8.0221,244.6139],[11.179,8.016,260.3358],[11.1338,7.9872,227.9388],[11.1136,7.9669,226.6352],[11.0912,7.9513,248.1503],[11.0611,7.9044,354.2734],[11.0584,7.891,222.7616],[11.0528,7.8752,220.2226],[11.0445,7.8678,197.9999],[11.038,7.8572,192.8069],[11.0235,7.8452,181.5739],[11.0145,7.8437,200.2171],[10.9686,7.822,496.9731],[10.956,7.8143,229.9939],[10.9512,7.7956,249.0627],[10.9559,7.7794,189.0752],[10.9485,7.7516,232.8665],[10.929,7.7418,230.0946],[10.8967,7.7181,226.6219],[10.8963,7.7155,231.9798],[10.8732,7.7039,843.896],[10.8557,7.6851,860.34],[10.8594,7.6857,954.4811],[10.8727,7.6801,906.0723],[10.879,7.6753,886.7418],[10.8976,7.6573,997.9669],[10.907,7.6435,800.1815],[10.9167,7.6369,742.3598],[10.9369,7.6182,392.4576],[10.956,7.6042,353.6649],[10.9705,7.5887,656.4357],[10.9692,7.5832,772.0069],[10.9747,7.5788,645.6322],[10.9791,7.5633,331.8475],[10.9845,7.5613,341.5511],[10.9944,7.5397,493.808],[10.9936,7.5294,649.7087],[10.9956,7.5136,608.0034],[10.9992,7.5026,514.2989],[10.9965,7.4928,539.2447],[11.0002,7.4628,599.0068],[11.0079,7.4471,845.3908],[11.0065,7.4387,829.5714],[11.0132,7.4168,831.1372],[11.0244,7.3999,853.924],[11.0249,7.39,855.7419],[11.0327,7.3752,896.4949],[11.0511,7.3541,896.8196],[11.0629,7.3454,926.6699],[11.0797,7.3552,896.3076],[11.1062,7.3662,964.8202],[11.1342,7.3906,764.2131],[11.1399,7.3939,556.4556],[11.1658,7.3965,431.2243],[11.1865,7.3931,428.7687],[11.1952,7.3883,407.0334],[11.198,7.3837,414.2101],[11.2009,7.3721,414.0612],[11.2018,7.3524,426.9708],[11.2096,7.3337,385.7133],[11.2097,7.3254,386.066],[11.2126,7.3153,408.9418],[11.2071,7.2901,451.5751],[11.204,7.2595,418.4027],[11.201,7.2451,410.8627],[11.2159,7.2093,431.834],[11.2311,7.2036,415.3046],[11.2369,7.1977,400.6758],[11.2569,7.1863,417.342],[11.2634,7.1796,429.6895],[11.2731,7.1625,421.3076],[11.2947,7.1576,430.4841],[11.3074,7.1434,459.5004],[11.327,7.1164,453.8954],[11.3422,7.1024,446.307],[11.349,7.0897,445.4163],[11.3697,7.0758,454.275],[11.4131,7.0634,593.0549],[11.4239,7.0717,691.4827],[11.4499,7.0784,746.6716],[11.4772,7.0822,928.4374],[11.5289,7.0989,848.0693],[11.5383,7.1006,862.64],[11.5684,7.1123,942.9855],[11.5982,7.1158,811.8245],[11.6044,7.1184,695.4865],[11.6255,7.1142,742.3079],[11.6456,7.106,871.0386],[11.6504,7.1064,739.4258],[11.6612,7.0986,864.6852],[11.6695,7.0958,923.4608],[11.6773,7.0813,1060.9644],[11.6788,7.0718,1351.7117],[11.6918,7.0561,1610.8798],[11.7155,7.0326,2403.8611],[11.7083,7.0492,2270.313],[11.7078,7.0524,2266.3979],[11.7099,7.0553,2305.6646],[11.7166,7.0527,2331.9443],[11.7329,7.0577,1707.9878],[11.7473,7.056,1591.8463],[11.7678,7.0493,1709.0708],[11.7772,7.0484,2107.0283],[11.783,7.0509,2171.4253],[11.7923,7.0626,2047.8778],[11.7999,7.0763,2110.2627],[11.8069,7.0814,2166.1333],[11.8188,7.0791,1930.2393],[11.8269,7.073,1825.1157],[11.8365,7.0867,1847.5745],[11.8497,7.0895,1788.1993],[11.8711,7.0794,1798.9647],[11.8723,7.0889,1868.5608],[11.8713,7.0928,1845.8066],[11.874,7.1036,1874.9124],[11.8733,7.1084,1825.2833],[11.8695,7.1112,1861.8988],[11.8638,7.1206,1779.3256],[11.8536,7.1295,1668.0012],[11.853,7.1386,1569.0802],[11.8488,7.1417,1465.196],[11.8479,7.1466,1493.0275],[11.8429,7.1536,1572.108],[11.8449,7.1653,1538.5215],[11.8372,7.1711,1506.1407],[11.8358,7.1766,1499.7491],[11.8371,7.1862,1477.3456],[11.8348,7.1912,1507.2017],[11.8394,7.2005,1400.7343],[11.841,7.21,1273.5234],[11.8451,7.2152,1286.7534],[11.8531,7.2209,1173.6873],[11.8543,7.2268,1219.6572],[11.8507,7.229,1187.0239],[11.8401,7.2298,1149.6478],[11.8137,7.2281,1219.4213],[11.811,7.2296,1185.4379],[11.8113,7.2336,1184.5841],[11.8168,7.2454,1142.067],[11.8367,7.2523,1229.9115],[11.8464,7.2656,1300.2683],[11.8578,7.2751,1276.113],[11.8671,7.2904,1271.0708],[11.8807,7.3073,1211.5514],[11.884,7.3254,1088.1777],[11.8907,7.3353,1112.7009],[11.8923,7.3485,1156.8066],[11.8952,7.3499,1132.0728],[11.9017,7.3496,1173.0118],[11.9161,7.3727,1404.6941],[11.9232,7.3762,1429.8456],[11.9337,7.3776,1532.5505],[11.9358,7.3798,1504.2156],[11.9433,7.3944,1297.8062],[11.944,7.4016,1344.0322],[11.9403,7.4168,1480.573],[11.942,7.4212,1369.5059],[11.9491,7.4304,1333.4396],[11.9613,7.4319,965.4902],[11.9633,7.4357,887.5078],[11.9655,7.4468,1191.0897],[11.9653,7.474,994.1503],[11.9683,7.4798,1177.5448],[11.9809,7.4934,1401.9221],[12.0087,7.5044,969.0308],[12.0124,7.5076,832.9257]]]]}}