{"type":"Feature","properties":{"GID_2":"NGA.25.16_1","GID_0":"NGA","country":"Nigeria","GID_1":"NGA.25_1","province":"Lagos","NL_NAME_1":"NA","county":"Mushin","VARNAME_2":"NA","NL_NAME_2":"NA","TYPE_2":"LocalAuthority","ENGTYPE_2":"LocalAuthority","CC_2":"NA","HASC_2":"NA","name":"Mushin.county"},
"geometry":{"type": "MultiPolygon","coordinates": [[[[3.3446,6.5748,26.1994],[3.3307,6.5663,27.4337],[3.3281,6.5627,14.6638],[3.3212,6.5342,4.8655],[3.3114,6.5285,11.7194],[3.3185,6.5283,10.2202],[3.3573,6.5346,26.0463],[3.3616,6.5672,33.7038],[3.3601,6.5761,36.4409],[3.3446,6.5748,26.1994]]]]}}