{"type":"Feature","properties":{"GID_2":"NGA.5.20_1","GID_0":"NGA","country":"Nigeria","GID_1":"NGA.5_1","province":"Bauchi","NL_NAME_1":"NA","county":"Zaki","VARNAME_2":"NA","NL_NAME_2":"NA","TYPE_2":"LocalAuthority","ENGTYPE_2":"LocalAuthority","CC_2":"NA","HASC_2":"NA","name":"Zaki.county"},
"geometry":{"type": "MultiPolygon","coordinates": [[[[10.7564,12.3363,349.6086],[10.7529,12.3578,348.2794],[10.7344,12.4043,349.4854],[10.7037,12.4326,346.7822],[10.6654,12.4619,347.1298],[10.6288,12.4836,346.4507],[10.6095,12.5025,347.8611],[10.564,12.4746,350.6718],[10.5404,12.4554,350.202],[10.4655,12.4131,349.7523],[10.4492,12.4018,350.6252],[10.4308,12.3925,350.5719],[10.4289,12.4145,351.0597],[10.4154,12.4406,349.4344],[10.3995,12.4536,353.1961],[10.3735,12.4531,350.8362],[10.3432,12.4449,350.2747],[10.2885,12.4244,351.0096],[10.2699,12.414,351.8264],[10.2595,12.3915,354.5075],[10.2504,12.3584,353.7834],[10.2407,12.3129,354.9704],[10.2249,12.2673,356.8458],[10.2003,12.2106,357.8583],[10.1767,12.1297,361.8163],[10.1615,12.0869,364.4225],[10.1707,12.057,368.4332],[10.171,12.0371,369.4628],[10.1899,12.028,366.1493],[10.2101,12.0033,367.55],[10.2281,11.9624,371.8239],[10.2324,11.9438,372.6887],[10.2398,11.9255,374.3511],[10.2493,11.9148,376.9185],[10.2697,11.9081,373.7372],[10.3417,11.9018,377.6188],[10.3892,11.8954,381.1734],[10.4149,11.8901,382.4753],[10.4427,11.8817,380.7498],[10.4321,11.9059,377.9189],[10.434,11.9233,375.0609],[10.4341,11.9573,368.5987],[10.4191,11.9923,367.9743],[10.4066,12.0346,368.1217],[10.4142,12.0562,364.0806],[10.4272,12.0815,363.4898],[10.4336,12.1096,362.0355],[10.429,12.1312,361.9891],[10.4102,12.157,360.0788],[10.397,12.1658,360.4467],[10.3743,12.1632,360.801],[10.3549,12.1555,361.8263],[10.3413,12.1575,360.7868],[10.3316,12.1707,360.3979],[10.3435,12.1926,359.1593],[10.3645,12.219,356.9584],[10.4003,12.2763,355.5071],[10.4223,12.3027,352.8494],[10.4534,12.3219,354.048],[10.4683,12.328,353.287],[10.4883,12.3326,353.5705],[10.5259,12.3458,351.6363],[10.548,12.3609,351.0524],[10.5568,12.3585,350.3104],[10.5606,12.3466,352.6396],[10.5663,12.3358,350.5732],[10.5809,12.3275,355.1086],[10.6086,12.3323,350.9527],[10.6313,12.3448,350.4992],[10.6538,12.3525,350.308],[10.6691,12.3539,350.1194],[10.6764,12.3537,349.3803],[10.6882,12.3488,348.7944],[10.7033,12.3466,348.5383],[10.7391,12.3364,350.9545],[10.7564,12.3363,349.6086]]]]}}