{"type": "Feature","bbox": [3.8871,12.0775,4.266,12.4305],"geometry": {"type": "MultiPolygon","coordinates": [[[[3.8947,12.2509,214.3783],[3.9005,12.2468,216.4246],[3.9173,12.2468,208.4039],[3.9674,12.2425,222.1],[3.9998,12.2371,183.8065],[4.0251,12.2062,192.978],[4.0346,12.1821,189.1459],[4.0571,12.1646,203.3685],[4.1027,12.1519,199.0483],[4.121,12.1334,180.9094],[4.1252,12.1178,186.3899],[4.1359,12.0911,205.752],[4.1359,12.0775,203.2505],[4.1461,12.0804,205.2036],[4.1526,12.0862,207.6523],[4.1568,12.1004,214.3024],[4.1557,12.1112,234.1024],[4.1612,12.1182,230.495],[4.1626,12.1378,239.515],[4.1723,12.1453,208.3515],[4.1925,12.1527,234.6836],[4.1983,12.1565,239.9548],[4.1996,12.163,242.8795],[4.2124,12.1686,237.3664],[4.2166,12.1738,230.0158],[4.2234,12.1979,256.5339],[4.2325,12.2148,233.0856],[4.248,12.2263,225.3191],[4.2517,12.2314,226.4897],[4.2618,12.2572,212.4845],[4.266,12.2638,206.1751],[4.2572,12.2705,199.2346],[4.2464,12.2896,214.2208],[4.2333,12.3044,201.0107],[4.2203,12.3147,195.1518],[4.2031,12.3193,190.1624],[4.1861,12.3152,194.4346],[4.1708,12.3164,205.9521],[4.1497,12.3208,214.514],[4.1036,12.3387,227.9208],[4.0863,12.3487,239.9555],[4.0793,12.365,237.5581],[4.0669,12.3806,237.3713],[4.0611,12.3907,280.7143],[4.0252,12.4305,190.7072],[4.0074,12.4021,188.3536],[4.0012,12.3895,189.3404],[3.9989,12.3764,188.791],[3.9955,12.3701,188.6998],[3.9842,12.3582,187.93],[3.974,12.3516,194.1092],[3.9477,12.3409,216.2007],[3.9271,12.3388,225.0141],[3.914,12.3428,223.0348],[3.9025,12.3441,226.3919],[3.8921,12.3345,234.8281],[3.8877,12.3181,245.1041],[3.8871,12.3081,243.322],[3.9004,12.2819,226.0573],[3.9006,12.2552,211.0154],[3.8947,12.2509,214.3783]]]]}
,"properties": {"GID_2": "NGA.22.13_1","GID_0": "NGA","country": "Nigeria","GID_1": "NGA.22_1","province": "Kebbi","NL_NAME_1": "NA","county": "Kalgo","VARNAME_2": "NA","NL_NAME_2": "NA","TYPE_2": "LocalAuthority","ENGTYPE_2": "LocalAuthority","CC_2": "NA","HASC_2": "NA","name": "Kalgo.county","area_km2": 697.0296,"hist_schema_id": "Elevation0-9000","hist_area_km2": {"175": 86.8135,"200": 294.462,"225": 280.6169,"250": 32.9004,"275": 2.2368}}}