{"type": "Feature","bbox": [3.0389,6.6434,3.4409,6.8881],"geometry": {"type": "MultiPolygon","coordinates": [[[[3.3538,6.6692,36.8889],[3.3568,6.6664,38.7112],[3.3586,6.6616,27.9381],[3.362,6.6594,6.6208],[3.3698,6.6434,28.7156],[3.4409,6.6501,3.6059],[3.4297,6.657,3.4593],[3.4216,6.6668,6.9507],[3.4159,6.6838,2.9914],[3.4178,6.6911,8.4034],[3.4026,6.6897,3.4591],[3.3932,6.6936,5.4189],[3.39,6.6957,6.46],[3.3832,6.7062,8.6046],[3.3766,6.7107,4.1009],[3.3703,6.7212,4.3957],[3.3682,6.7297,7.6625],[3.3685,6.7392,13.7884],[3.3792,6.7858,11.2886],[3.3789,6.7954,9.3425],[3.3812,6.806,12.2174],[3.3757,6.8271,11.5966],[3.3667,6.8358,16.0258],[3.3551,6.832,14.8836],[3.3192,6.8287,8.6966],[3.3007,6.8242,8.3049],[3.2943,6.8264,10.7127],[3.2875,6.8329,15.1905],[3.2756,6.8407,13.7476],[3.2605,6.8479,17.6011],[3.2188,6.8535,42.8201],[3.1762,6.8553,99.7472],[3.1276,6.8628,118.4208],[3.1185,6.869,123.3402],[3.1101,6.8779,106.3342],[3.0939,6.8851,91.0319],[3.0759,6.8881,114.4719],[3.0676,6.8878,88.5295],[3.0487,6.8838,95.5997],[3.0413,6.8747,79.3927],[3.0389,6.8662,48.8598],[3.0436,6.8472,60.1486],[3.0486,6.84,61.8073],[3.0519,6.8279,58.2977],[3.0738,6.7866,50.8496],[3.0743,6.7766,74.0369],[3.0694,6.7666,73.748],[3.0772,6.7651,82.8658],[3.1084,6.7691,49.8528],[3.1592,6.7584,36.2382],[3.2239,6.7672,48.5892],[3.2337,6.7721,48.7157],[3.2439,6.7655,85.5387],[3.2498,6.7596,76.4041],[3.2566,6.7489,77.8471],[3.2606,6.7373,78.4736],[3.26,6.7304,79.4578],[3.266,6.7179,53.1347],[3.266,6.707,34.5555],[3.2823,6.7025,65.9521],[3.3108,6.6914,64.017],[3.3374,6.6794,16.5932],[3.3538,6.6692,36.8889]]]]}
,"properties": {"GID_2": "NGA.28.7_1","GID_0": "NGA","country": "Nigeria","GID_1": "NGA.28_1","province": "Ogun","NL_NAME_1": "NA","county": "Ifo","VARNAME_2": "NA","NL_NAME_2": "NA","TYPE_2": "LocalAuthority","ENGTYPE_2": "LocalAuthority","CC_2": "NA","HASC_2": "NA","name": "Ifo.county","area_km2": 487.3526,"hist_schema_id": "Elevation0-9000","hist_area_km2": {"0": 85.1499,"25": 92.0057,"50": 118.6823,"75": 121.6666,"100": 60.7754,"125": 9.0727}}}