{"type":"Feature","properties":{"GID_2":"NGA.1.3_1","GID_0":"NGA","country":"Nigeria","GID_1":"NGA.1_1","province":"Abia","NL_NAME_1":"NA","county":"Arochukwu","VARNAME_2":"NA","NL_NAME_2":"NA","TYPE_2":"LocalAuthority","ENGTYPE_2":"LocalAuthority","CC_2":"NA","HASC_2":"NA","name":"Arochukwu.county"},
"geometry":{"type": "MultiPolygon","coordinates": [[[[7.6415,5.5134,80.0639],[7.6454,5.5259,80.6949],[7.6605,5.5291,48.5713],[7.6845,5.5282,64.0055],[7.7232,5.5211,47.6741],[7.7394,5.5134,35.9663],[7.7503,5.5022,23.3162],[7.7587,5.4896,25.649],[7.7625,5.4681,31.043],[7.7681,5.4555,26.7865],[7.7915,5.4343,24.4319],[7.8125,5.4208,33.0187],[7.8258,5.416,35.2971],[7.8442,5.4122,44.9235],[7.8536,5.4072,35.972],[7.8748,5.3905,11.6752],[7.8878,5.3778,8.1966],[7.8971,5.365,9.5205],[7.9132,5.3617,15.7833],[7.9361,5.3539,23.2956],[7.9523,5.3527,67.3831],[7.962,5.3724,145.4406],[7.9498,5.4136,46.3051],[7.9221,5.446,43.5505],[7.9103,5.4731,54.6766],[7.9065,5.4942,50.1326],[7.8971,5.526,77.1171],[7.8882,5.548,59.9647],[7.8873,5.5584,39.0639],[7.8793,5.5542,51.4877],[7.8746,5.5483,43.6312],[7.872,5.5403,50.0258],[7.8727,5.5269,67.276],[7.8671,5.5095,156.0954],[7.8475,5.5101,163.596],[7.8248,5.5063,64.6196],[7.8141,5.4998,28.7015],[7.7923,5.4916,46.4507],[7.7862,5.4864,28.5572],[7.7727,5.4825,37.5846],[7.7623,5.5235,46.743899999999996],[7.7567,5.5584,84.9386],[7.7514,5.5727,40.619],[7.7484,5.5767,42.862],[7.747,5.5873,76.6737],[7.742,5.6042,70.5234],[7.7335,5.6207,74.4577],[7.726,5.6301,75.7418],[7.7142,5.6395,58.372],[7.6953,5.6456,46.5045],[7.6879,5.6406,50.2006],[7.676,5.6358,91.1772],[7.669,5.6306,90.5391],[7.6579,5.6271,83.3016],[7.6407,5.6327,97.2883],[7.6348,5.6413,92.4115],[7.6381,5.6281,91.8151],[7.6432,5.6179,82.5555],[7.6516,5.6104,72.2116],[7.6549,5.5981,97.2871],[7.6506,5.5913,70.24],[7.6373,5.5809,98.915],[7.6146,5.5721,98.7657],[7.6147,5.5651,106.6721],[7.6225,5.5475,80.9517],[7.6312,5.5342,89.6217],[7.6341,5.5256,68.6127],[7.6415,5.5134,80.0639]]]]}}