{"type":"Feature","properties":{"GID_2":"NGA.19.2_1","GID_0":"NGA","country":"Nigeria","GID_1":"NGA.19_1","province":"Kaduna","NL_NAME_1":"NA","county":"Chikun","VARNAME_2":"NA","NL_NAME_2":"NA","TYPE_2":"LocalAuthority","ENGTYPE_2":"LocalAuthority","CC_2":"NA","HASC_2":"NA","name":"Chikun.county"},
"geometry":{"type": "MultiPolygon","coordinates": [[[[6.7404,10.6307,549.9314],[6.7489,10.6393,565.51],[6.7783,10.6371,538.7001],[6.8253,10.6313,586.8413],[6.8351,10.6231,588.821],[6.8429,10.5925,556.8616],[6.8437,10.5664,535.4515],[6.8479,10.5392,506.0212],[6.8474,10.5205,495.9159],[6.8698,10.5182,534.3851],[6.8858,10.5274,587.1714],[6.9061,10.529,601.4413],[6.9323,10.5219,565.4935],[6.9471,10.4963,572.3654],[6.9643,10.4612,578.3519],[6.9634,10.4201,599.3611],[6.9549,10.393,577.3381],[6.9452,10.3703,549.6612],[6.9416,10.3538,489.1939],[7.0196,10.3273,493.3671],[7.0474,10.3142,497.2686],[7.0718,10.2993,513.2604],[7.0668,10.2676,504.0158],[7.0503,10.2391,511.689],[7.0258,10.2198,496.6806],[6.9978,10.2075,477.3095],[6.9818,10.1974,453.5421],[6.968,10.1737,440.2102],[6.9419,10.1469,405.8289],[6.9069,10.125,389.0892],[6.8921,10.1052,372.8246],[6.9087,10.0736,357.0],[6.9365,10.0469,408.5579],[6.9958,10.0205,401.6228],[7.0441,10.0071,403.8709],[7.0808,10.011,425.7346],[7.1182,10.0113,394.1187],[7.1458,10.0082,421.0784],[7.1808,10.0066,426.0862],[7.2289,10.0101,463.9432],[7.2501,10.0239,472.4065],[7.2576,10.0272,462.5231],[7.2838,10.0297,484.5756],[7.3093,10.0391,573.5152],[7.3256,10.0501,485.7288],[7.3392,10.0562,487.2951],[7.3517,10.0576,490.6905],[7.3605,10.0524,497.7159],[7.3833,10.0574,532.5439],[7.3869,10.0706,501.5795],[7.3932,10.0834,493.7068],[7.4241,10.1023,545.6425],[7.4419,10.1077,536.7584],[7.466,10.1118,553.1282],[7.4972,10.1072,585.9679],[7.5279,10.1163,607.1886],[7.5332,10.1144,627.2134],[7.5486,10.1202,613.6215],[7.5513,10.1331,597.8866],[7.5511,10.143,590.3908],[7.5591,10.1507,602.4877],[7.5721,10.1567,587.2863],[7.6049,10.158,605.3584],[7.6258,10.1565,628.3405],[7.6387,10.1588,604.8567],[7.6351,10.167,605.6677],[7.6249,10.1787,608.9781],[7.6201,10.1958,579.3998],[7.6083,10.2196,605.834],[7.5995,10.2332,673.142],[7.5876,10.2616,651.2126],[7.5974,10.266,659.1506],[7.6143,10.2847,647.3484],[7.6511,10.3109,655.0764],[7.7009,10.34,689.8271],[7.7157,10.3538,701.7466],[7.7604,10.4062,645.7084],[7.7658,10.4208,634.3013],[7.7926,10.4562,641.7923],[7.7959,10.4708,630.556],[7.802,10.4789,625.5358],[7.8037,10.4882,626.8998],[7.7987,10.496,611.1464],[7.7865,10.5009,622.8472],[7.7598,10.5162,618.3398],[7.7624,10.53,602.634],[7.7577,10.5439,608.4368],[7.7459,10.5609,605.2101],[7.7256,10.5656,638.0018],[7.6875,10.5547,630.4617],[7.6405,10.5464,618.2531],[7.6054,10.5285,639.9062],[7.5562,10.5104,656.8969],[7.5139,10.4995,602.1539],[7.4978,10.4932,639.2856],[7.4644,10.4838,608.6154],[7.4581,10.4781,585.1049],[7.4542,10.4721,603.1611],[7.4489,10.4471,609.4222],[7.4454,10.4413,609.8028],[7.4421,10.4279,590.5204],[7.4375,10.4193,603.2018],[7.4215,10.4136,592.999],[7.4059,10.4203,612.6649],[7.394,10.4402,590.1898],[7.3893,10.4526,594.1969],[7.3712,10.465,594.7798],[7.3614,10.4706,596.9211],[7.3224,10.4736,605.0541],[7.3104,10.4649,605.1264],[7.2929,10.446,580.2268],[7.2969,10.4285,590.035],[7.2961,10.4188,594.4723],[7.2907,10.4017,594.4213],[7.2923,10.3904,585.7474],[7.283,10.3788,582.7868],[7.2605,10.3658,578.3114],[7.2483,10.3728,595.7529],[7.2394,10.3944,553.497],[7.2346,10.4215,583.3236],[7.2446,10.447,604.0701],[7.2478,10.4648,601.1644],[7.2394,10.488,567.4848],[7.2499,10.5005,587.3524],[7.253,10.5158,568.8918],[7.2431,10.5482,571.733],[7.2418,10.5705,587.0739],[7.2504,10.5942,583.1861],[7.2604,10.615,616.3617],[7.2518,10.6286,583.764],[7.2388,10.6393,582.459],[7.206,10.6529,608.9055],[7.1946,10.6664,577.4821],[7.1989,10.678,605.7482],[7.1908,10.6888,597.5727],[7.1927,10.698,606.022],[7.1838,10.701599999999999,586.4376],[7.1707,10.7012,583.2207],[7.1562,10.698,617.4748],[7.0779,10.6976,692.4226],[7.0541,10.6934,675.7905],[7.0089,10.7106,664.7653],[6.9702,10.7455,647.7826],[6.9311,10.7668,621.9387],[6.898,10.7919,605.637],[6.8679,10.8114,571.1449],[6.8527,10.8165,549.9095],[6.8387,10.8169,577.9031],[6.8286,10.8045,558.6559],[6.8183,10.7589,599.6487],[6.8104,10.7378,666.3929],[6.7865,10.7246,543.9188],[6.7725,10.7072,543.1208],[6.7661,10.6921,589.0433],[6.761,10.6706,592.7926],[6.7559,10.6606,604.3621],[6.7403,10.6424,554.5332],[6.741,10.6394,575.0947],[6.7383,10.6343,584.3303],[6.7404,10.6307,549.9314]]]]}}