{"type": "Feature","bbox": [9.801,8.5651,10.655,9.4883],"geometry": {"type": "MultiPolygon","coordinates": [[[[9.9251,9.224,254.7969],[9.9166,9.2212,253.9323],[9.8997,9.2124,256.8662],[9.8816,9.1937,274.3403],[9.8856,9.1742,283.3687],[9.8938,9.1609,256.7699],[9.8948,9.1484,253.0503],[9.852,9.0695,271.3141],[9.8335,9.0575,229.3503],[9.8181,9.0412,301.1735],[9.8059,9.0351,453.771],[9.801,9.0209,400.1786],[9.8084,9.0209,321.1171],[9.8272,8.9776,256.6926],[9.8298,8.9606,243.0033],[9.8295,8.9459,239.4063],[9.8233,8.9245,211.8277],[9.8231,8.9046,190.6661],[9.83,8.8541,186.4414],[9.8378,8.8227,188.8052],[9.851,8.7821,197.9574],[9.8643,8.7498,187.2074],[9.9011,8.6863,156.5701],[9.9363,8.6526,138.7208],[9.9424,8.6523,136.7642],[9.9656,8.6452,132.9312],[9.9886,8.6305,130.1294],[9.9923,8.631,127.6096],[10.0249,8.6135,123.8277],[10.0338,8.6138,119.8293],[10.0389,8.6085,119.2628],[10.0461,8.6052,118.1461],[10.0494,8.6017,117.5918],[10.0743,8.5651,125.1296],[10.0934,8.5749,111.6601],[10.1274,8.6203,127.0999],[10.1701,8.6668,106.0705],[10.1905,8.7128,133.6727],[10.2033,8.7341,149.645],[10.2435,8.7573,137.4914],[10.3974,8.791,138.9408],[10.4281,8.7892,146.633],[10.4926,8.8164,118.0213],[10.6248,8.8834,171.3859],[10.6536,8.9329,138.4572],[10.655,8.9638,143.4081],[10.6499,9.0082,145.3198],[10.6501,9.0219,149.3883],[10.6433,9.0218,149.3475],[10.6383,9.0579,155.0444],[10.6473,9.0793,154.1104],[10.6433,9.1167,154.3949],[10.6339,9.1438,164.6996],[10.6303,9.176,158.8074],[10.6155,9.2029,162.4804],[10.5931,9.2379,169.6774],[10.5918,9.2675,168.8875],[10.5808,9.3335,189.6773],[10.5868,9.3577,176.5567],[10.5891,9.399,179.4934],[10.5883,9.4072,184.0966],[10.5609,9.4045,201.0427],[10.5395,9.4046,202.7311],[10.5215,9.4014,198.2769],[10.5072,9.3924,204.3377],[10.4649,9.3995,254.7265],[10.44,9.4011,281.1631],[10.4078,9.4143,250.1028],[10.3797,9.4343,265.2299],[10.3731,9.4418,274.8616],[10.3302,9.474,334.2528],[10.3086,9.4845,355.2362],[10.2792,9.4883,405.1444],[10.263,9.4823,424.8599],[10.2279,9.4752,421.6337],[10.2141,9.4671,391.9192],[10.1968,9.4685,422.2211],[10.1873,9.473,422.6236],[10.1707,9.4767,421.2526],[10.1432,9.4713,441.3273],[10.1188,9.4469,394.4819],[10.1076,9.4272,382.2296],[10.1024,9.4115,373.4926],[10.0992,9.3944,355.4999],[10.0768,9.3785,325.7834],[10.0624,9.3616,323.512],[10.053,9.3462,315.7133],[9.9992,9.3061,295.3],[9.9897,9.2933,289.7191],[9.9944,9.2775,275.0866],[10.005,9.2674,273.018],[10.0031,9.2551,266.9728],[9.9903,9.2444,267.639],[9.9536,9.2372,273.6898],[9.9404,9.2291,274.9781],[9.9251,9.224,254.7969]]]]}
,"properties": {"GID_2": "NGA.32.17_1","GID_0": "NGA","country": "Nigeria","GID_1": "NGA.32_1","province": "Plateau","NL_NAME_1": "NA","county": "Wase","VARNAME_2": "NA","NL_NAME_2": "NA","TYPE_2": "LocalAuthority","ENGTYPE_2": "LocalAuthority","CC_2": "NA","HASC_2": "NA","name": "Wase.county","area_km2": 6207.904,"hist_schema_id": "Elevation0-9000","hist_area_km2": {"100": 7.965,"125": 421.378,"150": 1115.769,"175": 1288.748,"200": 928.733,"225": 689.25,"250": 552.47,"275": 334.137,"300": 274.292,"325": 185.474,"350": 101.526,"375": 80.034,"400": 76.517,"425": 62.5,"450": 38.342,"475": 25.918,"500": 14.998,"525": 9.016,"550": 0.837}}}