{"type":"Feature","properties":{"GID_2":"NGA.12.1_1","GID_0":"NGA","country":"Nigeria","GID_1":"NGA.12_1","province":"Edo","NL_NAME_1":"NA","county":"Akoko-Edo","VARNAME_2":"NA","NL_NAME_2":"NA","TYPE_2":"LocalAuthority","ENGTYPE_2":"LocalAuthority","CC_2":"NA","HASC_2":"NA","name":"Akoko-Edo.county"},
"geometry":{"type": "MultiPolygon","coordinates": [[[[6.2364,7.1909,266.3694],[6.2415,7.2101,257.0483],[6.2402,7.229,235.8197],[6.2435,7.2605,272.1418],[6.2414,7.2776,416.7652],[6.2465,7.3029,514.1132],[6.2373,7.3238,408.9355],[6.2412,7.3318,450.638],[6.2378,7.3392,438.8885],[6.2463,7.3471,516.8361],[6.2645,7.3459,467.7432],[6.2778,7.3424,491.7792],[6.3013,7.328,470.9981],[6.3147,7.316,373.3935],[6.323,7.3122,473.8146],[6.3261,7.3174,431.5345],[6.3278,7.3273,311.6273],[6.3365,7.3329,308.5997],[6.3411,7.3335,361.0664],[6.3541,7.3427,268.507],[6.3647,7.3522,199.8947],[6.3888,7.3798,183.8431],[6.3829,7.3805,192.7276],[6.3555,7.3764,213.2198],[6.3464,7.3809,283.3343],[6.3398,7.3898,320.7261],[6.3327,7.404,231.0173],[6.3238,7.4125,239.4534],[6.315,7.4115,216.6447],[6.3137,7.417,349.1213],[6.2946,7.4342,218.1965],[6.2842,7.433,229.4525],[6.2661,7.4575,268.7644],[6.2641,7.4633,241.5192],[6.2589,7.4669,238.2909],[6.2435,7.4565,498.285],[6.2337,7.453,459.6255],[6.2248,7.4467,500.5012],[6.1984,7.4384,389.3568],[6.1661,7.4251,328.7393],[6.163,7.4196,319.5674],[6.1458,7.4266,314.419],[6.1363,7.4253,309.835],[6.1285,7.4282,315.3323],[6.1233,7.4334,319.3253],[6.1112,7.4408,342.417],[6.1066,7.4577,354.5392],[6.1066,7.475,394.634],[6.1103,7.4888,389.7544],[6.1258,7.5187,373.5501],[6.1259,7.5243,392.0886],[6.1214,7.5315,378.0787],[6.1024,7.526,395.0322],[6.0862,7.5275,381.9374],[6.0788,7.538,400.2802],[6.085,7.5524,407.9326],[6.0846,7.5568,399.6915],[6.0804,7.5633,391.6226],[6.0691,7.5691,366.1221],[6.0409,7.5631,315.8232],[6.0284,7.5734,347.7229],[6.0174,7.5559,330.8186],[6.0055,7.5464,345.9636],[6.0021,7.5368,312.8543],[5.9889,7.5171,314.6322],[5.9826,7.5124,306.821],[5.9777,7.5109,329.5118],[5.9744,7.5075,356.5767],[5.955,7.5073,288.9106],[5.9493,7.5097,293.3764],[5.946,7.5075,301.1523],[5.9434,7.5011,322.1866],[5.9312,7.4888,340.1119],[5.9264,7.482,358.8143],[5.9235,7.4597,328.0562],[5.93,7.4462,318.2593],[5.9337,7.4454,317.2843],[5.9387,7.44,321.9397],[5.9578,7.4374,317.0911],[5.9626,7.4329,296.9503],[5.9617,7.4237,295.8671],[5.9577,7.4143,289.5789],[5.953,7.4102,283.9728],[5.9489,7.399,303.4575],[5.9484,7.3863,307.6471],[5.9504,7.3775,302.5692],[5.9595,7.3561,328.0399],[5.961,7.3462,305.4593],[5.9678,7.3417,275.7751],[5.9607,7.3321,260.4541],[5.9528,7.299,264.7319],[5.9447,7.2847,220.1909],[5.935,7.2816,234.2344],[5.92,7.2717,215.2951],[5.9101,7.2677,191.591],[5.8906,7.2493,177.331],[5.9259,7.2364,214.4839],[5.9375,7.2298,227.6083],[5.948,7.2227,227.5359],[5.9521,7.2155,277.5087],[5.9614,7.2082,192.9297],[5.9727,7.2084,222.4933],[5.9784,7.2148,277.8541],[5.9961,7.2161,414.486],[5.9976,7.2209,427.5073],[6.0043,7.2229,422.2279],[6.0165,7.2185,354.3061],[6.0372,7.2318,261.4942],[6.0453,7.2291,280.1792],[6.0521,7.2211,310.3108],[6.0606,7.206,310.9439],[6.0605,7.1986,311.7491],[6.068,7.1939,271.8259],[6.0688,7.1879,267.6811],[6.0851,7.18,221.2771],[6.1094,7.1748,187.252],[6.1264,7.169,176.2336],[6.1319,7.1516,281.3405],[6.1468,7.1193,216.0175],[6.1548,7.1132,177.4113],[6.1526,7.1033,193.2165],[6.1595,7.1023,185.6771],[6.1658,7.1054,179.5232],[6.1706,7.1037,178.5107],[6.1829,7.1102,119.3773],[6.1886,7.1188,113.0275],[6.1974,7.1251,130.1112],[6.2123,7.1426,177.4238],[6.2335,7.189,250.6729],[6.2364,7.1909,266.3694]]]]}}