{"type": "Feature","bbox": [6.4469,12.3393,6.8217,12.6795],"geometry": {"type": "MultiPolygon","coordinates": [[[[6.7368,12.5878,443.4811],[6.7209,12.602,423.2253],[6.709,12.6039,416.7203],[6.7004,12.6108,412.2773],[6.6869,12.6166,408.451],[6.6824,12.6272,415.7267],[6.6744,12.6403,415.7234],[6.6684,12.647,418.0024],[6.666,12.646,418.417],[6.61,12.6663,398.1534],[6.5478,12.6678,363.8698],[6.5306,12.6757,379.7666],[6.5148,12.6792,380.9141],[6.5063,12.6766,393.3895],[6.4971,12.6795,398.4053],[6.4809,12.6777,377.6068],[6.4725,12.673,386.6171],[6.4512,12.639099999999999,408.0997],[6.4469,12.6185,485.4124],[6.4502,12.5929,471.731],[6.4547,12.5765,437.4942],[6.4534,12.5583,448.9569],[6.4583,12.5359,456.7233],[6.4581,12.5216,439.8545],[6.4812,12.4892,451.009],[6.4841,12.4752,459.3851],[6.5009,12.4799,448.2828],[6.5124,12.4803,434.2993],[6.5493,12.4769,426.6],[6.5708,12.4614,432.2561],[6.5821,12.4497,425.6043],[6.5928,12.4295,433.8296],[6.599,12.422,424.2512],[6.6156,12.4087,422.936],[6.6252,12.3987,426.0516],[6.644,12.3698,436.2216],[6.6516,12.3618,442.9856],[6.6609,12.3572,435.965],[6.6708,12.3555,433.1975],[6.6862,12.3614,418.8797],[6.72,12.3687,417.1281],[6.7304,12.3693,399.8398],[6.7504,12.3595,418.8995],[6.7679,12.3549,419.4185],[6.7759,12.3485,421.6808],[6.795,12.3417,415.6462],[6.805,12.3393,423.9081],[6.8217,12.3402,417.3505],[6.8179,12.3459,404.3229],[6.7959,12.3602,410.605],[6.7723,12.3805,416.0769],[6.7391,12.395,410.0048],[6.7198,12.3983,410.1535],[6.7099,12.4099,407.1267],[6.6981,12.419,408.2585],[6.6817,12.4478,402.334],[6.6704,12.4929,415.3502],[6.6674,12.5305,420.462],[6.668,12.5412,420.4819],[6.675,12.5551,418.5245],[6.6823,12.5607,423.1071],[6.686,12.5707,431.8655],[6.6979,12.5687,432.8392],[6.7139,12.5818,423.97],[6.7243,12.5872,433.3784],[6.7368,12.5878,443.4811]]]]}
,"properties": {"GID_2": "NGA.37.8_1","GID_0": "NGA","country": "Nigeria","GID_1": "NGA.37_1","province": "Zamfara","NL_NAME_1": "NA","county": "KauraNamoda","VARNAME_2": "NA","NL_NAME_2": "NA","TYPE_2": "LocalAuthority","ENGTYPE_2": "LocalAuthority","CC_2": "NA","HASC_2": "NA","name": "Kaura_Namoda.county","area_km2": 676.264,"hist_schema_id": "Elevation0-9000","hist_area_km2": {"350": 1.3861,"375": 68.6325,"400": 325.711,"425": 232.268,"450": 40.8985,"475": 7.0989,"500": 0.269}}}