{"type":"Feature","properties":{"GID_2":"NGA.23.14_1","GID_0":"NGA","country":"Nigeria","GID_1":"NGA.23_1","province":"Kogi","NL_NAME_1":"NA","county":"Ofu","VARNAME_2":"NA","NL_NAME_2":"NA","TYPE_2":"LocalAuthority","ENGTYPE_2":"LocalAuthority","CC_2":"NA","HASC_2":"NA","name":"Ofu.county"},
"geometry":{"type": "MultiPolygon","coordinates": [[[[6.6974,7.1621,57.7515],[6.6997,7.1682,50.3098],[6.7168,7.185,31.9531],[6.7191,7.1891,30.4754],[6.7362,7.231,33.5741],[6.7411,7.2645,97.5804],[6.7465,7.2679,117.9407],[6.7492,7.2651,112.4162],[6.7593,7.2621,102.4558],[6.7674,7.2493,62.139],[6.7888,7.2326,103.2291],[6.8131,7.2232,215.5828],[6.8346,7.2123,245.1841],[6.8514,7.2101,247.2105],[6.8867,7.1962,168.6948],[6.9279,7.1717,154.194],[6.9546,7.1701,145.1322],[6.9789,7.1734,125.3022],[7.002,7.1779,138.3651],[7.0159,7.1827,144.5731],[7.0347,7.1867,176.8725],[7.0406,7.1954,202.0055],[7.0421,7.2048,203.2376],[7.0415,7.2357,236.2221],[7.045,7.2416,252.4146],[7.048,7.2427,252.7396],[7.0899,7.2227,217.4422],[7.13,7.2206,203.4007],[7.1425,7.2236,223.3356],[7.1877,7.2203,151.115],[7.2027,7.2175,222.7982],[7.2169,7.2115,183.3815],[7.2295,7.1938,197.3806],[7.248,7.1804,219.1802],[7.2628,7.1723,184.6417],[7.287,7.1668,116.4019],[7.3043,7.1714,239.5106],[7.3127,7.1777,167.978],[7.3327,7.1974,283.9762],[7.3388,7.2076,232.2413],[7.3409,7.2352,199.2482],[7.3575,7.2649,225.2191],[7.371,7.2684,252.5274],[7.3877,7.2775,281.218],[7.4084,7.2803,272.0118],[7.4046,7.2835,277.3719],[7.4021,7.2946,301.9289],[7.4055,7.3083,189.5967],[7.4185,7.3153,198.5273],[7.4461,7.3236,324.1058],[7.4545,7.3289,331.726],[7.4637,7.3378,343.1924],[7.4713,7.3565,320.7685],[7.4747,7.3781,308.6667],[7.4749,7.393,310.4302],[7.4733,7.3904,310.2088],[7.4566,7.3847,303.5068],[7.3838,7.3799,307.1611],[7.3597,7.3831,258.9996],[7.3209,7.3803,304.7172],[7.2994,7.3804,319.4227],[7.2854,7.3837,299.9388],[7.2659,7.3907,266.9727],[7.2576,7.391,273.8807],[7.2506,7.3889,266.2398],[7.2428,7.3768,238.6727],[7.239,7.3676,207.7596],[7.2377,7.3582,220.6291],[7.2296,7.3436,242.3553],[7.2191,7.3369,235.6833],[7.2066,7.3334,199.4746],[7.1747,7.3291,227.2656],[7.157,7.3333,281.2057],[7.1456,7.3418,329.4437],[7.1142,7.3842,371.6872],[7.0945,7.4224,362.5142],[7.0891,7.4291,337.9498],[7.0888,7.4404,364.9004],[7.0916,7.4515,356.1708],[7.0901,7.4623,375.7954],[7.0847,7.4705,414.0041],[7.0774,7.4727,336.4488],[7.0709,7.4716,383.0166],[7.06,7.466,331.705],[7.0436,7.452,346.8795],[7.0283,7.4311,235.2961],[7.0284,7.4233,216.0721],[7.0239,7.4019,185.4059],[7.0201,7.396,210.1013],[7.0103,7.3913,273.3915],[6.9612,7.3921,321.2909],[6.9494,7.3914,377.8336],[6.9378,7.3884,256.8299],[6.9208,7.3894,165.6306],[6.8877,7.3842,145.633],[6.8677,7.3767,136.5697],[6.8509,7.388,148.6357],[6.8425,7.3995,133.759],[6.8295,7.411,105.5601],[6.8149,7.4207,76.3159],[6.8078,7.4215,79.0918],[6.8074,7.4259,67.3468],[6.8055,7.426,66.4613],[6.8038,7.4183,70.1024],[6.7841,7.4092,54.8565],[6.7763,7.4116,65.1799],[6.7703,7.417,84.5103],[6.7698,7.4251,93.065],[6.7547,7.4463,104.2806],[6.7483,7.4508,95.7248],[6.743,7.4521,74.0152],[6.7144,7.45,41.309],[6.7066,7.4517,31.2609],[6.7086,7.4077,31.369],[6.7078,7.3845,28.5],[6.7117,7.3556,31.3864],[6.7075,7.3243,35.625],[6.696,7.2964,28.0],[6.6778,7.2589,37.7718],[6.6714,7.2341,35.1303],[6.6703,7.2188,34.3615],[6.6858,7.2074,31.5939],[6.6907,7.1854,34.6805],[6.6984,7.1749,27.0],[6.6974,7.1621,57.7515]]]]}}