{"type": "Feature","bbox": [4.2124,11.1472,4.6127,11.675],"geometry": {"type": "MultiPolygon","coordinates": [[[[4.4309,11.1933,144.5441],[4.4408,11.1866,143.5776],[4.5064,11.1707,144.6714],[4.5327,11.1602,143.673],[4.544,11.1538,144.0367],[4.5515,11.1472,144.0802],[4.5567,11.1623,145.8533],[4.5543,11.1835,148.6801],[4.5509,11.1902,145.9873],[4.5527,11.2001,147.4767],[4.5417,11.2171,156.3796],[4.5341,11.2394,169.6192],[4.5349,11.2484,168.2373],[4.527,11.2605,168.5171],[4.5252,11.2709,175.4337],[4.5269,11.2818,176.3137],[4.5242,11.2926,175.4646],[4.5306,11.3008,177.106],[4.533,11.3105,175.7357],[4.5457,11.339,196.3363],[4.575,11.3675,179.8179],[4.578,11.3683,185.5193],[4.5988,11.3872,195.8544],[4.6127,11.4109,209.2546],[4.61,11.4319,227.5919],[4.6049,11.4432,218.2567],[4.6028,11.4741,216.606],[4.5995,11.4914,213.4348],[4.6037,11.5069,221.4517],[4.6108,11.5176,230.2354],[4.6031,11.5173,241.6952],[4.5812,11.5085,218.8579],[4.5712,11.507,212.6763],[4.5595,11.5101,217.8636],[4.5548,11.5269,226.1353],[4.5605,11.5521,212.08],[4.5433,11.5702,216.7643],[4.5268,11.5926,216.1354],[4.5203,11.6094,205.1384],[4.5249,11.6357,187.9247],[4.478,11.6371,205.2898],[4.4646,11.6408,218.5652],[4.4358,11.6396,243.1906],[4.4246,11.6503,231.6528],[4.4186,11.6606,217.1221],[4.4101,11.6693,209.1452],[4.4008,11.675,193.1964],[4.3972,11.6715,203.1084],[4.3878,11.6707,220.5075],[4.373,11.6728,234.6165],[4.3597,11.6697,237.2534],[4.3448,11.655,245.999],[4.3139,11.6516,245.2181],[4.26,11.6267,204.3143],[4.2357,11.6126,195.6951],[4.2124,11.6042,178.3577],[4.2235,11.5975,196.0118],[4.2373,11.5828,197.4021],[4.245,11.5663,179.0426],[4.2603,11.5492,166.7699],[4.3249,11.4975,200.3312],[4.362,11.4778,228.9731],[4.3793,11.4611,225.3631],[4.3891,11.4483,218.7485],[4.3996,11.4378,199.501],[4.4085,11.4227,209.4482],[4.4081,11.4005,217.8028],[4.3682,11.349,171.3572],[4.3545,11.3101,150.2078],[4.3304,11.2925,149.8664],[4.3101,11.2862,149.717],[4.2977,11.2755,149.8822],[4.2839,11.2548,148.8647],[4.2832,11.2428,147.7323],[4.2998,11.2453,147.7591],[4.3228,11.2409,148.1152],[4.3389,11.2291,147.0472],[4.3505,11.2167,147.8283],[4.3778,11.2064,144.7004],[4.3947,11.2027,144.2054],[4.4094,11.2061,144.1664],[4.4309,11.1933,144.5441]]]]}
,"properties": {"GID_2": "NGA.22.14_1","GID_0": "NGA","country": "Nigeria","GID_1": "NGA.22_1","province": "Kebbi","NL_NAME_1": "NA","county": "Koko/Besse","VARNAME_2": "NA","NL_NAME_2": "NA","TYPE_2": "LocalAuthority","ENGTYPE_2": "LocalAuthority","CC_2": "NA","HASC_2": "NA","name": "Koko_Besse.county","area_km2": 1311.11,"hist_schema_id": "Elevation0-9000","hist_area_km2": {"150": 255.639,"175": 163.702,"200": 321.079,"225": 375.279,"250": 191.402,"275": 3.968,"300": 0.042}}}