{"type": "Feature","bbox": [5.3798,8.8803,5.8174,9.1815],"geometry": {"type": "MultiPolygon","coordinates": [[[[5.7704,9.0242,143.2087],[5.7509,9.0197,203.6904],[5.7424,9.0149,263.7998],[5.7256,8.9999,180.7265],[5.7112,8.9989,186.633],[5.7004,9.0013,167.164],[5.6851,9.0138,270.8708],[5.6863,9.0242,152.2375],[5.7021,9.0312,280.0836],[5.7058,9.0487,261.3915],[5.704,9.06,267.3302],[5.7176,9.0726,144.9668],[5.734,9.0917,256.8048],[5.7349,9.113,210.3105],[5.7208,9.1248,202.0781],[5.7094,9.1258,263.8962],[5.6994,9.1246,263.71],[5.6645,9.1332,269.9797],[5.6589,9.1362,272.3268],[5.6535,9.1412,262.9315],[5.6494,9.1587,249.6757],[5.6483,9.1734,218.9419],[5.6414,9.1812,155.4972],[5.6267,9.1815,165.3056],[5.6095,9.1781,173.3485],[5.6007,9.172,184.5962],[5.5895,9.167,209.0998],[5.5668,9.1479,179.0821],[5.5552,9.1404,248.2946],[5.527,9.1338,249.6818],[5.5165,9.1298,252.993],[5.5048,9.128,242.7536],[5.4715,9.1291,214.2847],[5.484,9.1093,235.4252],[5.4821,9.0964,153.2909],[5.4718,9.0928,136.7955],[5.4431,9.0884,113.4185],[5.3996,9.0861,149.9954],[5.3798,9.0745,110.2894],[5.3828,9.0594,63.7725],[5.3941,9.0476,63.8271],[5.4157,9.047,63.7678],[5.4353,9.0417,64.737],[5.4662,9.0217,62.4876],[5.4877,9.0053,61.0],[5.4968,9.004,62.1571],[5.4958,8.9992,62.3538],[5.5012,8.9876,63.494],[5.5038,8.977,62.4578],[5.5085,8.9688,65.312],[5.5133,8.9651,65.2153],[5.5193,8.9654,66.6776],[5.5441,8.9581,62.4261],[5.5594,8.9396,62.1105],[5.5629,8.9419,61.6708],[5.5857,8.9392,61.7123],[5.5922,8.9412,63.0208],[5.5981,8.9321,64.0391],[5.6042,8.9262,61.966],[5.6111,8.9238,62.3058],[5.6138,8.9182,59.8498],[5.6241,8.9125,60.5242],[5.6286,8.9064,62.8456],[5.6334,8.9031,60.1609],[5.6503,8.9084,60.4348],[5.6657,8.9047,60.8927],[5.6745,8.9077,59.5426],[5.6865,8.9055,59.2725],[5.6984,8.9002,59.1943],[5.7077,8.8908,58.3091],[5.7211,8.8807,57.7174],[5.7273,8.8803,57.793],[5.739,8.8859,59.4382],[5.7507,8.8864,59.2017],[5.7721,8.8946,65.6916],[5.7775,8.9012,64.9252],[5.7982,8.9107,64.7205],[5.8174,8.9286,66.3237],[5.8132,8.9383,78.0079],[5.8169,8.9431,93.0277],[5.8127,8.9524,120.9032],[5.805,8.9583,157.6265],[5.7995,8.9653,127.6091],[5.7849,8.9884,130.6479],[5.7755,8.9986,153.1784],[5.7669,9.0126,139.1857],[5.7667,9.0174,147.9975],[5.7704,9.0242,143.2087]]]]}
,"properties": {"GID_2": "NGA.27.7_1","GID_0": "NGA","country": "Nigeria","GID_1": "NGA.27_1","province": "Niger","NL_NAME_1": "NA","county": "Edati","VARNAME_2": "NA","NL_NAME_2": "NA","TYPE_2": "LocalAuthority","ENGTYPE_2": "LocalAuthority","CC_2": "NA","HASC_2": "NA","name": "Edati.county","area_km2": 784.2076,"hist_schema_id": "Elevation0-9000","hist_area_km2": {"50": 63.484,"75": 183.7347,"100": 67.5547,"125": 93.6002,"150": 102.429,"175": 79.3087,"200": 45.87,"225": 22.7572,"250": 59.9394,"275": 65.2785,"300": 0.2513}}}