{"type":"Feature","properties":{"GID_2":"NGA.17.22_1","GID_0":"NGA","country":"Nigeria","GID_1":"NGA.17_1","province":"Imo","NL_NAME_1":"NA","county":"OruEast","VARNAME_2":"NA","NL_NAME_2":"NA","TYPE_2":"LocalAuthority","ENGTYPE_2":"LocalAuthority","CC_2":"NA","HASC_2":"NA","name":"Oru_East.county"},
"geometry":{"type": "MultiPolygon","coordinates": [[[[7.0135,5.6394,140.4196],[7.0106,5.6556,144.2766],[7.0054,5.6644,140.9379],[7.0015,5.6808,84.8951],[7.0002,5.6963,116.3814],[6.9867,5.7177,138.2176],[6.9782,5.7236,138.534],[6.9763,5.7313,139.2486],[6.9881,5.7497,156.9508],[7.0047,5.7601,167.1839],[7.0039,5.7713,166.0264],[6.9985,5.7901,169.2309],[6.9979,5.8,171.152],[6.9901,5.8025,154.0168],[6.9846,5.8009,153.8582],[6.9747,5.8013,138.0796],[6.9648,5.8033,151.3256],[6.9565,5.8073,164.327],[6.9523,5.8038,161.5701],[6.9412,5.8001,141.0995],[6.9281,5.7911,137.89],[6.9232,5.7833,132.4845],[6.9242,5.7785,138.1081],[6.9277,5.7763,136.959],[6.9357,5.7746,139.0542],[6.941,5.7754,144.4657],[6.9449,5.7723,144.8931],[6.963,5.7677,124.1721],[6.9586,5.7634,134.3059],[6.9482,5.7373,110.1311],[6.9424,5.7182,119.0497],[6.9426,5.7139,128.6447],[6.9336,5.6995,126.8848],[6.9284,5.6961,106.397],[6.9213,5.6969,89.0877],[6.9083,5.6932,79.784],[6.8908,5.6804,70.7642],[6.8887,5.6774,45.6375],[6.8912,5.676,52.8415],[6.9043,5.6571,40.918],[6.9277,5.6344,75.1124],[6.9382,5.6291,76.1083],[6.955,5.6266,88.0787],[6.9845,5.6387,134.0436],[6.9995,5.641,140.033],[7.0135,5.6394,140.4196]]]]}}