{"type": "Feature","bbox": [4.7961,7.8227,5.0072,8.0847],"geometry": {"type": "MultiPolygon","coordinates": [[[[4.933,7.8571,533.4578],[4.9414,7.8723,400.8587],[4.9322,7.8818,535.4998],[4.9291,7.8918,367.0795],[4.9298,7.8945,364.3098],[4.9436,7.9171,384.4441],[4.953,7.9278,527.2355],[4.9672,7.9381,535.9998],[4.9628,7.953,635.6151],[4.9603,7.9548,521.9672],[4.9591,7.9618,476.7458],[4.9716,7.9821,510.9691],[4.9806,7.9928,661.3839],[4.9986,8.0088,568.7272],[5.002,8.0189,597.1213],[5.0072,8.0281,605.4354],[4.9745,8.0244,533.6589],[4.9617,8.0463,521.377],[4.9506,8.0754,483.4651],[4.9376,8.0823,453.0318],[4.9216,8.0828,468.716],[4.9154,8.0847,467.6182],[4.892,8.0805,491.9987],[4.8597,8.0651,460.6256],[4.8388,8.0574,431.4368],[4.8162,8.0574,451.5653],[4.8001,8.0646,457.075],[4.7961,8.0635,450.0073],[4.7995,8.0364,417.6909],[4.7985,8.0325,419.4651],[4.8051,8.0182,433.1516],[4.8105,8.0171,444.2802],[4.8209,8.0058,443.8315],[4.8325,7.998,453.1534],[4.8357,7.9922,495.4794],[4.8337,7.9872,464.613],[4.8361,7.9775,533.6968],[4.8514,7.9539,450.545],[4.8564,7.9488,434.2601],[4.8631,7.9364,413.1655],[4.8702,7.9165,409.2701],[4.8732,7.9185,407.1721],[4.8768,7.9095,390.0565],[4.8809,7.8926,372.0011],[4.8791,7.8834,386.784],[4.8726,7.8805,391.1511],[4.8693,7.8771,397.0073],[4.8494,7.8726,522.3462],[4.8471,7.869,546.4749],[4.8464,7.859,585.1771],[4.8601,7.8503,468.4679],[4.8793,7.8505,381.9692],[4.8815,7.8453,379.7716],[4.8906,7.8341,371.6642],[4.9022,7.8291,401.7345],[4.9054,7.8256,385.8971],[4.9141,7.8227,417.7432],[4.9219,7.8247,388.0943],[4.933,7.8571,533.4578]]]]}
,"properties": {"GID_2": "NGA.30.17_1","GID_0": "NGA","country": "Nigeria","GID_1": "NGA.30_1","province": "Osun","NL_NAME_1": "NA","county": "Ila","VARNAME_2": "NA","NL_NAME_2": "NA","TYPE_2": "LocalAuthority","ENGTYPE_2": "LocalAuthority","CC_2": "NA","HASC_2": "NA","name": "Ila.county","area_km2": 333.4747,"hist_schema_id": "Elevation0-9000","hist_area_km2": {"350": 4.4736,"375": 32.7631,"400": 37.3178,"425": 41.0082,"450": 51.6067,"475": 78.6266,"500": 56.7924,"525": 11.3798,"550": 5.0814,"575": 4.4725,"600": 4.5774,"625": 3.7794,"650": 1.4907,"675": 0.105}}}