{"type": "Feature","bbox": [5.2452,12.6304,5.7268,13.0078],"geometry": {"type": "MultiPolygon","coordinates": [[[[5.3618,12.6834,287.9059],[5.3704,12.6861,284.434],[5.38,12.6858,282.9299],[5.3914,12.6783,279.9204],[5.4097,12.6718,273.2441],[5.4236,12.6702,269.0596],[5.4472,12.6573,272.9636],[5.4865,12.6427,272.55],[5.4987,12.6399,274.2867],[5.5054,12.6333,273.1012],[5.5164,12.6304,273.1393],[5.5803,12.6618,279.1868],[5.6155,12.6826,281.5314],[5.6309,12.6887,282.424],[5.6434,12.6981,282.8514],[5.6727,12.7086,299.0683],[5.6921,12.7112,301.2622],[5.7012,12.7108,310.0639],[5.7069,12.706,309.74],[5.7162,12.7166,314.5397],[5.7268,12.7196,315.2039],[5.7213,12.7251,308.4966],[5.7142,12.7292,302.9436],[5.7056,12.7455,306.4029],[5.6975,12.7551,308.6328],[5.6876,12.7748,303.7167],[5.6799,12.7846,300.6917],[5.6628,12.8015,293.174],[5.6581,12.8045,293.4385],[5.6271,12.8149,299.603],[5.6036,12.8336,301.3412],[5.5914,12.8482,296.262],[5.5741,12.8819,286.9161],[5.5623,12.9003,292.3316],[5.5521,12.9124,280.5181],[5.5471,12.9158,278.9771],[5.5385,12.9281,281.6239],[5.5297,12.9481,293.2791],[5.5255,12.9631,301.9398],[5.5169,13.0056,288.4028],[5.497,12.9899,299.8669],[5.479,12.993,317.4175],[5.4575,13.0024,278.9982],[5.4517,13.0021,276.9034],[5.422,12.987,294.7266],[5.3986,12.9828,289.8058],[5.3768,12.9858,284.2096],[5.366,12.9896,287.8661],[5.3577,12.9966,314.0442],[5.3543,13.0028,293.9995],[5.3479,13.0078,291.6852],[5.3284,13.0011,269.6367],[5.3048,12.9978,272.0258],[5.2739,12.9834,280.3502],[5.2568,12.9527,301.5606],[5.2452,12.9424,310.2472],[5.2671,12.9339,302.0465],[5.2707,12.9303,292.6526],[5.2946,12.8976,286.4173],[5.3007,12.8849,331.9282],[5.3275,12.8439,320.3054],[5.3296,12.828,292.2805],[5.3274,12.8188,292.678],[5.327,12.804,300.5631],[5.329,12.7789,281.4952],[5.3268,12.771,279.4125],[5.3345,12.7554,284.0597],[5.3387,12.7379,302.5816],[5.3554,12.7033,285.32],[5.3618,12.6834,287.9059]]]]}
,"properties": {"GID_2": "NGA.34.3_1","GID_0": "NGA","country": "Nigeria","GID_1": "NGA.34_1","province": "Sokoto","NL_NAME_1": "NA","county": "Dange-Shuni","VARNAME_2": "NA","NL_NAME_2": "NA","TYPE_2": "LocalAuthority","ENGTYPE_2": "LocalAuthority","CC_2": "NA","HASC_2": "NA","name": "Dange-Shuni.county","area_km2": 1198.7454,"hist_schema_id": "Elevation0-9000","hist_area_km2": {"275": 263.1313,"300": 673.115,"325": 228.4716,"350": 29.2721,"375": 4.3833,"400": 0.3722}}}