{"type": "Feature","bbox": [12.0604,10.2577,12.7284,10.6562],"geometry": {"type": "MultiPolygon","coordinates": [[[[12.6973,10.4455,436.3317],[12.7251,10.4466,463.3222],[12.7284,10.4482,467.8258],[12.6852,10.5127,426.6284],[12.6699,10.5429,424.1765],[12.6525,10.5863,408.3995],[12.6407,10.5971,406.6636],[12.6192,10.6025,442.1285],[12.6003,10.6124,442.3638],[12.5837,10.624,453.8044],[12.5298,10.6313,452.8764],[12.4952,10.6562,459.1091],[12.4675,10.6344,459.3439],[12.4473,10.6255,482.1625],[12.4243,10.6122,513.1923],[12.4058,10.5971,522.0612],[12.3836,10.5748,504.043],[12.3526,10.5493,639.0097],[12.3246,10.5333,675.3412],[12.3066,10.5394,694.1646],[12.296,10.5518,703.8339],[12.2834,10.5727,758.2451],[12.2698,10.6024,705.9417],[12.2571,10.6038,705.1666],[12.2423,10.5787,742.2251],[12.2415,10.5692,756.2451],[12.2204,10.5728,795.0471],[12.2036,10.5915,782.9655],[12.1851,10.6049,769.3575],[12.1511,10.6396,694.4569],[12.139099999999999,10.6483,727.2125],[12.1279,10.6505,693.5837],[12.1136,10.6452,691.0807],[12.089,10.6025,641.6398],[12.076599999999999,10.5737,662.4711],[12.0662,10.5582,662.7957],[12.0604,10.5533,659.9299],[12.0704,10.55,664.5059],[12.0831,10.5378,677.2706],[12.1,10.5143,691.543],[12.1072,10.4897,671.0011],[12.1106,10.4565,678.9028],[12.1116,10.427,704.7612],[12.1061,10.3941,599.6284],[12.0982,10.3721,585.696],[12.0698,10.3439,561.2034],[12.0874,10.3354,636.7087],[12.0986,10.3345,541.2504],[12.1188,10.31,415.5685],[12.1578,10.2767,236.3136],[12.1822,10.2659,271.282],[12.2083,10.2577,291.5998],[12.2311,10.2633,402.5134],[12.2582,10.2753,454.9098],[12.2999,10.288,469.2761],[12.3357,10.2833,479.0377],[12.3524,10.2741,445.0066],[12.3813,10.3026,343.9083],[12.422,10.3165,323.5634],[12.468,10.3211,341.7178],[12.5235,10.3244,476.1671],[12.5792,10.3419,367.3408],[12.6188,10.36,449.8284],[12.6583,10.4018,422.6406],[12.6715,10.4444,428.7889],[12.6973,10.4455,436.3317]]]]}
,"properties": {"GID_2": "NGA.8.12_1","GID_0": "NGA","country": "Nigeria","GID_1": "NGA.8_1","province": "Borno","NL_NAME_1": "NA","county": "Hawul","VARNAME_2": "NA","NL_NAME_2": "NA","TYPE_2": "LocalAuthority","ENGTYPE_2": "LocalAuthority","CC_2": "NA","HASC_2": "NA","name": "Hawul.county","area_km2": 2078.54,"hist_schema_id": "Elevation0-9000","hist_area_km2": {"225": 16.562,"250": 44.802,"275": 56.668,"300": 65.427,"325": 102.364,"350": 150.03,"375": 168.761,"400": 222.704,"425": 244.577,"450": 217.286,"475": 106.577,"500": 67.698,"525": 53.106,"550": 39.555,"575": 38.28,"600": 31.169,"625": 32.794,"650": 48.673,"675": 50.8,"700": 67.414,"725": 62.684,"750": 54.678,"775": 60.512,"800": 33.811,"825": 19.637,"850": 17.656,"875": 4.315}}}