{"type": "Feature","bbox": [7.9956,4.5832,8.1425,4.6942],"geometry": {"type": "MultiPolygon","coordinates": [[[[8.0098,4.5832,5.9719],[8.0164,4.5846,7.1973],[8.0613,4.585,16.5216],[8.0702,4.5892,13.8199],[8.0905,4.5921,15.2131],[8.0963,4.5955,13.7935],[8.1212,4.5948,13.6328],[8.1325,4.5963,15.1605],[8.1362,4.6224,11.0455],[8.1425,4.6371,25.8888],[8.1406,4.6475,23.1122],[8.1372,4.6537,29.4219],[8.1278,4.6592,28.9159],[8.1213,4.6674,24.6185],[8.1137,4.6726,25.9547],[8.1032,4.6751,29.385],[8.092,4.6723,26.9547],[8.0757,4.6762,27.701],[8.051,4.6861,25.1845],[8.0444,4.6942,23.3798],[8.0368,4.6932,24.7188],[8.0201,4.6858,25.6446],[8.0221,4.6831,18.153],[8.0203,4.6735,18.2881],[8.009,4.6455,16.1206],[8.0063,4.6345,16.6578],[7.9956,4.6163,11.8484],[8.0035,4.6053,8.5328],[8.0081,4.6034,9.2002],[8.0121,4.5904,9.3653],[8.0098,4.5832,5.9719]]]]}
,"properties": {"GID_2": "NGA.3.4_1","GID_0": "NGA","country": "Nigeria","GID_1": "NGA.3_1","province": "AkwaIbom","NL_NAME_1": "NA","county": "EsitEket","VARNAME_2": "NA","NL_NAME_2": "NA","TYPE_2": "LocalAuthority","ENGTYPE_2": "LocalAuthority","CC_2": "NA","HASC_2": "NA","name": "Esit_Eket.county","area_km2": 139.4984,"hist_schema_id": "Elevation0-9000","hist_area_km2": {"0": 28.7631,"25": 110.524,"50": 0.2113}}}