{"type": "Feature","bbox": [10.3592,7.5412,11.8691,8.6652],"geometry": {"type": "MultiPolygon","coordinates": [[[[11.8667,8.6241,548.8041],[11.8564,8.6257,525.8166],[11.8267,8.6347,575.8099],[11.7852,8.6507,735.658],[11.7788,8.6518,661.9058],[11.7705,8.658,731.3921],[11.7429,8.6634,1200.8787],[11.7253,8.6628,1380.0223],[11.6961,8.6652,1188.6508],[11.6832,8.6642,1135.7286],[11.6572,8.6596,1367.2638],[11.6548,8.6534,1271.9315],[11.6369,8.6479,990.9515],[11.6012,8.6473,842.0856],[11.5661,8.6436,859.8588],[11.5264,8.6346,517.2882],[11.4719,8.6282,448.1227],[11.4138,8.6061,257.3354],[11.408,8.601,241.3951],[11.4096,8.5973,246.3906],[11.3791,8.5936,229.7531],[11.3644,8.59,227.882],[11.345,8.5784,207.6302],[11.3289,8.5729,186.6122],[11.2994,8.5674,198.2154],[11.2818,8.5665,228.25],[11.2486,8.5817,212.9243],[11.1781,8.6311,188.4546],[11.164,8.6093,168.6909],[11.1526,8.5832,204.0152],[11.1496,8.5683,187.9711],[11.1434,8.5592,180.5328],[11.142,8.5501,205.2707],[11.1358,8.5369,212.7548],[11.1145,8.5151,211.9096],[11.1024,8.5002,217.7704],[11.0968,8.4894,212.7803],[11.0409,8.4665,251.8584],[10.9627,8.4165,228.1563],[10.9491,8.4035,224.473],[10.9451,8.4036,232.1381],[10.9419,8.3947,221.717],[10.911,8.369,217.7469],[10.8763,8.3327,193.3452],[10.8694,8.3306,182.9119],[10.8291,8.302,159.7619],[10.8174,8.2995,161.4728],[10.8153,8.2926,162.4311],[10.8067,8.2861,164.5134],[10.789,8.277,157.4607],[10.779,8.263,166.807],[10.7688,8.2603,167.4982],[10.758,8.2514,170.0533],[10.7292,8.2339,179.3522],[10.7103,8.2142,186.8029],[10.6976,8.209,192.4718],[10.6755,8.1955,186.4882],[10.6602,8.1829,159.3939],[10.6267,8.1507,132.4332],[10.5997,8.12,143.2248],[10.584,8.1082,149.0153],[10.5785,8.0957,160.3441],[10.5667,8.0899,154.822],[10.5464,8.0642,169.3124],[10.5326,8.0534,171.5227],[10.5157,8.0337,187.5931],[10.5,8.0218,171.4014],[10.4721,7.9928,155.041],[10.4609,7.9785,163.6699],[10.4548,7.98,152.3417],[10.4101,7.9607,145.6796],[10.3981,7.958,149.474],[10.3972,7.9513,144.4883],[10.4042,7.932,125.261],[10.4158,7.9103,133.9471],[10.4206,7.8968,157.8462],[10.4157,7.8724,166.1693],[10.4164,7.8666,163.6102],[10.4321,7.8478,162.0835],[10.4361,7.8349,173.8314],[10.437,7.8187,150.6624],[10.4331,7.8145,141.9],[10.4274,7.7989,133.8363],[10.4192,7.7859,138.8465],[10.4208,7.7757,146.1897],[10.4155,7.7604,167.5677],[10.3843,7.7278,174.7729],[10.3626,7.7193,181.0669],[10.3592,7.7055,162.616],[10.3649,7.6997,153.4863],[10.3674,7.6907,156.2358],[10.378,7.6696,181.4016],[10.3933,7.6305,178.654],[10.4089,7.6065,165.2521],[10.418,7.5954,185.7688],[10.422,7.5879,183.6152],[10.4363,7.5778,200.4571],[10.4398,7.5702,187.9203],[10.4552,7.5572,193.7952],[10.4822,7.5441,213.3845],[10.4874,7.5446,201.1972],[10.4978,7.5412,194.3869],[10.5165,7.5475,330.6375],[10.5313,7.5482,208.6412],[10.5615,7.5611,600.4764],[10.6175,7.5916,320.6085],[10.6255,7.5972,296.4336],[10.6251,7.6014,341.8305],[10.6426,7.6094,393.832],[10.6507,7.6095,369.5915],[10.6733,7.6203,513.3286],[10.6902,7.6258,538.4244],[10.7079,7.6276,561.1595],[10.7463,7.6442,550.9427],[10.7513,7.6435,569.0862],[10.7561,7.647,555.3188],[10.7597,7.6523,572.2681],[10.7659,7.653,605.3909],[10.7707,7.6597,591.5726],[10.785,7.6704,618.662],[10.7927,7.6729,640.9119],[10.8074,7.6722,641.9471],[10.8247,7.6669,648.4417],[10.8483,7.683,868.9471],[10.8557,7.6851,860.34],[10.8732,7.7039,843.896],[10.8963,7.7155,231.9798],[10.8967,7.7181,226.6219],[10.929,7.7418,230.0946],[10.9485,7.7516,232.8665],[10.9559,7.7794,189.0752],[10.9512,7.7956,249.0627],[10.956,7.8143,229.9939],[10.9686,7.822,496.9731],[11.0145,7.8437,200.2171],[11.0235,7.8452,181.5739],[11.038,7.8572,192.8069],[11.0445,7.8678,197.9999],[11.0528,7.8752,220.2226],[11.0584,7.891,222.7616],[11.0611,7.9044,354.2734],[11.0912,7.9513,248.1503],[11.1136,7.9669,226.6352],[11.1338,7.9872,227.9388],[11.179,8.016,260.3358],[11.1922,8.0221,244.6139],[11.2077,8.0328,253.902],[11.2247,8.0412,282.8877],[11.267,8.0573,408.3918],[11.292,8.0639,427.7476],[11.3542,8.065,437.2772],[11.4029,8.0695,363.1395],[11.4135,8.0897,375.805],[11.4429,8.1255,476.1888],[11.4802,8.1667,419.6682],[11.5417,8.2185,494.3321],[11.5874,8.2722,450.5695],[11.6237,8.3067,524.5786],[11.7002,8.4039,840.8039],[11.7222,8.4383,960.4207],[11.7632,8.4919,486.5229],[11.8226,8.5478,1034.3708],[11.8621,8.576,637.6823],[11.8691,8.6093,888.0116],[11.8667,8.6241,548.8041]]]]}
,"properties": {"GID_2": "NGA.35.2_1","GID_0": "NGA","country": "Nigeria","GID_1": "NGA.35_1","province": "Taraba","NL_NAME_1": "NA","county": "Bali","VARNAME_2": "NA","NL_NAME_2": "NA","TYPE_2": "LocalAuthority","ENGTYPE_2": "LocalAuthority","CC_2": "NA","HASC_2": "NA","name": "Bali.county","area_km2": 8545.789,"hist_schema_id": "Elevation0-9000","hist_area_km2": {"125": 46.203,"150": 696.489,"175": 1324.485,"200": 1344.66,"225": 975.779,"250": 791.72,"275": 639.757,"300": 432.56,"325": 266.115,"350": 193.025,"375": 156.333,"400": 128.076,"425": 113.838,"450": 108.723,"475": 103.064,"500": 92.208,"525": 85.299,"550": 82.634,"575": 78.999,"600": 72.699,"625": 68.205,"650": 64.47,"675": 58.302,"700": 51.085,"725": 45.212,"750": 42.547,"775": 34.062,"800": 32.656,"825": 30.812,"850": 28.799,"875": 26.256,"900": 22.706,"925": 18.801,"950": 19.05,"975": 18.188,"1000": 18.102,"1025": 15.918,"1050": 14.113,"1075": 11.491,"1100": 11.344,"1125": 12.895,"1150": 13.502,"1175": 13.921,"1200": 15.031,"1225": 16.562,"1250": 14.989,"1275": 16.519,"1300": 19.873,"1325": 18.469,"1350": 15.429,"1375": 8.993,"1400": 7.547,"1425": 5.01,"1450": 1.069,"1475": 0.713,"1500": 0.314,"1525": 0.147}}}