{"type": "Feature","bbox": [3.6056,6.8168,3.7374,7.0085],"geometry": {"type": "MultiPolygon","coordinates": [[[[3.6056,6.9597,50.4691],[3.6171,6.928,82.0228],[3.6368,6.8913,62.0384],[3.6474,6.8782,42.0777],[3.6582,6.8734,63.8767],[3.6725,6.861,76.8707],[3.6824,6.8481,32.1853],[3.6853,6.84,60.7082],[3.6934,6.8265,38.9762],[3.7027,6.8178,24.7441],[3.7063,6.8168,24.5489],[3.7207,6.835,55.8175],[3.7303,6.8669,58.2046],[3.7369,6.8767,62.6252],[3.7374,6.882,70.7116],[3.7332,6.8934,88.4576],[3.7358,6.8972,88.0148],[3.7348,6.9037,96.0508],[3.6907,6.9471,126.8431],[3.6512,6.983,151.0591],[3.649,6.9906,131.9504],[3.6402,7.0085,90.7398],[3.6298,7.0006,83.423],[3.6336,6.9944,92.6454],[3.6323,6.9859,127.7819],[3.6164,6.9716,114.6161],[3.6142,6.965,99.2449],[3.6056,6.9597,50.4691]]]]}
,"properties": {"GID_2": "NGA.28.12_1","GID_0": "NGA","country": "Nigeria","GID_1": "NGA.28_1","province": "Ogun","NL_NAME_1": "NA","county": "Ikenne","VARNAME_2": "NA","NL_NAME_2": "NA","TYPE_2": "LocalAuthority","ENGTYPE_2": "LocalAuthority","CC_2": "NA","HASC_2": "NA","name": "Ikenne.county","area_km2": 142.4752,"hist_schema_id": "Elevation0-9000","hist_area_km2": {"25": 5.4732,"50": 30.6482,"75": 40.3087,"100": 35.423,"125": 25.7185,"150": 4.9036}}}