{"type":"Feature","properties":{"GID_2":"NGA.20.5_1","GID_0":"NGA","country":"Nigeria","GID_1":"NGA.20_1","province":"Kano","NL_NAME_1":"NA","county":"Bichi","VARNAME_2":"NA","NL_NAME_2":"NA","TYPE_2":"LocalAuthority","ENGTYPE_2":"LocalAuthority","CC_2":"NA","HASC_2":"NA","name":"Bichi.county"},
"geometry":{"type": "MultiPolygon","coordinates": [[[[8.1689,12.1667,485.4189],[8.2021,12.1569,483.2807],[8.217,12.1488,485.2997],[8.2464,12.125,472.5403],[8.2606,12.1268,478.7964],[8.2781,12.1429,490.0607],[8.3012,12.1596,494.4704],[8.3149,12.1637,501.9426],[8.3362,12.1619,514.2255],[8.3426,12.1666,506.7353],[8.3531,12.1801,492.7849],[8.3689,12.1881,486.898],[8.3999,12.2224,462.2151],[8.4101,12.2304,475.1579],[8.4185,12.2339,478.6524],[8.4335,12.2155,458.7395],[8.4451,12.2101,443.5188],[8.4486,12.2161,449.2958],[8.4488,12.2214,454.6074],[8.4654,12.2468,461.9254],[8.4664,12.2735,451.6805],[8.4643,12.2827,446.0796],[8.4446,12.3039,464.3087],[8.4332,12.3095,471.992],[8.4325,12.3233,473.6709],[8.4239,12.3365,464.6058],[8.4134,12.3389,468.85],[8.4085,12.3234,471.8805],[8.4007,12.3097,481.885],[8.3796,12.2919,500.8946],[8.3643,12.2841,507.125],[8.3496,12.2796,495.6655],[8.3384,12.2787,489.1548],[8.33,12.2733,487.9341],[8.3294,12.2664,481.1123],[8.3237,12.2603,471.4445],[8.3136,12.2616,473.9504],[8.3032,12.2661,485.8996],[8.2736,12.2862,505.6949],[8.259,12.2916,520.6104],[8.2339,12.2973,517.2165],[8.2008,12.3151,535.9944],[8.1919,12.3162,533.1855],[8.1733,12.3217,548.335],[8.1637,12.3225,545.6769],[8.1212,12.3439,551.0776],[8.0836,12.3508,541.6658],[8.074,12.3491,539.3397],[8.0597,12.3383,552.7672],[8.0505,12.3272,555.3203],[8.0525,12.3186,564.5621],[8.0605,12.3116,553.2344],[8.0615,12.3056,550.3344],[8.0736,12.2767,534.2014],[8.0764,12.2608,532.267],[8.0829,12.2487,522.5639],[8.0888,12.2298,521.3339],[8.0877,12.222,515.7008],[8.104,12.1961,519.5375],[8.1048,12.1896,511.5991],[8.1262,12.1853,503.1442],[8.1472,12.1777,502.0],[8.1689,12.1667,485.4189]]]]}}