{"type": "Feature","bbox": [7.0198,5.9626,7.2689,6.2429],"geometry": {"type": "MultiPolygon","coordinates": [[[[7.1326,5.9626,193.3441],[7.1369,5.9795,160.781],[7.1358,5.9968,163.0982],[7.1371,6.002,138.3551],[7.1461,6.0176,181.5744],[7.1571,6.0257,105.752],[7.1671,6.0303,78.483],[7.1772,6.0322,65.1575],[7.1885,6.0295,72.3348],[7.2084,6.0299,119.9827],[7.2269,6.0332,134.6832],[7.24,6.0314,106.5251],[7.261,6.0327,145.1111],[7.2689,6.0389,134.6492],[7.2499,6.0526,117.4285],[7.2377,6.0685,103.726],[7.2348,6.093,107.6752],[7.2304,6.1026,83.4637],[7.2218,6.1138,69.9571],[7.2044,6.1542,75.4399],[7.2045,6.1699,67.6753],[7.2101,6.1889,68.9021],[7.2005,6.197,66.6874],[7.1885,6.1992,110.9781],[7.1861,6.2064,153.7694],[7.182,6.2116,95.1536],[7.1833,6.221,113.159],[7.179,6.2409,65.4217],[7.1691,6.2429,88.3353],[7.1615,6.2387,52.6993],[7.1532,6.2303,46.4762],[7.1405,6.2255,39.7903],[7.1337,6.2194,43.0851],[7.1192,6.1828,52.6525],[7.1173,6.1621,58.362],[7.106,6.1362,111.2079],[7.0838,6.1175,141.1966],[7.0816,6.1069,123.4419],[7.0505,6.0846,300.2374],[7.0347,6.0648,271.9399],[7.0198,6.0402,353.7143],[7.0201,6.0347,355.989],[7.0465,6.0368,350.8943],[7.0566,6.0343,358.6841],[7.0747,6.0245,300.8992],[7.0808,6.0187,300.2416],[7.0913,5.9929,271.9843],[7.0985,5.9824,196.6497],[7.1058,5.9779,202.0583],[7.1114,5.9688,280.7544],[7.1326,5.9626,193.3441]]]]}
,"properties": {"GID_2": "NGA.4.19_1","GID_0": "NGA","country": "Nigeria","GID_1": "NGA.4_1","province": "Anambra","NL_NAME_1": "NA","county": "OrumbaNorth","VARNAME_2": "NA","NL_NAME_2": "NA","TYPE_2": "LocalAuthority","ENGTYPE_2": "LocalAuthority","CC_2": "NA","HASC_2": "NA","name": "Orumba_North.county","area_km2": 365.0411,"hist_schema_id": "Elevation0-9000","hist_area_km2": {"50": 78.3121,"75": 88.2062,"100": 51.8206,"125": 45.3497,"150": 30.6347,"175": 16.0664,"200": 9.7412,"225": 7.2954,"250": 5.1447,"275": 6.979,"300": 12.2711,"325": 10.0151,"350": 3.1205,"375": 0.0843}}}