{"type": "Feature","bbox": [11.6876,8.2018,12.3747,8.6706],"geometry": {"type": "MultiPolygon","coordinates": [[[[12.3747,8.4779,756.5323],[12.3675,8.4768,973.8536],[12.3576,8.4708,751.4095],[12.3521,8.4644,826.0966],[12.3355,8.4711,624.7763],[12.3154,8.4746,540.0241],[12.2943,8.4757,490.0655],[12.2497,8.4715,468.1831],[12.2146,8.4622,462.0574],[12.1931,8.4512,545.9756],[12.1666,8.452,424.9148],[12.139099999999999,8.4477,437.1036],[12.098,8.4481,476.7096],[12.0816,8.4501,472.6394],[12.0591,8.4562,507.8261],[12.0471,8.4804,519.3136],[12.0348,8.4868,536.3687],[12.0245,8.508,503.1773],[12.0219,8.5106,499.0027],[12.0272,8.5256,467.5543],[12.037,8.5317,474.9697],[12.0498,8.5355,487.9684],[12.0578,8.5739,442.4981],[12.0596,8.5903,435.9258],[12.0635,8.6017,470.7927],[12.064,8.6146,450.0112],[12.0539,8.6349,433.614],[12.0454,8.646,456.4872],[12.0333,8.6554,474.0828],[11.9931,8.6685,491.3481],[11.9833,8.6692,489.8018],[11.9638,8.663,487.2324],[11.9455,8.6602,487.0119],[11.9272,8.661,483.8367],[11.9057,8.6597,493.7054],[11.8868,8.6607,522.9764],[11.8622,8.6706,850.0503],[11.8635,8.6435,554.8081],[11.8691,8.6093,888.0116],[11.8621,8.576,637.6823],[11.8226,8.5478,1034.3708],[11.7632,8.4919,486.5229],[11.7222,8.4383,960.4207],[11.7002,8.4039,840.8039],[11.6876,8.3882,658.5925],[11.6899,8.3837,446.84],[11.7006,8.3736,695.8774],[11.703,8.3678,775.4422],[11.7142,8.3616,858.113],[11.7218,8.3554,770.3792],[11.7332,8.353,709.1918],[11.7477,8.3471,497.0611],[11.7554,8.3392,552.3101],[11.7677,8.3319,522.2778],[11.7934,8.3221,401.1067],[11.812,8.3186,458.28],[11.8507,8.3033,839.7841],[11.883,8.2875,1064.0713],[11.8919,8.2853,895.2559],[11.9008,8.2784,1023.4576],[11.9185,8.2693,1098.9497],[11.9402,8.2544,763.2015],[11.9488,8.2554,719.4926],[11.9551,8.2533,706.2397],[11.9651,8.2471,648.3347],[11.9778,8.244,620.3708],[11.9942,8.2344,595.8703],[12.0069,8.2326,587.723],[12.0343,8.2178,557.1707],[12.0698,8.2046,541.8368],[12.1021,8.2018,563.9896],[12.1115,8.2023,556.5343],[12.1325,8.2142,534.8083],[12.1424,8.2127,511.3842],[12.1581,8.2146,477.1758],[12.1766,8.2265,453.6018],[12.1951,8.2442,451.0867],[12.208,8.2454,453.1111],[12.2187,8.2501,443.9457],[12.2377,8.2504,408.1049],[12.2535,8.2459,388.6492],[12.2388,8.3391,427.7233],[12.2517,8.3551,906.2153],[12.2515,8.3613,999.2217],[12.2546,8.3629,1072.4214],[12.2594,8.3624,957.8609],[12.2647,8.3701,995.8808],[12.2598,8.3803,1338.3647],[12.258,8.3818,1422.3119],[12.2532,8.3789,1296.8724],[12.2479,8.383,1144.1913],[12.2474,8.3859,1084.2532],[12.2535,8.411,536.4316],[12.2604,8.4188,519.9913],[12.2586,8.4276,496.7471],[12.2617,8.4404,483.2107],[12.2689,8.4463,459.6666],[12.2995,8.4438,411.8061],[12.3059,8.4395,412.5356],[12.3084,8.4305,405.3256],[12.3134,8.4258,384.837],[12.332,8.4293,367.8952],[12.3391,8.4322,375.3322],[12.3348,8.4408,408.3183],[12.3394,8.4487,455.9438],[12.3501,8.4569,782.1841],[12.354,8.4622,711.8556],[12.3626,8.4669,786.7839],[12.3747,8.4779,756.5323]]]]}
,"properties": {"GID_2": "NGA.2.3_1","GID_0": "NGA","country": "Nigeria","GID_1": "NGA.2_1","province": "Adamawa","NL_NAME_1": "NA","county": "Ganye","VARNAME_2": "NA","NL_NAME_2": "NA","TYPE_2": "LocalAuthority","ENGTYPE_2": "LocalAuthority","CC_2": "NA","HASC_2": "NA","name": "Ganye.county","area_km2": 1885.135,"hist_schema_id": "Elevation0-9000","hist_area_km2": {"375": 3.608,"400": 18.042,"425": 50.241,"450": 123.998,"475": 181.233,"500": 222.229,"525": 197.381,"550": 131.049,"575": 83.204,"600": 64.893,"625": 52.937,"650": 43.226,"675": 39.346,"700": 33.305,"725": 29.656,"750": 27.916,"775": 26.301,"800": 24.12,"825": 25.0,"850": 23.742,"875": 22.84,"900": 21.834,"925": 21.31,"950": 21.477,"975": 21.163,"1000": 21.435,"1025": 20.575,"1050": 21.876,"1075": 23.932,"1100": 32.387,"1125": 35.156,"1150": 26.849,"1175": 21.709,"1200": 21.771,"1225": 22.589,"1250": 21.96,"1275": 19.275,"1300": 18.604,"1325": 17.639,"1350": 12.437,"1375": 10.172,"1400": 8.62,"1425": 4.824,"1450": 3.272,"1475": 4.131,"1500": 2.621,"1525": 1.405,"1550": 0.524,"1575": 0.336,"1600": 0.399,"1625": 0.378,"1650": 0.147,"1675": 0.063}}}