{"type":"Feature","properties":{"GID_2":"NGA.20.8_1","GID_0":"NGA","country":"Nigeria","GID_1":"NGA.20_1","province":"Kano","NL_NAME_1":"NA","county":"Dambatta","VARNAME_2":"NA","NL_NAME_2":"NA","TYPE_2":"LocalAuthority","ENGTYPE_2":"LocalAuthority","CC_2":"NA","HASC_2":"NA","name":"Dambatta.county"},
"geometry":{"type": "MultiPolygon","coordinates": [[[[8.6134,12.5619,406.8001],[8.5742,12.5697,411.6659],[8.552,12.5772,414.2244],[8.5277,12.5759,416.9287],[8.5269,12.5702,416.3371],[8.5188,12.5495,421.5273],[8.5035,12.5404,426.4943],[8.5076,12.5291,427.5582],[8.5179,12.512,431.247],[8.5346,12.4979,431.5096],[8.5321,12.482,442.1811],[8.5169,12.4654,449.1206],[8.4896,12.4565,452.8165],[8.4805,12.4513,457.9307],[8.4782,12.4319,468.3189],[8.4703,12.3959,477.8335],[8.4653,12.3551,462.3077],[8.4667,12.3447,455.2583],[8.473,12.3443,457.6121],[8.4802,12.3486,461.4615],[8.4842,12.3567,460.6193],[8.4898,12.36,454.7459],[8.5037,12.3572,453.2124],[8.5159,12.3451,440.8474],[8.54,12.3056,432.4944],[8.5539,12.2892,449.8551],[8.5596,12.2782,450.1421],[8.5651,12.2643,457.2977],[8.567,12.2429,461.9243],[8.5711,12.2321,460.0663],[8.5803,12.2299,466.514],[8.5864,12.2335,462.9588],[8.5974,12.2345,456.6449],[8.6064,12.2374,451.8892],[8.6096,12.2423,453.8286],[8.6292,12.2581,453.618],[8.6309,12.2676,454.3969],[8.629,12.2789,457.0698],[8.6349,12.2977,455.4741],[8.6426,12.3017,451.3528],[8.6886,12.2756,425.8266],[8.7011,12.2621,423.4208],[8.7167,12.2596,423.3324],[8.7249,12.2634,420.9674],[8.752,12.2656,404.1423],[8.7782,12.2783,398.0022],[8.7943,12.2904,396.8435],[8.7897,12.2927,396.2943],[8.7733,12.3149,404.1702],[8.7759,12.3255,404.627],[8.7819,12.3371,402.8887],[8.7824,12.3469,403.1616],[8.7718,12.3841,405.5436],[8.7648,12.3956,404.6304],[8.7566,12.403,405.0663],[8.7447,12.4059,406.0137],[8.7179,12.4231,407.9444],[8.7031,12.4294,407.0257],[8.6903,12.4393,406.1307],[8.6848,12.4513,405.0201],[8.6825,12.4607,406.4666],[8.684,12.4743,405.1943],[8.6818,12.4955,405.3291],[8.6818,12.5393,402.9488],[8.6776,12.5452,403.3144],[8.6666,12.5485,405.1678],[8.6541,12.5493,403.9062],[8.6398,12.5526,405.2612],[8.6134,12.5619,406.8001]]]]}}