{"type": "Feature","bbox": [7.412,6.227,7.5995,6.4162],"geometry": {"type": "MultiPolygon","coordinates": [[[[7.478,6.2334,175.4848],[7.5069,6.2329,132.0639],[7.5308,6.2274,112.8675],[7.544,6.227,114.8624],[7.5732,6.2357,87.4721],[7.5785,6.2409,99.5514],[7.5881,6.2456,93.3729],[7.5973,6.2608,94.8724],[7.5966,6.2715,97.5557],[7.5995,6.2779,91.6407],[7.5956,6.3116,123.253],[7.5705,6.3596,151.2643],[7.5759,6.3607,135.6118],[7.5805,6.3644,135.7409],[7.5791,6.3729,137.829],[7.5809,6.3851,121.3889],[7.5767,6.3867,120.9693],[7.5565,6.3867,128.107],[7.5444,6.3626,143.9365],[7.5243,6.3626,150.9118],[7.4598,6.3787,206.1037],[7.4558,6.3948,224.7287],[7.4477,6.3988,331.7801],[7.4303,6.4162,408.7382],[7.4262,6.4041,383.6933],[7.427,6.4004,420.7479],[7.4246,6.4041,402.2081],[7.4222,6.4018,450.6981],[7.4207,6.3945,434.5927],[7.4131,6.3773,360.0878],[7.412,6.3718,443.0099],[7.4135,6.363,432.6264],[7.4217,6.341,353.5743],[7.4267,6.3204,381.5229],[7.4325,6.3111,302.4059],[7.4407,6.2884,248.6541],[7.4569,6.2618,189.2972],[7.4623,6.2564,178.7428],[7.478,6.2334,175.4848]]]]}
,"properties": {"GID_2": "NGA.14.12_1","GID_0": "NGA","country": "Nigeria","GID_1": "NGA.14_1","province": "Enugu","NL_NAME_1": "NA","county": "NkanuWest","VARNAME_2": "NA","NL_NAME_2": "NA","TYPE_2": "LocalAuthority","ENGTYPE_2": "LocalAuthority","CC_2": "NA","HASC_2": "NA","name": "Nkanu_West.county","area_km2": 275.7917,"hist_schema_id": "Elevation0-9000","hist_area_km2": {"75": 0.2951,"100": 22.6774,"125": 44.6563,"150": 53.0851,"175": 42.9063,"200": 49.0173,"225": 19.0926,"250": 8.4714,"275": 6.4271,"300": 5.2891,"325": 6.1108,"350": 7.1433,"375": 5.2679,"400": 3.3714,"425": 1.496,"450": 0.4846}}}