{"type": "Feature","bbox": [8.2156,12.8192,8.4436,12.9978],"geometry": {"type": "MultiPolygon","coordinates": [[[[8.3797,12.8192,459.6519],[8.4281,12.8215,449.4771],[8.4436,12.8257,463.8604],[8.4313,12.8529,478.2099],[8.4319,12.8595,478.7221],[8.4288,12.8874,489.3185],[8.4324,12.9055,492.1118],[8.4301,12.9244,505.2041],[8.4262,12.9384,496.6197],[8.4181,12.9574,494.9854],[8.4112,12.9652,494.8222],[8.4044,12.9693,490.6023],[8.3971,12.9789,488.6945],[8.3765,12.9858,475.2962],[8.3578,12.9849,486.6431],[8.3496,12.9908,482.41],[8.3481,12.9978,474.8304],[8.3447,12.9931,480.2269],[8.3292,12.9851,488.4021],[8.3088,12.9701,465.7001],[8.3075,12.9643,472.204],[8.3127,12.9337,481.3587],[8.3119,12.9205,488.4422],[8.3087,12.9149,485.2014],[8.2482,12.8764,448.9346],[8.2156,12.8708,472.0542],[8.2211,12.8604,476.4835],[8.2217,12.854,479.4963],[8.2301,12.8256,469.6773],[8.2803,12.8338,449.5031],[8.2999,12.8347,452.0057],[8.3347,12.8256,462.0284],[8.3797,12.8192,459.6519]]]]}
,"properties": {"GID_2": "NGA.21.33_1","GID_0": "NGA","country": "Nigeria","GID_1": "NGA.21_1","province": "Katsina","NL_NAME_1": "NA","county": "Sandamu","VARNAME_2": "NA","NL_NAME_2": "NA","TYPE_2": "LocalAuthority","ENGTYPE_2": "LocalAuthority","CC_2": "NA","HASC_2": "NA","name": "Sandamu.county","area_km2": 288.2118,"hist_schema_id": "Elevation0-9000","hist_area_km2": {"450": 58.1286,"475": 148.1287,"500": 80.7351,"525": 1.2192}}}