{"type":"Feature","properties":{"GID_2":"NGA.20.30_1","GID_0":"NGA","country":"Nigeria","GID_1":"NGA.20_1","province":"Kano","NL_NAME_1":"NA","county":"Minjibir","VARNAME_2":"NA","NL_NAME_2":"NA","TYPE_2":"LocalAuthority","ENGTYPE_2":"LocalAuthority","CC_2":"NA","HASC_2":"NA","name":"Minjibir.county"},
"geometry":{"type": "MultiPolygon","coordinates": [[[[8.575,12.2312,465.3108],[8.5688,12.2293,464.5607],[8.5618,12.2244,470.6737],[8.553,12.224,462.3316],[8.5509,12.2281,459.935],[8.5491,12.2505,452.2035],[8.5463,12.2539,454.7159],[8.5432,12.2621,457.3023],[8.5379,12.2623,454.6229],[8.5272,12.255,444.4575],[8.5208,12.2436,436.9],[8.5207,12.2379,440.2603],[8.5063,12.2379,434.427],[8.4963,12.2292,441.2321],[8.4936,12.2241,444.4879],[8.4911,12.2105,454.7003],[8.4894,12.1861,470.8807],[8.4902,12.1723,480.4277],[8.4873,12.1635,478.1688],[8.489,12.151,475.9529],[8.4866,12.1441,474.6234],[8.4861,12.1234,488.2448],[8.4879,12.1204,482.7345],[8.4875,12.1172,482.1375],[8.503,12.1109,469.2426],[8.5252,12.0983,470.6934],[8.5273,12.0858,466.91],[8.5341,12.077,465.3446],[8.5425,12.0694,459.0118],[8.5553,12.0654,439.1749],[8.5952,12.0742,446.4471],[8.607,12.0754,446.4893],[8.6302,12.0735,440.8961],[8.6339,12.0776,437.881],[8.6347,12.0853,436.3734],[8.6395,12.093,424.2619],[8.6472,12.1,427.1451],[8.6651,12.1109,422.0],[8.6888,12.1328,422.0],[8.7004,12.1461,414.696],[8.6982,12.1593,428.7418],[8.6981,12.1778,429.3289],[8.7015,12.1882,418.7594],[8.6963,12.2278,436.1789],[8.7011,12.2621,423.4208],[8.6886,12.2756,425.8266],[8.6426,12.3017,451.3528],[8.6349,12.2977,455.4741],[8.629,12.2789,457.0698],[8.6309,12.2676,454.3969],[8.6292,12.2581,453.618],[8.6096,12.2423,453.8286],[8.6064,12.2374,451.8892],[8.5974,12.2345,456.6449],[8.5864,12.2335,462.9588],[8.5803,12.2299,466.514],[8.575,12.2312,465.3108]]]]}}