{"type": "Feature","bbox": [6.1821,4.5982,6.4637,4.9753],"geometry": {"type": "MultiPolygon","coordinates": [[[[6.4544,4.7147,14.2888],[6.4464,4.7167,15.7],[6.4444,4.7371,11.4817],[6.4407,4.7482,15.0511],[6.4475,4.7718,14.9209],[6.4414,4.7793,16.7314],[6.4257,4.7787,13.5203],[6.3941,4.7951,16.131],[6.386,4.8086,15.4906],[6.3837,4.8211,14.669],[6.3871,4.879,21.2448],[6.3903,4.8884,19.9502],[6.41,4.9104,16.7336],[6.4178,4.9223,13.9851],[6.4204,4.937,9.5233],[6.4302,4.9555,17.3025],[6.4307,4.9753,11.6731],[6.4128,4.9682,19.7171],[6.3958,4.9547,19.2293],[6.3791,4.9361,21.7973],[6.3573,4.9263,10.6432],[6.3319,4.9,14.55],[6.3231,4.8948,13.2814],[6.308,4.8921,5.5096],[6.2906,4.885,6.2897],[6.2792,4.8776,6.6865],[6.2631,4.8539,0.0],[6.2606,4.8411,16.0697],[6.2552,4.8368,13.0827],[6.2395,4.8361,19.1852],[6.2198,4.8291,12.3937],[6.2154,4.8264,12.7382],[6.2029,4.8096,16.44],[6.1967,4.7986,17.7472],[6.1937,4.7834,15.3656],[6.1917,4.7471,15.0512],[6.1939,4.7369,14.5655],[6.1921,4.7252,15.9305],[6.1883,4.7066,14.3527],[6.1821,4.6949,16.0528],[6.1828,4.6677,15.9015],[6.1874,4.6511,18.3192],[6.1915,4.6448,9.4912],[6.1903,4.62,4.4223],[6.2024,4.6211,1.5917],[6.2088,4.6196,7.6906],[6.2196,4.6134,5.0191],[6.2333,4.6199,16.0076],[6.2375,4.6233,4.5041],[6.2368,4.638,16.278],[6.246,4.6496,10.4079],[6.2496,4.6606,12.2839],[6.2587,4.6678,17.6075],[6.2653,4.6629,5.7893],[6.2701,4.6554,16.5948],[6.2725,4.6462,11.8839],[6.2684,4.6398,8.9001],[6.2902,4.6311,2.8323],[6.2899,4.6265,4.2235],[6.2932,4.6145,5.0001],[6.297,4.6068,12.5515],[6.3084,4.6011,1.5804],[6.3206,4.5983,10.6851],[6.3288,4.5982,3.3995],[6.3276,4.6032,7.3492],[6.3293,4.5982,3.3995],[6.3305,4.5982,3.3995],[6.3469,4.6011,12.7854],[6.3678,4.6086,20.515],[6.3835,4.6261,13.2243],[6.3938,4.6328,19.9699],[6.3965,4.6397,22.0637],[6.4064,4.6416,15.7356],[6.426,4.6286,14.0878],[6.44,4.6228,14.1118],[6.4511,4.6215,9.594],[6.4592,4.6241,8.3025],[6.4637,4.6326,7.9887],[6.4629,4.6395,8.8478],[6.4593,4.6474,14.0775],[6.4495,4.651,14.5977],[6.4371,4.6597,14.7696],[6.4351,4.6738,13.062],[6.4349,4.6777,14.5514],[6.4376,4.6851,12.8271],[6.4427,4.6896,14.4459],[6.4544,4.7147,14.2888]]]]}
,"properties": {"GID_2": "NGA.6.5_1","GID_0": "NGA","country": "Nigeria","GID_1": "NGA.6_1","province": "Bayelsa","NL_NAME_1": "NA","county": "Ogbia","VARNAME_2": "NA","NL_NAME_2": "NA","TYPE_2": "LocalAuthority","ENGTYPE_2": "LocalAuthority","CC_2": "NA","HASC_2": "NA","name": "Ogbia.county","area_km2": 753.4528,"hist_schema_id": "Elevation0-9000","hist_area_km2": {"0": 287.9303,"25": 465.5225}}}