{"type":"Feature","properties":{"GID_2":"NGA.8.18_1","GID_0":"NGA","country":"Nigeria","GID_1":"NGA.8_1","province":"Borno","NL_NAME_1":"NA","county":"KwayaKusar","VARNAME_2":"NA","NL_NAME_2":"NA","TYPE_2":"LocalAuthority","ENGTYPE_2":"LocalAuthority","CC_2":"NA","HASC_2":"NA","name":"Kwaya_Kusar.county"},
"geometry":{"type": "MultiPolygon","coordinates": [[[[11.8721,10.2447,278.6],[11.8819,10.2379,291.3425],[11.8934,10.2345,310.1751],[11.9253,10.2404,342.9444],[11.9374,10.2449,349.3641],[11.9578,10.2568,413.407],[11.9756,10.2694,335.6883],[11.9948,10.2889,350.8907],[12.0184,10.3077,404.5453],[12.0519,10.329,448.7689],[12.077,10.3498,567.6381],[12.0814,10.356,573.8121],[12.0982,10.3721,585.696],[12.1061,10.3941,599.6284],[12.1116,10.427,704.7612],[12.1106,10.4565,678.9028],[12.1072,10.4897,671.0011],[12.1,10.5143,691.543],[12.0831,10.5378,677.2706],[12.0704,10.55,664.5059],[12.0604,10.5533,659.9299],[12.0568,10.5502,658.0072],[11.9824,10.5719,572.4761],[11.9637,10.5807,493.3931],[11.9404,10.5961,493.2925],[11.9028,10.616,469.9228],[11.8985,10.6169,459.6961],[11.8704,10.5831,416.5818],[11.8614,10.5554,399.8466],[11.8631,10.5199,385.4274],[11.8684,10.4847,371.2113],[11.8809,10.4493,327.7383],[11.8886,10.4171,361.8801],[11.9048,10.3721,272.3765],[11.9122,10.3395,273.4834],[11.9191,10.2942,321.9104],[11.9248,10.275,361.7783],[11.9144,10.2623,359.7479],[11.907,10.2564,389.8598],[11.8826,10.2441,310.9712],[11.8721,10.2447,278.6]]]]}}