{"type":"Feature","properties":{"GID_2":"NGA.20.44_1","GID_0":"NGA","country":"Nigeria","GID_1":"NGA.20_1","province":"Kano","NL_NAME_1":"NA","county":"Wudil","VARNAME_2":"NA","NL_NAME_2":"NA","TYPE_2":"LocalAuthority","ENGTYPE_2":"LocalAuthority","CC_2":"NA","HASC_2":"NA","name":"Wudil.county"},
"geometry":{"type": "MultiPolygon","coordinates": [[[[8.8315,11.8835,412.6905],[8.8329,11.8601,411.5116],[8.8248,11.8464,414.921],[8.8082,11.8344,415.3284],[8.7985,11.7967,414.1357],[8.7896,11.78,412.2689],[8.7676,11.7523,423.8049],[8.7457,11.7424,421.2142],[8.7305,11.7325,425.353],[8.7243,11.7223,432.9415],[8.7262,11.6882,444.6598],[8.7321,11.6956,444.5808],[8.7401,11.7003,443.8325],[8.7551,11.6861,438.4783],[8.7631,11.6874,430.5901],[8.7669,11.6862,430.8722],[8.7897,11.6627,457.423],[8.7936,11.6611,458.2269],[8.8086,11.6633,459.6973],[8.8139,11.6617,458.5682],[8.8309,11.6384,481.6111],[8.8362,11.658,472.6417],[8.8403,11.6641,468.1612],[8.8456,11.6634,465.246],[8.8501,11.6531,472.8477],[8.8523,11.6402,472.9938],[8.858,11.6287,465.3022],[8.8609,11.6045,472.4047],[8.8631,11.5978,474.0673],[8.875,11.5959,471.2748],[8.8884,11.6057,478.6041],[8.9008,11.6079,470.9968],[8.9068,11.6225,467.3534],[8.9057,11.6322,466.476],[8.9089,11.6387,460.462],[8.9169,11.6484,455.2872],[8.9249,11.6529,454.8123],[8.9293,11.6631,458.0235],[8.9278,11.6733,456.5001],[8.9245,11.6781,448.5458],[8.9163,11.6817,443.5075],[8.912,11.6902,434.8638],[8.9029,11.7019,437.4051],[8.8921,11.7219,441.9625],[8.8896,11.7235,442.0032],[8.8741,11.7462,437.4125],[8.8662,11.7523,430.7781],[8.8483,11.7789,417.0089],[8.849,11.7847,416.8919],[8.8536,11.7942,413.6044],[8.8634,11.8061,410.7975],[8.8692,11.8179,407.395],[8.8801,11.8287,406.8352],[8.8909,11.8362,422.8269],[8.9001,11.8524,421.9256],[8.9088,11.8608,429.3919],[8.9093,11.8682,426.8734],[8.9113,11.8701,427.1184],[8.9075,11.8779,425.7889],[8.9001,11.8827,421.4606],[8.8954,11.8812,419.6618],[8.8899,11.8837,415.9287],[8.876,11.9067,402.2537],[8.8684,11.9131,402.1931],[8.8557,11.9065,401.2486],[8.8328,11.8862,413.1801],[8.8315,11.8835,412.6905]]]]}}