{"type": "Feature","bbox": [3.1321,8.0348,3.7635,8.3828],"geometry": {"type": "MultiPolygon","coordinates": [[[[3.7635,8.192,265.0],[3.7475,8.2468,265.0],[3.7383,8.2633,265.0],[3.7339,8.2756,271.2362],[3.7216,8.2839,291.6206],[3.7109,8.2935,316.8932],[3.6965,8.3018,322.886],[3.686,8.2976,330.3547],[3.6784,8.2966,332.9362],[3.6496,8.31,309.8997],[3.6372,8.3185,346.5024],[3.627,8.33,325.0545],[3.6185,8.3432,327.5203],[3.6047,8.3472,351.4634],[3.6021,8.3544,334.5168],[3.5756,8.373,354.3643],[3.5706,8.3798,334.2426],[3.5543,8.3828,351.0231],[3.5452,8.3738,365.4711],[3.5357,8.3587,362.2204],[3.5266,8.3522,368.2913],[3.5213,8.3396,368.5645],[3.5107,8.3389,367.5728],[3.498,8.3248,358.6668],[3.4954,8.3195,345.9972],[3.4825,8.3089,331.8595],[3.473,8.2902,309.1812],[3.4543,8.2744,308.0556],[3.4377,8.2638,322.956],[3.4206,8.2581,306.1481],[3.4047,8.2485,318.1007],[3.3742,8.2432,310.3014],[3.3629,8.2432,299.1715],[3.3088,8.236,246.6252],[3.2971,8.2392,242.9432],[3.2522,8.2573,331.2006],[3.2383,8.2573,332.7169],[3.2036,8.2519,432.8534],[3.1637,8.2491,359.595],[3.1567,8.2439,384.514],[3.1505,8.2327,460.316],[3.1483,8.2238,350.9615],[3.1384,8.2152,338.96],[3.1321,8.2173,313.3762],[3.14,8.2108,343.1844],[3.1375,8.2023,336.4285],[3.1386,8.1968,323.5274],[3.147,8.1902,346.7125],[3.1538,8.182,339.8811],[3.1641,8.1763,368.7303],[3.1718,8.1674,400.5927],[3.1749,8.16,343.3112],[3.1856,8.1485,303.138],[3.1875,8.1397,278.9153],[3.2101,8.1216,277.0597],[3.2323,8.1148,249.2124],[3.2461,8.1134,221.7567],[3.2713,8.1129,221.5445],[3.2846,8.1233,226.6878],[3.2926,8.1455,229.7833],[3.2949,8.1596,226.8904],[3.293,8.1697,233.6603],[3.2946,8.1879,234.3755],[3.3204,8.1946,276.0936],[3.3444,8.1967,258.3679],[3.3531,8.1917,260.449],[3.3603,8.1833,282.3985],[3.3641,8.1759,281.5076],[3.3766,8.1651,295.6282],[3.391,8.1579,287.5834],[3.4092,8.1546,312.2538],[3.4331,8.133,302.6953],[3.4407,8.12,318.2301],[3.4444,8.1082,332.8604],[3.4357,8.097,339.2169],[3.4144,8.0916,306.3305],[3.4088,8.086,318.6577],[3.449,8.0484,320.3464],[3.4614,8.0464,305.3821],[3.5035,8.0505,307.8977],[3.5154,8.0454,362.8291],[3.5227,8.037,320.8917],[3.5452,8.0348,355.9738],[3.5737,8.0399,343.4675],[3.6001,8.0475,328.3342],[3.6142,8.0484,327.3234],[3.6386,8.0461,306.213],[3.6688,8.0477,258.4889],[3.713,8.0407,243.8352],[3.7328,8.0392,237.9335],[3.7285,8.0568,221.3117],[3.7277,8.1354,231.354],[3.7328,8.1514,270.125],[3.7407,8.1654,297.1474],[3.7558,8.1868,265.0],[3.7618,8.1922,265.0],[3.7635,8.192,265.0]]]]}
,"properties": {"GID_2": "NGA.31.17_1","GID_0": "NGA","country": "Nigeria","GID_1": "NGA.31_1","province": "Oyo","NL_NAME_1": "NA","county": "Itesiwaju","VARNAME_2": "NA","NL_NAME_2": "NA","TYPE_2": "LocalAuthority","ENGTYPE_2": "LocalAuthority","CC_2": "NA","HASC_2": "NA","name": "Itesiwaju.county","area_km2": 1371.268,"hist_schema_id": "Elevation0-9000","hist_area_km2": {"200": 0.273,"225": 33.708,"250": 81.58,"275": 180.277,"300": 292.298,"325": 348.265,"350": 293.371,"375": 114.72,"400": 14.437,"425": 6.358,"450": 3.735,"475": 1.658,"500": 0.462,"525": 0.105,"550": 0.021}}}