{"type":"Feature","properties":{"GID_2":"NGA.3.5_1","GID_0":"NGA","country":"Nigeria","GID_1":"NGA.3_1","province":"AkwaIbom","NL_NAME_1":"NA","county":"EssienUdim","VARNAME_2":"NA","NL_NAME_2":"NA","TYPE_2":"LocalAuthority","ENGTYPE_2":"LocalAuthority","CC_2":"NA","HASC_2":"NA","name":"Essien_Udim.county"},
"geometry":{"type": "MultiPolygon","coordinates": [[[[7.525,5.0741,69.8195],[7.529,5.0737,66.3267],[7.5372,5.0697,69.3475],[7.5449,5.0622,71.8665],[7.5598,5.0555,70.2409],[7.5671,5.0471,71.264],[7.5786,5.0462,71.5201],[7.6039,5.0533,31.872],[7.6211,5.0521,52.9374],[7.6211,5.0484,53.1317],[7.6161,5.0402,41.4063],[7.6104,5.0352,69.8305],[7.613,5.0343,64.1136],[7.6181,5.0356,48.3145],[7.6209,5.0392,52.7237],[7.6225,5.0392,52.7237],[7.6289,5.0352,58.6836],[7.6293,5.0303,41.1968],[7.6357,5.0231,32.4123],[7.6467,5.0217,61.7641],[7.659,5.0236,68.7707],[7.6933,5.0463,68.4113],[7.7183,5.0659,64.4215],[7.7356,5.0659,75.9328],[7.7504,5.0691,75.8511],[7.7588,5.0774,76.9286],[7.7677,5.0835,74.0911],[7.7778,5.0962,75.4749],[7.7848,5.1,79.4307],[7.7854,5.1217,86.5061],[7.7829,5.1277,82.0589],[7.7788,5.1308,88.0901],[7.7586,5.1346,90.9041],[7.7528,5.1394,91.8576],[7.744,5.1321,83.3589],[7.7377,5.1294,85.1504],[7.7304,5.13,84.2673],[7.7273,5.1268,80.9192],[7.722,5.126,80.5048],[7.7065,5.1373,84.6819],[7.6774,5.1383,37.1063],[7.6722,5.1404,35.9827],[7.665,5.1408,74.6993],[7.6504,5.147,83.2572],[7.6408,5.1546,75.0486],[7.635,5.154,83.0928],[7.624,5.1567,80.6554],[7.5975,5.1592,81.7578],[7.5943,5.1581,77.9873],[7.575,5.1647,83.4775],[7.566,5.1639,83.4703],[7.5546,5.1615,82.7453],[7.5486,5.1575,83.0707],[7.5289,5.1532,55.0297],[7.523,5.1476,83.9867],[7.5177,5.1467,82.5939],[7.518,5.1232,79.3369],[7.5216,5.1019,76.0172],[7.5286,5.0828,67.2766],[7.525,5.0741,69.8195]]]]}}