{"type":"Feature","properties":{"GID_2":"NGA.28.13_1","GID_0":"NGA","country":"Nigeria","GID_1":"NGA.28_1","province":"Ogun","NL_NAME_1":"NA","county":"Imeko-Afon","VARNAME_2":"NA","NL_NAME_2":"NA","TYPE_2":"LocalAuthority","ENGTYPE_2":"LocalAuthority","CC_2":"NA","HASC_2":"NA","name":"Imeko-Afon.county"},
"geometry":{"type": "MultiPolygon","coordinates": [[[[2.7263,7.6572,195.0018],[2.7254,7.648,214.5864],[2.729,7.6229,216.89],[2.7281,7.61,215.3737],[2.7303,7.5802,183.6773],[2.7362,7.5652,177.3262],[2.7461,7.5558,178.4305],[2.7477,7.547,169.0939],[2.7461,7.5403,152.2228],[2.7496,7.5273,172.5297],[2.7548,7.5213,169.3573],[2.7621,7.5189,145.0255],[2.7752,7.5107,138.0845],[2.786,7.4987,131.5148],[2.7929,7.4945,118.844],[2.7982,7.4826,136.5144],[2.7992,7.4266,153.3209],[2.8166,7.4257,200.5477],[2.8247,7.4283,191.9576],[2.8575,7.431,112.0161],[2.881,7.4292,141.2151],[2.9008,7.4298,210.0891],[2.9145,7.4323,218.8596],[2.9284,7.4388,220.6601],[2.9388,7.4402,216.3559],[2.9545,7.4393,157.0909],[2.9708,7.4365,208.4965],[2.9873,7.4251,208.9582],[3.0047,7.4175,173.6203],[3.0213,7.4165,179.7651],[3.0438,7.4117,130.5354],[3.0683,7.4019,110.953],[3.0941,7.4,90.5457],[3.1097,7.3959,75.2827],[3.1233,7.3955,89.493],[3.0883,7.4399,85.5205],[3.0873,7.4522,79.6194],[3.0746,7.4628,92.3399],[3.0727,7.4785,87.1313],[3.0624,7.498,123.0363],[3.058,7.5117,118.1693],[3.039,7.5319,122.8207],[3.0088,7.5516,119.1411],[3.0043,7.5599,111.0722],[2.987,7.5734,144.3796],[2.9746,7.592,136.0411],[2.9691,7.6111,139.2009],[2.9684,7.6388,142.0161],[2.9661,7.651,162.0135],[2.9743,7.6601,166.3652],[2.9809,7.6563,150.7005],[2.9817,7.6727,151.5244],[2.9883,7.6809,129.6175],[2.9955,7.7117,141.0639],[3.0035,7.727,136.6035],[3.009,7.7527,157.9438],[3.0117,7.8025,150.259],[3.0099,7.8203,160.2356],[3.0029,7.8306,156.8836],[2.9961,7.8369,160.4793],[2.9888,7.8405,170.7577],[2.9666,7.8404,199.3941],[2.9591,7.8332,184.0139],[2.9557,7.8231,167.7806],[2.9498,7.813,178.3016],[2.9436,7.7608,238.8729],[2.9347,7.7235,165.8056],[2.9211,7.7256,155.5151],[2.9109,7.7382,169.2509],[2.9,7.7606,196.3128],[2.8909,7.7986,220.5009],[2.8879,7.8263,214.7348],[2.8892,7.8535,229.0391],[2.8884,7.9029,244.3095],[2.8819,7.9261,265.9635],[2.8722,7.9426,226.3344],[2.8618,7.9548,208.0065],[2.8311,7.9698,235.8848],[2.7999,7.9706,227.232],[2.7747,7.9664,231.2864],[2.7581,7.9531,178.6881],[2.739,7.9417,164.9414],[2.7088,7.92,143.0366],[2.7008,7.9109,142.0499],[2.6783,7.8974,127.3646],[2.6758,7.8932,124.7084],[2.6684,7.8898,141.4015],[2.6958,7.8548,147.9706],[2.7063,7.8327,148.147],[2.7093,7.8171,177.2724],[2.7113,7.8132,183.4881],[2.7203,7.8109,200.3428],[2.7247,7.8076,211.2037],[2.7295,7.7922,196.8062],[2.7324,7.7722,192.3985],[2.728,7.7449,198.156],[2.7304,7.6992,179.1274],[2.7263,7.6572,195.0018]]]]}}