{"type":"Feature","properties":{"GID_2":"NGA.13.7_1","GID_0":"NGA","country":"Nigeria","GID_1":"NGA.13_1","province":"Ekiti","NL_NAME_1":"NA","county":"Gboyin","VARNAME_2":"NA","NL_NAME_2":"NA","TYPE_2":"LocalAuthority","ENGTYPE_2":"LocalAuthority","CC_2":"NA","HASC_2":"NA","name":"Gboyin.county"},
"geometry":{"type": "MultiPolygon","coordinates": [[[[5.3455,7.5149,347.2543],[5.3546,7.5145,346.528],[5.3724,7.5195,353.6173],[5.3786,7.5171,349.3096],[5.3972,7.5226,368.4477],[5.4089,7.5189,385.4994],[5.4297,7.5238,379.5459],[5.4525,7.5331,391.1478],[5.4688,7.5292,396.3329],[5.4709,7.5319,387.0671],[5.4772,7.5346,380.0068],[5.4973,7.5395,374.9577],[5.5271,7.5261,381.1723],[5.537,7.5236,357.3513],[5.5725,7.5214,354.8073],[5.5831,7.5247,377.4369],[5.5975,7.5258,338.7668],[5.6012,7.541,342.4819],[5.6077,7.5587,379.2256],[5.6133,7.5955,407.1457],[5.6237,7.6198,425.0092],[5.6317,7.63,442.3105],[5.6424,7.6389,422.8264],[5.6638,7.6624,476.2766],[5.6202,7.6637,411.5064],[5.6133,7.6661,418.4678],[5.6041,7.6667,418.7069],[5.5982,7.6698,415.9118],[5.588,7.6838,434.6188],[5.5809,7.6886,427.9992],[5.5757,7.6957,453.7115],[5.5695,7.6911,476.6976],[5.5598,7.6772,431.3119],[5.5424,7.6699,436.0576],[5.5187,7.6504,417.8519],[5.5008,7.6544,425.9733],[5.4804,7.6481,405.5963],[5.4689,7.6518,403.2722],[5.4556,7.6524,414.3758],[5.4487,7.6556,395.4199],[5.4339,7.6682,384.0275],[5.4259,7.6705,394.6559],[5.4168,7.6778,392.3551],[5.4118,7.6843,407.6627],[5.4094,7.6911,385.3204],[5.4042,7.6849,394.1214],[5.3957,7.6624,388.3789],[5.365,7.6319,389.678],[5.361,7.6105,365.2438],[5.3694,7.6048,387.7028],[5.3768,7.6054,393.8301],[5.3957,7.5995,397.4833],[5.3951,7.5915,399.796],[5.3868,7.5808,390.0192],[5.3742,7.5702,368.3217],[5.3727,7.5647,367.9506],[5.3746,7.555,370.8875],[5.3685,7.5348,366.3007],[5.3568,7.523,362.3998],[5.3455,7.5149,347.2543]]]]}}