{"type":"Feature","properties":{"GID_2":"NGA.36.3_1","GID_0":"NGA","country":"Nigeria","GID_1":"NGA.36_1","province":"Yobe","NL_NAME_1":"NA","county":"Damaturu","VARNAME_2":"NA","NL_NAME_2":"NA","TYPE_2":"LocalAuthority","ENGTYPE_2":"LocalAuthority","CC_2":"NA","HASC_2":"NA","name":"Damaturu.county"},
"geometry":{"type": "MultiPolygon","coordinates": [[[[12.2942,11.9197,357.9492],[12.2824,11.9548,364.7854],[12.2846,12.0105,360.2233],[12.2874,12.0275,360.2789],[12.2511,12.0218,361.9284],[12.1947,12.0173,361.2535],[12.1383,12.0015,364.3782],[12.1136,11.9973,367.6089],[12.096,11.9975,368.846],[12.0496,12.0069,365.3831],[12.0162,12.0101,368.3304],[11.9966,11.9969,368.4709],[11.9683,11.9837,373.0679],[11.9369,11.974,377.2473],[11.9101,11.9613,371.8367],[11.8663,11.9678,368.7925],[11.8247,11.986,361.505],[11.8096,11.9906,363.4883],[11.7909,11.9891,374.6153],[11.7295,11.9738,379.7922],[11.7107,11.9523,381.4008],[11.6878,11.943,382.6295],[11.682,11.9424,382.3022],[11.7198,11.9113,373.1411],[11.749,11.8779,381.01369999999997],[11.7825,11.8301,394.2911],[11.8062,11.7511,411.5143],[11.8082,11.6551,376.813],[11.7995,11.5802,399.3044],[11.8043,11.5486,389.9173],[11.8059,11.5175,361.3403],[11.8409,11.5368,423.5735],[11.8775,11.5469,399.6371],[11.9064,11.5649,380.8017],[11.9345,11.5732,406.9621],[11.9604,11.575,424.7706],[12.0266,11.5887,416.8681],[12.0632,11.5995,395.8891],[12.0934,11.606,401.4276],[12.121,11.609,404.6443],[12.1364,11.6208,406.8799],[12.1534,11.6219,405.6585],[12.1588,11.6202,405.4746],[12.1777,11.6225,405.0976],[12.1912,11.6329,402.5236],[12.2068,11.6398,393.563],[12.2369,11.6596,392.1996],[12.2336,11.691,393.6664],[12.3099,11.8364,365.4595],[12.2942,11.9197,357.9492]]]]}}