{"type":"Feature","properties":{"GID_2":"NGA.30.6_1","GID_0":"NGA","country":"Nigeria","GID_1":"NGA.30_1","province":"Osun","NL_NAME_1":"NA","county":"Boripe","VARNAME_2":"NA","NL_NAME_2":"NA","TYPE_2":"LocalAuthority","ENGTYPE_2":"LocalAuthority","CC_2":"NA","HASC_2":"NA","name":"Boripe.county"},
"geometry":{"type": "MultiPolygon","coordinates": [[[[4.7293,7.9463,477.9547],[4.7276,7.942,427.7789],[4.7121,7.9229,475.6153],[4.6962,7.8973,385.9288],[4.6868,7.8901,392.3187],[4.6849,7.8828,390.5507],[4.6804,7.8769,392.3457],[4.6746,7.873,383.8539],[4.6721,7.8648,369.6147],[4.6508,7.8442,366.3947],[4.6403,7.8393,379.0621],[4.6286,7.828,357.541],[4.6137,7.8174,351.8111],[4.6093,7.8118,356.6047],[4.6072,7.7855,357.5639],[4.6154,7.763,336.5696],[4.6237,7.7502,325.5015],[4.6351,7.7564,331.8018],[4.645,7.7588,353.7471],[4.6517,7.7573,337.9567],[4.6577,7.759,325.9485],[4.6649,7.7582,333.9547],[4.6698,7.7648,350.094],[4.677,7.7818,360.7571],[4.6843,7.7906,361.3832],[4.6859,7.8019,369.9429],[4.6969,7.8427,368.4093],[4.704,7.85,384.8919],[4.7151,7.8562,374.5201],[4.7377,7.8648,391.4533],[4.7581,7.8601,379.923],[4.7632,7.863,390.9338],[4.7695,7.8641,385.0013],[4.7846,7.8567,467.636],[4.7955,7.8592,423.3171],[4.8015,7.8572,440.1076],[4.7905,7.8685,423.0962],[4.7677,7.8818,422.4834],[4.7586,7.8898,447.2073],[4.7394,7.9134,438.6893],[4.7346,7.9202,443.4702],[4.7323,7.9329,468.0671],[4.7292,7.9401,430.9761],[4.7293,7.9463,477.9547]]]]}}