{"type": "Feature","bbox": [4.4356,7.6737,4.5781,7.7526],"geometry": {"type": "MultiPolygon","coordinates": [[[[4.5655,7.7077,330.1724],[4.5642,7.7095,334.9259],[4.5647,7.7143,315.3906],[4.5477,7.7319,323.5047],[4.5438,7.7442,325.1603],[4.5372,7.7493,329.2691],[4.5392,7.7526,317.8909],[4.5212,7.7468,317.1439],[4.4966,7.7357,306.0358],[4.4864,7.7331,315.4731],[4.4518,7.7363,305.178],[4.4392,7.7252,305.0354],[4.4356,7.7054,277.0455],[4.4361,7.6916,294.6845],[4.4405,7.6899,303.6592],[4.4467,7.6921,288.7856],[4.4624,7.6916,291.7191],[4.476,7.6879,305.5619],[4.495,7.6795,319.9711],[4.5153,7.6808,307.1407],[4.5312,7.6796,290.9901],[4.5468,7.6766,300.5558],[4.5519,7.6774,298.2158],[4.5678,7.6737,365.7475],[4.5781,7.6762,333.049],[4.5637,7.706,324.7267],[4.5655,7.7077,330.1724]]]]}
,"properties": {"GID_2": "NGA.30.7_1","GID_0": "NGA","country": "Nigeria","GID_1": "NGA.30_1","province": "Osun","NL_NAME_1": "NA","county": "EdeNorth","VARNAME_2": "NA","NL_NAME_2": "NA","TYPE_2": "LocalAuthority","ENGTYPE_2": "LocalAuthority","CC_2": "NA","HASC_2": "NA","name": "Ede_North.county","area_km2": 86.08029,"hist_schema_id": "Elevation0-9000","hist_area_km2": {"275": 1.95403,"300": 27.62931,"325": 43.17649,"350": 12.08086,"375": 1.21859,"400": 0.02101}}}