{"type": "Feature","bbox": [9.7823,7.2684,10.8557,8.1273],"geometry": {"type": "MultiPolygon","coordinates": [[[[9.8232,7.6088,200.8414],[9.8301,7.6137,214.7318],[9.8473,7.6203,201.1053],[9.8564,7.6275,215.3873],[9.8641,7.6271,211.1186],[9.8942,7.6323,217.9138],[9.906,7.6321,211.7714],[9.9089,7.634,204.1824],[9.9534,7.6347,185.4694],[9.9597,7.6333,185.366],[9.9809,7.6339,162.4501],[10.0118,7.6278,151.2952],[10.0221,7.6294,136.8146],[10.0547,7.6226,148.4671],[10.0819,7.6057,157.0472],[10.0969,7.6025,142.1352],[10.1446,7.5667,155.7112],[10.1629,7.5557,161.5704],[10.1695,7.5495,154.4997],[10.1725,7.54,145.4941],[10.1811,7.5363,129.3617],[10.1964,7.5215,135.7658],[10.201599999999999,7.5137,150.8135],[10.2129,7.5113,155.333],[10.2222,7.5022,158.7469],[10.2328,7.4963,179.905],[10.2435,7.4939,181.1074],[10.2702,7.4842,184.6705],[10.286,7.4723,205.9682],[10.2893,7.4645,184.8745],[10.2879,7.4572,183.9638],[10.2899,7.4376,164.109],[10.2958,7.4312,185.573],[10.2958,7.4274,192.9156],[10.292,7.4211,177.9857],[10.2972,7.4118,163.4388],[10.2965,7.3842,191.8577],[10.2909,7.3653,225.6226],[10.2898,7.3548,231.4216],[10.2918,7.3352,649.642],[10.2946,7.3247,562.7281],[10.2939,7.3165,430.8583],[10.2995,7.3025,216.4286],[10.3041,7.3054,214.2301],[10.3157,7.2871,233.8513],[10.321,7.2828,202.6531],[10.3539,7.2684,193.9214],[10.364,7.2702,201.8445],[10.3913,7.2795,223.275],[10.4085,7.2801,222.5211],[10.4246,7.2773,197.22559999999999],[10.4399,7.2771,199.8766],[10.4506,7.297,222.7422],[10.4533,7.3066,212.8331],[10.4517,7.3113,218.8501],[10.4602,7.3311,217.2469],[10.4626,7.3405,218.8287],[10.472,7.3547,214.6275],[10.4946,7.3754,222.9772],[10.5091,7.3829,246.9712],[10.512,7.3783,251.7302],[10.5163,7.3899,248.4931],[10.5272,7.3954,240.8394],[10.547,7.4117,236.483],[10.5567,7.4174,214.0867],[10.5693,7.4374,227.3611],[10.6116,7.4723,871.5117],[10.6304,7.4952,346.7035],[10.6447,7.5048,555.3857],[10.6791,7.5341,780.1227],[10.7112,7.5655,621.4867],[10.7262,7.576,532.0145],[10.7791,7.6194,548.4287],[10.8413,7.6774,871.3057],[10.8511,7.6807,860.3038],[10.8557,7.6851,860.34],[10.8483,7.683,868.9471],[10.8247,7.6669,648.4417],[10.8074,7.6722,641.9471],[10.7927,7.6729,640.9119],[10.785,7.6704,618.662],[10.7707,7.6597,591.5726],[10.7659,7.653,605.3909],[10.7597,7.6523,572.2681],[10.7561,7.647,555.3188],[10.7513,7.6435,569.0862],[10.7463,7.6442,550.9427],[10.7079,7.6276,561.1595],[10.6902,7.6258,538.4244],[10.6733,7.6203,513.3286],[10.6507,7.6095,369.5915],[10.6426,7.6094,393.832],[10.6251,7.6014,341.8305],[10.6255,7.5972,296.4336],[10.6228,7.5951,330.9353],[10.5751,7.568,636.569],[10.5313,7.5482,208.6412],[10.5165,7.5475,330.6375],[10.4978,7.5412,194.3869],[10.4874,7.5446,201.1972],[10.4822,7.5441,213.3845],[10.4552,7.5572,193.7952],[10.4398,7.5702,187.9203],[10.4363,7.5778,200.4571],[10.422,7.5879,183.6152],[10.3933,7.6305,178.654],[10.378,7.6696,181.4016],[10.3674,7.6907,156.2358],[10.3649,7.6997,153.4863],[10.3592,7.7055,162.616],[10.3626,7.7193,181.0669],[10.3843,7.7278,174.7729],[10.4155,7.7604,167.5677],[10.4208,7.7757,146.1897],[10.4192,7.7859,138.8465],[10.4274,7.7989,133.8363],[10.4331,7.8145,141.9],[10.437,7.8187,150.6624],[10.4361,7.8349,173.8314],[10.4321,7.8478,162.0835],[10.4164,7.8666,163.6102],[10.4157,7.8724,166.1693],[10.4206,7.8968,157.8462],[10.4158,7.9103,133.9471],[10.4042,7.932,125.261],[10.3972,7.9513,144.4883],[10.3981,7.958,149.474],[10.3965,7.9576,149.3453],[10.3939,7.9653,137.9524],[10.3922,7.9813,140.3205],[10.3863,8.0062,130.4985],[10.3811,8.0383,158.5428],[10.3752,8.0475,175.9679],[10.3623,8.0807,146.6658],[10.3677,8.0959,131.4495],[10.3632,8.1146,126.2051],[10.369,8.1273,123.6797],[10.3273,8.1241,131.3259],[10.3073,8.1187,127.2039],[10.2837,8.1056,142.1467],[10.2728,8.0967,122.0053],[10.2629,8.0862,111.2391],[10.2597,8.076,112.2911],[10.2465,8.0652,111.7604],[10.2437,8.0554,119.9008],[10.2364,8.0462,134.8523],[10.2324,8.0355,130.3029],[10.2239,8.0262,136.8752],[10.2162,8.0104,144.5649],[10.1911,7.9913,155.4425],[10.1824,7.9749,154.7074],[10.141,7.9438,159.4775],[10.1153,7.9192,160.9748],[10.0907,7.9012,119.9119],[10.046,7.8543,110.7521],[10.0214,7.8383,109.9153],[10.0068,7.8129,132.2166],[9.9979,7.8085,130.6854],[9.9676,7.7843,161.1321],[9.9302,7.7585,170.9211],[9.9165,7.7468,151.3199],[9.9018,7.739,175.199],[9.8864,7.726,148.2821],[9.8721,7.7169,154.6991],[9.8593,7.7106,155.5822],[9.8293,7.6818,193.2601],[9.7823,7.6458,205.2313],[9.7985,7.6297,212.2477],[9.8232,7.6088,200.8414]]]]}
,"properties": {"GID_2": "NGA.35.3_1","GID_0": "NGA","country": "Nigeria","GID_1": "NGA.35_1","province": "Taraba","NL_NAME_1": "NA","county": "Donga","VARNAME_2": "NA","NL_NAME_2": "NA","TYPE_2": "LocalAuthority","ENGTYPE_2": "LocalAuthority","CC_2": "NA","HASC_2": "NA","name": "Donga.county","area_km2": 3435.243,"hist_schema_id": "Elevation0-9000","hist_area_km2": {"100": 32.112,"125": 463.306,"150": 711.149,"175": 814.151,"200": 642.498,"225": 335.085,"250": 89.664,"275": 38.467,"300": 26.778,"325": 23.057,"350": 20.326,"375": 15.197,"400": 12.402,"425": 10.027,"450": 10.678,"475": 14.524,"500": 21.102,"525": 27.491,"550": 29.76,"575": 25.325,"600": 17.276,"625": 9.878,"650": 6.159,"675": 5.024,"700": 4.625,"725": 4.247,"750": 5.193,"775": 4.982,"800": 4.058,"825": 3.868,"850": 3.069,"875": 2.859,"900": 0.736,"925": 0.147}}}