{"type":"Feature","properties":{"GID_2":"NGA.20.22_1","GID_0":"NGA","country":"Nigeria","GID_1":"NGA.20_1","province":"Kano","NL_NAME_1":"NA","county":"Karaye","VARNAME_2":"NA","NL_NAME_2":"NA","TYPE_2":"LocalAuthority","ENGTYPE_2":"LocalAuthority","CC_2":"NA","HASC_2":"NA","name":"Karaye.county"},
"geometry":{"type": "MultiPolygon","coordinates": [[[[7.8577,11.7992,547.0398],[7.8564,11.7904,541.5875],[7.8512,11.7772,543.9404],[7.8558,11.7639,541.5613],[7.8658,11.7524,536.5401],[7.8753,11.7145,529.1019],[7.8923,11.6863,524.9482],[7.8989,11.6677,531.9161],[7.9012,11.6519,522.5718],[7.9058,11.6449,522.5309],[7.9122,11.6374,528.9965],[7.9179,11.6349,521.5714],[7.9425,11.6325,526.9733],[7.9679,11.6399,530.2045],[7.9712,11.6379,524.8015],[7.972,11.6317,532.5794],[7.9772,11.6332,526.4522],[7.9811,11.6362,523.04],[7.9875,11.6515,521.0],[7.9883,11.66,521.0],[7.9992,11.6678,521.0],[8.0015,11.6676,521.0],[8.0181,11.6551,521.0],[8.026,11.6546,521.0],[8.0391,11.6603,533.8577],[8.0464,11.6675,521.0],[8.0512,11.6756,521.8525],[8.0509,11.6901,533.2181],[8.0552,11.7054,518.4788],[8.0552,11.7197,510.4595],[8.059,11.7407,504.6154],[8.0623,11.7481,505.5372],[8.0691,11.751,502.2253],[8.0773,11.7497,488.5985],[8.0895,11.7552,490.18],[8.1009,11.765,484.9471],[8.1373,11.7867,488.4341],[8.1533,11.7936,476.2062],[8.1413,11.7976,481.5987],[8.1305,11.8089,494.3022],[8.1274,11.8172,498.5494],[8.1302,11.8209,498.3588],[8.1289,11.829,497.0529],[8.1201,11.8355,501.1154],[8.1153,11.8357,504.9409],[8.0977,11.8433,520.5691],[8.0819,11.8569,528.5361],[8.0753,11.8753,522.8611],[8.0785,11.8854,529.8369],[8.0753,11.8877,531.1779],[8.0702,11.8833,529.5887],[8.0684,11.8782,531.3926],[8.0636,11.8723,531.0031],[8.0643,11.8698,528.4691],[8.0581,11.8626,528.891],[8.0582,11.8596,525.8887],[8.0549,11.8573,520.6893],[8.0297,11.8498,532.2417],[8.0223,11.8442,534.9569],[8.0066,11.841,534.093],[8.0008,11.8379,534.4655],[7.9881,11.8246,548.3585],[7.9732,11.8201,556.7576],[7.9643,11.8204,563.6447],[7.9582,11.818,568.8156],[7.9401,11.8056,562.7579],[7.933,11.7965,562.3414],[7.9249,11.7895,571.9725],[7.9219,11.7835,578.8177],[7.9133,11.7783,578.9916],[7.8976,11.7783,570.5052],[7.883,11.783,562.2902],[7.8719,11.7921,568.1527],[7.861,11.7986,553.1471],[7.8577,11.7992,547.0398]]]]}}