{"type":"Feature","properties":{"GID_2":"NGA.29.1_1","GID_0":"NGA","country":"Nigeria","GID_1":"NGA.29_1","province":"Ondo","NL_NAME_1":"NA","county":"AkokoNorth-East","VARNAME_2":"NA","NL_NAME_2":"NA","TYPE_2":"LocalAuthority","ENGTYPE_2":"LocalAuthority","CC_2":"NA","HASC_2":"NA","name":"Akoko_North-East.county"},
"geometry":{"type": "MultiPolygon","coordinates": [[[[6.0284,7.5734,347.7229],[6.0225,7.5844,362.0225],[6.0246,7.586,354.0714],[5.9803,7.6285,353.1788],[5.9597,7.6427,357.6031],[5.9481,7.6533,362.5589],[5.9423,7.6635,390.9422],[5.93,7.6764,398.4023],[5.9239,7.6712,390.001],[5.9131,7.6578,377.8192],[5.896,7.6429,377.4843],[5.8825,7.6176,396.0338],[5.875,7.5986,364.8141],[5.8663,7.5881,401.6795],[5.8549,7.5821,348.7467],[5.7781,7.5562,412.2903],[5.7721,7.5579,404.2214],[5.7076,7.5489,452.7809],[5.6836,7.5483,417.9857],[5.6396,7.5514,424.1347],[5.6084,7.5644,370.5046],[5.5987,7.5328,345.3738],[5.5915,7.4882,328.1598],[5.6363,7.4885,325.5979],[5.6503,7.4837,327.2424],[5.6741,7.4847,347.735],[5.718,7.4925,414.2778],[5.7548,7.4976,459.9708],[5.7726,7.498,518.5568],[5.8355,7.5084,336.7282],[5.8786,7.5096,326.1367],[5.8915,7.5066,341.1339],[5.9095,7.5074,322.2338],[5.9423,7.5119,304.9992],[5.9602,7.5195,316.4656],[5.9773,7.5219,295.4333],[5.9901,7.5189,303.3258],[6.0021,7.5368,312.8543],[6.0055,7.5464,345.9636],[6.0174,7.5559,330.8186],[6.0284,7.5734,347.7229]]]]}}