{"type":"Feature","properties":{"GID_2":"NGA.8.13_1","GID_0":"NGA","country":"Nigeria","GID_1":"NGA.8_1","province":"Borno","NL_NAME_1":"NA","county":"Jere","VARNAME_2":"NA","NL_NAME_2":"NA","TYPE_2":"LocalAuthority","ENGTYPE_2":"LocalAuthority","CC_2":"NA","HASC_2":"NA","name":"Jere.county"},
"geometry":{"type": "MultiPolygon","coordinates": [[[[13.157,11.9557,308.0067],[13.1662,11.9488,308.6161],[13.1792,11.9323,310.8317],[13.1905,11.9227,312.359],[13.2171,11.9067,309.3875],[13.2289,11.8977,310.1493],[13.2437,11.8603,311.8354],[13.2496,11.8351,312.9597],[13.2571,11.8205,314.7614],[13.2587,11.8055,316.2744],[13.2538,11.7932,317.2792],[13.2379,11.7805,318.8016],[13.2308,11.7813,320.4563],[13.2271,11.7887,319.4478],[13.2223,11.7941,316.7214],[13.2118,11.8009,319.0144],[13.1815,11.8016,320.327],[13.1619,11.8055,331.3675],[13.1369,11.8024,331.9341],[13.1365,11.7987,333.2116],[13.1308,11.7889,332.247],[13.1264,11.7724,331.6646],[13.1189,11.7626,334.8943],[13.1101,11.7566,334.5784],[13.1063,11.7607,335.9345],[13.1007,11.7447,338.1856],[13.0938,11.7372,337.4452],[13.0965,11.7298,336.0636],[13.0948,11.7128,336.4938],[13.1027,11.7024,336.1556],[13.1173,11.692,336.5293],[13.1238,11.6903,335.7802],[13.1398,11.6903,335.3425],[13.174,11.6974,335.2053],[13.1944,11.7102,331.1076],[13.222,11.7222,327.5794],[13.2386,11.7332,329.5549],[13.2612,11.7391,328.0563],[13.2696,11.7334,325.2993],[13.286,11.7131,327.1536],[13.2912,11.6958,327.0],[13.2953,11.6899,327.0],[13.3056,11.6865,327.0],[13.3233,11.684,328.3795],[13.3504,11.6863,334.674],[13.3599,11.6935,321.7728],[13.3728,11.7178,315.6936],[13.3713,11.7286,315.4257],[13.3636,11.7331,315.9157],[13.3568,11.7424,316.4844],[13.3395,11.7568,316.7205],[13.3283,11.7627,316.0016],[13.3244,11.7667,316.1993],[13.3092,11.7856,314.1323],[13.3024,11.7968,313.2609],[13.3019,11.8065,312.4366],[13.3098,11.8199,311.557],[13.3367,11.826,309.9698],[13.3643,11.8233,309.4673],[13.3754,11.8281,309.2062],[13.4063,11.8622,306.6828],[13.4093,11.8778,305.4883],[13.3974,11.8944,305.1099],[13.392,11.9111,303.5675],[13.3487,11.9372,302.8734],[13.3311,11.9584,302.1603],[13.3306,12.0132,300.2643],[13.3242,12.0473,298.9691],[13.3166,12.0614,299.4674],[13.3095,12.0625,299.8712],[13.3045,12.0678,299.6155],[13.2927,12.0724,299.122],[13.2775,12.0698,299.983],[13.2631,12.0845,298.1116],[13.2394,12.1226,297.7085],[13.2199,12.1581,296.2717],[13.2077,12.1564,297.4009],[13.1972,12.1586,297.2693],[13.1727,12.15,299.0663],[13.159,12.1092,299.6793],[13.1533,12.0978,300.1549],[13.1509,12.0737,300.8877],[13.153,12.0509,303.1528],[13.1455,12.04,302.3659],[13.1487,12.022,304.6786],[13.1463,12.0027,305.4193],[13.1513,11.9732,306.5881],[13.157,11.9557,308.0067]]]]}}