{"type": "Feature","bbox": [6.605,6.5275,6.9684,7.0334],"geometry": {"type": "MultiPolygon","coordinates": [[[[6.9059,6.7762,33.988],[6.9072,6.7824,33.4243],[6.9169,6.7919,32.1919],[6.9222,6.805,26.0951],[6.9319,6.8219,29.2472],[6.9433,6.8533,30.3208],[6.95,6.8571,27.6332],[6.9571,6.8558,27.9193],[6.9647,6.8529,31.5111],[6.9684,6.8465,32.7613],[6.9624,6.8942,28.0325],[6.9549,6.9192,28.3274],[6.9362,6.9444,32.1524],[6.913,6.9515,28.873],[6.8996,6.9623,27.9343],[6.8938,6.9744,29.0439],[6.8971,6.9803,28.5858],[6.9038,6.983,30.2443],[6.9062,6.9903,34.5799],[6.9021,6.9924,32.2244],[6.8878,6.9934,28.0018],[6.8775,6.9963,30.7663],[6.8714,6.9904,31.8483],[6.86,6.9839,30.6125],[6.851,6.982,28.5833],[6.8451,6.9872,37.7357],[6.8355,6.9924,33.7303],[6.8081,6.998,31.8344],[6.7824,7.0067,31.8942],[6.7504,7.0132,34.1665],[6.7018,7.0283,34.5728],[6.6734,7.0334,27.0],[6.6697,7.0254,32.3297],[6.6733,6.9933,27.0],[6.6707,6.9583,28.7401],[6.6566,6.9168,25.7526],[6.6507,6.9118,21.5],[6.6468,6.8953,21.5],[6.6399,6.8804,21.5],[6.6273,6.8635,21.5],[6.6211,6.8461,23.0081],[6.605,6.8231,21.4225],[6.6125,6.8043,32.7086],[6.6208,6.7993,21.0],[6.6257,6.7883,21.0],[6.6221,6.7695,26.7717],[6.622,6.7586,25.4031],[6.6169,6.746,26.5739],[6.6131,6.727,23.7663],[6.6106,6.6993,18.0],[6.6158,6.6803,28.0344],[6.6233,6.6687,28.4346],[6.6249,6.6573,26.7077],[6.6342,6.6422,26.016],[6.6477,6.6249,26.8751],[6.6546,6.6031,21.3217],[6.6556,6.5841,29.7862],[6.664,6.5448,17.5],[6.6629,6.5337,17.5],[6.6644,6.5275,17.0],[6.6914,6.5399,27.8582],[6.7116,6.5347,25.0194],[6.7494,6.5292,27.5659],[6.7631,6.5362,24.2298],[6.7725,6.5436,23.8276],[6.7789,6.5523,24.8271],[6.7966,6.5706,21.6125],[6.8022,6.5842,22.4349],[6.8046,6.6143,20.7684],[6.8032,6.6282,22.4692],[6.8057,6.6406,22.2094],[6.8112,6.6541,24.6734],[6.8232,6.6948,24.6228],[6.8366,6.7086,33.1638],[6.8397,6.7155,28.146],[6.8593,6.732,27.4339],[6.8751,6.7389,28.672],[6.8843,6.7459,27.148],[6.9003,6.7652,26.7984],[6.9059,6.7762,33.988]]]]}
,"properties": {"GID_2": "NGA.23.6_1","GID_0": "NGA","country": "Nigeria","GID_1": "NGA.23_1","province": "Kogi","NL_NAME_1": "NA","county": "Ibaji","VARNAME_2": "NA","NL_NAME_2": "NA","TYPE_2": "LocalAuthority","ENGTYPE_2": "LocalAuthority","CC_2": "NA","HASC_2": "NA","name": "Ibaji.county","area_km2": 1381.458,"hist_schema_id": "Elevation0-9000","hist_area_km2": {"25": 1374.681,"50": 6.778}}}