{"type":"Feature","properties":{"GID_2":"NGA.22.9_1","GID_0":"NGA","country":"Nigeria","GID_1":"NGA.22_1","province":"Kebbi","NL_NAME_1":"NA","county":"DankoWasagu","VARNAME_2":"NA","NL_NAME_2":"NA","TYPE_2":"LocalAuthority","ENGTYPE_2":"LocalAuthority","CC_2":"NA","HASC_2":"NA","name":"Danko_Wasagu.county"},
"geometry":{"type": "MultiPolygon","coordinates": [[[[5.9072,11.5907,403.4662],[5.8936,11.6067,394.5779],[5.8233,11.6349,400.2467],[5.7451,11.6448,403.2533],[5.7253,11.6319,402.4829],[5.7047,11.625,379.7484],[5.6852,11.6225,388.9597],[5.6672,11.6267,395.9962],[5.6407,11.6275,383.0395],[5.6239,11.6305,376.7421],[5.5988,11.6239,375.3539],[5.5744,11.6216,393.8448],[5.557,11.6174,386.5818],[5.5355,11.6184,374.6284],[5.5174,11.6278,372.0095],[5.499,11.6471,356.2802],[5.4766,11.6568,361.0375],[5.4693,11.6578,363.555],[5.4379,11.6064,390.7939],[5.4254,11.5758,364.7614],[5.4056,11.5418,382.1174],[5.3778,11.477,397.6365],[5.3754,11.4592,393.5922],[5.3776,11.4418,384.1752],[5.3813,11.4247,397.4734],[5.3903,11.4103,398.0759],[5.397,11.3869,406.035],[5.4085,11.38,413.1286],[5.4285,11.3619,386.9138],[5.444,11.3434,379.8423],[5.4535,11.3361,373.8393],[5.4769,11.3215,359.3552],[5.5167,11.3016,382.8734],[5.5561,11.2851,429.5342],[5.5721,11.2727,428.7136],[5.6184,11.2436,433.4531],[5.6482,11.2418,453.3087],[5.6665,11.2427,447.8791],[5.6848,11.2362,447.4237],[5.6963,11.2261,456.2782],[5.7053,11.1779,431.5347],[5.7023,11.1557,437.3065],[5.7041,11.144,421.4323],[5.7256,11.1336,412.1678],[5.7374,11.1302,431.2649],[5.763,11.0817,452.8945],[5.7783,11.0821,448.806],[5.7961,11.0756,447.7917],[5.8083,11.0644,450.1372],[5.821,11.0437,471.5412],[5.8357,11.0488,447.8382],[5.8556,11.0513,443.4225],[5.8719,11.0512,442.8982],[5.8992,11.0554,428.3893],[5.9199,11.0905,435.0098],[5.9342,11.0989,453.6412],[5.9517,11.1151,483.4461],[5.9614,11.129,480.3333],[5.975,11.1345,491.4012],[5.9918,11.1323,493.3133],[6.005,11.1287,504.0789],[6.027,11.1113,479.4387],[6.0271,11.1574,495.7819],[6.0232,11.18,474.2685],[6.0235,11.1987,491.9764],[6.0179,11.2298,480.4351],[6.0103,11.2919,497.8988],[6.0013,11.3195,497.0006],[5.988,11.3459,490.4147],[5.9701,11.3675,504.3658],[5.9454,11.3825,495.3131],[5.8831,11.4107,473.9784],[5.8832,11.4299,456.2577],[5.8929,11.4487,445.9697],[5.8985,11.476,436.6743],[5.9163,11.5332,420.1049],[5.9165,11.5725,406.6537],[5.9072,11.5907,403.4662]]],
[[[5.3933,11.7151,346.7016],[5.3925,11.7182,349.7293],[5.3855,11.7201,351.474],[5.3271,11.7099,360.44],[5.3089,11.7103,358.2626],[5.2934,11.7147,370.146],[5.2788,11.725,407.1173],[5.266,11.7225,357.4438],[5.2488,11.7126,355.2373],[5.2404,11.6971,363.5154],[5.2355,11.6758,385.3122],[5.2081,11.6669,452.3282],[5.195,11.6677,375.1653],[5.1331,11.6524,342.9821],[5.1134,11.6612,337.0705],[5.1055,11.6724,315.9668],[5.0817,11.6815,277.9151],[5.0828,11.6749,313.9351],[5.1006,11.625,344.8696],[5.1034,11.605,311.3839],[5.1367,11.547,415.0911],[5.1466,11.5383,366.7512],[5.2,11.5264,391.4431],[5.2343,11.5393,380.4372],[5.2481,11.5351,377.6274],[5.2719,11.5223,413.4489],[5.2955,11.521,408.6082],[5.3216,11.5312,416.5741],[5.3418,11.5461,403.9301],[5.3542,11.5573,386.9534],[5.3672,11.5777,370.2755],[5.3732,11.595,370.6176],[5.3756,11.6193,357.6278],[5.379,11.6314,356.7595],[5.3933,11.7151,346.7016]]]]}}