{"type": "Feature","bbox": [2.7284,7.9654,6.2109,10.1501],"geometry": {"type": "MultiPolygon","coordinates": [[[[5.5215,8.0689,332.8891],[5.536,8.0696,325.3622],[5.5447,8.077,329.9335],[5.5482,8.0929,320.1072],[5.5415,8.1223,306.4865],[5.5349,8.1316,339.7289],[5.5168,8.1391,377.8388],[5.497,8.1542,357.3682],[5.4726,8.1634,348.1442],[5.458,8.1731,331.5836],[5.4559,8.1826,354.8782],[5.4303,8.1992,306.701],[5.4169,8.2118,282.1438],[5.4147,8.2199,279.7869],[5.4156,8.2225,292.8997],[5.3926,8.2411,308.2281],[5.3768,8.2619,291.9438],[5.3704,8.2775,315.5795],[5.3457,8.3215,259.8011],[5.3485,8.3374,224.8376],[5.383,8.3764,294.3573],[5.4201,8.4395,291.3031],[5.4443,8.4661,296.1859],[5.4712,8.4901,288.6219],[5.48,8.5044,283.7902],[5.4963,8.5125,285.1156],[5.5227,8.5353,282.5276],[5.5381,8.5413,259.345],[5.5433,8.5384,244.6508],[5.5448,8.5313,243.0181],[5.5543,8.5186,238.8763],[5.5563,8.511,247.6935],[5.5751,8.4899,242.6027],[5.6167,8.4608,201.1367],[5.6337,8.4552,179.3562],[5.6611,8.4411,194.5556],[5.7021,8.4305,234.9169],[5.7155,8.4224,199.1799],[5.7453,8.421,234.7431],[5.7588,8.4159,228.8796],[5.7737,8.4072,226.0128],[5.7898,8.4037,225.5863],[5.8497,8.407,200.0315],[5.8644,8.4058,197.1082],[5.8754,8.3971,183.5088],[5.8841,8.396,189.5315],[5.9124,8.3997,226.8169],[5.9474,8.398,212.6297],[5.9598,8.3911,202.6035],[6.0114,8.3833,247.1947],[6.0493,8.3734,277.6428],[6.0655,8.3747,290.4435],[6.0981,8.3816,183.3706],[6.1013,8.3933,202.4797],[6.1097,8.4095,205.522],[6.1151,8.432,315.9684],[6.1179,8.4336,267.0099],[6.1236,8.442,263.7339],[6.1216,8.4635,242.2594],[6.1278,8.4761,228.3113],[6.1328,8.5095,178.1113],[6.1317,8.5277,143.1196],[6.1338,8.5464,99.3558],[6.1417,8.5778,78.8084],[6.1621,8.6375,92.9538],[6.1712,8.6717,62.9287],[6.1759,8.6799,60.6712],[6.1843,8.686,64.078],[6.1942,8.6964,56.8293],[6.2109,8.7255,54.7411],[6.1788,8.7285,51.0],[6.1354,8.7433,52.5],[6.1079,8.7443,57.109],[6.0966,8.7463,56.2466],[6.0776,8.7529,53.5176],[6.0203,8.7543,66.1152],[5.9692,8.7459,58.4749],[5.9561,8.748,60.1079],[5.9396,8.7428,54.0],[5.9307,8.7378,55.6625],[5.9013,8.7333,59.492],[5.8688,8.7343,59.1359],[5.8218,8.7385,58.0393],[5.7921,8.748,57.5476],[5.7685,8.7595,56.0],[5.7645,8.7695,56.0],[5.7535,8.7835,56.0],[5.6697,8.8424,60.3373],[5.625,8.8649,61.7799],[5.5882,8.8902,59.5],[5.5425,8.9189,60.0],[5.5288,8.9292,61.4659],[5.4973,8.9466,62.6619],[5.4795,8.9601,64.354],[5.4692,8.9556,63.5776],[5.4537,8.9668,62.9353],[5.4408,8.9663,65.7131],[5.4268,8.9702,64.542],[5.4089,8.9816,62.0],[5.3969,8.9825,62.0],[5.3777,8.989,62.9711],[5.3686,8.9844,65.4929],[5.3459,8.9935,66.1895],[5.336,8.9946,63.0],[5.3181,8.9914,66.5583],[5.3,8.983,70.1524],[5.287,8.9814,69.6628],[5.2719,8.9758,71.9942],[5.2579,8.9795,71.4651],[5.2552,8.9824,72.0361],[5.2356,8.9871,106.4708],[5.2322,8.9906,105.4779],[5.2242,8.994,113.6084],[5.2198,9.0039,105.8724],[5.1836,9.0497,69.0169],[5.1647,9.0629,67.314],[5.133,9.1031,72.0295],[5.1101,9.1208,76.1809],[5.0491,9.1476,71.3898],[5.0076,9.1691,70.7493],[4.9914,9.1695,70.4372],[4.9686,9.1665,71.2276],[4.9123,9.1423,75.1444],[4.8207,9.1093,155.5015],[4.8003,9.106,281.4193],[4.7882,9.1092,259.8844],[4.7765,9.1158,206.6314],[4.7577,9.1304,100.0],[4.7548,9.1424,100.0],[4.7485,9.2056,100.0],[4.7459,9.2179,100.0],[4.7406,9.2379,100.0],[4.7312,9.2517,100.0],[4.7139,9.2605,100.0],[4.687,9.2614,106.582],[4.6649,9.2667,115.0703],[4.6459,9.2779,118.3393],[4.613,9.3055,100.0],[4.6024,9.3218,127.1365],[4.5967,9.3444,122.8597],[4.5963,9.3656,100.0],[4.5998,9.3994,102.8919],[4.5927,9.4254,107.2788],[4.5792,9.4373,153.5494],[4.5513,9.4361,176.8569],[4.5128,9.429,186.2606],[4.4569,9.4245,258.5097],[4.4359,9.4307,260.2679],[4.4263,9.4514,252.069],[4.4217,9.4897,249.2312],[4.4226,9.5438,183.2829],[4.4208,9.5761,187.4479],[4.4281,9.6367,224.8482],[4.4326,9.6506,201.3856],[4.4323,9.6788,202.6307],[4.4281,9.6977,208.3218],[4.4115,9.7054,226.6632],[4.384,9.7026,262.5967],[4.3687,9.7101,272.4445],[4.3469,9.7279,252.7983],[4.3027,9.7762,239.0813],[4.2761,9.8127,203.4143],[4.2563,9.8317,212.0576],[4.2439,9.8574,220.7112],[4.2242,9.8813,251.5047],[4.1884,9.9164,263.8004],[4.1711,9.938,272.059],[4.1412,9.9706,280.9016],[4.0966,10.0252,291.5101],[4.0856,10.0412,277.1406],[4.0401,10.0894,290.0021],[4.0069,10.1197,283.2762],[3.9983,10.1353,283.422],[3.9861,10.1414,289.4359],[3.94,10.1501,283.61],[3.8688,10.1435,275.3636],[3.8511,10.1459,270.4034],[3.757,10.1446,316.6972],[3.7259,10.1421,291.6894],[3.677,10.1326,286.9247],[3.6701,10.1299,293.2979],[3.6628,10.1069,313.4262],[3.6583,10.1032,315.0841],[3.6465,10.1017,310.0603],[3.6292,10.0932,325.1177],[3.6236,10.0879,311.4942],[3.6156,10.0756,299.5854],[3.6116,10.0624,276.3109],[3.6114,9.996,329.8734],[3.6023,9.9574,328.9894],[3.5958,9.9457,331.1273],[3.5711,9.9254,351.9359],[3.5642,9.916,347.5269],[3.5642,9.8996,332.5247],[3.5623,9.8951,325.7513],[3.551,9.882,311.7464],[3.548,9.8808,308.6304],[3.5387,9.8688,330.4532],[3.5296,9.8621,340.5625],[3.5111,9.8573,356.319],[3.4988,9.8583,365.4061],[3.4748,9.8632,378.9289],[3.4564,9.8612,377.7242],[3.3566,9.8257,406.1324],[3.3473,9.818,415.1149],[3.3295,9.7984,428.1669],[3.3234,9.7769,438.7696],[3.3243,9.7613,470.7429],[3.3286,9.7459,460.3444],[3.3401,9.7209,445.4236],[3.3504,9.705,418.6447],[3.3521,9.6974,413.1815],[3.3486,9.6854,396.9662],[3.3149,9.6577,420.5514],[3.3096,9.6575,400.1604],[3.2923,9.6621,416.4077],[3.2804,9.6617,437.536],[3.2716,9.659,452.7275],[3.2636,9.6523,472.4326],[3.2559,9.6397,458.053],[3.2534,9.6099,464.0864],[3.2498,9.6025,449.5354],[3.2323,9.5759,481.1673],[3.2266,9.5708,483.937],[3.2161,9.5538,478.8996],[3.2079,9.5445,468.7754],[3.1948,9.5151,442.5834],[3.1861,9.5069,431.0224],[3.1548,9.4931,406.3864],[3.1362,9.4629,428.3829],[3.131,9.4401,398.8649],[3.1334,9.4261,405.243],[3.1518,9.3757,392.9878],[3.1536,9.3647,371.9285],[3.1515,9.3394,405.5223],[3.1519,9.3214,385.1587],[3.1583,9.291,394.4283],[3.1572,9.2824,386.1726],[3.15,9.2726,395.9456],[3.1317,9.2591,430.4681],[3.1264,9.2522,404.7051],[3.1222,9.2384,412.0197],[3.1237,9.1922,419.2263],[3.1013,9.1522,390.2425],[3.0921,9.1298,425.7446],[3.0882,9.1016,419.9696],[3.0835,9.0979,417.4526],[3.0562,9.0897,392.9264],[3.0426,9.0835,407.4996],[3.0351,9.0828,401.7091],[3.0081,9.0739,392.0999],[2.9841,9.0723,392.0435],[2.9641,9.0795,383.7706],[2.9564,9.0924,375.9367],[2.9534,9.0926,387.6361],[2.9126,9.0874,340.3083],[2.8961,9.0837,362.0387],[2.8819,9.073,369.1682],[2.8792,9.0647,367.2742],[2.8676,9.0622,358.715],[2.8544,9.0645,344.9699],[2.7809,9.0651,286.9817],[2.7783,9.054,287.0342],[2.7862,9.0449,285.8593],[2.7828,9.0373,286.1865],[2.7824,9.0317,292.4008],[2.7743,9.0262,293.3085],[2.7755,9.0238,292.0493],[2.7832,9.0219,282.6137],[2.784,9.0194,280.091],[2.7826,9.016,284.2463],[2.7719,9.0107,286.4341],[2.7721,9.0074,285.407],[2.7811,9.0054,284.4893],[2.7824,9.0031,284.4013],[2.7778,8.9949,284.3354],[2.7798,8.9916,287.1931],[2.7868,8.9906,282.7393],[2.7886,8.9877,283.1022],[2.7874,8.9854,290.1974],[2.7821,8.9826,278.4101],[2.783,8.9783,290.8554],[2.7873,8.9742,277.8919],[2.7888,8.9703,277.8977],[2.7858,8.9641,283.7896],[2.7711,8.9529,286.9539],[2.7782,8.9506,278.3607],[2.7818,8.9452,277.935],[2.7706,8.9188,275.5325],[2.7623,8.9146,281.6324],[2.7581,8.9079,274.5611],[2.7583,8.9039,278.1005],[2.7617,8.9028,271.6528],[2.7704,8.9047,270.5884],[2.7736,8.8947,276.4872],[2.7682,8.8672,275.7582],[2.758,8.8649,266.2423],[2.757,8.8635,267.9051],[2.7569,8.8596,275.9383],[2.7611,8.8515,263.2462],[2.7581,8.8301,263.4091],[2.7588,8.8197,267.4312],[2.7634,8.8098,259.1042],[2.7611,8.8054,263.5542],[2.7557,8.8025,269.4356],[2.7449,8.7999,265.0247],[2.7393,8.7942,259.4467],[2.7376,8.7871,265.7442],[2.7303,8.7782,270.2158],[2.7284,8.7727,271.5376],[2.7339,8.7575,268.6081],[2.7441,8.744,262.9444],[2.7461,8.7352,253.9789],[2.7462,8.7098,253.5359],[2.7504,8.7003,259.5497],[2.7414,8.678,258.5671],[2.7462,8.6666,265.1609],[2.7394,8.6608,257.4157],[2.7376,8.6549,249.2537],[2.739,8.6506,257.2636],[2.7465,8.6461,259.2254],[2.7491,8.6404,247.0775],[2.7502,8.6181,242.6289],[2.7491,8.5834,251.2452],[2.75,8.5779,259.7618],[2.7587,8.5616,239.1396],[2.7543,8.5469,232.9129],[2.7497,8.538,237.5012],[2.7496,8.5331,241.0631],[2.7592,8.5384,244.8164],[2.7893,8.5725,258.6771],[2.8011,8.5778,265.3674],[2.8111,8.5781,286.914],[2.8171,8.5801,304.2238],[2.836,8.5756,276.1842],[2.8524,8.5781,314.0995],[2.8756,8.5867,317.6137],[2.8879,8.5874,314.0376],[2.9011,8.5904,308.6361],[2.9184,8.5896,325.7902],[2.9194,8.5947,308.5454],[2.9254,8.5939,324.3473],[2.9426,8.6024,321.6401],[2.9457,8.6099,330.8839],[2.9456,8.6182,305.6241],[2.9598,8.6261,308.5625],[2.9616,8.6327,323.8874],[3.0039,8.6668,332.8161],[3.0089,8.6734,319.1955],[3.0251,8.6787,334.6442],[3.0356,8.6841,368.1008],[3.0459,8.6929,363.2269],[3.0478,8.6991,369.5873],[3.0548,8.7031,355.2589],[3.0666,8.7064,320.0155],[3.0795,8.7163,305.8564],[3.0892,8.7304,334.7703],[3.1011,8.7372,334.3117],[3.1152,8.7515,320.6278],[3.1275,8.7584,338.6399],[3.1411,8.7697,335.6147],[3.1476,8.7731,355.3583],[3.1591,8.7717,354.2629],[3.1768,8.7802,362.0867],[3.189,8.7774,343.2943],[3.2003,8.7742,340.6274],[3.2057,8.7649,370.2253],[3.215,8.7562,398.4572],[3.2222,8.7579,379.8916],[3.2244,8.7528,393.6891],[3.2307,8.7458,391.2714],[3.2458,8.7483,359.4351],[3.2672,8.7576,388.6925],[3.2737,8.764,371.4463],[3.2914,8.7683,389.343],[3.3035,8.778,387.2075],[3.3438,8.7965,400.9452],[3.3588,8.8006,421.0192],[3.3689,8.8085,432.959],[3.3854,8.8168,440.8827],[3.4036,8.8294,440.4612],[3.4074,8.8362,432.7288],[3.412,8.8354,421.0251],[3.4257,8.8403,438.2976],[3.4465,8.854,419.8924],[3.466,8.8714,429.6058],[3.4776,8.8772,431.6769],[3.4963,8.8905,400.3968],[3.5149,8.8974,388.6104],[3.5258,8.9059,387.7961],[3.5493,8.9162,412.4515],[3.5594,8.9245,401.9595],[3.585,8.9354,406.2206],[3.5984,8.9389,401.4645],[3.6124,8.9492,402.2909],[3.6419,8.9593,405.0742],[3.6668,8.9714,382.1348],[3.692,8.9866,381.0092],[3.7154,9.0039,412.0218],[3.7144,9.0039,401.4929],[3.7292,9.0154,429.1234],[3.7381,9.0265,421.5589],[3.7455,9.0443,404.8593],[3.7458,9.0868,382.6388],[3.7534,9.1059,356.2045],[3.7596,9.1167,352.9968],[3.762,9.1326,311.1903],[3.773,9.1464,355.0453],[3.805,9.1633,370.4016],[3.8122,9.1696,342.5779],[3.8348,9.1799,324.5288],[3.8521,9.1818,333.5738],[3.8604,9.1802,316.9117],[3.8677,9.1812,297.7303],[3.8894,9.172,349.564],[3.9094,9.1579,329.8353],[3.9192,9.1534,346.0925],[3.9336,9.1417,366.2134],[3.9413,9.1119,369.0701],[3.9424,9.102,350.8055],[3.9697,9.0692,323.5523],[3.9845,9.0568,359.3108],[3.9952,9.0507,383.1021],[4.0221,9.0304,328.7294],[4.0309,9.0287,329.7577],[4.0395,9.023,330.6952],[4.0561,9.0167,315.726],[4.0914,9.0063,357.7468],[4.1141,9.0024,414.4424],[4.1197,8.9941,391.4653],[4.1529,8.9776,366.4435],[4.1707,8.9799,403.8645],[4.2325,8.9624,370.3088],[4.2626,8.9624,387.1088],[4.2684,8.9637,377.7511],[4.3014,8.9832,336.7291],[4.3141,8.9926,323.2125],[4.3226,8.9927,329.7408],[4.3351,8.9801,302.2162],[4.3377,8.9689,287.8379],[4.3378,8.9592,288.1456],[4.3217,8.9369,310.4292],[4.3084,8.9247,423.9084],[4.3,8.9084,312.3809],[4.2881,8.8983,330.9475],[4.2576,8.8812,349.9476],[4.2489,8.8749,347.261],[4.2398,8.8654,356.5189],[4.234,8.8397,394.9035],[4.2201,8.8341,390.6587],[4.2004,8.8149,418.4098],[4.1961,8.8057,426.8414],[4.1863,8.7733,378.8396],[4.1875,8.7553,373.3986],[4.1838,8.7425,365.8222],[4.197,8.7171,318.1536],[4.2067,8.6629,313.0748],[4.2182,8.6321,310.6112],[4.2266,8.6199,323.5814],[4.2362,8.6135,325.3859],[4.245,8.6014,334.2376],[4.2551,8.5724,295.2067],[4.2762,8.5314,330.8524],[4.2935,8.4871,367.7952],[4.3021,8.4779,363.4367],[4.3078,8.4619,350.3194],[4.3253,8.4448,328.9461],[4.3342,8.4195,323.3284],[4.3353,8.4063,345.4558],[4.338,8.4003,358.8276],[4.3362,8.3899,355.1707],[4.3395,8.3663,370.4806],[4.3592,8.3111,382.7361],[4.3678,8.3003,369.7123],[4.374,8.2857,366.4875],[4.3819,8.2735,349.8131],[4.3887,8.2679,354.6991],[4.4068,8.2429,363.7836],[4.4136,8.2363,353.3514],[4.4395,8.2248,332.2001],[4.4628,8.2066,366.4291],[4.4633,8.1937,356.0583],[4.4758,8.1831,368.3441],[4.4764,8.1649,384.1881],[4.4822,8.1385,386.0443],[4.4981,8.1038,397.5369],[4.5129,8.0611,378.8376],[4.5244,8.046,369.7255],[4.529,8.0475,367.6315],[4.5373,8.0453,345.1991],[4.5477,8.0449,372.0308],[4.5556,8.0342,389.2986],[4.5737,8.0377,384.7527],[4.5969,8.0336,396.0934],[4.62,8.0362,364.4627],[4.6514,8.0355,381.5944],[4.6645,8.0309,388.5514],[4.6892,8.0307,375.0534],[4.7313,8.0357,399.6947],[4.7525,8.0437,441.0201],[4.7658,8.0536,404.4072],[4.7944,8.063,436.0123],[4.7954,8.053,436.2209],[4.7974,8.0494,439.0468],[4.7961,8.0635,450.0073],[4.8001,8.0646,457.075],[4.8162,8.0574,451.5653],[4.8388,8.0574,431.4368],[4.8597,8.0651,460.6256],[4.892,8.0805,491.9987],[4.9154,8.0847,467.6182],[4.9216,8.0828,468.716],[4.9376,8.0823,453.0318],[4.9506,8.0754,483.4651],[4.9617,8.0463,521.377],[4.9745,8.0244,533.6589],[5.0041,8.0283,624.9315],[5.0309,8.0265,535.1492],[5.0578,8.0394,576.1439],[5.0636,8.0372,564.1479],[5.0641,8.0306,579.2304],[5.0708,8.0334,574.5074],[5.075,8.0266,554.2079],[5.0806,8.0065,551.4231],[5.085,8.0027,558.2303],[5.0974,7.9986,547.768],[5.1084,7.9972,519.4253],[5.1289,8.0054,512.2585],[5.1573,8.0199,522.6838],[5.1697,8.0188,501.9004],[5.1851,8.0128,509.0068],[5.1903,8.0074,515.2744],[5.2088,7.9796,530.2708],[5.2241,7.9717,536.6349],[5.2618,7.9755,545.8466],[5.2825,7.9675,584.7613],[5.2988,7.9654,553.5846],[5.3139,7.9681,560.1305],[5.3304,7.9748,489.615],[5.3456,7.9722,433.0206],[5.3513,7.9659,426.6873],[5.3564,7.9815,407.0407],[5.368,8.0007,409.34],[5.3633,8.0109,385.9177],[5.3719,8.0297,368.3574],[5.3719,8.0405,350.5208],[5.3766,8.0467,350.6927],[5.3931,8.0556,360.1093],[5.4096,8.062,390.7786],[5.4288,8.0661,422.5869],[5.4429,8.0681,427.6239],[5.4681,8.0642,410.9929],[5.5169,8.0715,342.4473],[5.5215,8.0689,332.8891]]]]}
,"properties": {"GID_1": "NGA.24_1","GID_0": "NGA","country": "Nigeria","province": "Kwara","VARNAME_1": "NA","NL_NAME_1": "NA","TYPE_1": "State","ENGTYPE_1": "State","CC_1": "NA","HASC_1": "NG.KW","ISO_1": "NG-KW","name": "Kwara.province","area_km2": 35567.57,"hist_schema_id": "Elevation0-9000","hist_area_km2": {"50": 253.57,"75": 853.12,"100": 586.79,"125": 829.7,"150": 1068.73,"175": 1331.78,"200": 1571.91,"225": 1785.79,"250": 2444.62,"275": 3379.85,"300": 4114.02,"325": 4283.62,"350": 3940.9,"375": 3316.22,"400": 2511.21,"425": 1445.0,"450": 685.71,"475": 328.06,"500": 234.14,"525": 222.99,"550": 190.65,"575": 122.26,"600": 51.57,"625": 14.12,"650": 1.24}}}