{"type": "Feature","id": "2849","bbox": [2.72286,7.96727,6.21588,10.15036],"geometry": {"type": "Polygon","coordinates": [[[4.45361,9.42542,258.7797],[4.42074,9.4811,229.1597],[4.42188,9.55575,166.9925],[4.43191,9.63605,218.6467],[4.41578,9.70339,219.8803],[4.38157,9.70375,263.8663],[4.36535,9.71344,286.9888],[4.35036,9.72507,262.4427],[4.01405,10.11799,288.6118],[3.98604,10.1414,289.4359],[3.91762,10.15036,280.808],[3.75773,10.14566,320.1644],[3.66999,10.12987,293.2979],[3.66483,10.12865,295.354],[3.66399,10.12305,305.7025],[3.6549,10.10112,309.3593],[3.64239,10.09189,306.3539],[3.62782,10.08499,323.3531],[3.61232,10.07029,285.7225],[3.60581,10.05412,275.138],[3.5996,9.96869,336.1282],[3.58948,9.94883,346.0421],[3.55713,9.91056,333.3077],[3.53077,9.86296,340.6414],[3.5131,9.84661,359.1876],[3.45295,9.85309,396.093],[3.41398,9.84284,384.0461],[3.34205,9.81359,413.2488],[3.32593,9.80173,417.2252],[3.31714,9.78173,453.7636],[3.31487,9.7591,455.9885],[3.31838,9.73943,474.2787],[3.33068,9.70863,443.7661],[3.33864,9.67822,402.8267],[3.33161,9.65202,379.9747],[3.29905,9.63396,396.7836],[3.28138,9.63499,412.6968],[3.26185,9.63861,445.3615],[3.24572,9.6337,468.8656],[3.23818,9.60905,465.0811],[3.23942,9.60231,449.0115],[3.24469,9.58957,477.2925],[3.24355,9.5844,472.942],[3.18258,9.50534,428.2651],[3.17513,9.49888,416.4282],[3.15901,9.49348,399.4814],[3.15178,9.48816,417.9069],[3.13255,9.45728,411.4999],[3.12863,9.42958,419.7674],[3.13534,9.40168,398.9456],[3.14806,9.37026,370.9369],[3.15147,9.35356,393.5201],[3.15136,9.28863,419.295],[3.14516,9.26786,421.1918],[3.12459,9.229,419.6956],[3.09131,9.12642,432.3088],[3.07602,9.09516,418.2462],[3.05142,9.07821,373.4236],[2.9831,9.06061,377.2971],[2.97143,9.06051,367.4437],[2.9614,9.06531,360.2763],[2.95169,9.0719,346.6008],[2.94073,9.07707,371.2843],[2.92988,9.07836,355.379],[2.89918,9.07738,339.5857],[2.88843,9.07536,364.234],[2.87779,9.06854,367.4916],[2.86931,9.05971,364.9925],[2.8597,9.05263,355.3911],[2.84627,9.05077,346.0104],[2.76916,9.05705,309.6273],[2.77237,9.03054,291.3454],[2.7702,8.96715,297.1384],[2.76472,8.93977,297.8122],[2.76152,8.93369,303.2424],[2.75025,8.91687,281.8802],[2.74777,8.91481,290.788],[2.74953,8.90662,285.4906],[2.75376,8.90442,280.0027],[2.75873,8.90266,279.312],[2.76255,8.89569,297.0715],[2.76214,8.88042,287.2147],[2.74963,8.85194,287.1646],[2.74591,8.83652,282.02],[2.74715,8.82765,290.4382],[2.75232,8.81228,277.3876],[2.75108,8.80342,261.6159],[2.7457,8.79815,266.8206],[2.72886,8.79047,265.1224],[2.72317,8.78293,270.9453],[2.72286,8.77231,277.0634],[2.72295,8.77122,269.3612],[2.74244,8.52748,258.0028],[2.74963,8.53302,241.0631],[2.8011,8.57775,265.3674],[2.82084,8.578,305.7554],[2.84017,8.57617,280.2701],[2.91934,8.59464,308.5454],[2.94321,8.61048,322.0206],[2.96202,8.63299,323.8874],[3.01628,8.67694,313.4211],[3.03943,8.68596,371.4169],[3.04687,8.69585,369.7293],[3.06269,8.70854,327.7248],[3.08243,8.72048,314.4088],[3.12356,8.75616,335.342],[3.14496,8.76887,344.069],[3.1679,8.77587,355.4042],[3.18371,8.77778,347.269],[3.20025,8.77419,340.6274],[3.20841,8.76306,376.6786],[3.2202,8.75742,379.6693],[3.23074,8.74575,391.2714],[3.24366,8.74766,365.7075],[3.36148,8.80065,416.454],[3.40644,8.83445,433.2498],[3.44664,8.85409,419.8924],[3.49005,8.88625,418.2927],[3.69562,8.98922,366.6157],[3.71887,9.0057,413.611],[3.7381,9.02648,421.5589],[3.74771,9.09172,379.268],[3.77303,9.14027,350.8162],[3.81799,9.1727,333.5905],[3.86605,9.17753,297.466],[3.91142,9.15699,338.2827],[3.94036,9.12086,337.014],[3.9631,9.0765999999999991,314.2879],[4.00123,9.04382,361.0805],[4.04547,9.02069,321.8454],[4.16401,8.97912,401.6796],[4.2374,8.96242,363.4924],[4.26499,8.96286,381.4539],[4.31408,8.99258,323.2125],[4.33134,8.9541,291.6508],[4.29693,8.90576,305.44],[4.26396,8.88664,337.6807],[4.23884,8.86132,368.9766],[4.22272,8.83602,399.7026],[4.2004,8.81481,418.4098],[4.18768,8.75414,373.3986],[4.20102,8.69342,331.043],[4.28949,8.49793,343.5597],[4.32535,8.4447,328.9461],[4.35915,8.31102,382.7361],[4.39553,8.25872,354.7972],[4.41837,8.23766,352.8279],[4.44451,8.2211,327.4704],[4.48079,8.16273,380.9913],[4.51004,8.06829,383.9391],[4.52234,8.04788,379.2834],[4.53919,8.04452,349.7105],[4.55562,8.03411,389.2986],[4.62001,8.03749,378.6652],[4.68533,8.03065,365.3317],[4.74134,8.04269,431.5964],[4.7676,8.05364,408.3442],[4.79509,8.05951,437.1522],[4.79684,8.05271,439.7776],[4.80377,8.06046,458.4928],[4.85968,8.06509,460.6256],[4.89927,8.08147,504.1337],[4.94092,8.08044,449.6021],[4.96221,8.04602,521.377],[4.99197,8.02628,583.7966],[5.04934,8.03398,550.6824],[5.06412,8.03057,579.2304],[5.07559,8.02357,560.4838],[5.08065,8.00644,551.4231],[5.10153,7.99801,542.4022],[5.16395,8.01641,510.5956],[5.2302,7.97559,546.9556],[5.26979,7.97236,574.8743],[5.29439,7.96727,546.9753],[5.33645,7.97416,459.3978],[5.34472,7.97161,435.9006],[5.35371,7.97427,408.5926],[5.36611,7.9976,393.2213],[5.3719,8.02961,368.3574],[5.39309,8.05527,360.3835],[5.42885,8.06602,422.5869],[5.53602,8.06959,325.3622],[5.52879,8.12948,346.2301],[5.46182,8.17051,344.1714],[5.42141,8.20756,291.2],[5.41128,8.22596,303.6983],[5.39391,8.24094,308.2281],[5.37924,8.25857,314.1609],[5.34916,8.31533,277.0486],[5.35691,8.34817,256.581],[5.47122,8.49,288.6219],[5.51566,8.53069,282.5215],[5.55525,8.51475,238.4199],[5.60579,8.46563,206.2964],[5.70614,8.42788,235.2775],[5.80505,8.40517,250.7067],[5.94354,8.39804,221.226],[6.05341,8.3737,272.3253],[6.08679,8.38037,190.7482],[6.10715,8.40458,218.4082],[6.11707,8.4339,246.3573],[6.13258,8.53705,119.7284],[6.1735,8.67575,59.704],[6.21588,8.72996,53.7702],[6.16069,8.71931,51.5],[6.15294,8.72195,52.0],[6.12266,8.7505,56.9418],[6.10788,8.75618,58.002],[6.09237,8.75859,54.8146],[5.98272,8.7575,54.0],[5.95812,8.75285,54.0],[5.92649,8.73799,55.9833],[5.91461,8.73544,55.5876],[5.89962,8.7358,57.4872],[5.85559,8.74254,55.0],[5.80236,8.74179,56.0],[5.79048,8.74572,56.4119],[5.78417,8.75236,58.2452],[5.77363,8.77083,58.8352],[5.75875,8.79003,58.7647],[5.74593,8.81119,57.399],[5.73756,8.81259,57.3682],[5.71565,8.82101,56.8938],[5.7079,8.82223,64.6971],[5.65002,8.8238,60.1285],[5.63431,8.82902,63.7611],[5.62129,8.8392,64.1921],[5.61778,8.84429,62.2968],[5.60837,8.86176,59.0],[5.60062,8.87222,59.5532],[5.59152,8.88212,60.8484],[5.57023,8.90015,67.1629],[5.55721,8.91692,67.4593],[5.55132,8.92191,64.0952],[5.53799,8.9294,60.0],[5.52445,8.93413,62.32],[5.51029,8.93666,62.8248],[5.47959,8.93832,63.2089],[5.46616,8.94121,66.0555],[5.45386,8.94697,64.8323],[5.44208,8.95648,65.0847],[5.42358,8.97503,64.9602],[5.41314,8.98328,63.5156],[5.40105,8.98945,67.9441],[5.38647,8.99229,67.2721],[5.3195,8.98829,70.5667],[5.22431,9.00377,99.956],[5.20953,9.00831,95.5927],[5.19744,9.01666,79.2783],[5.19021,9.03022,67.1358],[5.18917,9.04167,67.057],[5.18979,9.05232,68.8583],[5.18917,9.06265,66.5],[5.18431,9.07317,66.5],[5.16716,9.09094,67.0],[5.1501,9.11329,71.1552],[5.13564,9.12409,69.6754],[5.08313,9.14869,68.0],[5.04965,9.17159,74.9161],[5.03208,9.17985,71.5075],[5.03084,9.1852,74.0326],[5.00593,9.19657,72.0437],[4.9928,9.19975,72.7384],[4.97916,9.19972,80.5807],[4.91436,9.17908,79.2317],[4.86981,9.15399,72.0],[4.8293,9.14192,73.0],[4.7986,9.13986,73.0],[4.7708,9.14869,100.0],[4.75251,9.1683,100.0],[4.75065,9.19843,100.0],[4.75602,9.22781,100.0],[4.75478,9.25453,100.0],[4.74258,9.27494,100.0],[4.71458,9.28538,100.0],[4.66455,9.29367,100.0],[4.64864,9.29977,100.0],[4.63344,9.3107,100.0],[4.62497,9.3247,100.0],[4.62145,9.34132,100.0],[4.62114,9.36005,100.0],[4.62052,9.3592,100.0],[4.6198,9.35858,100.0],[4.61877,9.35819,100.0],[4.61763,9.35798,100.0],[4.61887,9.37723,100.0],[4.61618,9.41508,100.0],[4.61443,9.42188,100.0],[4.5272,9.43441,197.7789],[4.45361,9.42542,258.7797]]]}
,"properties": {"ISO3166-1-Alpha-3": "NGA","country": "Nigeria","fill": "#FF0","name": "Kwara","area_km2": 35840.98,"hist_schema_id": "Elevation0-9000","hist_area_km2": {"50": 257.01,"75": 970.78,"100": 677.14,"125": 837.36,"150": 1068.4,"175": 1331.58,"200": 1570.11,"225": 1786.03,"250": 2471.78,"275": 3424.01,"300": 4134.15,"325": 4285.36,"350": 3930.81,"375": 3298.95,"400": 2499.6,"425": 1441.86,"450": 687.63,"475": 332.12,"500": 236.3,"525": 222.34,"550": 189.31,"575": 121.84,"600": 51.13,"625": 14.15,"650": 1.26}}}