{"type":"Feature","properties":{"featurecla":"River","scalerank":3,"rivernum":59,"dissolve":"59River","name":"Niger14","name_alt":null,"note":null,"min_zoom":3.0,"strokeweig":0.6,"name_en":"Niger","min_label":4.0},
"geometry":{"type": "LineString","coordinates": [[4.625732421875,9.8645205749941169,135.0659],[4.6502929687500227,9.71869537968162,140.8511],[4.6476074218750227,9.70990631718162,117.2873],[4.6280761718750227,9.70441315311912,105.0785],[4.622802734375,9.6992373718691169,104.0024],[4.6197753906250227,9.6916690124941169,109.8793],[4.615625,9.66644928593162,138.1602],[4.597412109375,9.6272158874941169,128.6526],[4.5724121093750227,9.58563873905662,134.228],[4.568359375,9.55365631718162,129.5311],[4.5736328125000227,9.52179596561912,119.2176],[4.6087890625000227,9.44440338749412,100.0],[4.6162109375,9.41510651249412,100.0],[4.618896484375,9.37726471561912,100.0],[4.61767578125,9.3580264343691084,100.0],[4.6187988281250227,9.35822174686912,100.0],[4.6197753906250227,9.3586611999941169,100.0],[4.6205078125000227,9.3592471374941084,100.0],[4.62109375,9.3601260437441169,100.0],[4.6214843750000227,9.34137604374412,100.0],[4.625,9.32477448124412,100.0],[4.6334472656250227,9.31073639530662,100.0],[4.648681640625,9.2998233093691169,100.0],[4.66455078125,9.2937197937441169,100.0],[4.714599609375,9.2854190124941169,100.0],[4.7425781250000227,9.27496979374412,100.0],[4.7547851562500227,9.25458405155662,100.0],[4.7560058593750227,9.22785065311912,100.0],[4.7506347656250227,9.1985049499941169,100.0],[4.75244140625,9.1683291687441084,100.0],[4.770751953125,9.14874909061912,100.0],[4.798583984375,9.1399111999941169,73.0],[4.829345703125,9.1419619812441084,73.0],[4.8697753906250227,9.1540713562441169,72.0],[4.914306640625,9.17914459843162,79.2317],[4.9791503906250227,9.19977448124412,80.5807],[4.9928222656250227,9.19977448124412,72.7384],[5.005859375,9.19660065311912,72.0437],[5.03076171875,9.18524811405662,74.0326],[5.0321289062500227,9.17987702030662,71.5075],[5.0497070312500227,9.1716494812441169,74.9161],[5.0831542968750227,9.14874909061912,68.0],[5.1356445312500227,9.1241397156191084,69.6754],[5.150146484375,9.11334869999412,71.1552],[5.1671386718750227,9.09100983280662,67.0],[5.184326171875,9.07318756718162,66.5],[5.189208984375,9.06268952030662,66.5],[5.1898437500000227,9.0523623718691084,68.8583],[5.189208984375,9.04169342655662,67.057],[5.190185546875,9.0302920593691169,67.1358],[5.1974121093750227,9.0167178406191084,79.2783],[5.20947265625,9.00836823124412,95.5927],[5.224365234375,9.00385162968162,99.956],[5.3194824218750227,8.98834869999412,70.5667],[5.386474609375,8.99237702030662,67.2721],[5.4010253906250227,8.9895205749941169,67.9441],[5.4130859375,8.98334381718162,63.5156],[5.423583984375,8.9751162781191169,64.9602],[5.4420410156250227,8.9565615906191169,65.0847],[5.453857421875,8.9470401062441169,64.8323],[5.4662109375000227,8.94122955936912,66.0555],[5.4796386718750227,8.9383486999941084,63.2089],[5.51025390625,8.93671295780662,62.8248],[5.5244140625,8.93414948124412,62.32],[5.5379882812500227,8.9294619812441169,60.0],[5.55126953125,8.92194244999412,64.0952],[5.5572753906250227,8.9170108093691169,67.4593],[5.5702148437500227,8.90021393436912,67.1629],[5.591552734375,8.88214752811912,60.8484],[5.6005859375,8.87225983280662,59.5532],[5.6083984375,8.8618350281191169,59.0],[5.6178222656250227,8.8443545593691084,62.2968],[5.621337890625,8.8392276062441084,64.1921],[5.63427734375,8.82904694218162,63.7611],[5.6500488281250227,8.8238467468691084,60.1285],[5.7079101562500227,8.8222842468691169,64.6971],[5.715576171875,8.8210635437441169,56.8938],[5.737548828125,8.8126162781191084,57.3682],[5.7459960937500227,8.81122467655662,57.399],[5.7587890625,8.79010651249412,58.7647],[5.773681640625,8.7708682312441084,58.8352],[5.7841796875,8.75238678593162,58.2452],[5.79052734375,8.74579498905662,56.4119],[5.8023925781250227,8.7418154968691084,56.0]]}}