{"type": "Feature","bbox": [4.7624,8.0244,5.1991,8.363],"geometry": {"type": "MultiPolygon","coordinates": [[[[5.0708,8.0334,574.5074],[5.0772,8.036,574.6998],[5.085,8.0481,562.1492],[5.1031,8.0653,570.0239],[5.1374,8.0894,559.5665],[5.1622,8.1155,564.5428],[5.1737,8.1227,532.4623],[5.1849,8.1335,498.2732],[5.19,8.1457,506.7033],[5.1906,8.1588,500.3431],[5.1991,8.1715,493.9964],[5.1795,8.1864,514.9824],[5.1711,8.19,498.2191],[5.1606,8.183,484.2999],[5.1424,8.1753,480.2344],[5.1308,8.1667,480.9112],[5.1124,8.1408,516.0505],[5.1037,8.1349,537.0351],[5.0935,8.1325,549.0855],[5.0689,8.136,530.3225],[5.0301,8.1491,584.8212],[5.0205,8.1545,559.8824],[4.9843,8.168,491.8701],[4.9706,8.1761,524.9673],[4.9442,8.1952,450.4898],[4.9214,8.2161,411.9704],[4.9132999999999996,8.2294,445.2232],[4.9109,8.2384,434.6323],[4.9007,8.2582,447.1408],[4.8955,8.2806,443.0394],[4.8928,8.3014,405.3102],[4.893,8.3279,420.5],[4.8996,8.3587,358.1432],[4.8869,8.363,360.1079],[4.8592,8.3603,373.0539],[4.8447,8.3522,370.8012],[4.8293,8.3559,366.5356],[4.8207,8.3473,367.8718],[4.8142,8.3313,372.8443],[4.8084,8.2878,364.0354],[4.8164,8.2709,379.3106],[4.8195,8.2586,393.6451],[4.8192,8.2446,373.0282],[4.8082,8.2215,412.8438],[4.7984,8.2097,401.5989],[4.7759,8.1923,391.9743],[4.7703,8.1862,388.8685],[4.7624,8.1706,391.8682],[4.7807,8.1189,425.954],[4.7823,8.1014,446.1638],[4.7893,8.0787,435.5168],[4.7944,8.0673,447.8757],[4.7954,8.053,436.2209],[4.7974,8.0494,439.0468],[4.7961,8.0635,450.0073],[4.8001,8.0646,457.075],[4.8162,8.0574,451.5653],[4.8388,8.0574,431.4368],[4.8597,8.0651,460.6256],[4.892,8.0805,491.9987],[4.9154,8.0847,467.6182],[4.9216,8.0828,468.716],[4.9376,8.0823,453.0318],[4.9506,8.0754,483.4651],[4.9617,8.0463,521.377],[4.9745,8.0244,533.6589],[5.0041,8.0283,624.9315],[5.0309,8.0265,535.1492],[5.0578,8.0394,576.1439],[5.0636,8.0372,564.1479],[5.0641,8.0306,579.2304],[5.0708,8.0334,574.5074]]]]}
,"properties": {"GID_2": "NGA.24.9_1","GID_0": "NGA","country": "Nigeria","GID_1": "NGA.24_1","province": "Kwara","NL_NAME_1": "NA","county": "Irepodun","VARNAME_2": "NA","NL_NAME_2": "NA","TYPE_2": "LocalAuthority","ENGTYPE_2": "LocalAuthority","CC_2": "NA","HASC_2": "NA","name": "Irepodun.county","area_km2": 743.8264,"hist_schema_id": "Elevation0-9000","hist_area_km2": {"350": 4.93,"375": 41.225,"400": 82.861,"425": 119.2188,"450": 140.8322,"475": 93.3204,"500": 47.4576,"525": 43.4694,"550": 64.9447,"575": 64.1925,"600": 30.816,"625": 9.3203,"650": 1.2385}}}