{"type": "Feature","bbox": [11.8343,9.6346,12.1141,10.0448],"geometry": {"type": "MultiPolygon","coordinates": [[[[12.0506,9.6482,155.9604],[12.1134,9.6346,173.9553],[12.1123,9.6423,174.0467],[12.1141,9.6603,181.4049],[12.0977,9.6698,162.2761],[12.0878,9.7069,205.1028],[12.0843,9.7983,197.6653],[12.0699,9.8539,221.6456],[12.0613,9.9285,271.7641],[12.0615,9.9605,261.1054],[12.0595,9.9961,245.746],[12.0482,10.0253,206.1112],[12.0485,10.0293,206.3748],[11.9866,10.0357,179.9955],[11.9456,10.0448,184.0226],[11.9359,9.9365,202.2342],[11.9345,9.8809,200.5198],[11.9429,9.8216,197.1899],[11.9252,9.7843,231.8551],[11.889,9.7562,494.3636],[11.8343,9.7214,439.3274],[11.8409,9.7166,427.8667],[11.91,9.6901,261.3314],[11.9525,9.682,195.9815],[11.9822,9.6691,292.9495],[12.0506,9.6482,155.9604]]]]}
,"properties": {"GID_2": "NGA.2.6_1","GID_0": "NGA","country": "Nigeria","GID_1": "NGA.2_1","province": "Adamawa","NL_NAME_1": "NA","county": "Guyuk","VARNAME_2": "NA","NL_NAME_2": "NA","TYPE_2": "LocalAuthority","ENGTYPE_2": "LocalAuthority","CC_2": "NA","HASC_2": "NA","name": "Guyuk.county","area_km2": 697.1422,"hist_schema_id": "Elevation0-9000","hist_area_km2": {"150": 30.286,"175": 306.75,"200": 199.1537,"225": 72.2125,"250": 26.0292,"275": 12.1186,"300": 7.3764,"325": 6.3946,"350": 5.2454,"375": 4.4512,"400": 4.4512,"425": 4.2213,"450": 3.26,"475": 1.7345,"500": 1.5464,"525": 1.1702,"550": 0.8777,"575": 2.0688,"600": 1.6091,"625": 1.4419,"650": 1.2956,"675": 0.8777,"700": 0.8777,"725": 0.5433,"750": 0.3761,"775": 0.3343,"800": 0.4388}}}