{"type":"Feature","properties":{"GID_2":"NGA.21.13_1","GID_0":"NGA","country":"Nigeria","GID_1":"NGA.21_1","province":"Katsina","NL_NAME_1":"NA","county":"Faskari","VARNAME_2":"NA","NL_NAME_2":"NA","TYPE_2":"LocalAuthority","ENGTYPE_2":"LocalAuthority","CC_2":"NA","HASC_2":"NA","name":"Faskari.county"},
"geometry":{"type": "MultiPolygon","coordinates": [[[[7.3055,11.7821,570.4808],[7.3069,11.7858,578.1609],[7.3047,11.7941,574.6585],[7.3041,11.8063,567.3593],[7.2962,11.8323,555.3895],[7.2873,11.8525,558.5025],[7.2666,11.8911,531.7367],[7.2531,11.908,543.4799],[7.2419,11.91,539.7659],[7.2418,11.9063,542.7894],[7.2296,11.8914,593.4237],[7.2113,11.8806,563.6404],[7.1966,11.8818,563.6737],[7.1719,11.8924,596.1331],[7.1574,11.8934,563.4999],[7.1486,11.8425,583.7366],[7.1409,11.8378,582.2316],[7.1386,11.8332,583.053],[7.1234,11.8256,608.333],[7.1181,11.8156,618.3449],[7.0696,11.7793,645.8607],[7.0629,11.7793,637.9061],[7.0491,11.7932,624.4205],[7.0031,11.7918,608.6437],[6.9604,11.7876,582.39],[6.9422,11.7911,564.2903],[6.9293,11.7873,561.6036],[6.918,11.7777,545.6491],[6.9134,11.7663,559.4664],[6.9075,11.7141,612.4599],[6.8823,11.6483,640.9213],[6.8833,11.6293,660.8187],[6.8765,11.6106,685.0584],[6.8751,11.5884,679.0477],[6.8775,11.5713,677.204],[6.8893,11.5574,655.3559],[6.9084,11.541,672.1054],[6.9145,11.502,638.2835],[6.9231,11.4822,610.1492],[6.9129,11.4341,617.0967],[6.9113,11.4105,598.4548],[6.9028,11.3851,586.6025],[6.904,11.3641,603.4182],[6.924,11.3777,586.5527],[6.934,11.3768,599.7554],[6.9416,11.388,608.0471],[6.9507,11.3895,610.934],[6.9571,11.4062,615.6569],[6.967,11.4176,613.9175],[6.9771,11.4267,631.9437],[6.9876,11.4307,662.0103],[7.0094,11.4471,675.078],[7.0406,11.4449,693.4359],[7.0531,11.4513,702.2216],[7.0693,11.4524,700.6558],[7.0818,11.462,709.6945],[7.0909,11.4658,704.9114],[7.0936,11.4755,714.2816],[7.1013,11.4899,686.3634],[7.0986,11.4977,677.7731],[7.108,11.5165,665.3094],[7.1212,11.5236,654.4813],[7.1379,11.5242,653.4875],[7.1465,11.5273,677.2104],[7.167,11.5366,663.0721],[7.179,11.545,635.7856],[7.1942,11.5507,650.712],[7.2009,11.5558,651.0855],[7.2128,11.5546,645.3968],[7.2281,11.5686,648.5035],[7.2326,11.5818,644.7409],[7.2363,11.5825,643.2609],[7.2361,11.5793,649.4657],[7.2406,11.5782,651.4984],[7.2462,11.5713,657.1763],[7.2623,11.5743,651.229],[7.2684,11.5725,648.4174],[7.2961,11.5783,667.2197],[7.3031,11.576599999999999,673.2582],[7.3313,11.5759,689.2972],[7.339,11.5779,693.3709],[7.3476,11.5768,710.0851],[7.3366,11.6069,690.9072],[7.3322,11.624,664.9524],[7.3347,11.651,646.0967],[7.3331,11.6937,624.1212],[7.3258,11.7225,618.1687],[7.3147,11.7316,610.9687],[7.297,11.7397,594.3065],[7.2914,11.7383,583.8],[7.2895,11.742,582.7219],[7.2906,11.748,586.7819],[7.3055,11.7821,570.4808]]]]}}