{"type":"Feature","properties":{"GID_2":"NGA.10.5_1","GID_0":"NGA","country":"Nigeria","GID_1":"NGA.10_1","province":"Delta","NL_NAME_1":"NA","county":"EthiopeWest","VARNAME_2":"NA","NL_NAME_2":"NA","TYPE_2":"LocalAuthority","ENGTYPE_2":"LocalAuthority","CC_2":"NA","HASC_2":"NA","name":"Ethiope_West.county"},
"geometry":{"type": "MultiPolygon","coordinates": [[[[5.8831,5.7883,10.8795],[5.8689,5.8032,12.037],[5.8742,5.8165,18.1678],[5.882,5.8245,20.0043],[5.8948,5.8485,27.7755],[5.9018,5.8684,33.2818],[5.8942,5.8819,33.9547],[5.8692,5.8941,29.7793],[5.8311,5.9199,26.6029],[5.8248,5.9323,31.7237],[5.8133,5.9486,27.5867],[5.7988,5.9657,33.5142],[5.7233,6.008,26.674],[5.6988,6.0191,30.1916],[5.6721,6.0283,28.1657],[5.6633,6.04,16.0193],[5.6537,6.0471,17.9053],[5.6457,6.05,19.0143],[5.6292,6.0445,18.0872],[5.6167,6.038,21.122],[5.5976,6.0326,14.7951],[5.586,6.0265,16.1855],[5.563,6.02,8.1005],[5.557,6.0142,19.5862],[5.5572,6.0076,14.7569],[5.5519,5.9946,14.9213],[5.5552,5.9832,15.5868],[5.5525,5.9761,10.641],[5.5554,5.9698,16.6673],[5.5547,5.965,9.9911],[5.5462,5.9474,0.0],[5.5516,5.9434,14.5404],[5.558,5.9433,12.4211],[5.5623,5.9389,15.61],[5.5689,5.9311,11.4957],[5.5686,5.9254,14.5252],[5.574,5.9184,7.3147],[5.5955,5.9056,13.8144],[5.6017,5.9071,12.3982],[5.6104,5.9281,16.7237],[5.6195,5.9374,11.685],[5.6309,5.9412,3.6724],[5.6386,5.9336,9.2676],[5.6406,5.9269,6.3296],[5.6463,5.9248,3.2862],[5.6552,5.9165,3.5802],[5.6606,5.9091,8.9342],[5.6704,5.902,7.926],[5.6924,5.8917,7.0148],[5.7062,5.8903,7.9287],[5.7091,5.8873,8.0827],[5.7112,5.8847,10.3463],[5.7082,5.8703,8.1033],[5.7114,5.87,9.0907],[5.7148,5.8522,6.8206],[5.7205,5.8484,8.0892],[5.7262,5.8469,9.8017],[5.7307,5.8514,7.8329],[5.7377,5.8536,8.3088],[5.742,5.8524,9.0742],[5.7451,5.8436,12.0956],[5.7529,5.843,9.0416],[5.7661,5.846,13.0983],[5.7685,5.8229,8.4243],[5.766,5.8096,11.0989],[5.7735,5.8042,8.3094],[5.7809,5.8047,7.8791],[5.7903,5.7988,13.997],[5.7952,5.7904,9.73],[5.7969,5.7812,8.6266],[5.8159,5.7687,8.8798],[5.823,5.7685,10.4983],[5.8289,5.7779,9.761],[5.8408,5.7834,6.4721],[5.8521,5.7826,10.3858],[5.8599,5.7801,8.9053],[5.8655,5.7844,3.2448],[5.8831,5.7883,10.8795]]]]}}