{"type": "Feature","bbox": [3.8935,8.583,4.3378,8.9927],"geometry": {"type": "MultiPolygon","coordinates": [[[[4.201,8.6935,331.043],[4.197,8.7171,318.1536],[4.1838,8.7425,365.8222],[4.1875,8.7553,373.3986],[4.1863,8.7733,378.8396],[4.1961,8.8057,426.8414],[4.2004,8.8149,418.4098],[4.2105,8.826,390.9379],[4.2201,8.8341,390.6587],[4.234,8.8397,394.9035],[4.2398,8.8654,356.5189],[4.2489,8.8749,347.261],[4.2576,8.8812,349.9476],[4.2881,8.8983,330.9475],[4.3,8.9084,312.3809],[4.3084,8.9247,423.9084],[4.3217,8.9369,310.4292],[4.3307,8.9481,291.1257],[4.3378,8.9592,288.1456],[4.3377,8.9689,287.8379],[4.3351,8.9801,302.2162],[4.3226,8.9927,329.7408],[4.3141,8.9926,323.2125],[4.3014,8.9832,336.7291],[4.2684,8.9637,377.7511],[4.2471,8.9619,395.6697],[4.2129,8.9353,380.7171],[4.1921,8.9222,417.1007],[4.1711,8.8924,429.1917],[4.1572,8.8874,437.6476],[4.1452,8.8859,416.3127],[4.1282,8.8793,436.0529],[4.0972,8.8725,367.3628],[4.0787,8.8703,373.5923],[4.0716,8.8708,374.4445],[4.0372,8.8548,356.077],[4.0199,8.8544,388.9805],[4.008,8.8516,382.4731],[3.9889,8.8503,419.3974],[3.9875,8.8478,411.221],[3.9878,8.8398,421.8669],[3.9784,8.8286,387.5236],[3.9678,8.8194,421.1868],[3.9532,8.786,427.4566],[3.9438,8.7735,445.7768],[3.9101,8.7427,422.1027],[3.9005,8.7203,439.3643],[3.8944,8.701,422.1202],[3.8935,8.6757,425.7026],[3.9022,8.6539,392.4107],[3.9128,8.6369,392.3989],[3.9221,8.627,425.8086],[3.9314,8.6209,431.1703],[3.9361,8.6121,417.024],[3.9363,8.5991,421.1917],[3.9408,8.6023,410.5302],[3.9678,8.6007,429.4209],[3.9992,8.5933,463.2239],[4.0139,8.5882,450.1897],[4.0291,8.5861,442.9125],[4.0437,8.5872,408.4964],[4.0766,8.583,362.64],[4.1182,8.5885,371.5873],[4.1334,8.588,365.7015],[4.148,8.591,342.6805],[4.1587,8.5952,318.6981],[4.1721,8.6104,323.0459],[4.1811,8.6266,324.7893],[4.2125,8.6482,309.0273],[4.2067,8.6629,313.0748],[4.201,8.6935,331.043]]]]}
,"properties": {"GID_2": "NGA.31.24_1","GID_0": "NGA","country": "Nigeria","GID_1": "NGA.31_1","province": "Oyo","NL_NAME_1": "NA","county": "Olorunsogo","VARNAME_2": "NA","NL_NAME_2": "NA","TYPE_2": "LocalAuthority","ENGTYPE_2": "LocalAuthority","CC_2": "NA","HASC_2": "NA","name": "Olorunsogo.county","area_km2": 1037.2249,"hist_schema_id": "Elevation0-9000","hist_area_km2": {"275": 0.3141,"300": 17.0575,"325": 70.981,"350": 146.5044,"375": 181.448,"400": 189.4644,"425": 227.2952,"450": 163.2497,"475": 39.9255,"500": 0.6287,"525": 0.3563}}}