{"type": "Feature","bbox": [6.2747,5.2661,6.7249,6.0145],"geometry": {"type": "MultiPolygon","coordinates": [[[[6.7249,5.982,17.1977],[6.6983,6.0,24.6406],[6.69,6.0025,25.9678],[6.66,5.9991,23.5166],[6.6457,5.9998,20.9844],[6.6411,6.0022,23.3457],[6.6323,6.0145,19.0202],[6.6221,5.9995,24.864],[6.6182,5.9975,22.795],[6.6193,5.9975,22.9208],[6.6151,5.9915,24.7192],[6.6091,5.9889,25.1758],[6.5996,5.9886,31.8375],[6.5929,5.9908,19.1746],[6.5784,5.9901,22.995],[6.5498,5.9919,25.2591],[6.5385,5.9905,18.7514],[6.5081,5.9924,22.9777],[6.4846,5.9892,23.5894],[6.4792,5.9738,21.652],[6.4647,5.9471,18.9595],[6.4602,5.9306,22.3211],[6.4463,5.9084,21.8949],[6.44,5.8901,20.8904],[6.4689,5.8781,21.5405],[6.4743,5.872,20.405],[6.4763,5.8655,19.442],[6.4712,5.8495,19.7143],[6.4593,5.8292,19.6443],[6.443,5.808,20.5326],[6.437,5.7936,19.6344],[6.4392,5.7858,21.3166],[6.4361,5.7782,19.9605],[6.4367,5.7729,21.2492],[6.4318,5.7532,19.4544],[6.4331,5.7494,19.4844],[6.4311,5.7391,20.1918],[6.4326,5.7329,20.6015],[6.4378,5.7291,17.716],[6.4413,5.7288,17.9339],[6.447,5.7232,17.1756],[6.4555,5.7223,16.4562],[6.4594,5.7184,15.7662],[6.4608,5.7107,20.7749],[6.4645,5.7079,19.0572],[6.465,5.6996,16.8004],[6.4629,5.6936,19.8193],[6.4554,5.6864,16.2613],[6.4465,5.6824,18.3934],[6.4361,5.6671,20.2331],[6.4257,5.6618,21.9768],[6.4201,5.661,15.3541],[6.4015,5.6666,19.0335],[6.3918,5.6654,18.3278],[6.3856,5.6636,22.822],[6.3707,5.6441,18.9162],[6.3584,5.641,18.3902],[6.3474,5.6428,21.7127],[6.3398,5.6462,18.2643],[6.3268,5.6411,17.2944],[6.32,5.6334,25.4462],[6.3324,5.6274,16.7884],[6.3365,5.6239,15.6643],[6.3708,5.5493,19.011],[6.3743,5.5392,15.5334],[6.3766,5.5246,17.7959],[6.38,5.5165,17.3665],[6.3834,5.4855,19.0787],[6.3898,5.4859,21.2863],[6.3925,5.481,21.6822],[6.3925,5.4764,23.8434],[6.3889,5.4695,22.8077],[6.3868,5.4668,24.0633],[6.3814,5.4644,24.4908],[6.3852,5.4549,19.2271],[6.3979,5.454,18.4695],[6.4143,5.4594,16.352],[6.4404,5.4572,14.1344],[6.4475,5.455,17.4077],[6.455,5.45,20.6058],[6.4547,5.4442,17.6323],[6.4447,5.4248,22.1852],[6.4384,5.4203,20.6429],[6.4232,5.4224,20.2242],[6.4022,5.4355,18.2706],[6.3884,5.4366,17.2997],[6.3722,5.4357,18.3425],[6.3595,5.4371,15.8909],[6.3484,5.4322,13.4348],[6.3388,5.4255,20.0385],[6.326,5.404,12.445],[6.318,5.3804,12.6147],[6.3213,5.3428,23.8701],[6.3196,5.3242,7.3568],[6.3169,5.3136,13.9118],[6.3094,5.3055,9.4296],[6.2948,5.3034,19.7813],[6.2818,5.2953,16.6031],[6.2761,5.2871,16.9792],[6.2747,5.2816,22.2456],[6.2768,5.2762,18.4417],[6.2796,5.2739,15.4046],[6.2812,5.2751,15.4046],[6.2826,5.2727,3.5],[6.2938,5.2661,14.2923],[6.3103,5.2997,10.2598],[6.3194,5.3007,3.5],[6.3311,5.2996,15.5798],[6.3462,5.3065,16.8229],[6.3546,5.3077,18.6129],[6.3736,5.3021,13.9],[6.394,5.3034,13.4632],[6.4013,5.3005,13.8324],[6.411,5.3005,6.0],[6.4199,5.3052,7.4916],[6.4444,5.3117,18.2436],[6.47,5.3231,7.5],[6.4931,5.336,9.0181],[6.5125,5.3498,8.5],[6.5104,5.3657,8.5],[6.5071,5.3755,20.8171],[6.4918,5.4031,22.146],[6.4905,5.4081,15.5243],[6.4941,5.4138,15.5813],[6.5032,5.4222,8.5],[6.5225,5.4311,10.8261],[6.5332,5.4325,8.5],[6.5432,5.4397,8.5],[6.5509,5.443,19.9752],[6.555,5.4538,16.8638],[6.5557,5.4676,17.1473],[6.5507,5.5049,23.9598],[6.5539,5.5288,24.887],[6.5594,5.543,19.6313],[6.5651,5.5528,8.5],[6.5777,5.5598,9.7649],[6.5918,5.5722,13.9027],[6.5983,5.5758,16.1243],[6.6073,5.5904,21.261],[6.6126,5.6042,20.0169],[6.6176,5.6292,10.7145],[6.6238,5.6418,8.5],[6.6259,5.6556,9.6552],[6.6229,5.6697,8.5],[6.6084,5.7129,9.0],[6.611,5.7188,14.354],[6.6121,5.7185,15.5185],[6.6139,5.7255,11.5317],[6.6195,5.7282,10.0889],[6.6284,5.7375,14.2394],[6.6318,5.7506,10.0],[6.6405,5.7707,13.9746],[6.6594,5.8006,19.1679],[6.6668,5.8298,25.2026],[6.6649,5.8432,20.5885],[6.6728,5.856,18.6774],[6.6814,5.8747,12.5],[6.6874,5.8922,17.0948],[6.6895,5.9069,18.4235],[6.6934,5.9191,13.5],[6.7014,5.9305,14.0],[6.7072,5.9456,16.7296],[6.7174,5.9606,16.2621],[6.7218,5.9783,15.6971],[6.7249,5.982,17.1977]]]]}
,"properties": {"GID_2": "NGA.10.11_1","GID_0": "NGA","country": "Nigeria","GID_1": "NGA.10_1","province": "Delta","NL_NAME_1": "NA","county": "NdokwaEast","VARNAME_2": "NA","NL_NAME_2": "NA","TYPE_2": "LocalAuthority","ENGTYPE_2": "LocalAuthority","CC_2": "NA","HASC_2": "NA","name": "Ndokwa_East.county","area_km2": 1715.126,"hist_schema_id": "Elevation0-9000","hist_area_km2": {"0": 161.932,"25": 1552.392,"50": 0.802}}}