{"type": "Feature","bbox": [8.3563,11.6955,8.6182,11.8386],"geometry": {"type": "MultiPolygon","coordinates": [[[[8.6182,11.7289,444.2979],[8.6133,11.7442,421.8086],[8.6069,11.7568,420.8465],[8.602,11.7766,424.2016],[8.593,11.7876,424.9272],[8.578,11.7979,432.0737],[8.5188,11.8102,439.8265],[8.506,11.8181,443.1028],[8.504,11.8222,444.8925],[8.492,11.8326,443.9847],[8.4933,11.8382,444.882],[8.4888,11.8386,443.5642],[8.4491,11.8302,451.1517],[8.4387,11.8313,443.351],[8.4241,11.8301,443.3911],[8.4147,11.8277,445.3955],[8.4042,11.8209,449.9132],[8.3963,11.8142,452.5605],[8.3855,11.7981,449.1567],[8.3704,11.7823,457.1076],[8.3634,11.7679,456.4964],[8.3563,11.743,460.5496],[8.3735,11.7404,449.5289],[8.3816,11.7372,455.0775],[8.385,11.7315,456.2025],[8.384,11.7234,459.3079],[8.3853,11.716,470.0571],[8.3877,11.7139,469.8211],[8.3953,11.7102,469.5649],[8.4052,11.7142,475.8162],[8.4122,11.715,479.5863],[8.4168,11.7134,479.6561],[8.4312,11.7003,480.3298],[8.4339,11.6955,478.2826],[8.464,11.7024,465.0995],[8.4761,11.7187,450.7382],[8.4851,11.7345,447.4899],[8.4967,11.7453,437.5457],[8.5029,11.7498,437.3036],[8.5248,11.7603,445.8566],[8.5446,11.7678,435.2854],[8.5541,11.7669,435.8336],[8.5626,11.7638,434.2537],[8.5823,11.7436,426.5273],[8.5844,11.7367,438.0547],[8.5943,11.7246,441.2794],[8.6031,11.7212,441.1245],[8.6067,11.7215,441.4851],[8.6116,11.7231,441.2878],[8.6182,11.7289,444.2979]]]]}
,"properties": {"GID_2": "NGA.20.27_1","GID_0": "NGA","country": "Nigeria","GID_1": "NGA.20_1","province": "Kano","NL_NAME_1": "NA","county": "Kura","VARNAME_2": "NA","NL_NAME_2": "NA","TYPE_2": "LocalAuthority","ENGTYPE_2": "LocalAuthority","CC_2": "NA","HASC_2": "NA","name": "Kura.county","area_km2": 240.1926,"hist_schema_id": "Elevation0-9000","hist_area_km2": {"425": 44.3978,"450": 143.4219,"475": 52.3521,"500": 0.0208}}}