{"type": "Feature","bbox": [6.1416,6.0853,6.3934,6.3925],"geometry": {"type": "MultiPolygon","coordinates": [[[[6.3594,6.3925,218.1054],[6.3461,6.3889,218.2848],[6.2578,6.3503,138.9704],[6.2428,6.3392,165.944],[6.2317,6.3258,199.6037],[6.2304,6.3236,194.3404],[6.2339,6.3111,138.5668],[6.2439,6.2921,176.5075],[6.2547,6.2845,166.0272],[6.2579,6.2851,166.0362],[6.2639,6.2832,174.9451],[6.2784,6.2691,186.9418],[6.2811,6.2642,187.5525],[6.2815,6.2608,188.3101],[6.2775,6.253,185.5069],[6.2669,6.2433,222.1223],[6.259,6.2264,203.8851],[6.258,6.2206,187.9295],[6.25,6.2104,162.4303],[6.2447,6.2109,161.2031],[6.2346,6.2408,211.1458],[6.2303,6.2455,209.5644],[6.2138,6.2407,197.0774],[6.2119,6.2385,198.5134],[6.2045,6.2356,173.0757],[6.1907,6.2356,138.0328],[6.1877,6.2373,113.1697],[6.1767,6.2139,131.5597],[6.1685,6.2072,101.9824],[6.1436,6.1751,96.7398],[6.1416,6.1689,109.9475],[6.1422,6.1657,120.2664],[6.1463,6.1612,151.4595],[6.15,6.1616,152.7508],[6.1539,6.1599,153.8124],[6.1597,6.1626,150.8315],[6.1676,6.1625,154.7711],[6.1762,6.1658,151.5119],[6.1995,6.1373,155.3353],[6.205,6.1261,154.7911],[6.2313,6.0923,136.4854],[6.2365,6.0885,148.1944],[6.2459,6.0853,149.6052],[6.2526,6.0855,159.2806],[6.2704,6.1001,162.9951],[6.2871,6.1054,166.8931],[6.3016,6.1058,165.7037],[6.3146,6.1084,170.7774],[6.3469,6.1203,179.8653],[6.3464,6.1258,180.2424],[6.3433,6.133,177.6955],[6.3399,6.1344,177.1699],[6.3389,6.1444,157.0719],[6.3446,6.1514,162.0172],[6.357,6.1517,146.4166],[6.362,6.1603,88.7541],[6.3621,6.1666,125.8903],[6.3919,6.1856,125.15],[6.3872,6.1926,124.5748],[6.384,6.1943,135.4679],[6.3679,6.2524,248.7366],[6.3746,6.267,246.1388],[6.3895,6.2896,206.7679],[6.3934,6.293,222.4651],[6.39,6.3083,247.8028],[6.3896,6.3246,251.3895],[6.3817,6.3252,259.8293],[6.3762,6.3391,235.6191],[6.3671,6.3497,221.7006],[6.3682,6.357,207.3199],[6.3633,6.3679,210.9436],[6.3633,6.3804,232.1309],[6.3594,6.3925,218.1054]]]]}
,"properties": {"GID_2": "NGA.10.7_1","GID_0": "NGA","country": "Nigeria","GID_1": "NGA.10_1","province": "Delta","NL_NAME_1": "NA","county": "IkaNorth-East","VARNAME_2": "NA","NL_NAME_2": "NA","TYPE_2": "LocalAuthority","ENGTYPE_2": "LocalAuthority","CC_2": "NA","HASC_2": "NA","name": "Ika_North-East.county","area_km2": 506.1436,"hist_schema_id": "Elevation0-9000","hist_area_km2": {"75": 0.1476,"100": 4.8692,"125": 18.2739,"150": 144.412,"175": 122.8249,"200": 79.7505,"225": 63.9179,"250": 69.9456,"275": 2.0019}}}