{"type":"Feature","properties":{"GID_2":"NGA.17.27_1","GID_0":"NGA","country":"Nigeria","GID_1":"NGA.17_1","province":"Imo","NL_NAME_1":"NA","county":"Unuimo","VARNAME_2":"NA","NL_NAME_2":"NA","TYPE_2":"LocalAuthority","ENGTYPE_2":"LocalAuthority","CC_2":"NA","HASC_2":"NA","name":"Unuimo.county"},
"geometry":{"type": "MultiPolygon","coordinates": [[[[7.3089,5.7551,81.9967],[7.2858,5.7726,86.2898],[7.2765,5.7773,92.6073],[7.2653,5.798,87.8623],[7.2596,5.8193,95.337],[7.2563,5.8256,94.5728],[7.2519,5.8303,96.5613],[7.234,5.8392,94.9198],[7.2234,5.8335,106.8647],[7.2233,5.8287,103.2749],[7.2121,5.8075,125.5323],[7.2052,5.7647,116.7722],[7.2006,5.7489,136.7431],[7.1935,5.7384,173.7037],[7.192,5.7303,169.7644],[7.2103,5.7234,155.7036],[7.2353,5.7257,118.9251],[7.2383,5.73,137.4624],[7.2511,5.7374,119.6661],[7.2657,5.7388,103.7724],[7.3089,5.7551,81.9967]]]]}}