{"type": "Feature","bbox": [5.6968,5.1733,6.0588,5.5583],"geometry": {"type": "MultiPolygon","coordinates": [[[[5.9809,5.1743,12.8949],[5.9836,5.1733,15.4221],[5.9894,5.1871,7.7637],[5.9962,5.1953,12.4852],[6.003,5.1998,11.3592],[6.0513,5.2054,6.8804],[6.0588,5.2046,11.0036],[6.0454,5.2145,4.4865],[6.0309,5.2298,8.0981],[6.0227,5.2361,4.4878],[6.0133,5.2517,5.366],[6.0056,5.2611,9.233],[6.0075,5.2689,5.3135],[6.0178,5.2885,8.2677],[6.0174,5.3058,10.0466],[6.0192,5.3196,9.6886],[6.0185,5.3334,9.1789],[6.0144,5.3522,9.2514],[6.0157,5.3565,10.0097],[6.0147,5.3669,8.1857],[6.0116,5.3757,8.8808],[6.0057,5.3811,13.2449],[6.0023,5.3874,14.6208],[5.9946,5.3926,8.9245],[5.9868,5.4006,9.9789],[5.9788,5.4166,13.0792],[5.9803,5.4255,17.4831],[5.9786,5.4341,12.307],[5.9792,5.4541,19.6443],[5.9913,5.4645,13.8709],[5.9933,5.471,13.0441],[5.9906,5.4749,13.0657],[5.98,5.4762,9.4382],[5.9731,5.4752,10.4103],[5.9598,5.4826,8.4023],[5.959,5.4877,8.1791],[5.9699,5.4948,6.5802],[5.9721,5.4994,7.6353],[5.9701,5.5036,9.0979],[5.9451,5.5015,15.5546],[5.9331,5.5024,17.9199],[5.919,5.4969,9.2797],[5.9068,5.4985,11.372],[5.8958,5.5065,12.7022],[5.8934,5.5107,9.9598],[5.906,5.5227,9.5963],[5.9211,5.5309,7.6867],[5.9263,5.5371,6.7429],[5.9252,5.5403,8.815],[5.913,5.5428,9.0284],[5.9064,5.5464,16.2336],[5.9027,5.5451,13.0423],[5.8928,5.5471,18.1241],[5.8829,5.5463,12.4119],[5.8778,5.5487,9.0963],[5.8734,5.5474,9.7603],[5.8673,5.5514,15.3005],[5.8645,5.5512,13.7861],[5.8586,5.5557,7.9188],[5.8521,5.5549,7.4639],[5.8457,5.5566,10.7227],[5.8458,5.5583,11.8209],[5.8384,5.5508,7.4874],[5.8326,5.5479,7.7184],[5.8289,5.5432,5.3793],[5.829,5.5408,14.8153],[5.8328,5.5327,8.4994],[5.8455,5.5159,11.9403],[5.8841,5.4684,9.3792],[5.8856,5.458,8.4971],[5.8829,5.4523,5.3907],[5.8816,5.438,6.8131],[5.8645,5.4229,6.021],[5.8398,5.4093,7.8013],[5.8354,5.405,11.3258],[5.8289,5.4035,5.1937],[5.8169,5.405,6.6648],[5.8096,5.4121,11.738],[5.8061,5.4202,10.3543],[5.7968,5.4337,10.4661],[5.7909,5.4389,12.8313],[5.7829,5.4397,15.0341],[5.7805,5.4398,15.0399],[5.7796,5.4363,13.4401],[5.7421,5.4146,1.3726],[5.7088,5.4124,1.9754],[5.6968,5.4144,0.0],[5.7026,5.4087,0.0],[5.7021,5.4054,9.3701],[5.6985,5.4018,1.1785],[5.7032,5.3946,0.5948],[5.7093,5.3926,7.4572],[5.719,5.386,1.3052],[5.7154,5.3754,4.1997],[5.7199,5.3383,0.0],[5.7239,5.3294,1.6781],[5.7323,5.3224,9.8393],[5.7378,5.3227,6.3922],[5.7441,5.3252,1.4192],[5.752,5.3313,12.5039],[5.7573,5.3434,4.6572],[5.77,5.3425,1.6178],[5.7739,5.3438,5.4945],[5.7806,5.3407,6.1506],[5.7873,5.3452,10.6557],[5.79,5.3523,12.6263],[5.8135,5.3526,2.5566],[5.8426,5.3652,4.5688],[5.8807,5.3558,13.0263],[5.8898,5.3596,11.5154],[5.8954,5.3657,5.7309],[5.8957,5.3705,6.7067],[5.9067,5.3805,13.513],[5.9121,5.3832,7.8354],[5.9284,5.3831,10.665],[5.9258,5.3753,8.792],[5.9261,5.3647,9.3531],[5.9232,5.3613,12.292],[5.9262,5.3585,14.5679],[5.9244,5.3461,12.1179],[5.9229,5.3426,8.4747],[5.9187,5.339,7.4041],[5.8859,5.3345,12.1488],[5.8518,5.3356,8.9519],[5.8374,5.334,5.1413],[5.8168,5.3387,0.0],[5.8063,5.3372,19.2843],[5.8004,5.3286,4.4688],[5.7984,5.3185,3.0229],[5.8045,5.3094,17.0097],[5.8086,5.3066,13.224],[5.8183,5.3082,0.8905],[5.8243,5.3051,17.4174],[5.8252,5.3031,15.5462],[5.8214,5.2978,11.3325],[5.8151,5.2936,10.0717],[5.8102,5.2922,8.1752],[5.7823,5.2902,12.0598],[5.7647,5.2859,12.8113],[5.7326,5.2743,10.7125],[5.731,5.2722,9.3077],[5.7299,5.2632,13.7748],[5.7358,5.2564,13.3328],[5.7434,5.2533,10.0998],[5.7594,5.2569,13.2393],[5.8016,5.2719,17.2256],[5.8074,5.2764,15.9811],[5.8207,5.281,14.063],[5.8281,5.2866,9.2267],[5.8433,5.2945,7.2437],[5.8462,5.2923,4.999],[5.841,5.2678,0.5],[5.8415,5.2546,5.2746],[5.8455,5.246,11.0925],[5.8493,5.2416,4.3999],[5.8419,5.2257999999999996,0.0],[5.8379,5.2192,11.036],[5.8313,5.2142,1.4468],[5.813,5.209,10.7979],[5.7973,5.2074,0.714],[5.7934,5.2043,1.6596],[5.791,5.1995,10.8083],[5.7885,5.1875,6.2704],[5.8,5.186,8.2723],[5.8196,5.1873,8.3679],[5.8341,5.1838,10.7861],[5.8393,5.1789,13.6301],[5.8446,5.1774,6.2141],[5.8553,5.182,0.0],[5.8837,5.1986,15.3028],[5.8987,5.2,11.8842],[5.9124,5.1931,18.0329],[5.916,5.184,14.2471],[5.9186,5.1816,13.5647],[5.9371,5.184,16.4073],[5.9552,5.184,10.6417],[5.9648,5.1754,13.9186],[5.9809,5.1743,12.8949]]],
[[[5.712,5.3885,6.4585],[5.7121,5.3885,6.4585],[5.7121,5.3888,0.0],[5.7119,5.3888,0.0],[5.712,5.3885,6.4585]]],
[[[5.7113,5.3893,0.0],[5.711,5.3893,5.5896],[5.7113,5.3892,0.0],[5.7113,5.3893,0.0]]]]}
,"properties": {"GID_2": "NGA.10.20_1","GID_0": "NGA","country": "Nigeria","GID_1": "NGA.10_1","province": "Delta","NL_NAME_1": "NA","county": "UghelliSouth","VARNAME_2": "NA","NL_NAME_2": "NA","TYPE_2": "LocalAuthority","ENGTYPE_2": "LocalAuthority","CC_2": "NA","HASC_2": "NA","name": "Ughelli_South.county","area_km2": 782.7643,"hist_schema_id": "Elevation0-9000","hist_area_km2": {"0": 563.4676,"25": 219.2967}}}