{"type": "Feature","bbox": [8.3999,11.9578,8.6316,12.1172],"geometry": {"type": "MultiPolygon","coordinates": [[[[8.487,12.0291,484.6793],[8.4924,12.0291,482.9756],[8.5022,12.0243,472.1443],[8.5049,12.0185,479.5399],[8.5178,12.0117,473.6632],[8.5399,12.016,475.3876],[8.561,12.0117,469.7872],[8.5688,12.0113,478.8565],[8.5737,12.0127,478.3468],[8.5936,12.0216,461.3159],[8.6001,12.0261,460.0262],[8.6217,12.0343,455.099],[8.6312,12.0434,451.0982],[8.6296,12.0529,436.9397],[8.6316,12.0607,432.9114],[8.6316,12.075,439.4514],[8.6269,12.073,446.7977],[8.607,12.0754,446.4893],[8.5952,12.0742,446.4471],[8.5553,12.0654,439.1749],[8.5425,12.0694,459.0118],[8.5341,12.077,465.3446],[8.5273,12.0858,466.91],[8.5252,12.0983,470.6934],[8.503,12.1109,469.2426],[8.4875,12.1172,482.1375],[8.4874,12.1158,480.6275],[8.4738,12.1082,489.2464],[8.445,12.0862,506.4965],[8.4422,12.0778,497.2974],[8.4296,12.0606,475.869],[8.4239,12.0564,477.009],[8.4218,12.0502,475.1242],[8.4122,12.0383,468.9943],[8.4103,12.0327,465.5449],[8.3999,12.0247,457.5041],[8.4,12.0178,456.0356],[8.4059,12.0011,452.2623],[8.4096,11.9804,448.033],[8.4048,11.9609,448.1774],[8.4195,11.9578,461.6412],[8.4327,11.9593,468.2737],[8.4291,11.9802,460.9319],[8.4317,11.9895,457.5671],[8.4412,12.0046,470.7156],[8.4555,12.0188,476.4318],[8.4704,12.0259,486.9081],[8.487,12.0291,484.6793]]]]}
,"properties": {"GID_2": "NGA.20.42_1","GID_0": "NGA","country": "Nigeria","GID_1": "NGA.20_1","province": "Kano","NL_NAME_1": "NA","county": "Ungogo","VARNAME_2": "NA","NL_NAME_2": "NA","TYPE_2": "LocalAuthority","ENGTYPE_2": "LocalAuthority","CC_2": "NA","HASC_2": "NA","name": "Ungogo.county","area_km2": 187.2395,"hist_schema_id": "Elevation0-9000","hist_area_km2": {"425": 1.1197,"450": 67.268,"475": 95.8167,"500": 23.0351}}}