{"type":"Feature","properties":{"GID_2":"NGA.1.5_1","GID_0":"NGA","country":"Nigeria","GID_1":"NGA.1_1","province":"Abia","NL_NAME_1":"NA","county":"Ikwuano","VARNAME_2":"NA","NL_NAME_2":"NA","TYPE_2":"LocalAuthority","ENGTYPE_2":"LocalAuthority","CC_2":"NA","HASC_2":"NA","name":"Ikwuano.county"},
"geometry":{"type": "MultiPolygon","coordinates": [[[[7.5481,5.4872,142.7183],[7.5407,5.4855,133.6416],[7.529,5.4724,116.3053],[7.5261,5.4722,121.2603],[7.5208,5.4536,120.6918],[7.518,5.4495,130.9796],[7.5131,5.4341,118.1105],[7.5104,5.4211,129.2357],[7.5059,5.4129,131.3056],[7.5083,5.4057,109.6867],[7.5068,5.3847,101.4222],[7.4956,5.3755,114.1044],[7.4929,5.3677,100.7135],[7.4936,5.3529,95.0973],[7.5015,5.3452,90.1743],[7.5139,5.339,78.2807],[7.5268,5.3355,80.0003],[7.5329,5.3292,83.3798],[7.5316,5.3232,72.5584],[7.527,5.321,94.1476],[7.5199,5.3227,115.5103],[7.5104,5.3217,115.732],[7.5008,5.3152,115.039],[7.4999,5.3127,113.7067],[7.5014,5.3092,112.6527],[7.505,5.3048,113.418],[7.5066,5.2995,109.4072],[7.5096,5.2985,109.3245],[7.5147,5.2864,110.5392],[7.5098,5.2821,108.068],[7.5225,5.2841,106.3493],[7.5206,5.2876,108.6302],[7.5217,5.2998,107.185],[7.5289,5.3108,95.048],[7.5395,5.3157,69.7446],[7.5634,5.3171,90.9907],[7.5852,5.3117,76.2283],[7.624,5.3101,120.9165],[7.6379,5.3131,120.1105],[7.6496,5.3276,115.5726],[7.6609,5.3671,99.1759],[7.6528,5.3691,104.9871],[7.6385,5.3652,76.4592],[7.6248,5.3645,73.6512],[7.6196,5.3717,58.1215],[7.622,5.3881,53.8647],[7.6301,5.4021,62.7507],[7.6192,5.4146,89.2802],[7.6093,5.4344,109.2741],[7.6046,5.4533,71.6529],[7.6001,5.4606,70.2523],[7.5875,5.4698,107.2123],[7.5728,5.4718,120.0319],[7.5481,5.4872,142.7183]]]]}}