{"type":"Feature","properties":{"GID_2":"NGA.18.7_1","GID_0":"NGA","country":"Nigeria","GID_1":"NGA.18_1","province":"Jigawa","NL_NAME_1":"NA","county":"Gagarawa","VARNAME_2":"NA","NL_NAME_2":"NA","TYPE_2":"LocalAuthority","ENGTYPE_2":"LocalAuthority","CC_2":"NA","HASC_2":"NA","name":"Gagarawa.county"},
"geometry":{"type": "MultiPolygon","coordinates": [[[[9.489,12.3481,369.8742],[9.5102,12.3514,370.1971],[9.5367,12.3515,369.683],[9.5548,12.3547,367.8309],[9.5582,12.3533,367.3344],[9.5606,12.349,373.2061],[9.5709,12.3593,367.5634],[9.5888,12.3683,367.0838],[9.5977,12.3862,366.6449],[9.6246,12.413,367.3588],[9.6246,12.422,364.088],[9.6514,12.4488,364.2591],[9.723,12.4846,361.9526],[9.732,12.5204,359.9897],[9.732,12.545,357.85],[9.7271,12.5429,358.0903],[9.7206,12.5346,359.0379],[9.7071,12.5395,359.8948],[9.6846,12.5439,360.2404],[9.6636,12.5546,362.2137],[9.6606,12.5486,363.1566],[9.6415,12.5641,360.4395],[9.6071,12.5837,360.0642],[9.5892,12.5871,363.0667],[9.5767,12.5825,362.6127],[9.5397,12.5544,363.8116],[9.5074,12.5607,365.3013],[9.4969,12.5594,365.2701],[9.4805,12.5637,364.8521],[9.461,12.5738,364.4197],[9.4492,12.5574,367.202],[9.4347,12.547,367.8714],[9.4264,12.543,366.9803],[9.4062,12.5373,366.1057],[9.3889,12.5388,367.0095],[9.3811,12.5372,367.4212],[9.3801,12.5308,367.5831],[9.3823,12.5201,367.0558],[9.3804,12.5117,368.285],[9.3765,12.5062,367.7654],[9.3838,12.4832,368.044],[9.3847,12.468,368.6961],[9.3795,12.4228,369.1176],[9.3733,12.3946,370.8021],[9.3654,12.3697,372.3602],[9.3783,12.3559,373.1924],[9.4128,12.3454,372.7529],[9.438,12.3464,372.0573],[9.4657,12.3353,370.4395],[9.4716,12.3423,371.1985],[9.4815,12.347,370.0026],[9.489,12.3481,369.8742]]]]}}