{"type": "Feature","bbox": [6.1412,6.7843,6.4707,7.1909],"geometry": {"type": "MultiPolygon","coordinates": [[[[6.1767,7.1069,153.1384],[6.1862,6.9479,83.3894],[6.18,6.9045,95.3709],[6.1412,6.8116,185.6114],[6.1958,6.8217,188.614],[6.2155,6.8292,168.3484],[6.2292,6.8216,207.3724],[6.2349,6.8155,239.4807],[6.2368,6.8033,334.4185],[6.241,6.7958,357.0556],[6.2427,6.7868,412.7455],[6.2517,6.7843,376.7621],[6.267,6.7924,342.0565],[6.2761,6.7987,318.6782],[6.2811,6.8055,288.5487],[6.2925,6.8113,260.4834],[6.3254,6.8073,222.8932],[6.3442,6.7989,235.6926],[6.3684,6.796,213.912],[6.3869,6.8021,195.0826],[6.3986,6.8127,201.7059],[6.4083,6.8268,150.1572],[6.4136,6.8399,111.8785],[6.4252,6.8581,96.7435],[6.4442,6.8795,78.5295],[6.4567,6.8968,63.8173],[6.4707,6.91,56.8538],[6.4618,6.9218,44.865],[6.4497,6.9321,45.8899],[6.4339,6.9402,48.2002],[6.4237,6.9365,48.2233],[6.4067,6.9423,47.4135],[6.3698,6.9266,63.8036],[6.3615,6.9249,59.7227],[6.3516,6.9262,61.1749],[6.3466,6.9339,61.5886],[6.3481,6.9525,56.4997],[6.3546,6.9731,60.5379],[6.3822,6.9957,64.4921],[6.3915,7.0135,73.6186],[6.379,7.0253,98.8208],[6.3584,7.0374,123.6502],[6.3572,7.0455,109.5182],[6.3614,7.0502,94.092],[6.3686,7.054,144.7824],[6.3782,7.0624,196.6087],[6.3998,7.0853,254.4483],[6.3987,7.1169,245.5637],[6.3934,7.1428,185.4688],[6.394,7.1485,168.6751],[6.3877,7.1491,176.0937],[6.3762,7.1537,166.6238],[6.3587,7.1567,197.5497],[6.3537,7.1598,153.5715],[6.3346,7.1622,191.5414],[6.3025,7.1729,211.6953],[6.285,7.1743,216.849],[6.2689,7.1788,239.584],[6.2501,7.1876,285.3353],[6.2423,7.1863,268.3585],[6.2361,7.1892,270.4861],[6.2364,7.1909,266.3694],[6.2335,7.189,250.6729],[6.2123,7.1426,177.4238],[6.1974,7.1251,130.1112],[6.1886,7.1188,113.0275],[6.1829,7.1102,119.3773],[6.1767,7.1069,153.1384]]]]}
,"properties": {"GID_2": "NGA.12.9_1","GID_0": "NGA","country": "Nigeria","GID_1": "NGA.12_1","province": "Edo","NL_NAME_1": "NA","county": "EtsakoWest","VARNAME_2": "NA","NL_NAME_2": "NA","TYPE_2": "LocalAuthority","ENGTYPE_2": "LocalAuthority","CC_2": "NA","HASC_2": "NA","name": "Etsako_West.county","area_km2": 970.606,"hist_schema_id": "Elevation0-9000","hist_area_km2": {"50": 71.9386,"75": 238.2715,"100": 129.9234,"125": 115.8387,"150": 103.7719,"175": 89.4157,"200": 74.3874,"225": 56.4757,"250": 38.8205,"275": 25.2696,"300": 15.9071,"325": 7.0709,"350": 2.6308,"375": 0.5895,"400": 0.2737,"425": 0.0211}}}