{"type":"Feature","properties":{"GID_2":"NGA.19.3_1","GID_0":"NGA","country":"Nigeria","GID_1":"NGA.19_1","province":"Kaduna","NL_NAME_1":"NA","county":"Giwa","VARNAME_2":"NA","NL_NAME_2":"NA","TYPE_2":"LocalAuthority","ENGTYPE_2":"LocalAuthority","CC_2":"NA","HASC_2":"NA","name":"Giwa.county"},
"geometry":{"type": "MultiPolygon","coordinates": [[[[7.1529,10.8146,606.4245],[7.1695,10.8198,620.3672],[7.1926,10.8228,639.0565],[7.2184,10.8241,647.8276],[7.2414,10.8211,622.8167],[7.2592,10.8225,609.4651],[7.2788,10.8273,597.9287],[7.2974,10.8372,584.7562],[7.321,10.8603,614.954],[7.3327,10.8792,607.3025],[7.3463,10.8952,622.3864],[7.361,10.9162,600.3054],[7.3734,10.9364,617.2075],[7.3781,10.9683,629.7042],[7.3788,10.9861,637.234],[7.3944,11.0088,650.0377],[7.4098,11.0143,653.668],[7.429,11.0139,635.1801],[7.4464,11.0104,640.8063],[7.4594,11.0038,638.6698],[7.4953,10.9962,632.2693],[7.5233,10.9928,657.1604],[7.5335,10.9978,651.3704],[7.5573,10.9986,644.0016],[7.5717,10.9971,635.4111],[7.6029,11.0005,659.1351],[7.6224,11.0008,667.426],[7.6259,11.0195,691.2908],[7.6429,11.0684,660.5491],[7.6443,11.1,683.7829],[7.6394,11.1218,649.3621],[7.6305,11.1261,670.2614],[7.6078,11.1288,692.2216],[7.5915,11.1415,706.7143],[7.5902,11.1703,690.7791],[7.6001,11.212,672.1056],[7.6035,11.2372,673.9757],[7.6212,11.2429,666.6548],[7.6333,11.2504,665.2523],[7.6377,11.2563,663.7039],[7.6388,11.2817,640.7198],[7.6305,11.2857,631.5],[7.6149,11.3109,640.9212],[7.5981,11.3264,648.5204],[7.5817,11.3384,662.9709],[7.5645,11.3456,674.0018],[7.5308,11.3581,705.902],[7.4722,11.375,684.1567],[7.4498,11.3706,669.8945],[7.4357,11.3607,672.2405],[7.4003,11.3292,646.2748],[7.3932,11.3171,632.8462],[7.381,11.2819,633.481],[7.3825,11.2697,638.2183],[7.3811,11.2597,641.2076],[7.3718,11.2511,629.7853],[7.3492,11.2497,614.4569],[7.3045,11.2672,625.761],[7.273,11.2689,647.1722],[7.2457,11.265,652.7843],[7.2265,11.2581,664.9342],[7.2172,11.2515,680.7297],[7.2136,11.2374,694.1997],[7.2192,11.219,672.0549],[7.244,11.1818,674.7079],[7.2484,11.1655,675.0463],[7.2393,11.146,667.868],[7.2169,11.1291,635.3703],[7.2098,11.1145,636.8196],[7.1967,11.0749,641.4763],[7.1922,11.0554,653.9175],[7.1906,11.0347,654.59],[7.1775,10.9648,641.4913],[7.1686,10.9497,641.8917],[7.1604,10.9309,646.9315],[7.1501,10.916,630.1536],[7.1418,10.909,646.2893],[7.1312,10.896,638.2046],[7.1269,10.8821,621.0215],[7.1309,10.8609,601.7259],[7.1361,10.8466,604.1815],[7.1437,10.8343,617.6114],[7.1529,10.8146,606.4245]]]]}}