{"type": "Feature","bbox": [6.0857,5.2193,6.3595,5.5459],"geometry": {"type": "MultiPolygon","coordinates": [[[[6.0857,5.3932,16.6873],[6.0886,5.3887,10.7456],[6.0873,5.3765,12.2314],[6.0921,5.3449,8.0815],[6.0914,5.3186,12.7957],[6.0931,5.3105,15.3272],[6.1022,5.2896,10.9863],[6.1089,5.2851,9.6713],[6.1106,5.2784,14.0359],[6.129,5.2599,17.3063],[6.149,5.2453,15.6346],[6.1654,5.2286,22.0602],[6.1721,5.2193,12.9131],[6.1738,5.2239,17.6831],[6.1813,5.2302,14.0565],[6.189,5.2335,9.4233],[6.1958,5.2413,14.5147],[6.1991,5.2423,17.5758],[6.2105,5.2398,8.1728],[6.2193,5.2409,3.0],[6.2313,5.2367,5.3603],[6.2372,5.2316,10.0413],[6.2493,5.2286,3.0],[6.2524,5.2295,3.0],[6.2568,5.2349,12.7774],[6.2747,5.2777,19.1164],[6.2768,5.2762,18.4417],[6.2747,5.2816,22.2456],[6.2792,5.2924,16.333],[6.286,5.2987,14.2944],[6.2948,5.3034,19.7813],[6.3094,5.3055,9.4296],[6.3169,5.3136,13.9118],[6.3196,5.3242,7.3568],[6.3213,5.3428,23.8701],[6.318,5.3804,12.6147],[6.3217,5.3935,18.5475],[6.3308,5.4136,13.2009],[6.3388,5.4255,20.0385],[6.3484,5.4322,13.4348],[6.3595,5.4371,15.8909],[6.3519,5.4388,10.4529],[6.3442,5.4461,11.1955],[6.3415,5.4512,10.314],[6.3408,5.4632,14.52],[6.3356,5.4716,16.0938],[6.3271,5.472,19.3881],[6.3239,5.4736,15.4845],[6.3167,5.4846,16.4521],[6.3212,5.5078,14.9693],[6.325,5.5149,14.4115],[6.332,5.5161,17.0087],[6.3342,5.5226,16.3247],[6.3265,5.5342,14.4387],[6.3249,5.5333,15.7754],[6.3134,5.5381,17.1824],[6.3102,5.5377,22.6286],[6.2997,5.545,22.9725],[6.2914,5.5459,20.9114],[6.2582,5.5169,21.9698],[6.2375,5.5069,19.6735],[6.2249,5.5131,15.3913],[6.2167,5.5225,14.3123],[6.2108,5.5246,15.4878],[6.199,5.5403,16.4039],[6.1931,5.5445,16.5322],[6.1775,5.5102,15.1112],[6.1689,5.5044,17.7074],[6.1527,5.4865,18.234],[6.1332,5.452,17.5796],[6.1238,5.439,16.3356],[6.1147,5.432,15.3724],[6.1125,5.4275,16.0468],[6.1037,5.4248,11.6871],[6.0981,5.4194,15.1631],[6.0917,5.4105,15.7945],[6.0914,5.4052,18.2278],[6.0857,5.3932,16.6873]],
[[6.2727,5.4629,13.6842],[6.2837,5.4554,14.9761],[6.2884,5.4471,12.7507],[6.2982,5.4386,16.544],[6.2988,5.4349,21.1381],[6.2985,5.4289,14.664],[6.2952,5.4227,22.3444],[6.278,5.4103,21.7736],[6.2671,5.4149,19.6649],[6.2603,5.4203,15.7301],[6.2606,5.4243,8.7064],[6.2499,5.4309,13.4575],[6.2442,5.4506,15.5124],[6.248,5.4565,23.4791],[6.2587,5.4614,21.952],[6.2691,5.4637,13.0215],[6.2727,5.4629,13.6842]]]]}
,"properties": {"GID_2": "NGA.10.10_1","GID_0": "NGA","country": "Nigeria","GID_1": "NGA.10_1","province": "Delta","NL_NAME_1": "NA","county": "IsokoSouth","VARNAME_2": "NA","NL_NAME_2": "NA","TYPE_2": "LocalAuthority","ENGTYPE_2": "LocalAuthority","CC_2": "NA","HASC_2": "NA","name": "Isoko_South.county","area_km2": 681.157,"hist_schema_id": "Elevation0-9000","hist_area_km2": {"0": 260.1727,"25": 420.9843}}}