{"type": "Feature","bbox": [9.5606,12.2685,9.9409,12.8233],"geometry": {"type": "MultiPolygon","coordinates": [[[[9.666,12.8152,355.3163],[9.6798,12.7905,358.4168],[9.683,12.772,357.0071],[9.6885,12.7552,358.344],[9.7147,12.708,356.4423],[9.7326,12.6621,356.981],[9.753,12.6254,357.6143],[9.7555,12.6097,359.3026],[9.7494,12.5581,357.7536],[9.7383,12.5477,357.6962],[9.732,12.545,357.85],[9.732,12.5204,359.9897],[9.723,12.4846,361.9526],[9.6514,12.4488,364.2591],[9.6246,12.422,364.088],[9.6246,12.413,367.3588],[9.5977,12.3862,366.6449],[9.5888,12.3683,367.0838],[9.5709,12.3593,367.5634],[9.5606,12.349,373.2061],[9.5698,12.3417,366.7496],[9.5738,12.3307,370.1638],[9.5718,12.3248,372.1851],[9.5719,12.3068,369.8701],[9.5814,12.3118,367.5027],[9.5924,12.3087,368.6608],[9.6128,12.3101,371.0849],[9.627,12.3041,368.4244],[9.6479,12.3028,367.3446],[9.6551,12.2983,367.6749],[9.6629,12.2961,367.392],[9.7012,12.2685,366.5822],[9.7052,12.2816,366.6313],[9.7101,12.2857,365.8212],[9.7174,12.2864,365.8788],[9.7381,12.2754,365.4874],[9.7811,12.2956,363.6205],[9.8077,12.306,363.2372],[9.8235,12.3052,364.2216],[9.8401,12.31,363.4819],[9.8843,12.3337,361.3201],[9.8959,12.343,360.7208],[9.9409,12.3695,358.7429],[9.9045,12.3912,359.4031],[9.8812,12.39,361.8808],[9.8681,12.3926,359.489],[9.857,12.3973,360.7541],[9.8132,12.3916,363.4676],[9.8043,12.3972,361.8816],[9.8028,12.4151,360.505],[9.816,12.4267,359.5427],[9.8238,12.4416,360.3766],[9.8184,12.5262,360.606],[9.8193,12.5568,359.342],[9.8392,12.6045,356.5911],[9.8358,12.6187,355.5704],[9.8201,12.6477,355.6922],[9.8052,12.6684,356.2461],[9.79,12.6973,356.163],[9.7566,12.7726,354.8503],[9.7535,12.7869,354.5208],[9.7544,12.7961,354.6009],[9.7411,12.797,352.9088],[9.704,12.8046,354.9005],[9.6751,12.8233,355.2901],[9.666,12.8152,355.3163]]]]}
,"properties": {"GID_2": "NGA.18.16_1","GID_0": "NGA","country": "Nigeria","GID_1": "NGA.18_1","province": "Jigawa","NL_NAME_1": "NA","county": "Kaugama","VARNAME_2": "NA","NL_NAME_2": "NA","TYPE_2": "LocalAuthority","ENGTYPE_2": "LocalAuthority","CC_2": "NA","HASC_2": "NA","name": "Kaugama.county","area_km2": 856.9181,"hist_schema_id": "Elevation0-9000","hist_area_km2": {"350": 494.9761,"375": 361.942}}}