{"type":"Feature","properties":{"GID_1":"NGA.17_1","GID_0":"NGA","country":"Nigeria","province":"Imo","VARNAME_1":"NA","NL_NAME_1":"NA","TYPE_1":"State","ENGTYPE_1":"State","CC_1":"NA","HASC_1":"NG.IM","ISO_1":"NG-IM","name":"Imo.province"},
"geometry":{"type": "MultiPolygon","coordinates": [[[[6.9473,5.1959,48.4315],[6.9598,5.198,50.6065],[6.9809,5.1916,49.2221],[7.0357,5.1798,34.4051],[7.0605,5.185,40.4833],[7.0795,5.1925,47.1696],[7.0943,5.1934,45.1851],[7.1027,5.1972,46.6079],[7.1371,5.1977,51.9413],[7.1546,5.194,55.509],[7.1692,5.1882,54.8034],[7.1785,5.1876,57.9346],[7.1899,5.1825,58.1063],[7.21,5.1794,56.5297],[7.2248,5.1835,42.4031],[7.2465,5.1952,38.9337],[7.2515,5.1947,32.5859],[7.2623,5.2173,38.3451],[7.2721,5.2496,42.3268],[7.2764,5.2733,40.9921],[7.3015,5.3608,51.1273],[7.3185,5.3958,42.2772],[7.3353,5.4234,47.5033],[7.3538,5.4386,48.3025],[7.3649,5.4506,62.3424],[7.3785,5.4824,62.9293],[7.3839,5.4999,57.7065],[7.3982,5.5144,69.4979],[7.4043,5.5323,55.6777],[7.4052,5.547,57.9002],[7.4028,5.5688,84.7306],[7.4033,5.5842,77.559],[7.3994,5.6027,105.9774],[7.4039,5.6359,95.6073],[7.3915,5.6541,95.5173],[7.3796,5.6755,95.1041],[7.3857,5.6833,72.382],[7.3961,5.6854,73.4607],[7.3994,5.6879,87.88],[7.4004,5.737,112.7245],[7.3943,5.7595,190.1978],[7.3924,5.7807,205.2497],[7.3933,5.825,220.5731],[7.3782,5.864,248.3605],[7.3689,5.8702,231.8472],[7.3532,5.8758,190.6148],[7.3385,5.8776,196.2997],[7.3156,5.8889,150.719],[7.2963,5.8933,139.64],[7.2825,5.8991,140.8828],[7.2688,5.9065,124.1531],[7.252,5.9259,145.7137],[7.2483,5.9267,148.0327],[7.2314,5.9247,129.9641],[7.1862,5.9081,132.4686],[7.1641,5.9034,164.9181],[7.1003,5.9216,275.1559],[7.0772,5.9236,197.831],[7.0539,5.9226,135.8229],[6.9753,5.9048,37.9325],[6.9572,5.8975,47.0315],[6.9466,5.888,64.8351],[6.9358,5.858,172.4829],[6.9363,5.8457,167.2641],[6.9316,5.8306,160.6831],[6.8933,5.756,90.488],[6.8601,5.7494,65.2035],[6.85,5.7517,65.975],[6.8154,5.7677,66.4436],[6.8015,5.7765,21.6755],[6.787,5.7814,16.4419],[6.7771,5.7827,15.7431],[6.7613,5.776,18.0936],[6.751,5.7697,20.9108],[6.7193,5.7338,22.2216],[6.7025,5.7078,22.2558],[6.6913,5.6997,26.537],[6.6794,5.6958,30.3544],[6.6688,5.6943,30.2248],[6.6619,5.6831,28.811],[6.6609,5.6647,27.2995],[6.6266,5.4987,18.4617],[6.6242,5.493,27.4723],[6.6243,5.4826,25.7701],[6.6486,5.4755,24.1769],[6.6641,5.4771,27.3738],[6.7047,5.4863,14.0295],[6.7334,5.4798,17.5368],[6.7389,5.4737,19.5573],[6.7414,5.4601,18.0506],[6.7461,5.4469,17.1713],[6.7377,5.372,26.5518],[6.7227,5.3427,24.1083],[6.7201,5.3273,22.0069],[6.7244,5.3051,24.414],[6.7328,5.2946,24.7094],[6.7541,5.2841,35.8625],[6.7637,5.2671,37.9671],[6.771,5.2434,35.9373],[6.7818,5.2289,38.838],[6.8167,5.2023,37.9324],[6.8342,5.2003,41.14],[6.8512,5.1957,39.3072],[6.9251,5.1981,40.2205],[6.9473,5.1959,48.4315]]]]}}