{"type":"Feature","properties":{"ISO3166-1-Alpha-3":"NGA","country":"Nigeria","fill":"#00F","id":"2843","name":"Imo"},
"geometry":{"type": "Polygon","coordinates": [[[7.25148,5.1947,32.5859],[7.32444,5.40546,47.4646],[7.36227,5.44778,53.2262],[7.37426,5.47259,63.3189],[7.38366,5.49899,57.7065],[7.39741,5.51956,54.9635],[7.40495,5.54318,57.2805],[7.40433,5.57067,91.2305],[7.40041,5.59788,90.8357],[7.40041,5.62529,97.6459],[7.39338,5.65121,120.8319],[7.38201,5.67012,80.2377],[7.3909,5.68428,68.7896],[7.40082,5.73006,102.7266],[7.3879,5.84207,259.6589],[7.34945,5.8762,179.5113],[7.32165,5.88248,161.5742],[7.27142,5.90796,117.8028],[7.25013,5.92625,145.3077],[7.20858,5.9178,114.8429],[7.16755,5.90411,168.0685],[7.07722,5.92354,197.831],[7.03123,5.91827,54.3017],[6.98606,5.90729,82.2104],[6.94855,5.88447,68.5627],[6.93511,5.84207,162.0802],[6.89584,5.76203,106.253],[6.85625,5.75081,66.4359],[6.81326,5.76903,63.6047],[6.73574,5.74769,22.7916],[6.66877,5.69428,30.2248],[6.65709,5.6596,21.7696],[6.62619,5.50204,15.8504],[6.6327,5.47987,23.2088],[6.66846,5.47734,21.8633],[6.70464,5.48625,14.0295],[6.74587,5.44313,21.002],[6.73771,5.37197,26.5518],[6.72314,5.33967,20.1978],[6.72438,5.30505,24.414],[6.73378,5.29422,24.7094],[6.75776,5.27663,35.0885],[6.76479,5.26332,36.2614],[6.87021,5.19493,40.1168],[7.01118,5.18516,48.949],[7.13706,5.19767,51.9413],[7.18988,5.18247,58.1063],[7.22181,5.1863,50.6437],[7.25148,5.1947,32.5859]]]}}