{"type": "Feature","bbox": [7.2951,4.4349,7.4981,4.6125],"geometry": {"type": "MultiPolygon","coordinates": [[[[7.4931,4.4653,6.63],[7.4891,4.4744,9.2936],[7.4847,4.4775,4.979],[7.4815,4.4826,3.0532],[7.4796,4.479,4.1065],[7.4726,4.4774,1.1938],[7.4765,4.4829,0.9434],[7.4688,4.4849,0.0],[7.4588,4.4849,1.3556],[7.4404,4.4913,0.4148],[7.4393,4.4849,5.4132],[7.434,4.4849,2.5187],[7.4332,4.4824,0.753],[7.4296,4.481,0.9158],[7.4288,4.4826,0.0],[7.4307,4.4865,4.1041],[7.4368,4.4882,0.5993],[7.4368,4.4896,0.6812],[7.4338,4.491,0.0],[7.4274,4.4899,2.4147],[7.4249,4.4915,1.4331],[7.4201,4.4854,3.2939],[7.4149,4.4857,1.9758],[7.4065,4.4993,0.4584],[7.4038,4.4968,2.175],[7.4018,4.5004,1.1386],[7.3987,4.4993,1.843],[7.3965,4.5007,1.7933],[7.3976,4.496,0.0],[7.3951,4.4957,0.9043],[7.3901,4.5018,1.695],[7.3885,4.5065,1.527],[7.3863,4.5068,3.4267],[7.3774,4.4976,0.7585],[7.351,4.4913,0.0],[7.3501,4.4851,0.8588],[7.3454,4.4812,0.664],[7.3468,4.4788,0.5575],[7.3499,4.4782,0.5968],[7.3532,4.4829,1.5073],[7.3554,4.4835,0.4141],[7.3571,4.479,0.9477],[7.3596,4.4788,0.3168],[7.3604,4.481,0.0],[7.359,4.4849,0.5631],[7.3596,4.4871,1.4291],[7.3621,4.4865,0.6263],[7.3626,4.4837,0.2702],[7.366,4.4843,0.0],[7.3676,4.4868,0.3758],[7.3674,4.4851,0.0],[7.3701,4.4854,0.9499],[7.3693,4.4837,0.0],[7.3707,4.4824,1.1969],[7.3726,4.4835,0.5496],[7.3721,4.4846,0.0],[7.3793,4.4857,1.8129],[7.376,4.4843,1.1456],[7.3776,4.4826,0.0],[7.3715,4.4815,0.5962],[7.3682,4.4776,0.825],[7.3632,4.4765,1.2258],[7.3679,4.4804,0.0],[7.3618,4.4824,0.2702],[7.3607,4.4857,0.0],[7.3596,4.4854,1.1078],[7.361,4.4812,0.0],[7.3599,4.4782,2.0426],[7.3565,4.4785,1.8048],[7.3543,4.4826,0.4141],[7.3515,4.4779,1.1958],[7.3471,4.4779,1.689],[7.3454,4.4793,0.5575],[7.3449,4.4818,1.6924],[7.3493,4.4851,0.8588],[7.3496,4.4888,0.9043],[7.3454,4.4888,0.0],[7.3426,4.4863,0.0],[7.3385,4.4723,0.0],[7.3396,4.4657,0.8023],[7.3359,4.4624,0.0],[7.3353,4.4579,1.6617],[7.3365,4.4568,0.0],[7.3313,4.4479,1.6113],[7.3399,4.4438,1.9988],[7.3679,4.4426,3.4303],[7.4199,4.4349,0.0],[7.4321,4.4365,0.0],[7.4368,4.4393,2.2106],[7.441,4.439,0.8868],[7.4732,4.4471,4.2583],[7.4981,4.4507,3.0078],[7.4962,4.4595,10.3518],[7.4931,4.4653,6.63]]],
[[[7.4799,4.4818,1.1017],[7.4787,4.4843,0.0],[7.476,4.4793,0.4932],[7.4785,4.4801,0.426],[7.4799,4.4818,1.1017]]],
[[[7.4738,4.496,1.2551],[7.4724,4.4963,3.9738],[7.4733,4.4976,0.0],[7.466,4.502,7.3432],[7.4581,4.5012,6.3658],[7.4476,4.5046,0.8944],[7.4451,4.5032,0.8714],[7.4476,4.5007,0.3484],[7.4424,4.5018,0.3285],[7.4382,4.4999,0.6352],[7.4363,4.4971,1.1555],[7.4371,4.4957,2.5355],[7.4479,4.4938,3.5575],[7.4543,4.4904,0.0],[7.4782,4.4888,4.1919],[7.4738,4.496,1.2551]]],
[[[7.4443,4.5026,0.8714],[7.4446,4.504,0.0],[7.4424,4.504,0.0],[7.4429,4.5024,0.0],[7.4443,4.5026,0.8714]]],
[[[7.4329,4.5193,2.7027],[7.4282,4.5226,0.8695],[7.4215,4.5218,0.7731],[7.4215,4.5246,1.6722],[7.426,4.5279,0.0],[7.4154,4.5362,0.7692],[7.4126,4.5324,0.0],[7.4135,4.5243,1.7727],[7.4118,4.5213,1.4039],[7.4035,4.5176,2.319],[7.4049,4.5146,2.7442],[7.4107,4.5096,0.6998],[7.4082,4.5057,0.0],[7.4085,4.5026,0.0],[7.4151,4.4888,2.6362],[7.4168,4.4885,0.0],[7.4182,4.4915,0.3587],[7.4237,4.4957,6.2737],[7.4332,4.4968,0.0],[7.441,4.5043,0.7602],[7.4413,4.5087,0.989],[7.4385,4.509,0.0],[7.4332,4.5151,1.7671],[7.4329,4.5193,2.7027]]],
[[[7.3982,4.5465,1.1794],[7.3974,4.5474,0.0],[7.3957,4.5457,0.0],[7.3954,4.5385,0.0],[7.3999,4.5337,0.0],[7.3996,4.5354,0.0],[7.4015,4.5368,0.0],[7.3982,4.5465,1.1794]]],
[[[7.4029,4.5515,2.3648],[7.4035,4.5532,2.2832],[7.4013,4.5535,2.5735],[7.3999,4.551,2.0324],[7.4018,4.5501,0.3624],[7.4029,4.5515,2.3648]]],
[[[7.399,4.5149,0.9746],[7.3974,4.5157,0.0],[7.3932,4.514,0.5774],[7.389,4.5085,0.4272],[7.3907,4.5076,6.0981],[7.3907,4.5037,2.8639],[7.3954,4.4965,0.9043],[7.3968,4.4965,0.0],[7.3954,4.4993,1.0952],[7.3965,4.5015,1.7933],[7.4021,4.5012,0.8718],[7.404,4.4976,1.7197],[7.4057,4.4996,0.4584],[7.4057,4.5057,6.1313],[7.4079,4.5087,3.5754],[7.4076,4.511,0.5848],[7.399,4.5149,0.9746]]],
[[[7.416,4.5415,1.1398],[7.4154,4.544,0.2859],[7.4068,4.5432,0.0],[7.4082,4.5382,0.0],[7.4076,4.5318,1.2522],[7.4051,4.5299,1.5482],[7.3954,4.5276,0.3796],[7.3938,4.5229,1.2001],[7.3885,4.5229,0.875],[7.3849,4.5251,1.6229],[7.3818,4.5243,0.0],[7.3788,4.521,1.8138],[7.3843,4.5126,1.3926],[7.3871,4.5132,0.0],[7.3893,4.5174,1.4192],[7.3943,4.521,1.6301],[7.4079,4.5218,1.9423],[7.4107,4.5368,1.5591],[7.416,4.5415,1.1398]]],
[[[7.3813,4.5349,5.7685],[7.3782,4.5362,3.2378],[7.3765,4.5343,2.6362],[7.379,4.526,0.0],[7.386,4.5285,0.0],[7.3888,4.5321,0.3082],[7.3888,4.5332,0.3082],[7.3813,4.5349,5.7685]]],
[[[7.3882,4.5699,1.7208],[7.3765,4.5693,0.0],[7.3687,4.5671,0.0],[7.3665,4.5651,1.1631],[7.3668,4.5635,0.0],[7.3726,4.5637,0.0],[7.3663,4.5585,0.8499],[7.3643,4.5515,0.2797],[7.3701,4.5521,0.2346],[7.3757,4.5582,0.4282],[7.3799,4.5568,0.0],[7.3804,4.554,0.1674],[7.3746,4.5524,0.1837],[7.3754,4.5496,0.0],[7.3774,4.5496,0.3068],[7.376,4.5479,1.0256],[7.3724,4.5518,0.4097],[7.3626,4.5485,2.5746],[7.3507,4.5382,0.5936],[7.3507,4.5362,0.0],[7.3554,4.5304,0.0],[7.3601,4.5251,0.2504],[7.3621,4.5249,0.5304],[7.366,4.5279,0.944],[7.3643,4.5299,0.3913],[7.3651,4.5371,0.0],[7.3638,4.5418,0.2001],[7.3649,4.5421,1.012],[7.3646,4.5396,0.2186],[7.3665,4.5432,0.5477],[7.3671,4.5415,0.5155],[7.3665,4.5393,0.2867],[7.3687,4.5413,0.8183],[7.3715,4.5404,0.4226],[7.3707,4.5451,0.4843],[7.3721,4.541,0.0],[7.3735,4.541,0.0],[7.3663,4.5371,0.3384],[7.366,4.526,1.2481],[7.3601,4.5232,0.6033],[7.3618,4.5165,0.7197],[7.3599,4.5071,1.1135],[7.361,4.5049,0.5438],[7.3701,4.5024,2.251],[7.3782,4.5043,0.9055],[7.3749,4.5282,0.0],[7.3757,4.5351,0.4799],[7.3785,4.5374,0.5338],[7.3885,4.534,2.6021],[7.3921,4.5362,0.8559],[7.3929,4.5454,0.0],[7.3965,4.5526,0.9152],[7.3899,4.5549,1.069],[7.3879,4.5576,2.0182],[7.3893,4.5651,0.7212],[7.3882,4.5699,1.7208]]],
[[[7.4232,4.571,1.771],[7.4222,4.5765,4.8355],[7.4188,4.5788,5.5835],[7.415,4.5853,3.163],[7.4153,4.5888,5.5943],[7.4217,4.5903,12.2102],[7.4259,4.5932,5.5039],[7.4282,4.6015,13.9829],[7.4111,4.5999,10.4911],[7.4057,4.5968,7.5269],[7.3741,4.5973,12.2839],[7.3621,4.5966,1.9598],[7.35,4.5936,8.252],[7.346,4.5952,1.4273],[7.3462,4.5907,1.0909],[7.3496,4.5896,3.1897],[7.3518,4.5846,1.6583],[7.3574,4.5804,0.0],[7.3624,4.5704,0.0],[7.366,4.5693,1.605],[7.3699,4.5701,0.0],[7.371,4.5726,1.4738],[7.3732,4.571,0.0],[7.3804,4.571,0.503],[7.3818,4.5724,0.8516],[7.3807,4.581,1.4027],[7.3835,4.5846,0.3854],[7.3865,4.5849,0.3242],[7.3838,4.5813,0.3356],[7.3843,4.5785,4.4442],[7.3879,4.5729,0.0],[7.3907,4.5726,1.638],[7.3924,4.5704,0.0],[7.3957,4.5632,0.3246],[7.3949,4.5601,0.4326],[7.3968,4.5576,0.4481],[7.4021,4.5593,1.3734],[7.4046,4.566,0.7958],[7.4029,4.5682,0.4429],[7.4043,4.5765,0.0],[7.4079,4.5721,0.7031],[7.4071,4.5688,0.3677],[7.4088,4.5674,0.0],[7.4093,4.5626,1.5374],[7.4068,4.5601,0.0],[7.409,4.554,1.7761],[7.4063,4.5532,0.7422],[7.4054,4.5513,1.8649],[7.4107,4.5465,0.0],[7.4135,4.5496,1.0382],[7.4157,4.5493,0.3793],[7.4168,4.5524,1.729],[7.4221,4.5529,0.478],[7.4207,4.5649,1.0072],[7.4232,4.571,1.771]]],
[[[7.3432,4.5749,0.2362],[7.3404,4.5751,1.4403],[7.3407,4.5685,5.0422],[7.3321,4.561,0.0],[7.3371,4.5457,0.0],[7.3407,4.5463,0.6763],[7.3424,4.5493,1.0071],[7.3412,4.5454,1.3055],[7.3371,4.5449,0.4105],[7.3335,4.5301,0.2177],[7.3393,4.5079,1.8048],[7.3424,4.5054,0.0],[7.351,4.5026,0.9853],[7.354,4.5037,0.0],[7.3562,4.5068,0.0],[7.3588,4.5179,0.3648],[7.3496,4.5307,0.0],[7.3485,4.536,0.5321],[7.3504,4.5468,1.3405],[7.3454,4.5565,0.2026],[7.3496,4.5604,0.0],[7.3507,4.5696,1.3144],[7.3488,4.5729,0.2396],[7.3432,4.5749,0.2362]]],
[[[7.3557,4.5538,0.0],[7.3538,4.5538,0.0],[7.3535,4.5465,0.0],[7.3582,4.549,0.0],[7.3588,4.5538,0.0],[7.3557,4.5538,0.0]]],
[[[7.3574,4.5651,0.3767],[7.3554,4.566,0.0],[7.354,4.5607,0.0],[7.3551,4.5585,0.0],[7.3582,4.5604,0.0],[7.3574,4.5651,0.3767]]],
[[[7.3849,4.5713,0.0],[7.3849,4.5732,0.0],[7.3835,4.5732,0.3642],[7.3835,4.5707,0.2917],[7.3849,4.5713,0.0]]],
[[[7.3275,4.5432,0.4924],[7.3275,4.5426,0.4924],[7.3276,4.5426,0.4924],[7.3276,4.5432,0.4924],[7.3275,4.5432,0.4924]]],
[[[7.331,4.5582,0.0],[7.3309,4.5621,0.0],[7.3296,4.558,0.3912],[7.3307,4.5538,1.163],[7.3279,4.5513,1.3267],[7.3274,4.5482,0.0],[7.331,4.5449,1.2249],[7.3313,4.5393,0.3823],[7.3329,4.5382,0.0],[7.3329,4.5521,0.0],[7.331,4.5582,0.0]]],
[[[7.3315,4.5654,0.0],[7.331,4.5657,0.5865],[7.3309,4.5621,0.0],[7.3321,4.564,0.0],[7.3315,4.5654,0.0]]],
[[[7.3351,4.5771,0.0],[7.3338,4.5785,1.0219],[7.331,4.5765,2.5203],[7.3299,4.5704,1.1078],[7.3326,4.5657,0.5865],[7.3396,4.569,0.0],[7.339,4.5749,1.4403],[7.3351,4.5771,0.0]]],
[[[7.2951,4.5851,0.185],[7.2969,4.5732,0.1002],[7.3004,4.5718,0.0],[7.3024,4.5738,0.1247],[7.3021,4.5707,0.5191],[7.3043,4.569,0.3285],[7.3057,4.5649,0.0716],[7.3049,4.5643,0.0716],[7.3038,4.5651,0.0],[7.3057,4.5601,0.0],[7.3071,4.5657,0.0],[7.3035,4.5765,0.0694],[7.3054,4.5793,0.0],[7.3021,4.5799,0.2279],[7.3029,4.5821,0.2359],[7.3057,4.5826,0.109],[7.3035,4.5843,0.0],[7.2985,4.5838,0.0],[7.2951,4.5851,0.185]]],
[[[7.3096,4.5685,0.0],[7.3272,4.5755,3.0449],[7.3299,4.5745,0.0],[7.3299,4.5771,0.0],[7.3274,4.579,0.0],[7.3218,4.5785,3.7824],[7.316,4.581,0.183],[7.3135,4.5763,0.3371],[7.3132,4.5779,0.1099],[7.3151,4.5815,0.183],[7.3174,4.5829,0.0858],[7.3137,4.5843,0.0],[7.3135,4.5815,0.1527],[7.3101,4.5793,0.0],[7.3088,4.576,0.0],[7.3096,4.5685,0.0]]],
[[[7.3193,4.5896,0.191],[7.3193,4.5912,0.0778],[7.3182,4.591,0.0],[7.3182,4.589,0.0],[7.3193,4.5896,0.191]]],
[[[7.2971,4.5968,5.978],[7.2954,4.5974,0.0],[7.2979,4.5865,0.0],[7.3035,4.5885,0.2288],[7.304,4.586,0.0],[7.3093,4.589,0.1724],[7.3082,4.5915,0.1781],[7.3035,4.5946,0.1286],[7.2971,4.5968,5.978]]],
[[[7.3451,4.5932,7.2753],[7.3451,4.5957,5.4784],[7.3211,4.6125,10.9069],[7.3119,4.6123,2.3486],[7.3,4.5985,0.0947],[7.3043,4.5968,0.0],[7.3079,4.5993,1.3525],[7.3135,4.5988,0.8269],[7.3146,4.601,0.0],[7.3115,4.6057,0.2767],[7.3129,4.6071,3.5059],[7.3182,4.6004,0.0],[7.3154,4.5946,0.1289],[7.3271,4.5912,0.1454],[7.3251,4.5899,0.3374],[7.3251,4.5832,0.0],[7.3307,4.5849,0.0],[7.3304,4.5882,0.6601],[7.336,4.579,0.0],[7.3382,4.5779,0.0],[7.3407,4.5818,0.0],[7.3435,4.5768,0.0],[7.349,4.574,1.8832],[7.351,4.5751,0.715],[7.3513,4.5774,0.0],[7.3479,4.5871,0.0],[7.3454,4.5893,1.6469],[7.3451,4.5932,7.2753]]]]}
,"properties": {"GID_2": "NGA.33.5_1","GID_0": "NGA","country": "Nigeria","GID_1": "NGA.33_1","province": "Rivers","NL_NAME_1": "NA","county": "Andoni","VARNAME_2": "NA","NL_NAME_2": "NA","TYPE_2": "LocalAuthority","ENGTYPE_2": "LocalAuthority","CC_2": "NA","HASC_2": "NA","name": "Andoni.county","area_km2": 188.1366,"hist_schema_id": "Elevation0-9000","hist_area_km2": {"0": 178.3711,"25": 9.7655}}}