{"type": "Feature","bbox": [7.3011,5.5733,7.4039,5.6973],"geometry": {"type": "MultiPolygon","coordinates": [[[[7.3843,5.6815,88.0372],[7.3788,5.685,99.7211],[7.374,5.6918,83.62],[7.3662,5.6973,79.071],[7.3685,5.6921,92.3029],[7.3663,5.6848,108.0408],[7.3593,5.6794,86.6741],[7.3573,5.6575,133.8248],[7.3524,5.6486,117.8653],[7.3477,5.6333,176.2627],[7.3389,5.6184,158.3751],[7.3343,5.6132,142.4561],[7.3224,5.6107,143.35],[7.3114,5.6138,151.7818],[7.3011,5.6038,125.5576],[7.3079,5.5945,108.3107],[7.3094,5.5875,120.5367],[7.3595,5.5875,99.0347],[7.3573,5.583,102.4],[7.3905,5.5808,102.9706],[7.4029,5.5733,93.6005],[7.4033,5.5842,77.559],[7.3994,5.6027,105.9774],[7.4039,5.6359,95.6073],[7.3915,5.6541,95.5173],[7.3796,5.6755,95.1041],[7.3843,5.6815,88.0372]]]]}
,"properties": {"GID_2": "NGA.17.7_1","GID_0": "NGA","country": "Nigeria","GID_1": "NGA.17_1","province": "Imo","NL_NAME_1": "NA","county": "Ihitte/Uboma","VARNAME_2": "NA","NL_NAME_2": "NA","TYPE_2": "LocalAuthority","ENGTYPE_2": "LocalAuthority","CC_2": "NA","HASC_2": "NA","name": "Ihitte_Uboma.county","area_km2": 70.85454,"hist_schema_id": "Elevation0-9000","hist_area_km2": {"75": 8.65087,"100": 29.5191,"125": 19.62339,"150": 8.77781,"175": 4.17787,"200": 0.1055}}}