{"type": "Feature","bbox": [5.0745,7.7488,5.2529,7.9383],"geometry": {"type": "MultiPolygon","coordinates": [[[[5.1099,7.7488,524.3518],[5.1452,7.7625,544.4634],[5.1566,7.7649,574.132],[5.1722,7.7612,587.1565],[5.1872,7.7602,579.6157],[5.2045,7.7634,535.8624],[5.2202,7.762,514.7482],[5.2422,7.766,560.3461],[5.2509,7.7753,567.8624],[5.2529,7.7884,576.5415],[5.2524,7.8112,555.2569],[5.2499,7.8163,546.6114],[5.25,7.8241,547.5621],[5.2474,7.8348,544.579],[5.2414,7.8439,537.9562],[5.247,7.8638,609.8776],[5.2471,7.87,598.8542],[5.2222,7.8834,539.4429],[5.2048,7.8966,532.3975],[5.1906,7.9032,568.0328],[5.1778,7.9065,545.1145],[5.1645,7.9124,548.2507],[5.1444,7.9266,559.8],[5.1415,7.9321,566.0836],[5.1396,7.9285,566.4104],[5.119,7.9383,540.2031],[5.1121,7.9382,542.3068],[5.1002,7.9317,557.9053],[5.0958,7.9274,534.7942],[5.0827,7.9198,533.8772],[5.0745,7.9118,531.3024],[5.089,7.8914,566.0126],[5.1161,7.816,516.9731],[5.1185,7.7943,480.4496],[5.1171,7.7782,453.5568],[5.1099,7.7488,524.3518]]]]}
,"properties": {"GID_2": "NGA.13.8_1","GID_0": "NGA","country": "Nigeria","GID_1": "NGA.13_1","province": "Ekiti","NL_NAME_1": "NA","county": "Ido-Osi","VARNAME_2": "NA","NL_NAME_2": "NA","TYPE_2": "LocalAuthority","ENGTYPE_2": "LocalAuthority","CC_2": "NA","HASC_2": "NA","name": "Ido-Osi.county","area_km2": 262.7178,"hist_schema_id": "Elevation0-9000","hist_area_km2": {"450": 0.7983,"475": 2.5628,"500": 5.6086,"525": 30.8546,"550": 106.9292,"575": 98.9505,"600": 15.6276,"625": 1.3022,"650": 0.084}}}