{"type":"Feature","properties":{"GID_2":"NGA.1.6_1","GID_0":"NGA","country":"Nigeria","GID_1":"NGA.1_1","province":"Abia","NL_NAME_1":"NA","county":"IsialaNgwaNorth","VARNAME_2":"NA","NL_NAME_2":"NA","TYPE_2":"LocalAuthority","ENGTYPE_2":"LocalAuthority","CC_2":"NA","HASC_2":"NA","name":"Isiala_Ngwa_North.county"},
"geometry":{"type": "MultiPolygon","coordinates": [[[[7.5059,5.4129,131.3056],[7.4942,5.4059,134.6064],[7.4915,5.4064,138.9847],[7.4901,5.4094,139.3077],[7.4767,5.42,124.0991],[7.4569,5.4238,136.1617],[7.4212,5.4253,132.6157],[7.4007,5.4287,136.9363],[7.3927,5.4307,139.0423],[7.3867,5.4342,140.7711],[7.3784,5.4344,121.6892],[7.3725,5.44,101.0135],[7.3598,5.4451,55.5436],[7.3353,5.4234,47.5033],[7.3185,5.3958,42.2772],[7.3015,5.3608,51.1273],[7.2955,5.3434,49.9592],[7.291,5.3233,48.9654],[7.2977,5.3217,50.9901],[7.3088,5.3238,66.6086],[7.3279,5.3207,106.2761],[7.3511,5.3136,106.1206],[7.3706,5.3193,108.0265],[7.3794,5.3235,108.9354],[7.4148,5.3326,117.3163],[7.4523,5.3363,116.8911],[7.4806,5.3347,111.4736],[7.4884,5.3306,109.5423],[7.4866,5.3192,118.4359],[7.4868,5.3065,111.6787],[7.4832,5.2976,112.6998],[7.4788,5.2933,110.4121],[7.4815,5.2904,112.4873],[7.4826,5.2847,111.7031],[7.4871,5.2779,107.2758],[7.4874,5.2728,109.702],[7.4905,5.2732,106.936],[7.4963,5.2789,112.6012],[7.5098,5.2821,108.068],[7.5147,5.2864,110.5392],[7.5096,5.2985,109.3245],[7.5066,5.2995,109.4072],[7.505,5.3048,113.418],[7.4999,5.3127,113.7067],[7.5025,5.3175,115.1714],[7.5141,5.3224,116.864],[7.527,5.321,94.1476],[7.5331,5.3255,76.2609],[7.5329,5.3292,83.3798],[7.5268,5.3355,80.0003],[7.5063,5.3426,93.6526],[7.4936,5.3529,95.0973],[7.4929,5.3677,100.7135],[7.4956,5.3755,114.1044],[7.5068,5.3847,101.4222],[7.5083,5.4057,109.6867],[7.5059,5.4129,131.3056]]]]}}