{"type":"Feature","properties":{"GID_2":"NGA.35.1_1","GID_0":"NGA","country":"Nigeria","GID_1":"NGA.35_1","province":"Taraba","NL_NAME_1":"NA","county":"Ardo-Kola","VARNAME_2":"NA","NL_NAME_2":"NA","TYPE_2":"LocalAuthority","ENGTYPE_2":"LocalAuthority","CC_2":"NA","HASC_2":"NA","name":"Ardo-Kola.county"},
"geometry":{"type": "MultiPolygon","coordinates": [[[[11.1781,8.6311,188.4546],[11.2486,8.5817,212.9243],[11.2818,8.5665,228.25],[11.2994,8.5674,198.2154],[11.3289,8.5729,186.6122],[11.345,8.5784,207.6302],[11.3644,8.59,227.882],[11.3791,8.5936,229.7531],[11.4096,8.5973,246.3906],[11.408,8.601,241.3951],[11.4138,8.6061,257.3354],[11.4719,8.6282,448.1227],[11.5264,8.6346,517.2882],[11.5661,8.6436,859.8588],[11.6012,8.6473,842.0856],[11.6211,8.6469,1186.3723],[11.6146,8.6557,903.3898],[11.6132,8.6668,979.6259],[11.5897,8.6976,1225.0171],[11.5779,8.716,1157.9626],[11.5743,8.7273,1216.7712],[11.5639,8.7481,452.6364],[11.5615,8.7608,307.1237],[11.5518,8.7808,401.2611],[11.5339,8.7847,525.4122],[11.515,8.7963,314.0312],[11.4933,8.8137,451.8677],[11.4803,8.8275,414.3222],[11.4559,8.8379,265.1496],[11.3932,8.8831,224.2234],[11.3409,8.9144,179.6597],[11.3297,8.9323,196.3441],[11.318,8.9445,205.9831],[11.3081,8.962,197.7],[11.2986,8.9744,222.0044],[11.286,8.9969,300.0189],[11.2825,9.0061,304.2619],[11.2595,9.0065,173.1246],[11.2346,9.0107,153.2434],[11.2174,9.0213,164.9608],[11.2095,9.024,173.9621],[11.2108,9.024,169.1686],[11.1878,9.0399,172.1337],[11.1605,9.0709,138.4815],[11.1472,9.0937,130.771],[11.1443,9.1211,126.991],[11.1301,9.1129,127.5259],[11.1019,9.0879,120.3059],[11.0771,9.0797,119.0982],[11.051,9.0731,121.453],[11.0118,9.047,119.7713],[10.9987,9.0225,119.7174],[10.9926,9.0225,120.4293],[10.9913,9.006,118.77],[10.9867,8.9857,116.7263],[10.9643,8.9318,117.7377],[10.9602,8.9173,114.5625],[10.9562,8.8934,113.5518],[10.9476,8.864,118.4836],[10.9254,8.8197,121.0794],[10.9293,8.8133,115.1215],[10.9472,8.796,121.5187],[10.95,8.7873,120.5788],[10.9739,8.7737,125.7667],[11.003,8.7625,129.4833],[11.0212,8.7479,131.2032],[11.0518,8.7284,180.0008],[11.0677,8.7209,203.5097],[11.0813,8.7035,214.3502],[11.0882,8.6875,184.5931],[11.1037,8.6747,191.6474],[11.1195,8.6658,182.0201],[11.1423,8.657,203.1027],[11.1661,8.6411,213.1562],[11.1781,8.6311,188.4546]]]]}}