{"type":"Feature","properties":{"featurecla":"River","scalerank":3,"rivernum":59,"dissolve":"59River","name":"Niger16","name_alt":null,"note":null,"min_zoom":3.0,"strokeweig":0.8,"name_en":"Niger","min_label":4.0},
"geometry":{"type": "LineString","coordinates": [[6.5562988281250227,5.54132721561912,23.4175],[6.5519042968750227,5.51386139530662,23.2664],[6.546875,5.5009951843691169,24.6651],[6.5394531250000227,5.48956940311912,8.5],[6.519775390625,5.46881744999412,23.2012],[6.514404296875,5.46503327030662,18.7402],[6.49609375,5.45807526249412,26.7466],[6.4903808593750227,5.45355866093162,25.7206],[6.480712890625,5.44269440311912,21.4986],[6.474609375,5.4385928406191084,27.3583],[6.47607421875,5.4365420593691169,27.4054],[6.4930664062500227,5.3930850281191169,16.7471],[6.495361328125,5.3713565124941169,8.5],[6.4791503906250227,5.3620791687441169,19.6294],[6.349609375,5.34271881718162,15.7925],[6.333251953125,5.3371768249941169,18.6517],[6.31494140625,5.32355377811912,17.2462],[6.3058105468750227,5.3148135437441084,18.4126],[6.298095703125,5.30573151249412,14.5362],[6.29296875,5.29547760624412,11.6706],[6.291015625,5.28351471561912,3.5],[6.2906738281250227,5.26935455936912,12.1685],[6.28857421875,5.26373932499412,7.7565],[6.2705078125,5.25897858280662,23.9873],[6.228271484375,5.25934479374412,17.7636],[6.20947265625,5.2527041687441169,14.0264],[6.20166015625,5.22858307499412,3.0],[6.2037597656250227,5.21735260624412,18.0499],[6.213134765625,5.2027529968691084,20.1863],[6.2152343750000227,5.1938662781191169,16.4257],[6.2103515625000227,5.1837100281191084,6.9157],[6.1986328125000227,5.1777529968691169,13.0446],[6.17431640625,5.17023346561912,15.2356],[6.166259765625,5.16388580936912,10.8123],[6.1607910156250227,5.1574893249941169,3.0],[6.153564453125,5.15216705936912,15.9771],[6.1402832031250227,5.14911530155662,14.8313],[6.12841796875,5.15082428593162,16.1268],[6.1158691406250227,5.15460846561912,15.8836],[6.104248046875,5.15668366093162,15.8245],[6.095458984375,5.1528506531191169,5.9819],[6.0667968750000227,5.11347077030662,3.0],[6.0501953125000227,5.10468170780662,9.9417],[6.0234375,5.10822174686912,16.8411],[6.0028320312500227,5.1169619812441169,7.8382],[5.9818359375000227,5.12933991093162,2.5],[5.91552734375,5.1877627624941169,16.8224],[5.901611328125,5.1917666687441084,0.0],[5.843017578125,5.18695709843162,18.4768],[5.825439453125,5.19220612186912,0.0],[5.818115234375,5.2077822937441169,10.5163],[5.8092285156250227,5.20587799686912,2.3905],[5.749755859375,5.17023346561912,0.0],[5.7350097656250227,5.18024323124412,9.0183],[5.725830078125,5.1844424499941084,16.0856],[5.7218261718750227,5.1801944031191169,9.7107],[5.7186523437500227,5.16498444218162,14.8143],[5.710693359375,5.16315338749412,13.0121],[5.69140625,5.17023346561912,11.1815],[5.653076171875,5.16498444218162,12.073],[5.619384765625,5.1566104187441084,12.0799],[5.6117187500000227,5.1522158874941084,9.0818],[5.602294921875,5.14386627811912,7.3608],[5.594970703125,5.1423526062441169,5.9384],[5.586669921875,5.14667389530662,5.0766],[5.5807128906250227,5.1658877624941084,4.3022],[5.57470703125,5.17023346561912,2.1951],[5.566650390625,5.16742584843162,3.9331],[5.536865234375,5.14911530155662,10.2306],[5.525634765625,5.14740631718162,6.0809],[5.506103515625,5.14704010624412,3.5944],[5.495849609375,5.1423526062441169,5.0201]]}}