{"type":"Feature","properties":{"featurecla":"River","scalerank":3,"rivernum":59,"dissolve":"59River","name":"Niger13","name_alt":null,"note":null,"min_zoom":3.0,"strokeweig":0.6,"name_en":"Niger","min_label":4.0},
"geometry":{"type": "LineString","coordinates": [[6.2568359375,4.95050690311912,2.1029],[6.261474609375,4.93512604374412,8.1181],[6.2735839843750227,4.91156647343162,2.7589],[6.27734375,4.8958682312441084,5.2551],[6.2765136718750227,4.89081452030662,4.9795],[6.271728515625,4.8799990906191084,10.7219],[6.2705078125,4.8716983093691084,16.4787],[6.2705078125,4.8441104187441084,10.2199],[6.2662597656250227,4.82843659061912,10.2435],[6.246826171875,4.7972354187441084,15.9487],[6.2425781250000227,4.78266022343162,16.449],[6.2450195312500227,4.76447174686912,18.0009],[6.25537109375,4.7325381531191084,13.4779],[6.2568359375,4.7177920593691169,0.0],[6.2518554687500227,4.7012881531191084,0.8529],[6.234375,4.6816592468691169,13.1934],[6.2289062500000227,4.66998932499412,15.1839],[6.2294921875,4.65436432499412,16.0406],[6.239990234375,4.62067291874412,2.1752],[6.2425781250000227,4.6045108093691169,13.5868],[6.24755859375,4.59284088749412,9.5271],[6.2567382812500227,4.5798526062441169,5.5472],[6.261474609375,4.56549713749412,0.0],[6.2472167968750227,4.5394229187441084,4.2775],[6.236328125,4.4980654968691169,0.0]]}}