{"type":"Feature","properties":{"featurecla":"River","scalerank":3,"rivernum":59,"dissolve":"59River","name":"Niger17","name_alt":null,"note":null,"min_zoom":3.0,"strokeweig":0.8,"name_en":"Niger","min_label":4.0},
"geometry":{"type": "LineString","coordinates": [[6.564697265625,5.5401553406191084,16.6987],[6.564697265625,5.5401553406191084,16.6987],[6.564697265625,5.5401553406191084,16.6987],[6.564697265625,5.5401553406191084,16.6987],[6.564697265625,5.5401553406191084,16.6987],[6.580078125,5.5278506531191169,22.6756],[6.5956054687500227,5.51837799686912,25.0416],[6.607666015625,5.5051455749941169,21.4986],[6.612548828125,5.48151276249412,20.366],[6.604736328125,5.4178408874941084,26.3516],[6.605712890625,5.39557526249412,28.1642],[6.612548828125,5.3546084656191084,21.74],[6.6144042968750227,5.3501162781191169,23.0737],[6.6175781250000227,5.3459658874941169,21.3922],[6.6201171875,5.3410830749941169,3.5],[6.6200195312500227,5.3341006531191084,11.6878],[6.616943359375,5.32868073124412,23.9218],[6.6075683593750227,5.32025787968162,24.5062],[6.605712890625,5.3170108093691084,27.1685],[6.601318359375,5.31391022343162,27.582],[6.5826660156250227,5.30963776249412,21.4528],[6.578369140625,5.3037295593691169,23.8789],[6.57568359375,5.2928408874941084,22.6912],[6.569580078125,5.28229401249412,19.7789],[6.5361328125,5.2407412781191169,9.0998],[6.51171875,5.22260162968162,18.7821],[6.489990234375,5.20233795780662,17.8997],[6.47607421875,5.17023346561912,12.7079],[6.4706054687500227,5.12494537968162,23.5484],[6.46240234375,5.10358307499412,20.632],[6.444580078125,5.09454987186912,22.2699],[6.4386230468750227,5.08563873905662,17.279],[6.43212890625,5.06439850468162,15.7949],[6.4276367187500227,5.0393252624941169,20.4094],[6.427490234375,5.0188174499941169,14.9554],[6.43017578125,5.00775787968162,3.5],[6.4342285156250227,4.9969424499941084,20.7277],[6.4400878906250227,4.98688385624412,13.9146],[6.447998046875,4.97785065311912,20.8622],[6.4576660156250227,4.9904971374941169,14.493],[6.4691406250000227,4.98908112186912,15.2643],[6.482177734375,4.9820498718691084,16.1048],[6.4964843750000227,4.97785065311912,8.2583],[6.5116210937500227,4.98224518436912,7.1465],[6.522216796875,4.98871491093162,15.6894],[6.528564453125,4.98725006718162,13.8227],[6.530517578125,4.9678897156191084,6.3236],[6.535888671875,4.96039459843162,12.013],[6.547607421875,4.9581240906191084,5.1344],[6.5594726562500227,4.95392487186912,13.5604],[6.56875,4.93146393436912,11.7722],[6.5869140625,4.90668366093162,8.78],[6.592041015625,4.8958682312441084,10.5255],[6.5916992187500227,4.88422272343162,16.1879],[6.5858398437500227,4.8594912781191084,17.106],[6.5858398437500227,4.84747955936912,10.6891],[6.6029296875000227,4.80707428593162,15.4049],[6.6119628906250227,4.7695498718691169,14.0811],[6.6283203125000227,4.74848053593162,10.1406],[6.6505371093750227,4.73847077030662,2.9846],[6.674560546875,4.74506256718162,13.1125],[6.687744140625,4.7278994812441084,12.2804],[6.7025390625000227,4.6848330749941169,2.2566],[6.712158203125,4.67621491093162,10.0982],[6.718017578125,4.6677432312441169,9.1704],[6.7242675781250227,4.64801666874412,2.3448],[6.728759765625,4.6252627624941169,0.6664],[6.736083984375,4.6079287781191169,3.9346]]}}