{"type":"Feature","properties":{"featurecla":"River","scalerank":3,"rivernum":59,"dissolve":"59River","name":"Niger15","name_alt":null,"note":null,"min_zoom":3.0,"strokeweig":0.8,"name_en":"Niger","min_label":4.0},
"geometry":{"type": "LineString","coordinates": [[6.502685546875,5.38190338749412,14.9713],[6.50146484375,5.35675690311912,8.5],[6.4853515625,5.35126373905662,24.0402],[6.4632812500000227,5.35175202030662,19.0238],[6.444580078125,5.34467194218162,20.5203],[6.4349609375000227,5.33063385624412,6.625],[6.417724609375,5.2983584656191169,6.0],[6.40771484375,5.28693268436912,19.8936],[6.3905273437500227,5.28119537968162,19.8092],[6.3722167968750227,5.2796572937441084,17.1625],[6.357666015625,5.27399323124412,16.9197],[6.351806640625,5.2556338562441169,19.6105],[6.349853515625,5.24384186405662,5.5],[6.344970703125,5.2331729187441169,23.683],[6.3377929687500227,5.22357819218162,17.5575],[6.328857421875,5.21466705936912,5.5],[6.3212890625,5.2031436218691169,5.5],[6.3260742187500227,5.19647858280662,14.6462],[6.3456054687500227,5.19013092655662,17.4264],[6.3558593750000227,5.1906924499941169,25.2825],[6.3641601562500227,5.1959170593691084,19.7919],[6.3701171875,5.19660065311912,14.9019],[6.3729492187500227,5.18329498905662,16.371],[6.3700195312500227,5.17279694218162,17.5815],[6.362060546875,5.1626162781191169,7.6931],[6.35205078125,5.15692780155662,10.2759],[6.3421875000000227,5.1600283874941084,23.2679],[6.3299804687500227,5.16120026249412,18.5129],[6.3177734375000227,5.1126651062441084,21.4058],[6.3046875,5.09454987186912,9.458],[6.28173828125,5.0924014343691084,15.3563],[6.264404296875,5.09796784061912,21.8217],[6.2533203125000227,5.09577057499412,18.9867],[6.2481933593750227,5.04840729374412,13.0645],[6.2491699218750227,5.03705475468162,7.9802],[6.253173828125,5.02936432499412,21.33],[6.263427734375,5.0277041687441084,22.051],[6.2744140625,5.03131744999412,15.1541],[6.282470703125,5.03131744999412,9.6882],[6.2841796875,5.0188174499941169,14.1996],[6.2804199218750227,5.01300690311912,17.9314],[6.273681640625,5.0129580749941169,21.0871],[6.266845703125,5.0142764343691084,6.6967],[6.2630859375000227,5.01264069218162,6.1605],[6.260986328125,5.00409577030662,1.5],[6.2613769531250227,5.0008486999941084,7.7658],[6.2625976562500227,4.99823639530662,7.9532],[6.2630859375000227,4.99152252811912,16.3999],[6.2699218750000227,4.97028229374412,16.2945],[6.2699218750000227,4.9566592468691084,1.0],[6.260009765625,4.95050690311912,7.45],[6.245361328125,4.94684479374412,7.2199],[6.2394042968750227,4.93842194218162,5.8824],[6.234375,4.92926666874412,2.7712],[6.22265625,4.9232119812441084,15.6312],[6.2216796875,4.92987702030662,11.9979],[6.216552734375,4.94037506718162,16.7523],[6.2110839843750227,4.9414248718691169,1.0],[6.202880859375,4.88593170780662,13.7208],[6.1884765625,4.88056061405662,19.1125],[6.168701171875,4.8838076843691169,11.4531],[6.14697265625,4.87543366093162,9.0578],[6.14453125,4.87079498905662,16.6019],[6.1429687500000227,4.85907623905662,17.9521],[6.1402832031250227,4.85431549686912,13.8675],[6.1357421875,4.85114166874412,15.999],[6.1305175781250227,4.84906647343162,16.2991],[6.1240234375,4.8479190124941169,16.6088],[6.115966796875,4.84747955936912,16.6266],[6.108642578125,4.84210846561912,15.1115],[6.0849609375,4.8065127624941084,3.3003],[6.090087890625,4.79999420780662,7.4078],[6.0985351562500227,4.77924225468162,1.0],[6.088134765625,4.7796572937441084,19.2288],[6.0810546875,4.7779483093691084,14.6213],[6.075927734375,4.77350494999412,1.0],[6.0712890625,4.76557037968162,15.3077],[6.09033203125,4.75568268436912,15.1401],[6.0958496093750227,4.7343936218691169,4.3695],[6.0924316406250227,4.68671295780662,9.9606],[6.0941406250000227,4.65509674686912,10.968],[6.0924316406250227,4.64264557499412,2.9614],[6.08740234375,4.6339053406191084,5.2962],[6.08154296875,4.62689850468162,3.253],[6.0810546875,4.6191592468691169,8.787],[6.0924316406250227,4.6079287781191169,10.2981],[6.0841308593750227,4.5981631531191169,10.0156],[6.077392578125,4.58356354374412,14.201599999999999],[6.072998046875,4.5683779968691169,7.1968],[6.0712890625,4.55670807499412,8.9168],[6.06787109375,4.5457705749941084,3.625],[6.0519042968750227,4.5174502624941084,7.2572],[6.047119140625,4.5117373718691169,8.3397],[6.039794921875,4.50495026249412,9.7407],[6.044677734375,4.49030182499412,6.3061],[6.05322265625,4.47626373905662,5.8055],[6.0576171875,4.47138092655662,7.0932],[6.0594726562500227,4.45612213749412,8.3264],[6.0582519531250227,4.44379303593162,2.8424],[6.055419921875,4.41986725468162,7.3279]]}}