{"type": "Feature","bbox": [5.722,6.755,6.0196,7.0744],"geometry": {"type": "MultiPolygon","coordinates": [[[[6.0196,6.7645,293.9538],[6.0184,6.7775,219.9326],[6.0196,6.7862,202.4933],[6.0169,6.7998,179.0376],[6.0171,6.8259,129.5789],[6.0138,6.8361,128.4684],[5.9884,6.8363,106.9974],[5.9792,6.8694,79.2922],[5.9646,6.9076,78.6156],[5.9606,6.9144,71.4227],[5.9494,6.9217,96.3235],[5.9452,6.9312,94.2509],[5.9412,6.958,154.0022],[5.9432,6.9684,186.0233],[5.9457,6.9778,193.2907],[5.9544,6.9898,209.5276],[5.9602,7.0049,193.9013],[5.962,7.016,165.8616],[5.9555,7.0288,198.3206],[5.9503,7.0346,188.2924],[5.9405,7.0403,246.4939],[5.893,7.0575,234.2604],[5.8818,7.063,230.4715],[5.8383,7.0706,119.401],[5.8294,7.0744,124.9989],[5.8234,7.0606,133.6308],[5.8174,7.0617,112.0355],[5.7989,7.0488,161.1149],[5.7872,7.035,121.2446],[5.7845,7.0276,141.1321],[5.7789,7.0219,157.9053],[5.7787,7.0111,160.7934],[5.7754,7.0038,151.7119],[5.7696,6.9783,138.8487],[5.7697,6.9686,134.5832],[5.774,6.9653,151.883],[5.7689,6.9471,136.5425],[5.788,6.9265,72.7712],[5.7906,6.9191,79.9303],[5.7905,6.9132999999999996,156.0377],[5.7851,6.9083,149.063],[5.781,6.9079,125.4056],[5.7763,6.905,139.5467],[5.7761,6.8937,144.5997],[5.7785,6.8861,122.551],[5.7761,6.8787,106.2862],[5.7711,6.8832,123.3533],[5.7569,6.8869,138.6002],[5.7529,6.8828,130.088],[5.7476,6.8686,118.8519],[5.7375,6.8028,52.7234],[5.7329,6.7895,50.1745],[5.722,6.7687,39.4742],[5.7364,6.7765,42.1989],[5.7505,6.7772,48.5018],[5.7566,6.7805,44.7581],[5.7611,6.7894,44.7952],[5.7633,6.7986,42.6394],[5.7696,6.7999,40.4508],[5.7967,6.7943,48.096],[5.8187,6.7871,49.9075],[5.84,6.7869,69.6656],[5.8549,6.7835,80.8699],[5.8897,6.7799,85.6387],[5.9122,6.773,102.479],[5.9477,6.7736,139.3869],[5.9707,6.7681,156.2534],[5.9793,6.7601,176.9436],[5.9878,6.755,240.0536],[6.0161,6.7646,289.9042],[6.0196,6.7645,293.9538]]]]}
,"properties": {"GID_2": "NGA.12.17_1","GID_0": "NGA","country": "Nigeria","GID_1": "NGA.12_1","province": "Edo","NL_NAME_1": "NA","county": "OwanWest","VARNAME_2": "NA","NL_NAME_2": "NA","TYPE_2": "LocalAuthority","ENGTYPE_2": "LocalAuthority","CC_2": "NA","HASC_2": "NA","name": "Owan_West.county","area_km2": 706.3256,"hist_schema_id": "Elevation0-9000","hist_area_km2": {"25": 0.1684,"50": 106.5638,"75": 150.0048,"100": 114.6568,"125": 95.8934,"150": 77.7458,"175": 61.3282,"200": 53.728,"225": 32.6401,"250": 10.5859,"275": 2.7367,"300": 0.2737}}}