{"type": "Feature","id": "2866","bbox": [8.55899,8.34755,10.65302,10.34539],"geometry": {"type": "Polygon","coordinates": [[[8.99731,9.99861,887.9746],[8.96052,10.02311,903.6859],[8.96176,10.18269,871.0369],[8.95669,10.23178,1058.0055],[8.93685,10.28679,1050.0529],[8.90109,10.33014,1178.5894],[8.84249,10.34539,822.3722],[8.78502,10.33565,835.897],[8.77552,10.30676,859.1142],[8.77118,10.27315,845.0466],[8.74637,10.24188,840.413],[8.71009,10.22501,814.671],[8.66007,10.16917,817.0051],[8.64188,10.09478,835.4922],[8.66782,10.01916,960.3001],[8.62834,9.88769,1104.158],[8.62865,9.81118,839.0452],[8.62307,9.77238,859.1046],[8.63155,9.73868,1211.0522],[8.59,9.68233,901.8691],[8.59041,9.66561,903.7909],[8.58752,9.64732,911.0755],[8.55899,9.62683,937.7631],[8.5593,9.48454,585.0519],[8.59982,9.42519,539.964],[8.64726,9.37633,539.4827],[8.68498,9.32279,1164.423],[8.68064,9.26192,1161.6327],[8.65997,9.20476,1110.2321],[8.71785,9.17631,1152.4292],[8.76663,9.14071,974.5372],[8.78223,9.07239,585.9949],[8.83009,9.02389,327.565],[8.89572,9.01116,317.6917],[8.96393,9.01222,800.7286],[8.98078,9.01472,783.5117],[8.99607,9.02198,885.8777],[9.02759,9.03015,654.7989],[9.05519,9.01214,373.8166],[9.07307,8.98974,355.6815],[9.06811,8.96108,302.0407],[9.05323,8.9262,247.6442],[9.01106,8.86972,231.3427],[8.9878,8.84701,201.5806],[8.9508,8.83512,215.7073],[8.92714,8.79957,167.793],[8.90192,8.76939,160.0735],[8.88466,8.72743,151.7164],[8.90419,8.67926,125.4831],[8.92848,8.64534,162.5489],[8.9354,8.60387,129.6835],[8.92982,8.55565,124.6824],[8.95163,8.51442,124.9004],[9.03483,8.47085,125.7794],[9.09581,8.4545,104.6612],[9.19006,8.45372,102.4283],[9.28174,8.46943,124.9462],[9.3454,8.4885,116.6755],[9.40773,8.48638,165.8642],[9.52493,8.43716,159.3358],[9.57877,8.4036,142.1472],[9.61547,8.35117,136.0799],[9.66983,8.34755,143.1807],[9.74507,8.35285,99.696],[9.81752,8.37313,118.3816],[9.88212,8.42233,112.5916],[9.9403,8.48085,126.6506],[10.00604,8.52798,107.8283],[10.07735,8.56656,122.3851],[10.10536,8.59147,118.838],[10.15765,8.65384,121.4403],[10.18029,8.68975,123.4534],[10.22886,8.74673,121.0578],[10.46027,8.80277,146.0015],[10.6185,8.88013,174.3754],[10.65302,8.94462,149.9739],[10.65178,8.98322,143.618],[10.63897,9.045,168.1127],[10.64589,9.07593,152.8534],[10.646,9.10508,153.2266],[10.61695,9.20006,163.3423],[10.60062,9.22734,164.4094],[10.59225,9.25703,167.3259],[10.58109,9.33163,186.505],[10.58884,9.39591,183.3391],[10.58202,9.44836,199.84],[10.56042,9.49666,192.3539],[10.52931,9.50914,196.7301],[10.3624,9.61189,382.7754],[9.8723,9.83713,525.339],[9.84077,9.83015,524.5563],[9.82641,9.82087,540.5742],[9.81339,9.79777,549.7324],[9.85204,9.74349,563.0198],[9.86548,9.70812,583.4434],[9.85607,9.6754,611.2645],[9.79065,9.6507,569.0764],[9.76522,9.62866,587.6114],[9.73535,9.56725,607.8102],[9.69949,9.55265,653.0708],[9.66084,9.54461,673.2776],[9.5024,9.53658,721.3041],[9.36142,9.56234,1388.5549],[9.2991,9.58215,1036.2526],[9.26479,9.64212,958.3882],[9.22004,9.69388,1020.5101],[9.18366,9.70504,1004.3534],[9.15968,9.72889,979.8021],[9.16464,9.75992,930.9457],[9.17787,9.78881,1169.4308],[9.19523,9.81555,1212.5312],[9.20298,9.8457,1226.1853],[9.19885,9.92753,880.5694],[9.17725,9.99595,996.5008],[9.11327,10.01879,919.2932],[8.99731,9.99861,887.9746]]]}
,"properties": {"ISO3166-1-Alpha-3": "NGA","country": "Nigeria","fill": "#F00","name": "Plateau","area_km2": 27682.93,"hist_schema_id": "Elevation0-9000","hist_area_km2": {"100": 224.39,"125": 1614.51,"150": 2548.64,"175": 2387.61,"200": 1869.71,"225": 1542.11,"250": 1199.93,"275": 914.46,"300": 737.77,"325": 556.31,"350": 436.01,"375": 415.79,"400": 393.06,"425": 374.61,"450": 354.88,"475": 310.99,"500": 261.69,"525": 248.99,"550": 242.2,"575": 243.74,"600": 285.17,"625": 292.83,"650": 301.08,"675": 239.12,"700": 217.67,"725": 206.26,"750": 169.02,"775": 130.57,"800": 120.57,"825": 169.39,"850": 227.91,"875": 247.03,"900": 254.65,"925": 272.88,"950": 275.84,"975": 253.51,"1000": 267.6,"1025": 285.33,"1050": 345.83,"1075": 392.02,"1100": 412.2,"1125": 441.96,"1150": 460.75,"1175": 559.66,"1200": 611.9,"1225": 554.13,"1250": 582.37,"1275": 580.71,"1300": 506.66,"1325": 394.33,"1350": 337.89,"1375": 221.65,"1400": 100.77,"1425": 22.87,"1450": 14.09,"1475": 10.26,"1500": 7.46,"1525": 6.23,"1550": 5.37,"1575": 4.85,"1600": 4.3,"1625": 4.24,"1650": 3.65,"1675": 1.94,"1700": 0.69,"1725": 0.29}}}