{"type": "Feature","bbox": [8.5455,8.3472,10.655,10.3435],"geometry": {"type": "MultiPolygon","coordinates": [[[[10.5868,9.3577,176.5567],[10.5891,9.399,179.4934],[10.5857,9.4335,207.4927],[10.579,9.4616,197.7033],[10.5605,9.4967,192.3539],[10.5581,9.4942,190.0398],[10.4578,9.5516,268.4836],[10.358,9.6164,365.8666],[10.3127,9.638,388.8542],[10.2454,9.6627,405.4097],[10.1791,9.6924,307.5868],[10.1105,9.7326,443.4335],[10.0708,9.7497,589.6494],[10.0296,9.7715,763.7625],[9.9881,9.7797,626.6249],[9.8652,9.8429,521.7662],[9.8452,9.8331,523.7295],[9.8163,9.8143,551.619],[9.8115,9.7913,552.2716],[9.8272,9.7768,534.1618],[9.8459,9.7537,552.8553],[9.8626,9.7263,579.7752],[9.8671,9.6983,592.8698],[9.8589,9.6717,603.5033],[9.8336,9.6674,586.3938],[9.8037,9.6556,559.4095],[9.782,9.6508,566.8652],[9.7633,9.6261,590.4197],[9.7527,9.6009,621.1125],[9.7354,9.5673,607.8102],[9.6893,9.5538,656.8218],[9.6645,9.5447,663.845],[9.6239,9.5439,657.8456],[9.5775,9.5389,691.0037],[9.5023,9.5353,718.7886],[9.4525,9.5473,729.3737],[9.4371,9.5487,746.7788],[9.4139,9.559,1037.1202],[9.3364,9.5632,1307.7179],[9.3119,9.5717,1070.8021],[9.2867,9.5932,1060.6792],[9.26,9.6585,946.8644],[9.2545,9.6678,946.0787],[9.2456,9.6771,989.0505],[9.2329,9.6885,1019.2382],[9.2156,9.6958,1003.9843],[9.1696,9.7112,1013.2524],[9.1598,9.7249,997.0298],[9.1596,9.7406,960.8511],[9.1612,9.7519,934.7738],[9.1779,9.7889,1169.4308],[9.1997,9.8235,1029.7798],[9.2034,9.8423,1165.5437],[9.199,9.8755,1253.649],[9.1981,9.8993,1100.6198],[9.1992,9.9375,950.6629],[9.195,9.9612,1197.2797],[9.1835,9.9875,1046.5488],[9.1696,10.0063,1138.1218],[9.1545,10.0183,1055.3936],[9.1374,10.0216,938.4356],[9.1133,10.0188,919.2932],[9.0411,10.0032,917.927],[8.9947,9.9973,890.6083],[8.9602,9.9865,983.7682],[8.9616,10.1429,875.9689],[8.9587,10.1682,880.3762],[8.9608,10.1848,871.5065],[8.9579,10.2266,1072.7614],[8.9482,10.2617,1102.7369],[8.9117,10.3219,1061.4573],[8.9061,10.3281,1208.2512],[8.8869,10.3363,1001.2838],[8.8612,10.3423,859.3428],[8.8098,10.3435,820.8325],[8.7914,10.3407,828.9595],[8.7791,10.3311,843.8555],[8.7756,10.2847,849.6968],[8.7667,10.2617,843.564],[8.7455,10.2368,838.5326],[8.7101,10.225,814.671],[8.6794,10.2028,844.2803],[8.6631,10.174,823.0665],[8.645,10.1232,814.5311],[8.6421,10.1001,832.5908],[8.6414,10.0798,859.5336],[8.6508,10.0576,870.7622],[8.6634,10.0347,918.4116],[8.6756,9.9972,948.3389],[8.6756,9.9783,923.4063],[8.6571,9.9594,915.8865],[8.6369,9.9467,874.2075],[8.6315,9.9291,913.7849],[8.6343,9.8975,1100.5591],[8.6287,9.8112,839.0452],[8.6243,9.793,831.3059],[8.6231,9.7724,859.1046],[8.6316,9.7387,1211.0522],[8.6248,9.7216,1178.0353],[8.6054,9.7045,926.296],[8.594,9.6967,900.0212],[8.59,9.6824,901.8691],[8.5934,9.6656,908.6363],[8.5876,9.6474,911.0755],[8.559,9.6269,937.7631],[8.5561,9.608,1093.7001],[8.5624,9.551,744.9776],[8.5455,9.5284,584.3077],[8.547,9.5098,597.5695],[8.5842,9.4482,585.6652],[8.5949,9.436,548.5758],[8.5998,9.4252,539.964],[8.6173,9.4021,539.5631],[8.6413,9.3757,530.5757],[8.6689,9.3564,542.2878],[8.679,9.3391,906.3926],[8.6886,9.3077,909.7068],[8.6901,9.2886,990.4434],[8.687,9.2681,911.8953],[8.6793,9.2498,1356.386],[8.668,9.231,1060.2252],[8.6612,9.2124,1250.8237],[8.66,9.2048,1110.2321],[8.6646,9.1957,1023.6859],[8.6781,9.1833,1221.4878],[8.6872,9.1783,1169.6644],[8.6987,9.1765,1228.4675],[8.7112,9.1787,1186.0007],[8.7264,9.1767,1172.3574],[8.7502,9.1688,1177.76],[8.7601,9.1629,1139.7832],[8.7645,9.1534,1081.7163],[8.7674,9.1364,1090.9811],[8.7689,9.1205,917.8477],[8.7666,9.1074,1025.9363],[8.7702,9.0911,1176.3037],[8.7825,9.0667,477.4109],[8.8013,9.0364,291.0339],[8.8178,9.0283,320.392],[8.824,9.0273,302.4691],[8.8362,9.0206,518.4485],[8.8599,9.0203,511.0416],[8.8811,9.0181,574.9357],[8.9108,9.0123,376.6423],[8.9222,9.0116,691.7174],[8.9511,9.0135,849.9724],[8.982,9.0117,792.1182],[8.9819,9.0154,832.6832],[8.9849,9.0173,865.9694],[9.0118,9.0302,776.2909],[9.0267,9.0333,759.913],[9.0436,9.0242,454.632],[9.0548,9.0127,367.2802],[9.0576,9.0076,362.9642],[9.0674,9.0024,387.2788],[9.076,8.9888,333.5997],[9.0752,8.9748,310.5567],[9.0656,8.9564,292.6837],[9.0633,8.9418,269.4867],[9.0476,8.9147,242.9612],[9.035,8.8985,253.9521],[9.0262,8.8913,252.2163],[9.0195,8.8773,243.7873],[9.009,8.8665,223.5816],[9.0024,8.8568,215.8284],[8.9855,8.8455,194.4565],[8.9791,8.8432,190.0169],[8.9705,8.8443,204.4252],[8.9627,8.8423,193.6864],[8.9555,8.8388,209.0798],[8.9391,8.8254,200.4194],[8.9339,8.8188,189.5327],[8.921,8.79,169.8913],[8.9146,8.7839,163.6316],[8.9141,8.7795,149.8142],[8.9052,8.7704,148.4811],[8.8936,8.766,174.6437],[8.889,8.7575,205.0476],[8.8833,8.7313,164.4037],[8.8868,8.7304,158.1098],[8.8838,8.7214,150.5774],[8.8914,8.7047,136.4002],[8.8942,8.6938,132.813],[8.9105,8.6693,127.6278],[8.928,8.6547,137.8605],[8.9317,8.6422,164.1072],[8.936,8.6073,131.0025],[8.9307,8.5806,119.4671],[8.9284,8.5479,132.3981],[8.9324,8.5395,142.5931],[8.9439,8.5215,118.1141],[8.9516,8.5145,124.9004],[8.9849,8.4998,115.4037],[8.9888,8.4995,115.7225],[8.9888,8.4974,118.6016],[9.0348,8.4709,125.7794],[9.0939,8.45,105.2836],[9.1129,8.4536,105.6395],[9.2262,8.4524,106.3499],[9.2791,8.4689,125.3333],[9.3839,8.4973,132.2509],[9.4715,8.4568,131.1041],[9.5512,8.4276,146.0419],[9.5919,8.3944,140.8638],[9.6158,8.3507,136.0799],[9.6776,8.3472,141.969],[9.7441,8.3559,99.1551],[9.8153,8.3721,120.8981],[9.8547,8.3913,98.3556],[9.8821,8.4231,112.5916],[9.9386,8.4794,126.3372],[9.9787,8.5144,114.8473],[10.0934,8.5749,111.6601],[10.1274,8.6203,127.0999],[10.1701,8.6668,106.0705],[10.1905,8.7128,133.6727],[10.2033,8.7341,149.645],[10.2435,8.7573,137.4914],[10.3974,8.791,138.9408],[10.4281,8.7892,146.633],[10.4926,8.8164,118.0213],[10.6248,8.8834,171.3859],[10.6536,8.9329,138.4572],[10.655,8.9638,143.4081],[10.6499,9.0082,145.3198],[10.6501,9.0219,149.3883],[10.6433,9.0218,149.3475],[10.6383,9.0579,155.0444],[10.6473,9.0793,154.1104],[10.6433,9.1167,154.3949],[10.6339,9.1438,164.6996],[10.6303,9.176,158.8074],[10.6155,9.2029,162.4804],[10.5931,9.2379,169.6774],[10.5918,9.2675,168.8875],[10.5808,9.3335,189.6773],[10.5868,9.3577,176.5567]]]]}
,"properties": {"GID_1": "NGA.32_1","GID_0": "NGA","country": "Nigeria","province": "Plateau","VARNAME_1": "NA","NL_NAME_1": "NA","TYPE_1": "State","ENGTYPE_1": "State","CC_1": "NA","HASC_1": "NG.PL","ISO_1": "NG-PL","name": "Plateau.province","area_km2": 27692.14,"hist_schema_id": "Elevation0-9000","hist_area_km2": {"100": 231.55,"125": 1606.88,"150": 2545.8,"175": 2391.44,"200": 1872.79,"225": 1541.88,"250": 1198.59,"275": 913.91,"300": 735.87,"325": 555.46,"350": 435.8,"375": 416.31,"400": 393.88,"425": 374.77,"450": 356.03,"475": 311.47,"500": 261.9,"525": 252.83,"550": 244.27,"575": 244.79,"600": 287.35,"625": 293.02,"650": 302.44,"675": 239.67,"700": 217.36,"725": 205.78,"750": 168.62,"775": 130.55,"800": 120.51,"825": 170.97,"850": 229.62,"875": 247.68,"900": 250.14,"925": 268.03,"950": 276.51,"975": 253.65,"1000": 268.18,"1025": 285.81,"1050": 344.39,"1075": 391.61,"1100": 412.43,"1125": 441.73,"1150": 460.31,"1175": 560.04,"1200": 612.57,"1225": 554.9,"1250": 583.37,"1275": 581.17,"1300": 507.06,"1325": 394.41,"1350": 337.68,"1375": 221.61,"1400": 100.52,"1425": 22.85,"1450": 14.07,"1475": 10.26,"1500": 7.48,"1525": 6.23,"1550": 5.37,"1575": 4.85,"1600": 4.3,"1625": 4.24,"1650": 3.65,"1675": 1.94,"1700": 0.69,"1725": 0.29}}}