{"type": "Feature","bbox": [9.2425,9.0344,9.6559,9.5869],"geometry": {"type": "MultiPolygon","coordinates": [[[[9.2938,9.5869,1052.3929],[9.2821,9.5807,1069.8931],[9.2712,9.5706,1068.8901],[9.2711,9.5524,1066.4672],[9.2766,9.5239,1079.2861],[9.2815,9.4996,1113.6521],[9.2893,9.4806,1150.5002],[9.2885,9.464,1134.6887],[9.2806,9.4287,1198.6763],[9.2646,9.3807,1154.0786],[9.2475,9.345,1242.9633],[9.2429,9.3255,1271.3944],[9.2429,9.3016,1228.0382],[9.245,9.2758,1143.9651],[9.2475,9.2638,1103.7627],[9.2425,9.2507,1136.4766],[9.2452,9.2292,1004.7261],[9.2479,9.2282,1009.3822],[9.243,9.2124,955.1677],[9.247,9.1947,868.8179],[9.2472,9.1803,904.4484],[9.2451,9.1662,1024.4896],[9.2469,9.1459,852.0153],[9.2461,9.1228,850.8634],[9.2429,9.0971,731.7126],[9.2615,9.1059,607.34],[9.2775,9.1092,379.6735],[9.2992,9.1095,360.3283],[9.3309,9.1065,355.1623],[9.3458,9.0978,350.8219],[9.3677,9.0777,332.4304],[9.3915,9.0649,301.8656],[9.3982,9.0589,309.0003],[9.4058,9.0473,310.4587],[9.407,9.0412,311.2878],[9.4125,9.0344,293.4417],[9.4181,9.0355,297.7754],[9.4257,9.0429,311.1183],[9.4359,9.0772,437.2722],[9.4486,9.09,706.4399],[9.4598,9.0865,730.71],[9.4717,9.0774,762.8154],[9.4841,9.0631,347.8756],[9.4966,9.0661,322.9143],[9.5256,9.0956,705.2256],[9.539,9.0973,690.7696],[9.5473,9.0834,589.1619],[9.5458,9.0798,383.7013],[9.5595,9.0894,981.2742],[9.5997,9.1126,575.18],[9.6174,9.1268,1146.7961],[9.6401,9.1397,1167.5438],[9.6466,9.1495,1107.6425],[9.651,9.1762,1057.429],[9.6559,9.1923,753.4058],[9.6348,9.2052,968.1704],[9.5967,9.2607,615.6404],[9.5737,9.2725,643.728],[9.5576,9.2719,707.8766],[9.5332,9.2439,483.2254],[9.5218,9.2259,440.824],[9.5051,9.2051,418.8753],[9.4908,9.1975,462.121],[9.4669,9.1946,422.4678],[9.4569,9.211,463.218],[9.4382,9.2641,1322.3663],[9.428,9.2857,1368.2507],[9.4223,9.3024,1216.5837],[9.413,9.3162,1186.1924],[9.4101,9.3364,1213.1078],[9.4148,9.3439,1198.5825],[9.4196,9.3577,1188.964],[9.4237,9.3796,1259.9972],[9.4269,9.4004,1547.6581],[9.4245,9.4221,1153.9728],[9.4079,9.4523,1200.6561],[9.3896,9.4718,1248.4314],[9.3848,9.4991,1355.7811],[9.3831,9.5262,1212.4116],[9.3841,9.5604,1438.5851],[9.3364,9.5632,1307.7179],[9.3119,9.5717,1070.8021],[9.2938,9.5869,1052.3929]]]]}
,"properties": {"GID_2": "NGA.32.13_1","GID_0": "NGA","country": "Nigeria","GID_1": "NGA.32_1","province": "Plateau","NL_NAME_1": "NA","county": "Pankshin","VARNAME_2": "NA","NL_NAME_2": "NA","TYPE_2": "LocalAuthority","ENGTYPE_2": "LocalAuthority","CC_2": "NA","HASC_2": "NA","name": "Pankshin.county","area_km2": 1292.5147,"hist_schema_id": "Elevation0-9000","hist_area_km2": {"300": 2.8476,"325": 28.7872,"350": 46.6425,"375": 54.9713,"400": 48.2914,"425": 35.0613,"450": 38.3251,"475": 35.8543,"500": 24.3428,"525": 21.2245,"550": 18.6707,"575": 18.9009,"600": 18.754,"625": 25.1369,"650": 29.2592,"675": 29.2175,"700": 24.4252,"725": 19.3395,"750": 16.4096,"775": 19.9467,"800": 25.3243,"825": 26.8928,"850": 31.0786,"875": 30.6391,"900": 29.0062,"925": 22.5394,"950": 19.4208,"975": 17.0138,"1000": 15.444,"1025": 15.5897,"1050": 24.4338,"1075": 44.8029,"1100": 38.3862,"1125": 48.9702,"1150": 72.3552,"1175": 109.3173,"1200": 98.4416,"1225": 28.6362,"1250": 12.5295,"1275": 6.7142,"1300": 4.392,"1325": 3.5135,"1350": 3.0116,"1375": 2.7605,"1400": 1.673,"1425": 1.2337,"1450": 0.8783,"1475": 0.3764,"1500": 0.3555,"1525": 0.1464,"1550": 0.1255,"1575": 0.0418,"1600": 0.0627}}}