{"type": "Feature","bbox": [7.2293,5.5962,7.3685,5.7551],"geometry": {"type": "MultiPolygon","coordinates": [[[[7.3011,5.6038,125.5576],[7.3114,5.6138,151.7818],[7.3224,5.6107,143.35],[7.3343,5.6132,142.4561],[7.3389,5.6184,158.3751],[7.3477,5.6333,176.2627],[7.3524,5.6486,117.8653],[7.3573,5.6575,133.8248],[7.3593,5.6794,86.6741],[7.3663,5.6848,108.0408],[7.3685,5.6921,92.3029],[7.364,5.7005,72.0129],[7.3395,5.7214,81.6779],[7.3311,5.731,86.971],[7.3246,5.7433,85.0585],[7.3089,5.7551,81.9967],[7.2776,5.7427,144.039],[7.2807,5.7245,105.2516],[7.2831,5.7194,100.2579],[7.2857,5.7039,104.5514],[7.2855,5.694,132.713],[7.2881,5.6859,203.1124],[7.2747,5.6668,122.6437],[7.2677,5.6604,124.2126],[7.2411,5.645,130.8465],[7.2366,5.6377,160.2501],[7.2293,5.6129,146.81],[7.235,5.5985,151.2771],[7.289,5.5962,163.2113],[7.3011,5.6038,125.5576]]]]}
,"properties": {"GID_2": "NGA.17.3_1","GID_0": "NGA","country": "Nigeria","GID_1": "NGA.17_1","province": "Imo","NL_NAME_1": "NA","county": "Ehime-Mbano","VARNAME_2": "NA","NL_NAME_2": "NA","TYPE_2": "LocalAuthority","ENGTYPE_2": "LocalAuthority","CC_2": "NA","HASC_2": "NA","name": "Ehime-Mbano.county","area_km2": 150.4756,"hist_schema_id": "Elevation0-9000","hist_area_km2": {"75": 16.7929,"100": 38.5452,"125": 23.9466,"150": 22.9351,"175": 43.7404,"200": 4.5153}}}