{"type":"Feature","properties":{"GID_2":"NGA.16.7_1","GID_0":"NGA","country":"Nigeria","GID_1":"NGA.16_1","province":"Gombe","NL_NAME_1":"NA","county":"Kaltungo","VARNAME_2":"NA","NL_NAME_2":"NA","TYPE_2":"LocalAuthority","ENGTYPE_2":"LocalAuthority","CC_2":"NA","HASC_2":"NA","name":"Kaltungo.county"},
"geometry":{"type": "MultiPolygon","coordinates": [[[[11.4257,10.0324,348.35],[11.4246,10.0246,362.4571],[11.4045,10.0101,362.3534],[11.3754,9.9953,311.8264],[11.3597,9.985,319.6339],[11.3428,9.9794,331.8968],[11.3268,9.9633,345.7246],[11.3162,9.9595,358.8456],[11.3061,9.9512,364.3937],[11.3008,9.9439,367.475],[11.3003,9.939,380.3233],[11.3067,9.9322,395.451],[11.3133,9.9121,415.9685],[11.315,9.891,500.7827],[11.3078,9.8688,479.2198],[11.3007,9.857,467.1542],[11.3303,9.8338,449.835],[11.3365,9.8268,433.6807],[11.377,9.7916,548.5422],[11.3902,9.7764,516.8135],[11.3971,9.7675,529.3106],[11.4063,9.7462,566.536],[11.4096,9.7311,536.1019],[11.423,9.7203,480.1809],[11.4347,9.7145,449.0809],[11.4451,9.7287,478.4628],[11.4529,9.7358,493.5111],[11.4728,9.7461,636.7597],[11.4887,9.7512,555.0932],[11.5064,9.7502,635.3202],[11.5287,9.7439,566.271],[11.554,9.7396,478.1025],[11.5714,9.7407,462.0021],[11.6138,9.752,486.2769],[11.6551,9.7666,628.0022],[11.667,9.7764,645.722],[11.692,9.8048,654.8911],[11.7078,9.8291,537.3632],[11.718,9.8499,542.1848],[11.723,9.868,595.8231],[11.6824,9.889,507.506],[11.6759,9.8946,381.8934],[11.6454,9.9294,429.1522],[11.6255,9.9565,336.5674],[11.6164,9.9818,300.5016],[11.6151,9.9961,285.0228],[11.6192,10.0092,274.8766],[11.6186,10.0302,275.9171],[11.6147,10.0487,249.8191],[11.6139,10.0641,234.6357],[11.5811,10.0384,241.4937],[11.5692,10.0233,262.0851],[11.5539,10.0088,267.7199],[11.5356,9.986,269.1076],[11.5029,9.9786,273.2212],[11.4997,9.9854,272.5514],[11.4696,9.9969,292.8095],[11.4663,10.0053,303.31],[11.4491,10.0115,330.438],[11.4303,10.0307,349.1049],[11.4257,10.0324,348.35]]]]}}