{"type":"Feature","properties":{"GID_2":"NGA.7.18_1","GID_0":"NGA","country":"Nigeria","GID_1":"NGA.7_1","province":"Benue","NL_NAME_1":"NA","county":"Okpokwu","VARNAME_2":"NA","NL_NAME_2":"NA","TYPE_2":"LocalAuthority","ENGTYPE_2":"LocalAuthority","CC_2":"NA","HASC_2":"NA","name":"Okpokwu.county"},
"geometry":{"type": "MultiPolygon","coordinates": [[[[8.0534,6.9734,98.1072],[8.0452,6.9779,104.3516],[8.0351,6.9864,108.585],[8.0263,6.9964,116.1206],[8.0135,7.0188,116.5148],[8.0132,7.0248,118.6656],[8.0044,7.0417,92.5055],[7.9888,7.0588,111.0573],[7.9817,7.0631,114.7968],[7.9619,7.0816,158.5829],[7.9538,7.0924,164.2186],[7.9347,7.1065,160.636],[7.9106,7.1187,166.6074],[7.8776,7.1298,199.5957],[7.8672,7.1316,199.2506],[7.8485,7.143,187.0488],[7.8363,7.1437,188.0168],[7.8226,7.1534,204.7791],[7.8107,7.1561,204.9446],[7.8108,7.1667,189.197],[7.7968,7.1672,184.6451],[7.7874,7.1733,180.5475],[7.7568,7.1497,211.7869],[7.7361,7.1383,252.3935],[7.6878,7.1157,351.0615],[7.6895,7.1086,343.4352],[7.7314,7.0754,209.0884],[7.747,7.0579,189.1719],[7.7575,7.0503,177.5637],[7.7643,7.0417,185.3259],[7.7653,7.0059,184.0752],[7.764,6.9926,186.8239],[7.7591,6.9784,182.1392],[7.7466,6.9634,196.6442],[7.7185,6.95,177.1361],[7.7187,6.9466,167.8397],[7.7207,6.9433,170.6162],[7.7372,6.9364,155.3234],[7.7627,6.9295,167.6767],[7.7729,6.9049,144.7022],[7.7714,6.8987,162.5737],[7.7674,6.8928,159.4529],[7.7572,6.8835,152.519],[7.8025,6.8779,133.2244],[7.8271,6.8592,143.2397],[7.8501,6.8247,121.404],[7.8541,6.8077,118.8532],[7.86,6.8099,113.826],[7.8995,6.8156,109.4031],[7.9123,6.8246,103.5229],[7.9119,6.838,98.2268],[7.9081,6.8496,102.0547],[7.9039,6.8587,100.0554],[7.8852,6.8841,112.0609],[7.8822,6.8897,107.5545],[7.8814,6.8957,114.4613],[7.8827,6.9058,117.6271],[7.8914,6.9268,134.0185],[7.9044,6.9464,115.2053],[7.9228,6.9586,107.3731],[7.9477,6.9715,118.248],[7.9783,6.982,109.0527],[7.9885,6.9835,112.2355],[8.0138,6.981,111.9059],[8.0534,6.9734,98.1072]]]]}}