{"type": "Feature","bbox": [4.7538,10.6995,5.4415,11.3467],"geometry": {"type": "MultiPolygon","coordinates": [[[[4.7997,11.2365,252.3277],[4.776,11.2251,219.7758],[4.7611,11.2097,212.9103],[4.7538,11.192,227.6627],[4.7565,11.1676,206.5339],[4.7706,11.1475,189.9923],[4.7934,11.1325,232.3868],[4.8291,11.1153,238.8525],[4.9164,11.0804,235.0322],[4.9564,11.0742,220.8516],[4.9851,11.0752,250.5297],[5.003,11.072,250.5491],[5.02,11.0399,242.6575],[5.0333,11.0434,254.5303],[5.0476,11.0403,231.1648],[5.0601,11.0286,240.2537],[5.071,10.9858,285.0818],[5.0726,10.9585,257.3477],[5.0782,10.9238,261.4485],[5.0742,10.9068,281.3891],[5.0599,10.8996,256.8235],[5.0389,10.8835,254.5572],[5.0288,10.8602,262.2184],[5.0367,10.837,236.4389],[5.081,10.811,230.9254],[5.0998,10.7892,233.8068],[5.0988,10.7562,223.8932],[5.0825,10.7325,219.1636],[5.0807,10.7318,216.8259],[5.1002,10.7329,222.7484],[5.1119,10.724,235.5288],[5.1284,10.7232,230.4448],[5.1443,10.73,227.259],[5.1557,10.7285,226.7177],[5.1747,10.7195,251.1283],[5.1959,10.7054,265.3604],[5.2123,10.7004,262.5824],[5.2228,10.7033,238.4435],[5.2314,10.6995,258.9532],[5.2411,10.6998,236.5103],[5.2471,10.707,242.3958],[5.2573,10.715,246.2273],[5.2587,10.7254,245.4895],[5.2626,10.7346,242.8966],[5.2695,10.7412,233.9693],[5.2896,10.7282,263.297],[5.2989,10.7329,264.408],[5.3057,10.7475,250.8036],[5.3521,10.7623,264.2458],[5.36,10.7804,266.6509],[5.3646,10.7989,268.0983],[5.3573,10.8361,266.3989],[5.3541,10.8721,265.8938],[5.3624,10.8899,278.1596],[5.3637,10.8995,266.8647],[5.369,10.9122,278.8438],[5.3843,10.978,286.2446],[5.3894,10.9878,289.4649],[5.4168,11.0135,288.7919],[5.4365,11.0291,298.3226],[5.4356,11.0408,304.4315],[5.4405,11.082,313.6615],[5.4415,11.1176,324.6624],[5.4338,11.146,326.3986],[5.4149,11.1613,325.1929],[5.3938,11.171,321.0524],[5.3732,11.1853,333.2729],[5.3601,11.2055,327.1625],[5.3558,11.2254,341.0939],[5.3557,11.2491,336.155],[5.352,11.281,341.1227],[5.3443,11.3094,347.5987],[5.329,11.3286,339.1997],[5.3171,11.3347,335.8336],[5.3002,11.3384,328.7976],[5.2872,11.3443,346.2311],[5.2711,11.3462,349.1229],[5.2124,11.3467,340.6006],[5.1696,11.3426,335.6001],[5.1522,11.3384,296.7352],[5.1012,11.3305,321.709],[5.0792,11.3241,331.0808],[5.053,11.3214,307.3528],[5.003,11.3098,272.4497],[4.9847,11.3015,264.7168],[4.9474,11.2986,231.4453],[4.8544,11.2664,258.5125],[4.8379,11.2579,252.427],[4.812,11.2412,249.6718],[4.7997,11.2365,252.3277]]]]}
,"properties": {"GID_2": "NGA.27.21_1","GID_0": "NGA","country": "Nigeria","GID_1": "NGA.27_1","province": "Niger","NL_NAME_1": "NA","county": "Rijau","VARNAME_2": "NA","NL_NAME_2": "NA","TYPE_2": "LocalAuthority","ENGTYPE_2": "LocalAuthority","CC_2": "NA","HASC_2": "NA","name": "Rijau.county","area_km2": 3041.359,"hist_schema_id": "Elevation0-9000","hist_area_km2": {"175": 0.042,"200": 18.375,"225": 159.6,"250": 509.519,"275": 700.99,"300": 686.386,"325": 578.159,"350": 273.432,"375": 79.785,"400": 24.858,"425": 6.74,"450": 2.579,"475": 0.832,"500": 0.062}}}