{"type": "Feature","bbox": [6.6242,5.187,7.0127,5.6222],"geometry": {"type": "MultiPolygon","coordinates": [[[[7.0034,5.2666,41.7331],[6.9906,5.26,38.246],[6.988,5.2601,38.6176],[6.9893,5.2688,33.2087],[6.9862,5.2885,30.3607],[6.9786,5.3165,46.3263],[6.9812,5.3489,55.4386],[6.9864,5.359,54.7983],[6.9834,5.3696,55.7697],[6.9745,5.3794,53.9795],[6.9668,5.3844,56.2191],[6.9578,5.3864,50.4082],[6.9435,5.3998,51.0593],[6.9358,5.4089,50.3641],[6.9353,5.4195,52.7304],[6.923,5.4347,52.2418],[6.9132,5.439,60.8187],[6.9051,5.4401,57.9578],[6.8924,5.4523,59.578],[6.8913,5.4795,61.2498],[6.8985,5.5026,58.3684],[6.9042,5.5106,62.506],[6.9081,5.5204,58.7186],[6.9078,5.5303,61.2644],[6.8888,5.5293,60.5299],[6.8813,5.5372,61.6754],[6.8708,5.5547,64.6967],[6.8599,5.5678,62.8057],[6.8518,5.5806,64.3918],[6.8427,5.5895,65.723],[6.8261,5.6018,58.9793],[6.813,5.6061,55.7173],[6.7642,5.6141,25.0476],[6.7356,5.6141,17.7642],[6.7234,5.616,24.4011],[6.7088,5.6222,22.2667],[6.6521,5.6219,25.5888],[6.6266,5.4987,18.4617],[6.6242,5.493,27.4723],[6.6243,5.4826,25.7701],[6.6486,5.4755,24.1769],[6.6641,5.4771,27.3738],[6.7047,5.4863,14.0295],[6.7334,5.4798,17.5368],[6.7389,5.4737,19.5573],[6.7414,5.4601,18.0506],[6.7461,5.4469,17.1713],[6.7377,5.372,26.5518],[6.7227,5.3427,24.1083],[6.7201,5.3273,22.0069],[6.7244,5.3051,24.414],[6.7328,5.2946,24.7094],[6.7541,5.2841,35.8625],[6.7637,5.2671,37.9671],[6.771,5.2434,35.9373],[6.7818,5.2289,38.838],[6.8167,5.2023,37.9324],[6.8342,5.2003,41.14],[6.8512,5.1957,39.3072],[6.9251,5.1981,40.2205],[6.9473,5.1959,48.4315],[6.9598,5.198,50.6065],[6.9809,5.1916,49.2221],[7.0047,5.187,47.2057],[7.0127,5.2184,43.6283],[7.003,5.2462,41.96],[7.0069,5.2572,38.9686],[7.0063,5.2646,40.0093],[7.0089,5.2702,39.2628],[7.0034,5.2666,41.7331]]]]}
,"properties": {"GID_2": "NGA.17.18_1","GID_0": "NGA","country": "Nigeria","GID_1": "NGA.17_1","province": "Imo","NL_NAME_1": "NA","county": "Ohaji/Egbema","VARNAME_2": "NA","NL_NAME_2": "NA","TYPE_2": "LocalAuthority","ENGTYPE_2": "LocalAuthority","CC_2": "NA","HASC_2": "NA","name": "Ohaji_Egbema.county","area_km2": 1151.9258,"hist_schema_id": "Elevation0-9000","hist_area_km2": {"0": 2.9544,"25": 337.6685,"50": 773.3808,"75": 37.9221}}}