{"type": "Feature","bbox": [10.3181,12.3925,10.6095,12.8249],"geometry": {"type": "MultiPolygon","coordinates": [[[[10.6095,12.5025,347.8611],[10.6047,12.5072,347.7338],[10.5954,12.5485,348.1322],[10.5839,12.6192,345.0117],[10.5793,12.6716,346.3217],[10.5669,12.7314,342.278],[10.5312,12.7853,344.3565],[10.5014,12.7994,345.4397],[10.4685,12.7896,345.9081],[10.388,12.8249,345.0995],[10.3181,12.8012,345.4369],[10.3209,12.7833,345.5322],[10.3281,12.7558,347.432],[10.3202,12.7496,345.8765],[10.3291,12.7408,346.0589],[10.3338,12.7304,346.2742],[10.3339,12.7207,346.4168],[10.3505,12.6411,350.1136],[10.3457,12.6249,349.0586],[10.3304,12.6019,349.5642],[10.3201,12.5823,349.7747],[10.3189,12.5731,349.4221],[10.3255,12.5587,349.2135],[10.3297,12.5416,349.1426],[10.3392,12.516,349.8049],[10.3347,12.4982,350.5024],[10.3315,12.4691,350.3557],[10.3432,12.4449,350.2747],[10.3735,12.4531,350.8362],[10.3995,12.4536,353.1961],[10.4154,12.4406,349.4344],[10.4289,12.4145,351.0597],[10.4308,12.3925,350.5719],[10.4492,12.4018,350.6252],[10.4655,12.4131,349.7523],[10.5404,12.4554,350.202],[10.564,12.4746,350.6718],[10.6095,12.5025,347.8611]]]]}
,"properties": {"GID_2": "NGA.18.10_1","GID_0": "NGA","country": "Nigeria","GID_1": "NGA.18_1","province": "Jigawa","NL_NAME_1": "NA","county": "Guri","VARNAME_2": "NA","NL_NAME_2": "NA","TYPE_2": "LocalAuthority","ENGTYPE_2": "LocalAuthority","CC_2": "NA","HASC_2": "NA","name": "Guri.county","area_km2": 1074.0723,"hist_schema_id": "Elevation0-9000","hist_area_km2": {"350": 1074.0723}}}