{"type":"Feature","properties":{"GID_2":"NGA.20.18_1","GID_0":"NGA","country":"Nigeria","GID_1":"NGA.20_1","province":"Kano","NL_NAME_1":"NA","county":"Gwale","VARNAME_2":"NA","NL_NAME_2":"NA","TYPE_2":"LocalAuthority","ENGTYPE_2":"LocalAuthority","CC_2":"NA","HASC_2":"NA","name":"Gwale.county"},
"geometry":{"type": "MultiPolygon","coordinates": [[[[8.4302,11.9749,464.6393],[8.434,11.9468,467.7386],[8.4895,11.9592,487.0084],[8.5031,11.9648,475.4313],[8.5118,11.9884,488.1342],[8.5016,11.9889,488.6652],[8.4808,11.9816,493.2869],[8.4302,11.9749,464.6393]]]]}}