{"type":"Feature","properties":{"GID_2":"NGA.33.14_1","GID_0":"NGA","country":"Nigeria","GID_1":"NGA.33_1","province":"Rivers","NL_NAME_1":"NA","county":"Khana","VARNAME_2":"NA","NL_NAME_2":"NA","TYPE_2":"LocalAuthority","ENGTYPE_2":"LocalAuthority","CC_2":"NA","HASC_2":"NA","name":"Khana.county"},
"geometry":{"type": "MultiPolygon","coordinates": [[[[7.4935,4.5599,3.9927],[7.4916,4.5599,1.9151],[7.492,4.5571,3.4598],[7.4971,4.5543,3.4596],[7.4976,4.5579,0.0],[7.4935,4.5599,3.9927]]],
[[[7.4964,4.8174,9.7659],[7.4858,4.8111,29.7099],[7.4645,4.7937,24.9806],[7.4485,4.7875,22.1237],[7.4335,4.7873,22.2191],[7.4195,4.7913,23.2194],[7.4111,4.8006,25.126],[7.403,4.8033,22.3695],[7.3768,4.8056,32.6554],[7.3571,4.7985,21.0655],[7.3414,4.7889,20.1611],[7.3289,4.7833,24.6549],[7.3191,4.7768,24.0716],[7.3134,4.7684,22.6618],[7.3023,4.7653,20.1022],[7.2987,4.7557,16.2527],[7.3025,4.7469,17.9269],[7.3024,4.7412,16.8758],[7.3049,4.7377,19.8931],[7.3234,4.7261,21.2077],[7.331,4.7119,15.2835],[7.3347,4.7012,11.8118],[7.3334,4.6925,17.1135],[7.3361,4.6881,18.491],[7.3345,4.6726,15.3912],[7.3367,4.6678,13.7601],[7.3334,4.663,15.1458],[7.334,4.6579,17.3041],[7.3251,4.6486,15.4529],[7.3205,4.6369,17.1534],[7.3187,4.625,9.5343],[7.3119,4.6123,2.3486],[7.3211,4.6125,10.9069],[7.3243,4.6111,8.3777],[7.3449,4.5959,5.4784],[7.3451,4.5985,6.301],[7.346,4.5952,1.4273],[7.35,4.5936,8.252],[7.3621,4.5966,1.9598],[7.3741,4.5973,12.2839],[7.4057,4.5968,7.5269],[7.4154,4.6008,14.3168],[7.4295,4.6014,11.6794],[7.4381,4.6043,12.3714],[7.4446,4.604,11.3637],[7.4508,4.6025,8.1844],[7.4567,4.5959,8.0344],[7.4799,4.5937,7.2869],[7.49,4.5903,6.819],[7.4923,4.587,9.3803],[7.4924,4.5808,6.8305],[7.4903,4.5631,0.7142],[7.4971,4.561,2.2359],[7.4999,4.5576,5.6843],[7.4999,4.5542,2.5573],[7.5065,4.5559,3.1563],[7.5124,4.5646,7.0041],[7.5235,4.5674,6.0506],[7.5239,4.5754,5.0504],[7.5321,4.5806,4.6802],[7.5261,4.5947,2.4355],[7.5253,4.6333,8.1034],[7.5227,4.6543,7.3178],[7.5304,4.6929,0.5],[7.5369,4.706,1.0],[7.5381,4.7235,11.4608],[7.531,4.7428,1.0],[7.5278,4.7608,1.0],[7.5127,4.7929,12.825],[7.4941,4.8144,8.3192],[7.4964,4.8174,9.7659]]]]}}