{"type": "Feature","bbox": [7.9673,11.3006,8.3082,11.7936],"geometry": {"type": "MultiPolygon","coordinates": [[[[8.2027,11.3045,575.6049],[8.2342,11.3087,574.5421],[8.2476,11.3076,563.6808],[8.252,11.3024,556.4312],[8.2649,11.3006,548.9604],[8.2948,11.3067,556.1188],[8.3046,11.3128,539.5209],[8.3082,11.3188,535.7062],[8.3025,11.3216,539.9006],[8.2943,11.3221,538.6013],[8.2546,11.3213,550.6462],[8.2398,11.3258,548.0528],[8.2142,11.3386,569.6967],[8.2111,11.3409,575.4171],[8.1997,11.3568,585.1039],[8.193,11.3787,593.5635],[8.1779,11.4124,604.433],[8.1735,11.4351,623.3337],[8.1744,11.4538,608.7168],[8.1781,11.4828,595.8889],[8.1919,11.5389,551.3936],[8.1894,11.5504,563.0802],[8.1914,11.5817,534.2123],[8.1986,11.6048,528.4929],[8.2104,11.6285,518.1749],[8.2147,11.6495,523.6108],[8.2219,11.6648,510.4829],[8.2253,11.6715,505.4117],[8.2317,11.6762,510.9487],[8.237,11.6901,502.8033],[8.2455,11.6985,497.7426],[8.2478,11.7032,498.9058],[8.256,11.709,493.1915],[8.2582,11.7236,494.6405],[8.2475,11.7635,484.6964],[8.2465,11.7706,478.6047],[8.2481,11.775,478.5634],[8.2454,11.7769,477.8728],[8.236,11.7802,473.5277],[8.2306,11.7787,474.2857],[8.2201,11.7795,482.204],[8.2025,11.7744,486.4966],[8.1984,11.77,487.4021],[8.1894,11.7673,490.3105],[8.1825,11.7728,488.3958],[8.1763,11.7808,472.3656],[8.1742,11.7899,480.9328],[8.1533,11.7936,476.2062],[8.1373,11.7867,488.4341],[8.1009,11.765,484.9471],[8.0895,11.7552,490.18],[8.0773,11.7497,488.5985],[8.0691,11.751,502.2253],[8.0623,11.7481,505.5372],[8.059,11.7407,504.6154],[8.0552,11.7197,510.4595],[8.0552,11.7054,518.4788],[8.0509,11.6901,533.2181],[8.0512,11.6756,521.8525],[8.0464,11.6675,521.0],[8.0391,11.6603,533.8577],[8.026,11.6546,521.0],[8.0181,11.6551,521.0],[8.0015,11.6676,521.0],[7.9992,11.6678,521.0],[7.9883,11.66,521.0],[7.9875,11.6515,521.0],[7.9811,11.6362,523.04],[7.9772,11.6332,526.4522],[7.972,11.6317,532.5794],[7.9689,11.6174,541.482],[7.9673,11.5987,546.326],[7.9706,11.5911,554.3848],[7.9804,11.5869,545.0074],[7.9832,11.5819,552.8812],[7.9855,11.5665,557.8654],[7.9888,11.5596,562.0295],[7.9896,11.5527,565.6606],[7.9981,11.5385,578.7656],[8.0041,11.531,588.0394],[8.0094,11.5272,594.2698],[8.0279,11.5198,599.2388],[8.032,11.5054,597.168],[8.0327,11.4909,586.7856],[8.0294,11.4788,596.9833],[8.0299,11.4758,601.2134],[8.0374,11.4758,597.6273],[8.059,11.4848,584.8099],[8.0838,11.4923,579.0057],[8.1032,11.4955,580.2314],[8.1229,11.4926,581.0432],[8.1412,11.4796,590.4415],[8.1463,11.4597,599.992],[8.1123,11.3956,633.3718],[8.1126,11.3761,625.9877],[8.1208,11.3546,604.1348],[8.1377,11.3357,605.7839],[8.1634,11.3201,581.0998],[8.2027,11.3045,575.6049]]]]}
,"properties": {"GID_2": "NGA.20.24_1","GID_0": "NGA","country": "Nigeria","GID_1": "NGA.20_1","province": "Kano","NL_NAME_1": "NA","county": "Kiru","VARNAME_2": "NA","NL_NAME_2": "NA","TYPE_2": "LocalAuthority","ENGTYPE_2": "LocalAuthority","CC_2": "NA","HASC_2": "NA","name": "Kiru.county","area_km2": 831.3798,"hist_schema_id": "Elevation0-9000","hist_area_km2": {"475": 24.8662,"500": 131.4894,"525": 178.0335,"550": 203.0957,"575": 171.6747,"600": 82.2747,"625": 38.6778,"650": 1.2678}}}