{"type":"Feature","properties":{"GID_2":"NGA.8.14_1","GID_0":"NGA","country":"Nigeria","GID_1":"NGA.8_1","province":"Borno","NL_NAME_1":"NA","county":"Kaga","VARNAME_2":"NA","NL_NAME_2":"NA","TYPE_2":"LocalAuthority","ENGTYPE_2":"LocalAuthority","CC_2":"NA","HASC_2":"NA","name":"Kaga.county"},
"geometry":{"type": "MultiPolygon","coordinates": [[[[12.8009,11.2824,372.2057],[12.788,11.3125,377.7622],[12.7759,11.3321,379.483],[12.7589,11.3674,376.9831],[12.7518,11.3921,370.4543],[12.7499,11.4138,368.2939],[12.7549,11.4448,367.0221],[12.755,11.4712,369.5616],[12.7395,11.4903,372.7147],[12.7315,11.5162,371.4043],[12.7019,11.6588,362.1819],[12.7002,11.6959,358.4831],[12.7105,11.7162,349.3253],[12.7322,11.7239,344.5158],[12.7557,11.7349,348.0676],[12.7605,11.7603,347.6347],[12.7561,11.7742,348.2986],[12.7498,11.8346,340.7729],[12.7311,11.8588,341.8199],[12.7029,11.887,344.0679],[12.6647,11.9055,339.8458],[12.631,11.9154,335.8876],[12.6022,11.9112,335.2776],[12.5747,11.9238,339.6475],[12.5415,11.9309,345.2535],[12.4165,11.9359,353.8393],[12.3665,11.9316,353.9662],[12.2942,11.9197,357.9492],[12.3099,11.8364,365.4595],[12.2336,11.691,393.6664],[12.236,11.6601,392.6648],[12.2463,11.6544,390.6299],[12.2922,11.66,378.1698],[12.3256,11.6577,374.4333],[12.3549,11.6294,382.8322],[12.3762,11.5981,385.3171],[12.3897,11.545,395.8294],[12.3765,11.5171,396.7203],[12.384,11.5151,391.8905],[12.3986,11.5073,393.6049],[12.4137,11.4947,395.1491],[12.4304,11.4629,404.7202],[12.4485,11.4422,405.3564],[12.4543,11.4297,406.6305],[12.4728,11.4083,405.5482],[12.5168,11.3915,400.1959],[12.5403,11.376,385.7873],[12.5738,11.3585,383.2112],[12.599,11.3393,387.5272],[12.6303,11.3223,383.2669],[12.6503,11.2976,384.936],[12.6623,11.2942,384.4459],[12.6842,11.2729,392.8664],[12.7065,11.2587,396.1783],[12.7349,11.2513,398.4026],[12.7549,11.2545,393.3119],[12.8009,11.2824,372.2057]]]]}}