{"type": "Feature","bbox": [7.7374,12.5631,7.9749,12.8221],"geometry": {"type": "MultiPolygon","coordinates": [[[[7.8015,12.6188,552.3694],[7.8019,12.616,553.0543],[7.8096,12.6127,543.9821],[7.8145,12.6127,540.2275],[7.8416,12.6052,516.5092],[7.8622,12.607,512.0625],[7.8868,12.6034,529.3065],[7.8978,12.6053,530.9788],[7.9108,12.5914,515.0541],[7.922,12.5747,533.2615],[7.9309,12.5722,525.9581],[7.9412,12.5664,518.6923],[7.9611,12.5631,523.7309],[7.9594,12.572,519.4203],[7.9559,12.5777,512.6553],[7.9508,12.5927,525.4437],[7.9495,12.6023,509.7939],[7.9451,12.6071,505.2031],[7.9438,12.6124,513.5054],[7.9317,12.6308,507.7327],[7.9199,12.6362,505.1246],[7.9008,12.6346,511.5826],[7.8937,12.6361,516.0465],[7.8868,12.646,518.1703],[7.8889,12.6638,498.0308],[7.8946,12.6773,503.3429],[7.8974,12.6909,499.511],[7.8988,12.7085,484.8026],[7.8978,12.7128,484.6871],[7.9004,12.7306,491.066],[7.9086,12.7499,490.6674],[7.9148,12.7574,495.7426],[7.9237,12.7574,503.2613],[7.9291,12.7547,508.7701],[7.941,12.7459,504.5151],[7.9654,12.7224,522.4078],[7.9661,12.7443,509.2281],[7.9693,12.7524,508.9085],[7.9717,12.7686,506.4163],[7.9749,12.7709,510.6006],[7.9715,12.778,510.8797],[7.9647,12.7842,523.8428],[7.9644,12.7865,526.021],[7.9446,12.793,520.4796],[7.9253,12.8064,515.7598],[7.9143,12.8192,513.9379],[7.9101,12.8219,515.6921],[7.9065,12.8221,514.3911],[7.8849,12.8117,503.019],[7.8717,12.8155,495.29],[7.8423,12.8138,493.1958],[7.8075,12.8025,481.719],[7.7894,12.7929,495.1785],[7.7746,12.7888,498.8382],[7.7725,12.7895,501.2806],[7.7666,12.7774,507.5226],[7.7719,12.7255,525.8842],[7.771,12.7198,534.3251],[7.7673,12.7142,536.8436],[7.7595,12.7072,538.4995],[7.7574,12.7028,540.9302],[7.7514,12.6992,545.8171],[7.7413,12.6887,539.137],[7.7374,12.6804,548.7003],[7.7388,12.6758,550.5184],[7.7377,12.6721,544.6761],[7.7389,12.6631,549.5712],[7.7421,12.6539,551.7572],[7.7473,12.6519,544.8627],[7.7583,12.6504,537.1967],[7.7698,12.651,534.2018],[7.7877,12.6447,530.5564],[7.7903,12.6385,533.7725],[7.7989,12.6282,546.7462],[7.8015,12.6188,552.3694]]]]}
,"properties": {"GID_2": "NGA.21.5_1","GID_0": "NGA","country": "Nigeria","GID_1": "NGA.21_1","province": "Katsina","NL_NAME_1": "NA","county": "Bindawa","VARNAME_2": "NA","NL_NAME_2": "NA","TYPE_2": "LocalAuthority","ENGTYPE_2": "LocalAuthority","CC_2": "NA","HASC_2": "NA","name": "Bindawa.county","area_km2": 393.5304,"hist_schema_id": "Elevation0-9000","hist_area_km2": {"475": 40.4052,"500": 187.7208,"525": 149.6414,"550": 15.763}}}