{"type": "Feature","bbox": [6.9372,7.7628,9.6155,9.3624],"geometry": {"type": "MultiPolygon","coordinates": [[[[8.1141,7.8886,59.3412],[8.1475,7.8688,59.6479],[8.1701,7.8576,65.1468],[8.2229,7.8516,61.1921],[8.2548,7.8416,56.8316],[8.2722,7.8439,58.3365],[8.3005,7.8238,58.5703],[8.3257,7.7987,65.6537],[8.3496,7.7911,63.897],[8.367,7.7809,64.0811],[8.3817,7.7765,64.6109],[8.412,7.7628,60.9765],[8.4303,7.7805,66.0323],[8.4318,7.8024,81.2862],[8.4121,7.8574,83.1656],[8.3913,7.9016,76.0413],[8.3868,7.9206,80.9939],[8.3721,7.9515,99.7596],[8.3655,7.9738,108.1005],[8.3558,7.9899,155.1904],[8.353,8.0125,140.9828],[8.3579,8.0482,182.4431],[8.3669,8.0647,180.5337],[8.3711,8.0766,176.6817],[8.3911,8.0993,164.6393],[8.4549,8.1347,202.7596],[8.4959,8.1421,163.7663],[8.519,8.1421,166.7237],[8.5367,8.1402,176.5516],[8.5622,8.1349,171.9701],[8.6035,8.1165,134.1363],[8.7252,8.0752,119.7879],[8.7733,8.0651,122.2047],[8.8025,8.0559,143.4467],[8.8697,8.0452,139.7183],[8.9149,8.0435,122.5228],[8.9789,8.0471,191.7524],[8.979,8.0583,186.3965],[9.0466,8.0122,189.392],[9.1694,7.9145,72.7246],[9.1725,7.9141,75.5851],[9.1803,7.9297,101.6912],[9.1891,7.9369,122.0483],[9.2005,7.9415,120.4159],[9.2566,7.9784,81.2336],[9.2839,7.9942,97.3397],[9.3175,8.02,100.0998],[9.3419,8.0334,98.4002],[9.3491,8.0399,92.4344],[9.3599,8.0445,92.3276],[9.3704,8.0531,85.676],[9.3725,8.0622,91.7213],[9.3722,8.0722,93.7305],[9.3581,8.1037,105.115],[9.3593,8.1047,107.2737],[9.3561,8.1154,114.4202],[9.3648,8.1258,102.4441],[9.3591,8.1722,94.2432],[9.3264,8.2125,99.7085],[9.2987,8.2345,134.2262],[9.305,8.2468,121.7656],[9.3105,8.2805,94.4061],[9.332,8.3148,97.3558],[9.3527,8.3287,108.374],[9.3616,8.3299,110.6715],[9.3641,8.3279,112.0609],[9.3828,8.3288,119.4156],[9.3989,8.3177,132.5383],[9.4107,8.3143,130.1724],[9.4206,8.3055,126.6604],[9.4269,8.2971,108.1429],[9.4515,8.3008,103.0143],[9.4567,8.2942,97.9075],[9.4736,8.2914,110.1037],[9.4908,8.2849,131.8941],[9.5161,8.2826,148.8127],[9.5296,8.2788,135.7675],[9.562,8.2845,125.2116],[9.5738,8.292,141.4433],[9.5869,8.3044,144.2115],[9.6155,8.3512,136.0799],[9.5919,8.3944,140.8638],[9.5512,8.4276,146.0419],[9.4715,8.4568,131.1041],[9.3839,8.4973,132.2509],[9.2791,8.4689,125.3333],[9.2262,8.4524,106.3499],[9.1129,8.4536,105.6395],[9.0939,8.45,105.2836],[9.0348,8.4709,125.7794],[8.9888,8.4974,118.6016],[8.9888,8.4995,115.7225],[8.9849,8.4998,115.4037],[8.9516,8.5145,124.9004],[8.9439,8.5215,118.1141],[8.9284,8.5479,132.3981],[8.9307,8.5806,119.4671],[8.936,8.6073,131.0025],[8.9317,8.6422,164.1072],[8.928,8.6547,137.8605],[8.9105,8.6693,127.6278],[8.8942,8.6938,132.813],[8.8914,8.7047,136.4002],[8.8838,8.7214,150.5774],[8.8868,8.7304,158.1098],[8.8833,8.7313,164.4037],[8.889,8.7575,205.0476],[8.8936,8.766,174.6437],[8.9052,8.7704,148.4811],[8.9141,8.7795,149.8142],[8.9146,8.7839,163.6316],[8.921,8.79,169.8913],[8.9339,8.8188,189.5327],[8.9391,8.8254,200.4194],[8.9555,8.8388,209.0798],[8.9627,8.8423,193.6864],[8.9705,8.8443,204.4252],[8.9791,8.8432,190.0169],[8.9855,8.8455,194.4565],[9.0024,8.8568,215.8284],[9.009,8.8665,223.5816],[9.0195,8.8773,243.7873],[9.0262,8.8913,252.2163],[9.035,8.8985,253.9521],[9.0476,8.9147,242.9612],[9.0633,8.9418,269.4867],[9.0656,8.9564,292.6837],[9.0752,8.9748,310.5567],[9.076,8.9888,333.5997],[9.0674,9.0024,387.2788],[9.0576,9.0076,362.9642],[9.0548,9.0127,367.2802],[9.0436,9.0242,454.632],[9.0267,9.0333,759.913],[9.0118,9.0302,776.2909],[8.9849,9.0173,865.9694],[8.9819,9.0154,832.6832],[8.982,9.0117,792.1182],[8.9511,9.0135,849.9724],[8.9331,9.0116,866.8975],[8.9108,9.0123,376.6423],[8.8811,9.0181,574.9357],[8.8599,9.0203,511.0416],[8.8362,9.0206,518.4485],[8.824,9.0273,302.4691],[8.8178,9.0283,320.392],[8.8013,9.0364,291.0339],[8.7825,9.0667,477.4109],[8.7702,9.0911,1176.3037],[8.7666,9.1074,1025.9363],[8.7689,9.1205,917.8477],[8.7674,9.1364,1090.9811],[8.7645,9.1534,1081.7163],[8.7601,9.1629,1139.7832],[8.7502,9.1688,1177.76],[8.7264,9.1767,1172.3574],[8.7112,9.1787,1186.0007],[8.6987,9.1765,1228.4675],[8.6872,9.1783,1169.6644],[8.6781,9.1833,1221.4878],[8.6646,9.1957,1023.6859],[8.66,9.2048,1110.2321],[8.6507,9.2047,739.6998],[8.6424,9.1958,866.5852],[8.6245,9.1621,551.6811],[8.6207,9.1485,568.4359],[8.5995,9.1056,501.3677],[8.57,9.0618,430.4629],[8.5462,9.0189,412.0737],[8.5329,9.0074,404.3969],[8.5068,9.0007,366.7908],[8.4934,8.9998,384.0374],[8.467,9.0028,402.6322],[8.4599,9.0193,427.3664],[8.4573,9.0333,468.053],[8.4406,9.0524,845.1518],[8.4188,9.0728,562.9344],[8.386,9.1164,504.4927],[8.3711,9.1281,497.4315],[8.3393,9.1276,480.3436],[8.3094,9.132,476.1024],[8.2936,9.1425,486.0479],[8.2853,9.1521,489.2928],[8.2637,9.1556,471.653],[8.2492,9.1469,459.8572],[8.2429,9.1399,443.186],[8.2285,9.1093,463.5753],[8.1613,9.0331,488.5162],[8.1235,9.0074,472.6103],[8.1125,9.0041,489.2457],[8.0998,9.0051,471.151],[8.0939,9.0073,463.748],[8.0831,9.0194,391.6457],[8.0824,9.0284,414.5987],[8.0796,9.0295,452.9386],[8.0767,9.0405,403.9863],[8.0768,9.0859,346.2402],[8.0792,9.1047,357.7689],[8.0813,9.1494,398.4089],[8.08,9.1782,396.3692],[8.0775,9.1962,428.9341],[8.0709,9.2097,441.8968],[8.0608,9.222,453.5364],[8.0536,9.2252,444.0696],[8.034,9.242,441.7819],[7.9998,9.2537,770.0935],[7.9928,9.2612,640.4644],[7.9915,9.2694,605.782],[7.993,9.2992,686.8958],[7.9875,9.3134,546.5576],[7.9623,9.331,456.3799],[7.9579,9.3387,559.8309],[7.9402,9.3562,639.8425],[7.9321,9.3604,618.6875],[7.9224,9.3624,480.3104],[7.9113,9.3611,623.0726],[7.9061,9.3568,592.3022],[7.8893,9.3393,601.4725],[7.8883,9.3301,466.8907],[7.8794,9.3228,476.3134],[7.8656,9.2922,408.987],[7.8643,9.2821,412.371],[7.8543,9.2745,410.5086],[7.8508,9.2657,386.9546],[7.8319,9.2498,375.0898],[7.8161,9.2473,385.0814],[7.8093,9.2483,388.323],[7.785,9.2645,408.0599],[7.7809,9.2654,395.9077],[7.7593,9.2614,432.346],[7.7529,9.2641,424.7556],[7.7492,9.2679,422.3877],[7.7396,9.2715,425.8002],[7.7356,9.276,435.9352],[7.7342,9.2813,448.7067],[7.7199,9.2901,427.1768],[7.7049,9.2923,452.6105],[7.6999,9.2879,454.9067],[7.6875,9.282,616.4719],[7.6807,9.2826,634.5615],[7.6739,9.2881,597.7761],[7.6693,9.2952,603.2324],[7.6642,9.3199,701.3152],[7.6596,9.3254,732.8273],[7.6517,9.3276,744.8883],[7.6476,9.3271,725.7722],[7.6258,9.3107,724.0782],[7.6265,9.2973,699.8089],[7.6285,9.2911,690.0038],[7.6248,9.2717,666.9725],[7.6179,9.2617,651.7369],[7.6012,9.2606,646.4353],[7.5928,9.2508,685.3655],[7.5762,9.204,694.0603],[7.5711,9.1815,752.5859],[7.5644,9.1662,716.9624],[7.5586,9.1461,676.5641],[7.5599,9.1207,715.2936],[7.5562,9.0975,734.7361],[7.5581,9.0786,590.1347],[7.5574,9.0559,594.4218],[7.5657,9.0207,432.2261],[7.5652,9.0075,423.1462],[7.5629,9.004,427.5314],[7.5619,8.9982,416.9536],[7.5628,8.9689,393.9269],[7.5572,8.9521,385.2185],[7.5597,8.9325,410.0626],[7.5568,8.9083,385.5052],[7.5464,8.8819,456.3207],[7.5429,8.8633,426.4874],[7.5379,8.8558,435.9088],[7.5344,8.8402,481.7856],[7.5247,8.8237,512.4995],[7.5238,8.8097,605.2021],[7.5179,8.7901,651.6361],[7.5134,8.7528,712.2536],[7.507,8.7262,704.4594],[7.5027,8.7193,672.0722],[7.5002,8.6959,623.5465],[7.4875,8.6901,601.1501],[7.4802,8.6717,586.4095],[7.4699,8.6355,610.4686],[7.4531,8.609,494.3791],[7.4374,8.5933,270.0677],[7.4086,8.5532,213.3434],[7.4029,8.5432,227.3463],[7.3921,8.5348,207.5914],[7.3733,8.5252,191.9182],[7.3566,8.5209,185.0453],[7.3158,8.496,388.0145],[7.2874,8.4833,185.5187],[7.2797,8.4763,179.3065],[7.2634,8.4715,191.7592],[7.2048,8.4591,225.1215],[7.1799,8.4471,241.6297],[7.1579,8.4398,187.8336],[7.0912,8.4306,136.3409],[7.0637,8.4237,171.711],[7.0214,8.4219,185.2689],[7.0072,8.415,187.7708],[6.9782,8.4118,217.5898],[6.9684,8.3693,164.9744],[6.96,8.3514,144.0977],[6.9434,8.3265,88.6788],[6.9434,8.3127,149.3986],[6.9479,8.305,153.397],[6.9494,8.2964,149.4869],[6.9566,8.2855,200.1239],[6.9719,8.273,245.3455],[6.9754,8.2609,234.216],[6.9779,8.2604,237.7956],[6.9919,8.2427,230.432],[6.9931,8.2272,197.6313],[6.991,8.2118,196.5589],[7.0004,8.1948,248.606],[7.0004,8.1779,143.4032],[6.9974,8.1627,140.3233],[7.0007,8.1433,263.2347],[6.9817,8.0675,116.172],[6.9832,8.0426,141.0018],[6.9812,7.9921,110.9377],[6.9552,7.9651,85.0484],[6.9414,7.9309,65.6856],[6.9372,7.8945,44.2142],[6.9386,7.8708,41.5],[6.9498,7.8618,41.5],[6.9656,7.8675,43.7665],[6.9977,7.8981,42.0],[7.0187,7.9093,42.0],[7.0435,7.9179,46.1768],[7.0656,7.9274,44.2363],[7.0847,7.9382,47.2537],[7.1156,7.9499,43.5385],[7.1682,7.9748,42.0],[7.1881,7.9823,42.0],[7.2357,7.9963,44.5809],[7.2635,8.0013,46.9406],[7.3321,8.0175,46.7428],[7.3685,8.0291,46.7343],[7.4537,8.0396,55.4056],[7.4828,8.0403,49.2858],[7.5083,8.0373,49.1793],[7.5405,8.0294,56.1007],[7.6178,8.0223,51.3003],[7.6775,8.0197,50.0922],[7.7145,8.01,46.8894],[7.768,7.99,54.8638],[7.8124,7.9802,50.1115],[7.8709,7.9718,54.3039],[7.9028,7.9711,50.0548],[7.9499,7.9601,50.0118],[7.9689,7.9492,58.1184],[7.9783,7.9456,58.0671],[7.9797,7.9474,59.1343],[8.0019,7.9343,59.3438],[8.06,7.9126,60.0979],[8.0905,7.903,60.2634],[8.1141,7.8886,59.3412]]]]}
,"properties": {"GID_1": "NGA.26_1","GID_0": "NGA","country": "Nigeria","province": "Nasarawa","VARNAME_1": "NA","NL_NAME_1": "NA","TYPE_1": "State","ENGTYPE_1": "State","CC_1": "NA","HASC_1": "NG.NA","ISO_1": "NG-NA","name": "Nasarawa.province","area_km2": 26440.16,"hist_schema_id": "Elevation0-9000","hist_area_km2": {"50": 1259.33,"75": 1055.28,"100": 1734.33,"125": 2948.77,"150": 3345.09,"175": 2923.21,"200": 2485.25,"225": 1666.91,"250": 1107.92,"275": 995.97,"300": 875.27,"325": 836.71,"350": 855.33,"375": 869.0,"400": 808.08,"425": 628.22,"450": 563.0,"475": 491.93,"500": 256.27,"525": 113.22,"550": 84.61,"575": 81.69,"600": 69.32,"625": 62.53,"650": 53.87,"675": 42.96,"700": 42.58,"725": 41.47,"750": 35.78,"775": 25.9,"800": 15.12,"825": 11.01,"850": 8.06,"875": 5.44,"900": 4.25,"925": 3.24,"950": 3.22,"975": 2.74,"1000": 2.22,"1025": 2.57,"1050": 2.47,"1075": 2.49,"1100": 2.64,"1125": 3.27,"1150": 3.77,"1175": 3.5,"1200": 2.41,"1225": 0.92,"1250": 0.48,"1275": 0.42}}}