{"type":"Feature","properties":{"ISO3166-1-Alpha-3":"NGA","country":"Nigeria","fill":"#00F","id":"2867","name":"Nassarawa"},
"geometry":{"type": "Polygon","coordinates": [[[8.0998,9.00501,471.151],[8.07406,9.10164,353.1102],[8.06342,9.21879,452.7448],[8.02404,9.24218,461.6759],[7.99179,9.26791,608.6786],[7.99241,9.29328,584.617],[7.98342,9.31597,495.6244],[7.95086,9.34594,642.2648],[7.88947,9.33643,596.1213],[7.85071,9.26569,386.9546],[7.81661,9.25065,445.8099],[7.78219,9.26507,404.8003],[7.76576,9.26538,416.5286],[7.74912,9.26786,422.3877],[7.72452,9.28755,426.8748],[7.69259,9.28501,474.4585],[7.66861,9.29757,630.4076],[7.65393,9.32372,743.0818],[7.62582,9.3107,724.0782],[7.6282,9.2908,690.0038],[7.62479,9.27163,666.9725],[7.6128,9.26398,674.6587],[7.60122,9.26055,646.4353],[7.58293,9.22773,684.8331],[7.55988,9.12061,715.2936],[7.5574,9.05841,594.7629],[7.56112,8.96075,407.772],[7.5143,8.7589,688.768],[7.4711,8.63916,596.1987],[7.43586,8.5832,266.3802],[7.39214,8.53478,207.5914],[7.26346,8.47145,191.7592],[7.12228,8.43377,209.5148],[6.97811,8.41176,217.5898],[6.96963,8.37771,174.2062],[6.94483,8.31296,163.0537],[6.99309,8.2281,197.6313],[6.99733,8.16271,137.0995],[6.98183,8.01579,105.8018],[6.96984,7.98445,107.6838],[6.95155,7.95616,177.6389],[6.94018,7.91613,41.8176],[6.93842,7.87443,41.5],[6.94679,7.87228,42.9513],[6.97046,7.88215,41.5],[7.00498,7.90352,42.0],[7.02431,7.92063,42.0],[7.03144,7.92394,42.0],[7.03268,7.92952,42.0],[7.08404,7.96008,43.1677],[7.28579,8.02809,46.1573],[7.31927,8.03163,42.5],[7.49518,8.01636,71.769],[7.63667,8.03005,50.7288],[7.65331,8.02886,47.7173],[7.66602,8.02571,48.7616],[7.71677,8.01305,46.533],[7.78116,8.00602,46.3465],[7.8288,7.98993,51.1985],[7.86322,7.98197,53.8424],[7.93391,7.97373,53.9258],[7.96823,7.9644,48.5],[8.01835,7.93507,58.8562],[8.0353,7.92846,59.0287],[8.11954,7.91412,60.2453],[8.14692,7.90414,59.5854],[8.20036,7.87652,57.0387],[8.23219,7.86717,61.7102],[8.26433,7.86391,57.6161],[8.29338,7.85554,60.4593],[8.31611,7.831,65.9694],[8.36241,7.80565,64.5079],[8.38732,7.78648,57.0],[8.39859,7.78035,57.5],[8.41078,7.77637,61.843],[8.41823,7.77508,61.1706],[8.43104,7.79141,75.5387],[8.42484,7.82647,87.7718],[8.3774,7.92928,87.5863],[8.35435,8.00117,142.1885],[8.37058,8.07155,172.2163],[8.42618,8.1185,154.4525],[8.55796,8.13335,181.0086],[8.75981,8.0663,116.2118],[8.83257,8.05075,146.4762],[8.94233,8.04708,122.3909],[8.97891,8.04984,195.1235],[8.97891,8.05545,191.2442],[9.16939,7.91445,72.7246],[9.20391,7.94368,120.2647],[9.34902,8.03985,92.4344],[9.36959,8.05785,93.8862],[9.36628,8.08436,105.9748],[9.35863,8.10294,105.115],[9.36039,8.12054,107.4251],[9.35729,8.17139,94.4009],[9.30386,8.23805,128.5927],[9.30809,8.26869,101.5692],[9.31864,8.29471,94.5931],[9.33517,8.31696,98.4296],[9.35998,8.32722,108.9724],[9.40928,8.31071,129.2681],[9.43253,8.29836,109.012],[9.46106,8.29342,100.6002],[9.49082,8.28487,131.8941],[9.51924,8.28074,148.1477],[9.54746,8.282,139.1959],[9.58828,8.30815,148.8004],[9.61547,8.35117,136.0799],[9.57877,8.4036,142.1472],[9.52493,8.43716,159.3358],[9.40773,8.48638,165.8642],[9.3454,8.4885,116.6755],[9.28174,8.46943,124.9462],[9.19006,8.45372,102.4283],[9.09581,8.4545,104.6612],[9.03483,8.47085,125.7794],[8.95163,8.51442,124.9004],[8.92982,8.55565,124.6824],[8.9354,8.60387,129.6835],[8.92848,8.64534,162.5489],[8.90419,8.67926,125.4831],[8.88466,8.72743,151.7164],[8.90192,8.76939,160.0735],[8.92714,8.79957,167.793],[8.9508,8.83512,215.7073],[8.9878,8.84701,201.5806],[9.01106,8.86972,231.3427],[9.05323,8.9262,247.6442],[9.06811,8.96108,302.0407],[9.07307,8.98974,355.6815],[9.05519,9.01214,373.8166],[9.02759,9.03015,654.7989],[8.99607,9.02198,885.8777],[8.98078,9.01472,783.5117],[8.96393,9.01222,800.7286],[8.89572,9.01116,317.6917],[8.83009,9.02389,327.565],[8.78223,9.07239,585.9949],[8.76663,9.14071,974.5372],[8.71785,9.17631,1152.4292],[8.65997,9.20476,1110.2321],[8.62307,9.16197,557.8457],[8.59713,9.10226,514.4044],[8.5654,9.04679,413.465],[8.52261,9.00402,394.6843],[8.48365,8.99919,392.7879],[8.45884,9.0233,439.358],[8.44572,9.04583,503.6646],[8.42629,9.06464,547.6327],[8.38598,9.11634,504.4927],[8.29596,9.14058,475.2848],[8.26351,9.15319,473.488],[8.23663,9.12825,452.5254],[8.17917,9.04813,477.2366],[8.0998,9.00501,471.151]]]}}