{"type": "Feature","bbox": [4.1359,11.6357,4.5902,12.2638],"geometry": {"type": "MultiPolygon","coordinates": [[[[4.266,12.2638,206.1751],[4.2618,12.2572,212.4845],[4.2517,12.2314,226.4897],[4.248,12.2263,225.3191],[4.2325,12.2148,233.0856],[4.2234,12.1979,256.5339],[4.2166,12.1738,230.0158],[4.2124,12.1686,237.3664],[4.1996,12.163,242.8795],[4.1983,12.1565,239.9548],[4.1925,12.1527,234.6836],[4.1723,12.1453,208.3515],[4.1626,12.1378,239.515],[4.1612,12.1182,230.495],[4.1557,12.1112,234.1024],[4.156,12.0941,216.9818],[4.1512,12.0837,206.1458],[4.1461,12.0804,205.2036],[4.1359,12.0775,203.2505],[4.1359,12.0747,203.0349],[4.1429,12.0348,179.3699],[4.156,12.0193,209.6094],[4.1822,12.0036,213.7362],[4.1977,11.9976,193.1108],[4.2165,11.993,207.1156],[4.2352,11.9807,221.5637],[4.2466,11.9686,249.1109],[4.2582,11.9417,218.8083],[4.2724,11.8728,238.1086],[4.2831,11.8011,238.1928],[4.2842,11.7739,220.0388],[4.2803,11.7563,196.1427],[4.2799,11.6891,171.7366],[4.2814,11.6656,199.5128],[4.2874,11.6393,233.3037],[4.3139,11.6516,245.2181],[4.3448,11.655,245.999],[4.3597,11.6697,237.2534],[4.373,11.6728,234.6165],[4.3878,11.6707,220.5075],[4.3972,11.6715,203.1084],[4.4008,11.675,193.1964],[4.4101,11.6693,209.1452],[4.4186,11.6606,217.1221],[4.4246,11.6503,231.6528],[4.4358,11.6396,243.1906],[4.4646,11.6408,218.5652],[4.478,11.6371,205.2898],[4.5249,11.6357,187.9247],[4.539,11.6853,213.846],[4.5812,11.775,270.3704],[4.5902,11.8282,248.233],[4.5782,11.8292,257.4757],[4.5578,11.8359,263.2652],[4.5021,11.8623,256.3113],[4.4821,11.8687,271.5875],[4.466,11.8817,267.6604],[4.448,11.8831,259.2321],[4.4274,11.8801,254.405],[4.3963,11.9128,285.9266],[4.3745,11.9742,253.7165],[4.3847,11.9817,279.1201],[4.4063,11.9916,267.6663],[4.4124,12.0033,256.3292],[4.4042,12.0258,262.1527],[4.3778,12.0507,254.7464],[4.3779,12.0719,245.8132],[4.3683,12.1034,238.9904],[4.3521,12.1247,233.2148],[4.3443,12.1445,239.2469],[4.333,12.1635,222.1445],[4.3231,12.1861,216.3359],[4.32,12.2063,196.9705],[4.3031,12.2403,190.3557],[4.266,12.2638,206.1751]]]]}
,"properties": {"GID_2": "NGA.22.15_1","GID_0": "NGA","country": "Nigeria","GID_1": "NGA.22_1","province": "Kebbi","NL_NAME_1": "NA","county": "Maiyama","VARNAME_2": "NA","NL_NAME_2": "NA","TYPE_2": "LocalAuthority","ENGTYPE_2": "LocalAuthority","CC_2": "NA","HASC_2": "NA","name": "Maiyama.county","area_km2": 1481.847,"hist_schema_id": "Elevation0-9000","hist_area_km2": {"175": 121.551,"200": 247.445,"225": 546.484,"250": 451.278,"275": 107.953,"300": 7.137}}}