{"type":"Feature","properties":{"GID_2":"NGA.19.4_1","GID_0":"NGA","country":"Nigeria","GID_1":"NGA.19_1","province":"Kaduna","NL_NAME_1":"NA","county":"Igabi","VARNAME_2":"NA","NL_NAME_2":"NA","TYPE_2":"LocalAuthority","ENGTYPE_2":"LocalAuthority","CC_2":"NA","HASC_2":"NA","name":"Igabi.county"},
"geometry":{"type": "MultiPolygon","coordinates": [[[[7.1889,10.6995,599.0225],[7.1927,10.698,606.022],[7.1908,10.6888,597.5727],[7.1989,10.678,605.7482],[7.1946,10.6664,577.4821],[7.206,10.6529,608.9055],[7.2388,10.6393,582.459],[7.2518,10.6286,583.764],[7.2604,10.615,616.3617],[7.2504,10.5942,583.1861],[7.2418,10.5705,587.0739],[7.2431,10.5482,571.733],[7.253,10.5158,568.8918],[7.2499,10.5005,587.3524],[7.2394,10.488,567.4848],[7.2478,10.4648,601.1644],[7.2446,10.447,604.0701],[7.2346,10.4215,583.3236],[7.2394,10.3944,553.497],[7.2483,10.3728,595.7529],[7.2605,10.3658,578.3114],[7.283,10.3788,582.7868],[7.2923,10.3904,585.7474],[7.2907,10.4017,594.4213],[7.2961,10.4188,594.4723],[7.2969,10.4285,590.035],[7.2929,10.446,580.2268],[7.3104,10.4649,605.1264],[7.3224,10.4736,605.0541],[7.3614,10.4706,596.9211],[7.3893,10.4526,594.1969],[7.3916,10.4465,580.3045],[7.3937,10.4522,582.6268],[7.3938,10.4579,595.716],[7.3972,10.4626,603.3099],[7.3996,10.4871,580.1332],[7.4123,10.5144,600.2593],[7.4212,10.5426,613.8964],[7.4191,10.5525,613.9947],[7.4199,10.5583,622.4413],[7.4295,10.5739,612.2719],[7.4314,10.5801,621.4114],[7.4313,10.5871,642.2325],[7.4267,10.5951,625.6808],[7.4276,10.5985,636.3975],[7.4313,10.6025,636.3741],[7.432,10.6078,639.9311],[7.4317,10.6313,640.9008],[7.4383,10.6362,632.1961],[7.4549,10.6369,631.6545],[7.482,10.6327,593.2134],[7.4827,10.6216,602.7615],[7.4792,10.6105,592.7516],[7.4844,10.5983,606.9348],[7.4807,10.5868,585.2663],[7.4829,10.57,589.5279],[7.4819,10.5651,585.2966],[7.4779,10.5614,593.806],[7.4734,10.5602,600.3831],[7.4731,10.5549,604.1582],[7.478,10.5554,597.428],[7.479,10.5476,582.4658],[7.4778,10.5388,579.7484],[7.4712,10.5378,591.0503],[7.4718,10.5265,582.6703],[7.4735,10.5244,590.0544],[7.4789,10.5241,602.2586],[7.4795,10.5174,597.3997],[7.476,10.5116,589.9721],[7.4804,10.4889,628.4001],[7.4978,10.4932,639.2856],[7.5139,10.4995,602.1539],[7.5562,10.5104,656.8969],[7.6054,10.5285,639.9062],[7.6405,10.5464,618.2531],[7.6875,10.5547,630.4617],[7.7256,10.5656,638.0018],[7.7459,10.5609,605.2101],[7.7577,10.5439,608.4368],[7.7624,10.53,602.634],[7.7598,10.5162,618.3398],[7.7865,10.5009,622.8472],[7.7987,10.496,611.1464],[7.803,10.4893,625.8462],[7.8174,10.4961,624.6333],[7.8303,10.4956,606.4968],[7.839,10.4892,612.1335],[7.8386,10.4815,622.7994],[7.8452,10.4793,635.8823],[7.8765,10.4856,629.943],[7.908,10.5175,625.0549],[7.9186,10.5234,644.5988],[7.9309,10.5223,636.5463],[7.9426,10.518,650.1368],[7.9532,10.5207,655.9464],[7.9632,10.5305,636.7076],[7.9728,10.534,649.7855],[7.9854,10.5307,648.6049],[8.0002,10.529,651.7734],[8.0183,10.5319,647.793],[7.9895,10.5802,616.397],[7.9706,10.6181,663.6517],[7.9648,10.6511,664.0417],[7.8769,10.6634,645.575],[7.8534,10.6771,642.9966],[7.8466,10.6995,642.9445],[7.8281,10.7445,622.365],[7.7963,10.777,599.1573],[7.7738,10.8074,614.5474],[7.7738,10.8234,620.8279],[7.7786,10.8341,624.3677],[7.785,10.8411,606.8372],[7.7984,10.8486,615.2531],[7.8094,10.8667,624.0829],[7.8174,10.8918,634.7443],[7.8235,10.9224,630.6189],[7.8054,10.9572,638.0568],[7.7974,10.9521,632.5214],[7.7606,10.945,623.4932],[7.7045,10.9447,662.9065],[7.672,10.9487,664.5446],[7.6499,10.9548,691.0277],[7.6323,10.9661,671.67],[7.626,10.9799,684.7954],[7.6224,11.0008,667.426],[7.6029,11.0005,659.1351],[7.5717,10.9971,635.4111],[7.5573,10.9986,644.0016],[7.5335,10.9978,651.3704],[7.5233,10.9928,657.1604],[7.4953,10.9962,632.2693],[7.4594,11.0038,638.6698],[7.4464,11.0104,640.8063],[7.429,11.0139,635.1801],[7.4098,11.0143,653.668],[7.3944,11.0088,650.0377],[7.3788,10.9861,637.234],[7.3781,10.9683,629.7042],[7.3734,10.9364,617.2075],[7.361,10.9162,600.3054],[7.3463,10.8952,622.3864],[7.3327,10.8792,607.3025],[7.321,10.8603,614.954],[7.2974,10.8372,584.7562],[7.2788,10.8273,597.9287],[7.2592,10.8225,609.4651],[7.2414,10.8211,622.8167],[7.2184,10.8241,647.8276],[7.1926,10.8228,639.0565],[7.1695,10.8198,620.3672],[7.1529,10.8146,606.4245],[7.1624,10.787,625.7076],[7.1622,10.7729,615.8546],[7.166,10.7496,603.2778],[7.1757,10.7234,601.9582],[7.1912,10.7045,598.5259],[7.1889,10.6995,599.0225]]]]}}