{"type":"Feature","properties":{"GID_2":"NGA.36.12_1","GID_0":"NGA","country":"Nigeria","GID_1":"NGA.36_1","province":"Yobe","NL_NAME_1":"NA","county":"Nangere","VARNAME_2":"NA","NL_NAME_2":"NA","TYPE_2":"LocalAuthority","ENGTYPE_2":"LocalAuthority","CC_2":"NA","HASC_2":"NA","name":"Nangere.county"},
"geometry":{"type": "MultiPolygon","coordinates": [[[[10.9748,11.4956,490.9105],[11.0167,11.5272,469.9357],[11.0382,11.5482,451.9732],[11.0673,11.5936,453.1462],[11.0697,11.6212,440.2622],[11.0658,11.6376,426.6512],[11.0516,11.6662,428.0649],[11.082,11.7088,426.2306],[11.0933,11.7197,425.5016],[11.0961,11.7332,417.5683],[11.1065,11.749,412.2102],[11.1252,11.7538,418.495],[11.1363,11.7654,424.0203],[11.162,11.7823,412.7373],[11.1733,11.7915,402.7194],[11.1802,11.7984,397.8032],[11.1835,11.8062,395.5237],[11.15,11.8225,397.0572],[11.1141,11.8465,391.7717],[11.0721,11.8957,383.4609],[11.0489,11.9352,379.7361],[11.0397,11.9595,376.4336],[11.0364,11.9808,374.4137],[11.0347,12.0241,371.2045],[11.0526,12.0478,369.3346],[11.0641,12.0702,365.2169],[11.0551,12.069,364.5729],[10.9911,12.0316,368.6462],[10.983,12.0219,369.7235],[10.9732,12.002,370.5236],[10.9321,11.977,364.1112],[10.9239,11.9617,371.6164],[10.9041,11.9332,373.5854],[10.8845,11.9083,379.8785],[10.8536,11.8735,381.6885],[10.8486,11.8649,384.0573],[10.877,11.7891,395.0837],[10.8956,11.7601,401.1808],[10.9089,11.7304,409.7936],[10.932,11.669,425.3504],[10.9589,11.6062,447.5438],[10.9754,11.5548,471.8423],[10.9767,11.5078,487.2835],[10.9748,11.4956,490.9105]]]]}}