{"type":"Feature","properties":{"GID_2":"NGA.30.13_1","GID_0":"NGA","country":"Nigeria","GID_1":"NGA.30_1","province":"Osun","NL_NAME_1":"NA","county":"IfeSouth","VARNAME_2":"NA","NL_NAME_2":"NA","TYPE_2":"LocalAuthority","ENGTYPE_2":"LocalAuthority","CC_2":"NA","HASC_2":"NA","name":"Ife_South.county"},
"geometry":{"type": "MultiPolygon","coordinates": [[[[4.7111,7.1475,222.3236],[4.7076,7.1626,230.3493],[4.707,7.1835,208.8336],[4.7219,7.2022,212.6964],[4.73,7.2062,196.2981],[4.7373,7.2139,201.3399],[4.7373,7.2187,193.8282],[4.732,7.2181,214.8264],[4.7137,7.2249,238.6287],[4.703,7.2359,252.9468],[4.6923,7.2423,315.534],[4.6897,7.253,259.435],[4.6897,7.2792,296.5779],[4.6843,7.304,271.8145],[4.7007,7.3348,285.421],[4.7018,7.3433,307.4457],[4.6972,7.3611,254.7358],[4.6912,7.3762,282.6943],[4.6838,7.3886,257.0328],[4.6745,7.3982,309.5013],[4.6708,7.3966,418.4467],[4.666,7.3877,370.0791],[4.6579,7.3844,294.7066],[4.6369,7.3709,248.9945],[4.6273,7.3722,256.0298],[4.6219,7.3693,251.2156],[4.6136,7.369,270.6427],[4.6102,7.3582,215.853],[4.6115,7.3513,213.0572],[4.615,7.3448,218.541],[4.6171,7.3318,205.2364],[4.621,7.3251,207.9941],[4.6192,7.3152,207.7065],[4.62,7.3088,200.1575],[4.6077,7.2878,187.5409],[4.6096,7.2817,200.6752],[4.608,7.2643,209.6233],[4.5999,7.2496,206.0735],[4.5982,7.2421,215.6216],[4.5923,7.2387,205.4859],[4.5872,7.2376,199.8019],[4.5855,7.2418,193.0665],[4.5849,7.2511,172.759],[4.589,7.2733,191.2955],[4.5882,7.2793,198.2167],[4.5779,7.2883,183.1367],[4.5941,7.3182,227.8282],[4.5951,7.323,231.2274],[4.5936,7.3281,220.3099],[4.5789,7.3512,228.9086],[4.571,7.3584,228.6763],[4.5524,7.3516,299.9953],[4.5494,7.3477,301.7729],[4.5483,7.3381,241.854],[4.542,7.323,247.7883],[4.5094,7.2862,226.0031],[4.5122,7.2753,211.7575],[4.5064,7.2478,187.534],[4.5049,7.2261,188.4905],[4.5007,7.2239,196.8283],[4.5021,7.2193,209.0943],[4.4985,7.2129,207.9698],[4.4819,7.201,191.0677],[4.4784,7.1946,176.1102],[4.4756,7.1838,180.3971],[4.4752,7.1734,172.0848],[4.4688,7.1583,158.6178],[4.4643,7.14,175.6793],[4.4538,7.1279,192.5062],[4.4492,7.1167,182.0512],[4.451,7.1121,178.2383],[4.4544,7.1095,186.1101],[4.4595,7.1099,169.8484],[4.4681,7.1051,159.0401],[4.4752,7.099,171.5114],[4.4783,7.0906,166.4408],[4.4846,7.0816,142.6505],[4.4987,7.0841,133.7404],[4.5117,7.0905,117.4459],[4.5214,7.0867,133.1976],[4.5389,7.0866,165.22],[4.5432,7.081,193.1459],[4.5432,7.0704,186.5524],[4.5471,7.0531,184.9228],[4.5518,7.0417,162.366],[4.5953,7.0055,139.5985],[4.6042,7.0113,155.4129],[4.6118,7.0218,147.8545],[4.6194,7.0373,150.0628],[4.623,7.0555,165.6851],[4.6283,7.072,162.5945],[4.639,7.0914,212.2209],[4.6704,7.1211,220.4322],[4.6926,7.1355,242.7628],[4.6954,7.1403,207.9402],[4.7111,7.1475,222.3236]]]]}}