{"type":"Feature","properties":{"GID_2":"NGA.14.13_1","GID_0":"NGA","country":"Nigeria","GID_1":"NGA.14_1","province":"Enugu","NL_NAME_1":"NA","county":"Nsukka","VARNAME_2":"NA","NL_NAME_2":"NA","TYPE_2":"LocalAuthority","ENGTYPE_2":"LocalAuthority","CC_2":"NA","HASC_2":"NA","name":"Nsukka.county"},
"geometry":{"type": "MultiPolygon","coordinates": [[[[7.4464,6.7602,467.7834],[7.4541,6.7619,472.1535],[7.4651,6.7698,410.8267],[7.4741,6.7712,332.1617],[7.4854,6.7687,305.8548],[7.4969,6.7685,281.507],[7.5082,6.7711,272.179],[7.5385,6.7734,218.8036],[7.5519,6.7764,229.6563],[7.561,6.7813,208.9962],[7.5667,6.789,258.7273],[7.568,6.7933,261.3439],[7.5543,6.8079,245.533],[7.5356,6.8101,275.8478],[7.5259,6.8197,303.8863],[7.5024,6.8242,435.4305],[7.4913,6.8239,484.1938],[7.4718,6.8319,474.8411],[7.4522,6.8308,495.6572],[7.4405,6.8356,472.48],[7.4383,6.8387,481.886],[7.4389,6.8476,479.6526],[7.4335,6.871,473.2473],[7.4185,6.8823,390.9803],[7.413,6.8898,371.4896],[7.4071,6.8929,372.5892],[7.3924,6.898,374.2922],[7.3837,6.8993,336.2267],[7.3601,6.8944,311.5215],[7.3424,6.9009,292.0432],[7.3212,6.9008,281.5115],[7.301,6.9083,262.5639],[7.2953,6.9146,305.1313],[7.2909,6.9241,231.2821],[7.2894,6.9347,203.3184],[7.2912,6.9564,252.9565],[7.296,6.9862,221.7931],[7.2912,7.0045,210.6139],[7.2842,7.0109,232.0041],[7.2781,7.0137,235.6491],[7.2705,7.0009,233.3996],[7.2599,6.9909,173.7316],[7.2265,6.9518,199.6051],[7.216,6.9437,164.588],[7.2091,6.932,175.8504],[7.1839,6.9143,162.8442],[7.1768,6.9116,147.0593],[7.1863,6.904,184.0881],[7.2085,6.8926,200.4256],[7.2177,6.8816,253.6626],[7.2535,6.866,228.6494],[7.2649,6.8577,299.5507],[7.2752,6.8536,329.1547],[7.2828,6.836,320.4594],[7.2838,6.8298,342.1358],[7.277,6.7787,398.5398],[7.278,6.7732,285.8716],[7.2832,6.7616,247.5332],[7.2898,6.7555,305.9945],[7.2966,6.7517,265.0489],[7.3022,6.7414,253.8608],[7.3102,6.7371,304.3465],[7.3096,6.7298,258.6989],[7.3118,6.7235,274.4669],[7.3079,6.7193,261.1731],[7.3275,6.7189,427.2162],[7.3643,6.727,412.1071],[7.3727,6.7349,448.7261],[7.3989,6.746,481.9541],[7.4094,6.7525,459.1119],[7.4162,6.7588,463.8372],[7.4222,6.7604,478.5993],[7.4464,6.7602,467.7834]]]]}}