{"type":"Feature","properties":{"GID_2":"NGA.21.29_1","GID_0":"NGA","country":"Nigeria","GID_1":"NGA.21_1","province":"Katsina","NL_NAME_1":"NA","county":"Musawa","VARNAME_2":"NA","NL_NAME_2":"NA","TYPE_2":"LocalAuthority","ENGTYPE_2":"LocalAuthority","CC_2":"NA","HASC_2":"NA","name":"Musawa.county"},
"geometry":{"type": "MultiPolygon","coordinates": [[[[7.8376,11.9871,623.9507],[7.8418,12.0021,617.0782],[7.8422,12.0152,604.4713],[7.8378,12.0274,595.5243],[7.8396,12.0411,585.0214],[7.8403,12.1053,564.01],[7.8374,12.1385,557.8361],[7.8371,12.1622,550.7362],[7.8308,12.2111,546.8027],[7.8339,12.247,527.0184],[7.8161,12.2516,529.2745],[7.8068,12.2566,522.6743],[7.8002,12.2609,516.8381],[7.7896,12.2716,513.0484],[7.7847,12.2704,516.7802],[7.775,12.2611,523.3415],[7.755,12.2378,537.0159],[7.7502,12.2262,542.8193],[7.7362,12.2071,556.1805],[7.7314,12.1911,558.5109],[7.7313,12.1821,560.9886],[7.7035,12.1647,562.3782],[7.6954,12.157,563.6802],[7.6854,12.1569,560.837],[7.6807,12.159,559.0329],[7.6696,12.1556,557.6287],[7.6335,12.1494,550.7357],[7.6217,12.1449,552.6298],[7.6065,12.1434,561.5634],[7.5951,12.1384,570.6508],[7.5863,12.1279,563.6165],[7.5688,12.1238,544.1824],[7.5495,12.1308,540.2738],[7.5352,12.1313,547.9994],[7.5278,12.1285,559.1137],[7.5222,12.1238,556.4106],[7.4902,12.1059,590.7726],[7.4823,12.0977,580.7702],[7.4686,12.0893,581.4191],[7.4574,12.0885,586.2936],[7.4577,12.0813,578.1562],[7.4623,12.0737,569.8405],[7.4717,12.0699,569.8748],[7.4988,12.072,587.569],[7.5143,12.0657,595.597],[7.5219,12.0577,587.6049],[7.5366,12.0466,578.684],[7.5409,12.0397,587.7435],[7.5518,12.0297,597.6835],[7.553,12.0202,597.238],[7.5643,12.0069,592.0988],[7.556,11.9815,575.9915],[7.5465,11.9724,573.4182],[7.5306,11.9606,559.343],[7.4705,11.9274,583.8358],[7.4783,11.9211,580.9429],[7.4818,11.9218,577.7374],[7.489,11.9198,568.0937],[7.4939,11.9233,570.6353],[7.5072,11.9241,586.3588],[7.513,11.9214,585.9835],[7.5205,11.9204,586.9349],[7.5299,11.9151,580.9797],[7.5434,11.9139,591.6166],[7.5608,11.9208,588.0309],[7.5752,11.929,574.0952],[7.5835,11.9297,573.78],[7.5772,11.9344,565.3311],[7.5729,11.9486,569.8191],[7.573,11.9553,562.6758],[7.5797,11.9688,579.5817],[7.6099,11.9776,576.1274],[7.6262,11.9771,586.1539],[7.6403,11.971,593.0889],[7.6706,11.9718,610.9144],[7.6994,11.9784,611.4865],[7.7119,11.9836,616.7171],[7.7425,11.98,622.4747],[7.7496,11.9708,634.7513],[7.7501,11.9427,628.5331],[7.7532,11.9413,622.3304],[7.7663,11.9378,617.5063],[7.7751,11.9406,612.1989],[7.8106,11.9332,596.7209],[7.8309,11.9345,585.806],[7.839,11.9623,608.0551],[7.8376,11.9871,623.9507]]]]}}