{"type": "Feature","bbox": [11.6435,8.6706,11.9759,9.0737],"geometry": {"type": "MultiPolygon","coordinates": [[[[11.8558,9.0737,432.9173],[11.8326,9.0514,505.1782],[11.8125,9.0446,413.2007],[11.7947,9.028,439.3207],[11.7487,9.0278,506.4423],[11.6785,9.0023,560.1752],[11.6504,8.99,558.6117],[11.6435,8.9793,541.6539],[11.6505,8.9577,531.425],[11.6823,8.9333,499.019],[11.6881,8.9093,535.5111],[11.7007,8.8878,538.4724],[11.7257,8.8561,481.4763],[11.7332,8.8212,1062.5243],[11.7435,8.8086,962.7175],[11.7496,8.791,630.9783],[11.7669,8.7803,1119.0421],[11.7713,8.7683,1266.1371],[11.7832,8.745,1133.8019],[11.8005,8.7169,522.7902],[11.8101,8.7132,499.9309],[11.8224,8.693,535.9752],[11.8289,8.6902,540.2444],[11.8553,8.673,915.3744],[11.8622,8.6706,850.0503],[11.8629,8.7022,532.4988],[11.8728,8.73,556.1023],[11.8872,8.7551,580.6581],[11.8973,8.7674,518.8955],[11.9174,8.8068,506.0302],[11.9307,8.8365,481.9717],[11.9598,8.8861,378.1523],[11.9711,8.9161,365.9589],[11.9759,8.9443,350.0315],[11.9717,8.9734,314.729],[11.939,9.0349,343.8909],[11.8968,9.0455,377.1469],[11.8722,9.0586,421.7709],[11.8558,9.0737,432.9173]]]]}
,"properties": {"GID_2": "NGA.35.16_1","GID_0": "NGA","country": "Nigeria","GID_1": "NGA.35_1","province": "Taraba","NL_NAME_1": "NA","county": "Zing","VARNAME_2": "NA","NL_NAME_2": "NA","TYPE_2": "LocalAuthority","ENGTYPE_2": "LocalAuthority","CC_2": "NA","HASC_2": "NA","name": "Zing.county","area_km2": 891.9356,"hist_schema_id": "Elevation0-9000","hist_area_km2": {"300": 4.3557,"325": 33.0047,"350": 61.6138,"375": 74.3087,"400": 85.1621,"425": 102.8466,"450": 101.2622,"475": 88.9694,"500": 78.2643,"525": 64.1224,"550": 51.7797,"575": 37.8059,"600": 25.239,"625": 12.7356,"650": 6.1178,"675": 4.9238,"700": 4.2115,"725": 4.7354,"750": 4.6515,"775": 4.1906,"800": 3.4992,"825": 3.3945,"850": 3.2478,"875": 2.8078,"900": 2.9964,"925": 2.9546,"950": 2.6193,"975": 2.5354,"1000": 1.7601,"1025": 1.5925,"1050": 2.0744,"1075": 1.2781,"1100": 1.0477,"1125": 1.1944,"1150": 1.362,"1175": 1.3201,"1200": 0.7963,"1225": 1.1106,"1250": 1.1315,"1275": 1.0896,"1300": 0.5867,"1325": 0.461,"1350": 0.3562,"1375": 0.3353,"1400": 0.0838}}}