{"type":"Feature","properties":{"GID_2":"NGA.21.32_1","GID_0":"NGA","country":"Nigeria","GID_1":"NGA.21_1","province":"Katsina","NL_NAME_1":"NA","county":"Safana","VARNAME_2":"NA","NL_NAME_2":"NA","TYPE_2":"LocalAuthority","ENGTYPE_2":"LocalAuthority","CC_2":"NA","HASC_2":"NA","name":"Safana.county"},
"geometry":{"type": "MultiPolygon","coordinates": [[[[7.0582,12.6178,471.1095],[7.062,12.592,459.1505],[7.0718,12.554,438.467],[7.078,12.4785,453.579],[7.0818,12.4644,453.1966],[7.0993,12.4277,448.9479],[7.097,12.3927,431.9533],[7.0928,12.371,443.6034],[7.1275,12.3055,460.8936],[7.1331,12.2883,469.3333],[7.1554,12.2954,482.8815],[7.1624,12.2998,470.9517],[7.1753,12.3103,457.4933],[7.1831,12.3252,453.8185],[7.1943,12.3297,457.3524],[7.2056,12.3314,460.7907],[7.2277,12.3314,448.2211],[7.2892,12.327,459.5513],[7.3134,12.3185,452.2478],[7.3246,12.3191,454.8277],[7.3418,12.3121,469.1178],[7.3594,12.2938,485.6516],[7.3848,12.2798,510.4766],[7.4074,12.2731,507.1958],[7.4199,12.2808,491.296],[7.428,12.2812,500.6231],[7.4371,12.2794,507.1489],[7.4455,12.2735,514.11],[7.4395,12.2914,507.6385],[7.4416,12.3277,493.378],[7.4452,12.3444,497.6843],[7.4546,12.359,479.7878],[7.4591,12.4013,497.5034],[7.4571,12.4209,504.9305],[7.4385,12.4597,518.1954],[7.4277,12.4753,532.671],[7.4238,12.4933,542.8956],[7.4165,12.5043,561.1777],[7.4121,12.5329,555.7666],[7.3921,12.5948,544.381],[7.3889,12.6001,538.3486],[7.3847,12.6033,534.6919],[7.3812,12.6152,523.9849],[7.3805,12.624,528.5106],[7.382,12.631,534.8337],[7.3798,12.6455,525.3655],[7.3839,12.6528,530.2513],[7.3728,12.6528,520.9426],[7.3619,12.6555,505.6311],[7.3278,12.6471,482.0595],[7.3185,12.644,476.5648],[7.3132,12.64,483.9335],[7.2866,12.6275,481.1983],[7.2708,12.6225,477.0382],[7.221,12.631,485.9398],[7.1763,12.6442,510.658],[7.167,12.6448,512.7],[7.1448,12.6404,523.952],[7.1316,12.6338,490.9572],[7.1244,12.6319,480.3023],[7.0949,12.6295,477.2538],[7.0582,12.6178,471.1095]]]]}}