{"type": "Feature","bbox": [5.2414,7.7172,5.4308,8.0212],"geometry": {"type": "MultiPolygon","coordinates": [[[[5.2486,7.7728,558.9956],[5.2566,7.7717,564.5974],[5.2689,7.7657,549.1337],[5.2749,7.7659,535.6823],[5.2969,7.7535,462.3223],[5.3297,7.7311,454.4308],[5.3421,7.7256,390.8431],[5.3543,7.7233,396.8835],[5.3618,7.7181,448.6171],[5.3683,7.7201,443.722],[5.3876,7.7172,572.924],[5.4013,7.7205,462.5324],[5.3988,7.7384,548.5464],[5.4032,7.7678,531.6913],[5.4117,7.7774,525.3589],[5.4154,7.7905,518.1339],[5.4196,7.7975,512.6182],[5.4159,7.81,509.058],[5.4138,7.8108,519.6848],[5.4134,7.8239,528.5007],[5.4104,7.8286,524.0052],[5.4092,7.8369,546.5614],[5.4123,7.8417,522.4766],[5.4153,7.8598,509.8638],[5.4207,7.8634,489.7089],[5.4183,7.875,508.0678],[5.4204,7.8906,509.3987],[5.4279,7.8951,488.4467],[5.4308,7.9015,471.0692],[5.4284,7.9114,482.0312],[5.4182,7.9215,484.4538],[5.4155,7.9264,486.3971],[5.4091,7.93,483.3307],[5.4151,7.9444,505.2569],[5.4133,7.9635,511.2128],[5.3943,7.9876,405.9993],[5.3874,8.0036,369.6168],[5.3706,8.0202,364.3754],[5.3681,8.0212,367.8675],[5.3633,8.0109,385.9177],[5.368,8.0007,409.34],[5.3564,7.9815,407.0407],[5.3513,7.9659,426.6873],[5.3456,7.9722,433.0206],[5.3304,7.9748,489.615],[5.3139,7.9681,560.1305],[5.2988,7.9654,553.5846],[5.2825,7.9675,584.7613],[5.2698,7.9724,574.8743],[5.2683,7.9565,562.5777],[5.2633,7.9469,537.2841],[5.2622,7.9352,548.7878],[5.2586,7.9281,546.6343],[5.2617,7.9184,555.3976],[5.2591,7.8869,549.6516],[5.2572,7.8798,561.5095],[5.2471,7.8703,598.8542],[5.247,7.8638,609.8776],[5.2414,7.8439,537.9562],[5.2474,7.8348,544.579],[5.25,7.8241,547.5621],[5.2499,7.8163,546.6114],[5.2524,7.8112,555.2569],[5.2529,7.7884,576.5415],[5.2509,7.7753,567.8624],[5.2486,7.7728,558.9956]]]]}
,"properties": {"GID_2": "NGA.13.16_1","GID_0": "NGA","country": "Nigeria","GID_1": "NGA.13_1","province": "Ekiti","NL_NAME_1": "NA","county": "Oye","VARNAME_2": "NA","NL_NAME_2": "NA","TYPE_2": "LocalAuthority","ENGTYPE_2": "LocalAuthority","CC_2": "NA","HASC_2": "NA","name": "Oye.county","area_km2": 468.8517,"hist_schema_id": "Elevation0-9000","hist_area_km2": {"350": 0.105,"375": 3.5903,"400": 8.4006,"425": 10.5841,"450": 15.961,"475": 28.3961,"500": 58.6187,"525": 65.3428,"550": 106.4651,"575": 95.3332,"600": 40.1804,"625": 20.353,"650": 8.9265,"675": 4.0115,"700": 1.5332,"725": 0.8821,"750": 0.168}}}