{"type":"Feature","properties":{"GID_2":"NGA.18.20_1","GID_0":"NGA","country":"Nigeria","GID_1":"NGA.18_1","province":"Jigawa","NL_NAME_1":"NA","county":"Maigatari","VARNAME_2":"NA","NL_NAME_2":"NA","TYPE_2":"LocalAuthority","ENGTYPE_2":"LocalAuthority","CC_2":"NA","HASC_2":"NA","name":"Maigatari.county"},
"geometry":{"type": "MultiPolygon","coordinates": [[[[9.3235,12.8123,366.3738],[9.325,12.7823,365.7024],[9.3196,12.7719,366.1933],[9.3073,12.755,368.1491],[9.2935,12.7465,367.703],[9.2848,12.717,368.9881],[9.2881,12.6972,368.8513],[9.3041,12.6601,369.8038],[9.3001,12.6455,368.3186],[9.2974,12.6418,368.7968],[9.3025,12.6407,369.3215],[9.3115,12.6504,369.5628],[9.339,12.6703,369.3522],[9.3521,12.675,366.3374],[9.3744,12.6753,366.7903],[9.4008,12.6642,366.9134],[9.4122,12.6546,363.735],[9.4236,12.6375,364.3703],[9.4308,12.6188,364.7334],[9.4368,12.594,364.6075],[9.4437,12.5838,364.4969],[9.4655,12.5706,364.1237],[9.4805,12.5637,364.8521],[9.4969,12.5594,365.2701],[9.5074,12.5607,365.3013],[9.5397,12.5544,363.8116],[9.5767,12.5825,362.6127],[9.5892,12.5871,363.0667],[9.6071,12.5837,360.0642],[9.6415,12.5641,360.4395],[9.6606,12.5486,363.1566],[9.6636,12.5546,362.2137],[9.6846,12.5439,360.2404],[9.7071,12.5395,359.8948],[9.7206,12.5346,359.0379],[9.7271,12.5429,358.0903],[9.7383,12.5477,357.6962],[9.7494,12.5581,357.7536],[9.7555,12.6097,359.3026],[9.753,12.6254,357.6143],[9.7326,12.6621,356.981],[9.7147,12.708,356.4423],[9.6885,12.7552,358.344],[9.683,12.772,357.0071],[9.6798,12.7905,358.4168],[9.666,12.8152,355.3163],[9.6502,12.8036,355.74],[9.5903,12.8059,357.5701],[9.5807,12.8079,358.8297],[9.5537,12.8072,359.3719],[9.5312,12.8096,360.3317],[9.4882,12.8108,360.1128],[9.4351,12.8193,363.008],[9.4297,12.8215,362.5656],[9.3903,12.8231,363.3993],[9.3653,12.8174,363.9216],[9.3533,12.8171,364.9518],[9.3461,12.8145,365.0095],[9.3235,12.8123,366.3738]]]]}}