{"type": "Feature","bbox": [3.2885,6.5787,3.372,6.6692],"geometry": {"type": "MultiPolygon","coordinates": [[[[3.3014,6.6204,44.9853],[3.2885,6.5974,38.8128],[3.2888,6.5855,39.4801],[3.2969,6.5862,35.5228],[3.3076,6.5907,33.4848],[3.3154,6.5795,19.4481],[3.3187,6.5787,24.9982],[3.3273,6.5857,33.9652],[3.3339,6.5967,39.6975],[3.3356,6.5973,38.7504],[3.3396,6.5887,37.7223],[3.3489,6.5946,29.9121],[3.3585,6.6055,25.5967],[3.3653,6.6093,43.4184],[3.372,6.6244,10.6233],[3.3681,6.6487,39.0664],[3.3633,6.6546,24.8116],[3.362,6.6594,6.6208],[3.3586,6.6616,27.9381],[3.3568,6.6664,38.7112],[3.3538,6.6692,36.8889],[3.3311,6.6476,19.4498],[3.3289,6.6431,51.178],[3.3273,6.627,47.8306],[3.3251,6.621,46.3615],[3.3177,6.6202,44.6346],[3.3088,6.622,42.1024],[3.3014,6.6204,44.9853]]]]}
,"properties": {"GID_2": "NGA.25.11_1","GID_0": "NGA","country": "Nigeria","GID_1": "NGA.25_1","province": "Lagos","NL_NAME_1": "NA","county": "Ikeja","VARNAME_2": "NA","NL_NAME_2": "NA","TYPE_2": "LocalAuthority","ENGTYPE_2": "LocalAuthority","CC_2": "NA","HASC_2": "NA","name": "Ikeja.county","area_km2": 45.53363,"hist_schema_id": "Elevation0-9000","hist_area_km2": {"0": 2.822,"25": 16.34337,"50": 26.36826}}}