{"type": "Feature","bbox": [7.127,6.0238,7.3692,6.2871],"geometry": {"type": "MultiPolygon","coordinates": [[[[7.1322,6.2283,46.5603],[7.1386,6.2248,39.1377],[7.1532,6.2303,46.4762],[7.1615,6.2387,52.6993],[7.1691,6.2429,88.3353],[7.179,6.2409,65.4217],[7.1833,6.221,113.159],[7.182,6.2116,95.1536],[7.1861,6.2064,153.7694],[7.1885,6.1992,110.9781],[7.2005,6.197,66.6874],[7.2101,6.1889,68.9021],[7.2045,6.1699,67.6753],[7.2044,6.1542,75.4399],[7.2218,6.1138,69.9571],[7.2304,6.1026,83.4637],[7.2348,6.093,107.6752],[7.2377,6.0685,103.726],[7.2499,6.0526,117.4285],[7.2768,6.0328,149.1143],[7.2885,6.03,140.2181],[7.3153,6.0455,125.4703],[7.3329,6.0441,177.0121],[7.342,6.0397,200.1796],[7.3509,6.0322,256.371],[7.3504,6.0238,258.5168],[7.3597,6.0292,253.5296],[7.3616,6.036,264.8037],[7.3675,6.0447,254.9124],[7.3669,6.0498,231.9271],[7.3692,6.0649,157.5203],[7.3659,6.0735,165.2812],[7.368,6.1336,356.1147],[7.3599,6.1559,311.8136],[7.3625,6.1632,320.4676],[7.3626,6.1687,324.4382],[7.3576,6.1873,230.5388],[7.3487,6.1897,197.5201],[7.3382,6.1968,125.2189],[7.3309,6.1921,125.9552],[7.3199,6.1971,121.1751],[7.313,6.1945,135.6077],[7.3013,6.1864,177.6242],[7.2925,6.1863,148.9818],[7.289,6.1935,116.0174],[7.2818,6.2187,100.2052],[7.2735,6.2331,96.1386],[7.2631,6.246,75.8193],[7.258,6.2477,82.3965],[7.2514,6.2547,70.0778],[7.2441,6.2597,69.224],[7.2402,6.2609,77.8399],[7.234,6.2599,76.4631],[7.2249,6.2669,54.5454],[7.2166,6.2701,51.4112],[7.2051,6.2696,47.2677],[7.2002,6.2703,47.993],[7.1973,6.2729,47.7474],[7.1852,6.2678,43.4871],[7.1615,6.2701,96.8606],[7.1417,6.2854,37.527],[7.1317,6.2871,38.0457],[7.1285,6.2849,36.7819],[7.1281,6.275,42.0334],[7.1351,6.2629,47.8673],[7.1343,6.2553,47.5936],[7.1277,6.248,38.0437],[7.127,6.2367,43.5514],[7.1322,6.2283,46.5603]]]]}
,"properties": {"GID_2": "NGA.14.14_1","GID_0": "NGA","country": "Nigeria","GID_1": "NGA.14_1","province": "Enugu","NL_NAME_1": "NA","county": "Oji-River","VARNAME_2": "NA","NL_NAME_2": "NA","TYPE_2": "LocalAuthority","ENGTYPE_2": "LocalAuthority","CC_2": "NA","HASC_2": "NA","name": "Oji-River.county","area_km2": 372.8435,"hist_schema_id": "Elevation0-9000","hist_area_km2": {"25": 1.6018,"50": 56.5692,"75": 67.4307,"100": 60.2902,"125": 38.6217,"150": 24.8769,"175": 22.2622,"200": 21.1447,"225": 24.3069,"250": 22.7892,"275": 16.1062,"300": 11.3628,"325": 4.9751,"350": 0.5059}}}