{"type":"Feature","properties":{"GID_2":"NGA.1.2_1","GID_0":"NGA","country":"Nigeria","GID_1":"NGA.1_1","province":"Abia","NL_NAME_1":"NA","county":"AbaSouth","VARNAME_2":"NA","NL_NAME_2":"NA","TYPE_2":"LocalAuthority","ENGTYPE_2":"LocalAuthority","CC_2":"NA","HASC_2":"NA","name":"Aba_South.county"},
"geometry":{"type": "MultiPolygon","coordinates": [[[[7.3148,5.088,53.2079],[7.3128,5.0834,53.814],[7.3065,5.0803,53.6387],[7.2999,5.0739,55.7363],[7.3005,5.0525,55.5774],[7.307,5.0432,51.5181],[7.3174,5.0393,52.7527],[7.3309,5.0372,54.6239],[7.3374,5.0378,51.3116],[7.3715,5.049,49.5147],[7.3752,5.0519,53.4394],[7.3781,5.057,53.9988],[7.369,5.057,53.2343],[7.3777,5.0815,54.8674],[7.3777,5.0937,56.422],[7.376,5.1025,58.5242],[7.3668,5.1076,61.5234],[7.3655,5.113,60.7983],[7.3585,5.113,62.6115],[7.3428,5.1095,57.0942],[7.3333,5.0891,56.0315],[7.3223,5.0874,54.4642],[7.3148,5.088,53.2079]]]]}}