{"type": "Feature","bbox": [9.1082,7.6458,10.3696,8.2786],"geometry": {"type": "MultiPolygon","coordinates": [[[[9.3862,7.8656,156.3592],[9.418,7.8648,124.7955],[9.4444,7.86,139.9635],[9.4906,7.8591,147.7746],[9.5483,7.8458,181.9467],[9.5755,7.8418,144.2543],[9.6115,7.8307,155.6565],[9.6462,7.8037,153.4687],[9.6708,7.775,149.0031],[9.6945,7.7518,126.6304],[9.7038,7.7409,138.4669],[9.7103,7.7274,151.7255],[9.7251,7.7151,161.3879],[9.7404,7.6926,183.2434],[9.7538,7.6779,185.5898],[9.7662,7.6607,198.0998],[9.7823,7.6458,205.2313],[9.8293,7.6818,193.2601],[9.8593,7.7106,155.5822],[9.8721,7.7169,154.6991],[9.8864,7.726,148.2821],[9.9018,7.739,175.199],[9.9165,7.7468,151.3199],[9.9302,7.7585,170.9211],[9.9676,7.7843,161.1321],[9.9979,7.8085,130.6854],[10.0068,7.8129,132.2166],[10.0214,7.8383,109.9153],[10.046,7.8543,110.7521],[10.0907,7.9012,119.9119],[10.1153,7.9192,160.9748],[10.141,7.9438,159.4775],[10.1824,7.9749,154.7074],[10.1911,7.9913,155.4425],[10.2162,8.0104,144.5649],[10.2239,8.0262,136.8752],[10.2324,8.0355,130.3029],[10.2364,8.0462,134.8523],[10.2437,8.0554,119.9008],[10.2465,8.0652,111.7604],[10.2597,8.076,112.2911],[10.2629,8.0862,111.2391],[10.2728,8.0967,122.0053],[10.2837,8.1056,142.1467],[10.3073,8.1187,127.2039],[10.3273,8.1241,131.3259],[10.369,8.1273,123.6797],[10.3696,8.1297,124.7086],[10.3626,8.1489,142.4673],[10.363,8.1518,143.885],[10.3575,8.169,152.5665],[10.3448,8.1871,155.3842],[10.3291,8.2037,157.527],[10.3131,8.2248,176.7862],[10.3073,8.2296,172.0244],[10.2851,8.2382,159.7059],[10.2742,8.2402,151.1199],[10.2596,8.2495,150.3797],[10.249,8.254,147.572],[10.2015,8.2327,152.5388],[10.1934,8.2325,147.5818],[10.1707,8.2223,151.0653],[10.1581,8.2198,142.5731],[10.143,8.2199,144.8373],[10.1323,8.2165,140.2843],[10.117,8.2196,136.7204],[10.0947,8.2107,128.522],[10.088,8.2105,122.911],[10.0667,8.2141,108.4838],[10.0519,8.2225,96.48],[10.0503,8.2255,97.7717],[10.0323,8.238,104.4557],[10.0296,8.2417,111.4621],[9.9824,8.2786,111.5099],[9.9666,8.2646,112.5927],[9.9525,8.2483,97.6232],[9.9414,8.2443,114.7301],[9.9179,8.2297,123.4232],[9.8987,8.2016,122.6823],[9.8916,8.1656,138.0692],[9.8644,8.1215,118.3157],[9.8347,8.0825,136.2636],[9.8184,8.0657,117.1221],[9.8035,8.0561,140.312],[9.7893,8.055,135.1401],[9.7712,8.0451,141.8873],[9.7586,8.0439,148.0224],[9.7224,8.0568,141.0622],[9.7091,8.0633,127.3069],[9.6861,8.0657,107.0805],[9.6719,8.0708,115.4195],[9.661,8.0711,111.8814],[9.6496,8.0753,110.4881],[9.6189,8.0729,102.558],[9.6092,8.0769,102.4669],[9.5895,8.077,95.2055],[9.5425,8.0663,89.7205],[9.4955,8.0513,85.3109],[9.4249,8.0088,96.0429],[9.3723,7.9975,88.9725],[9.3419,7.9987,76.4815],[9.3288,8.0026,82.4448],[9.3051,8.0022,84.4011],[9.2989,8.005,90.8536],[9.2005,7.9415,120.4159],[9.1891,7.9369,122.0483],[9.1803,7.9297,101.6912],[9.1745,7.9159,71.7705],[9.1725,7.9141,75.5851],[9.1694,7.9145,72.7246],[9.1713,7.913,75.9902],[9.1573,7.9006,82.4526],[9.1484,7.8809,81.6853],[9.1419,7.8756,78.5119],[9.1373,7.8631,83.9264],[9.1283,7.8535,83.4357],[9.1121,7.8301,105.8588],[9.1082,7.8184,121.0175],[9.1216,7.8112,144.1178],[9.139,7.8091,119.1925],[9.1516,7.8176,95.2498],[9.1837,7.8304,161.332],[9.2018,7.8406,160.9057],[9.2378,7.8515,144.7798],[9.2875,7.8571,152.3241],[9.311,7.8623,156.4239],[9.3329,7.862,157.7328],[9.3585,7.8669,158.941],[9.3862,7.8656,156.3592]]]]}
,"properties": {"GID_2": "NGA.35.14_1","GID_0": "NGA","country": "Nigeria","GID_1": "NGA.35_1","province": "Taraba","NL_NAME_1": "NA","county": "Wukari","VARNAME_2": "NA","NL_NAME_2": "NA","TYPE_2": "LocalAuthority","ENGTYPE_2": "LocalAuthority","CC_2": "NA","HASC_2": "NA","name": "Wukari.county","area_km2": 3802.038,"hist_schema_id": "Elevation0-9000","hist_area_km2": {"75": 113.811,"100": 663.186,"125": 1156.606,"150": 1230.126,"175": 536.972,"200": 100.747,"225": 0.546,"250": 0.042}}}