{"type":"Feature","properties":{"GID_2":"NGA.31.20_1","GID_0":"NGA","country":"Nigeria","GID_1":"NGA.31_1","province":"Oyo","NL_NAME_1":"NA","county":"Lagelu","VARNAME_2":"NA","NL_NAME_2":"NA","TYPE_2":"LocalAuthority","ENGTYPE_2":"LocalAuthority","CC_2":"NA","HASC_2":"NA","name":"Lagelu.county"},
"geometry":{"type": "MultiPolygon","coordinates": [[[[4.1232,7.5221,221.8889],[4.1174,7.5299,217.3032],[4.1112,7.5478,207.3771],[4.0854,7.5837,235.6778],[4.0594,7.6002,247.2979],[4.0516,7.5949,252.4182],[4.0396,7.582,267.9759],[4.0053,7.5556,280.515],[3.9951,7.5375,246.0494],[3.9859,7.5098,251.2155],[3.9857,7.5004,236.0703],[3.9883,7.4904,233.1594],[3.9791,7.4906,222.2858],[3.9759,7.4775,250.0675],[3.9702,7.4663,240.9181],[3.9499,7.4397,257.1688],[3.9436,7.434,247.5011],[3.9253,7.4288,219.7123],[3.924,7.4268,221.9897],[3.935,7.4164,236.6779],[3.9349,7.4121,241.7229],[3.9543,7.3972,224.8573],[3.956,7.4,226.9193],[3.9617,7.4015,238.9809],[3.9716,7.4089,224.6001],[3.9841,7.4152,225.4136],[3.9914,7.424,203.7688],[4.0227,7.4336,182.3554],[4.0704,7.4416,193.5996],[4.0821,7.44,181.8037],[4.104,7.4422,180.2184],[4.1147,7.4477,189.6656],[4.1201,7.4529,179.297],[4.144,7.4586,181.1907],[4.1487,7.4973,186.9284],[4.1347,7.5051,220.7763],[4.1232,7.5221,221.8889]]]]}}