{"type": "Feature","bbox": [5.3466,10.049,6.1676,11.1345],"geometry": {"type": "MultiPolygon","coordinates": [[[[6.1665,10.8563,401.1288],[6.1676,10.8698,394.1013],[6.142,10.9351,434.7792],[6.119,10.9725,442.0175],[6.0806,11.041,461.0634],[6.0531,11.0752,483.7201],[6.0291,11.1096,481.7877],[6.005,11.1287,504.0789],[5.9918,11.1323,493.3133],[5.975,11.1345,491.4012],[5.9614,11.129,480.3333],[5.9517,11.1151,483.4461],[5.9342,11.0989,453.6412],[5.9199,11.0905,435.0098],[5.8992,11.0554,428.3893],[5.8719,11.0512,442.8982],[5.8556,11.0513,443.4225],[5.8357,11.0488,447.8382],[5.7473,11.016,420.7116],[5.7113,10.9965,453.4904],[5.6403,10.9678,427.272],[5.6148,10.9636,420.3895],[5.5932,10.9627,355.5394],[5.5696,10.9594,339.63],[5.5547,10.9602,339.1324],[5.5288,10.9574,336.7534],[5.4697,10.9596,318.7989],[5.4679,10.9568,322.4348],[5.4527,10.9629,331.1657],[5.4413,10.9767,320.8096],[5.4365,11.0291,298.3226],[5.4318,11.0265,295.3008],[5.3894,10.9878,289.4649],[5.3843,10.978,286.2446],[5.369,10.9122,278.8438],[5.3637,10.8995,266.8647],[5.3624,10.8899,278.1596],[5.3541,10.8721,265.8938],[5.3573,10.8361,266.3989],[5.3646,10.7989,268.0983],[5.3566,10.7716,269.9671],[5.3521,10.7623,264.2458],[5.3491,10.7614,262.7912],[5.3466,10.7278,289.917],[5.3523,10.7087,308.4021],[5.3564,10.6799,312.1656],[5.3621,10.6834,300.4298],[5.3941,10.6891,303.8956],[5.4151,10.6967,299.2909],[5.4443,10.6956,327.8006],[5.4625,10.6921,333.7397],[5.5148,10.676,361.0952],[5.5374,10.6937,369.8809],[5.5542,10.7048,374.9366],[5.567,10.6934,365.8758],[5.576,10.6757,385.039],[5.5897,10.6594,397.0307],[5.5968,10.6442,411.8512],[5.6023,10.6253,355.0875],[5.6098,10.5877,339.9829],[5.6204,10.5698,359.1903],[5.6332,10.561,364.8765],[5.648,10.5426,380.238],[5.6608,10.5085,374.437],[5.6615,10.4873,337.2368],[5.6597,10.472,328.0194],[5.6637,10.4374,320.2679],[5.6663,10.3836,302.3822],[5.6853,10.3272,302.1419],[5.6892,10.2995,292.3258],[5.7013,10.2481,250.142],[5.7039,10.2291,226.9649],[5.7107,10.232,237.9436],[5.7446,10.2211,234.5788],[5.7773,10.2082,238.515],[5.8023,10.1916,231.9244],[5.8172,10.1775,227.2097],[5.8417,10.1651,235.1451],[5.8779,10.1384,259.0658],[5.8982,10.1336,270.1873],[5.9367,10.1047,253.7316],[5.9774,10.0665,219.5501],[5.9922,10.049,205.76],[5.9986,10.0578,187.2133],[6.0068,10.0742,190.8726],[6.0101,10.0872,213.6474],[6.0105,10.1101,204.9578],[6.0065,10.1287,207.3776],[6.0136,10.193,217.1601],[6.0237,10.2353,210.7221],[6.0386,10.2646,209.4932],[6.0317,10.3158,247.2763],[6.0245,10.3464,249.0922],[6.0284,10.4127,302.5417],[6.0326,10.4349,324.7714],[6.0467,10.4498,258.2537],[6.0944,10.4674,316.2812],[6.0934,10.4737,305.8117],[6.0987,10.5107,342.2066],[6.1153,10.5224,380.1278],[6.1284,10.5394,365.432],[6.1245,10.6003,359.6764],[6.1365,10.6323,378.4034],[6.1343,10.6558,370.3979],[6.111,10.6939,383.6788],[6.1115,10.7202,389.2277],[6.119,10.7392,387.0902],[6.1174,10.7704,393.9918],[6.1442,10.8088,416.3834],[6.1578,10.8373,410.7883],[6.166,10.8489,409.6775],[6.1665,10.8563,401.1288]]]]}
,"properties": {"GID_2": "NGA.27.15_1","GID_0": "NGA","country": "Nigeria","GID_1": "NGA.27_1","province": "Niger","NL_NAME_1": "NA","county": "Mariga","VARNAME_2": "NA","NL_NAME_2": "NA","TYPE_2": "LocalAuthority","ENGTYPE_2": "LocalAuthority","CC_2": "NA","HASC_2": "NA","name": "Mariga.county","area_km2": 5773.362,"hist_schema_id": "Elevation0-9000","hist_area_km2": {"175": 0.084,"200": 17.907,"225": 188.993,"250": 446.219,"275": 515.394,"300": 530.576,"325": 423.738,"350": 406.053,"375": 619.559,"400": 923.572,"425": 921.906,"450": 568.419,"475": 168.651,"500": 37.147,"525": 4.206,"550": 0.916}}}