{"type": "Feature","bbox": [8.3837,7.5509,8.6827,7.8553],"geometry": {"type": "MultiPolygon","coordinates": [[[[8.4286,7.8107,81.5591],[8.4318,7.8024,81.2862],[8.4303,7.7805,66.0323],[8.412,7.7628,60.9765],[8.3837,7.7756,61.7141],[8.39,7.7594,65.2724],[8.3893,7.7198,98.0706],[8.3919,7.691,97.1985],[8.402,7.6475,113.4585],[8.4234,7.6148,126.7223],[8.4514,7.5789,112.2052],[8.4745,7.5644,95.5818],[8.4848,7.5597,100.5047],[8.5236,7.5509,117.9014],[8.5463,7.5529,132.723],[8.5599,7.5561,139.8314],[8.5827,7.5658,164.3207],[8.6017,7.5697,177.4295],[8.6192,7.5841,155.8839],[8.6331,7.5993,143.3425],[8.6512,7.6096,145.5343],[8.6652,7.6319,128.2236],[8.6745,7.6511,116.5762],[8.6777,7.6598,113.1055],[8.6827,7.689,77.3313],[8.6771,7.7142,90.3372],[8.6752,7.7343,70.2816],[8.6698,7.7563,76.4925],[8.6624,7.7739,104.2887],[8.6559,7.7826,98.3989],[8.6524,7.7955,95.9201],[8.6372,7.8144,98.2055],[8.6106,7.8336,138.9974],[8.5769,7.8516,145.1209],[8.5627,7.8547,101.7285],[8.5493,7.8553,85.2331],[8.5101,7.8519,92.0121],[8.499,7.85,102.0194],[8.4825,7.844,97.0071],[8.4532,7.8305,91.116],[8.4415,7.8226,78.3528],[8.4286,7.8107,81.5591]]]]}
,"properties": {"GID_2": "NGA.7.13_1","GID_0": "NGA","country": "Nigeria","GID_1": "NGA.7_1","province": "Benue","NL_NAME_1": "NA","county": "Makurdi","VARNAME_2": "NA","NL_NAME_2": "NA","TYPE_2": "LocalAuthority","ENGTYPE_2": "LocalAuthority","CC_2": "NA","HASC_2": "NA","name": "Makurdi.county","area_km2": 837.0705,"hist_schema_id": "Elevation0-9000","hist_area_km2": {"50": 24.3279,"75": 303.8341,"100": 285.5217,"125": 140.908,"150": 67.4525,"175": 13.8284,"200": 1.198}}}