{"type":"Feature","properties":{"GID_2":"NGA.27.10_1","GID_0":"NGA","country":"Nigeria","GID_1":"NGA.27_1","province":"Niger","NL_NAME_1":"NA","county":"Katcha","VARNAME_2":"NA","NL_NAME_2":"NA","TYPE_2":"LocalAuthority","ENGTYPE_2":"LocalAuthority","CC_2":"NA","HASC_2":"NA","name":"Katcha.county"},
"geometry":{"type": "MultiPolygon","coordinates": [[[[6.3577,8.6237,53.46],[6.3628,8.6343,50.826],[6.3581,8.657,55.4376],[6.348,8.6876,49.7115],[6.345,8.7019,57.987],[6.3384,8.7099,56.032],[6.3336,8.7079,53.9954],[6.3306,8.713,57.6445],[6.3303,8.7204,53.2655],[6.3227,8.7219,54.0664],[6.3173,8.7303,51.7931],[6.3141,8.7444,58.8825],[6.3105,8.7523,52.9366],[6.31,8.7613,60.0274],[6.3015,8.7821,67.8703],[6.301,8.7888,78.6127],[6.3027,8.7992,109.9988],[6.3008,8.8084,90.3084],[6.3026,8.8222,116.7411],[6.3005,8.8331,106.8405],[6.297,8.8414,109.9528],[6.2837,8.8463,114.9043],[6.2755,8.8436,110.9595],[6.2585,8.8435,77.3767],[6.2509,8.8491,70.9212],[6.2517,8.8533,74.1625],[6.2466,8.8635,105.425],[6.2593,8.8808,89.1692],[6.2588,8.9048,99.5642],[6.2519,8.9251,133.1754],[6.2531,8.9277,136.3225],[6.2515,8.9408,136.6168],[6.2534,8.9461,144.282],[6.2493,8.9611,115.0807],[6.2428,8.97,133.991],[6.2433,8.9887,97.4993],[6.2401,9.0037,100.3849],[6.2412,9.0234,90.2771],[6.2468,9.0414,121.9956],[6.2602,9.0596,110.0401],[6.2711,9.065,107.9212],[6.2795,9.0667,116.6285],[6.2906,9.0715,112.5062],[6.2924,9.0828,129.7759],[6.2907,9.0904,122.0219],[6.2714,9.1273,130.2215],[6.267,9.1411,145.6286],[6.2654,9.1538,136.6581],[6.2707,9.1638,121.2178],[6.2823,9.1727,123.704],[6.2897,9.1905,121.9359],[6.3017,9.204,93.7453],[6.3217,9.219,82.1626],[6.3389,9.2139,100.4994],[6.3517,9.2196,85.2498],[6.3639,9.2361,90.8973],[6.3788,9.2421,92.7431],[6.4442,9.2406,158.2457],[6.4627,9.2425,204.1935],[6.4749,9.2393,213.8474],[6.477,9.2417,209.0016],[6.4782,9.2461,208.334],[6.4743,9.2534,212.7087],[6.4612,9.2669,197.8288],[6.4578,9.2763,191.1543],[6.4603,9.2816,172.6649],[6.4694,9.2898,162.8199],[6.475,9.3028,180.1021],[6.4749,9.3461,184.0975],[6.4724,9.3664,168.406],[6.4569,9.4128,179.4925],[6.45,9.4123,189.1279],[6.4416,9.4089,177.8058],[6.4195,9.4103,170.5063],[6.3768,9.4038,158.9553],[6.3616,9.3992,130.584],[6.3542,9.3881,129.5991],[6.3431,9.3776,137.4131],[6.3328,9.3781,134.5035],[6.3104,9.3876,107.0179],[6.3027,9.3845,112.5225],[6.2884,9.3848,126.3854],[6.2743,9.3913,122.6607],[6.2642,9.3933,105.6726],[6.2511,9.3894,102.227],[6.2361,9.3878,91.6672],[6.2309,9.3936,92.5169],[6.2312,9.4044,101.225],[6.2482,9.4274,130.8124],[6.247,9.4464,148.567],[6.2262,9.4625,145.5695],[6.2178,9.4767,155.3155],[6.2016,9.4797,136.9666],[6.1953,9.4769,118.4058],[6.1901,9.4794,109.4401],[6.1772,9.4912,117.9323],[6.151,9.4554,110.6787],[6.1441,9.4424,115.1292],[6.144,9.4145,122.4693],[6.137,9.3895,92.204],[6.1219,9.3842,114.656],[6.1073,9.3755,103.0238],[6.1032,9.3692,105.4482],[6.1079,9.3591,104.3119],[6.1174,9.3472,94.8355],[6.1179,9.3297,112.0673],[6.1117,9.3186,119.8974],[6.1203,9.3071,119.7656],[6.135,9.2953,84.4432],[6.1242,9.2809,115.1958],[6.1187,9.269,120.6109],[6.1319,9.248,122.4918],[6.148,9.241,115.7038],[6.1788,9.2331,77.0496],[6.192,9.2254,78.5018],[6.2083,9.1965,74.703],[6.2035,9.1766,84.6252],[6.1727,9.1661,71.8743],[6.1674,9.1612,71.2444],[6.1512,9.1231,70.489],[6.1423,9.1087,69.9511],[6.1298,9.0954,67.642],[6.12,9.0942,73.5826],[6.1261,9.0774,68.8017],[6.1257,9.0709,69.2252],[6.1179,9.06,66.9112],[6.0892,9.0317,93.5958],[6.0852,8.9981,75.5685],[6.0883,8.9979,68.1149],[6.0884,8.9945,70.9008],[6.0862,8.9895,82.6102],[6.0911,8.9772,81.7307],[6.0983,8.9658,64.6923],[6.1134,8.9289,62.8699],[6.1082,8.9216,61.304],[6.1124,8.9116,62.4222],[6.1083,8.8999,61.8761],[6.1031,8.894,67.2186],[6.102,8.8666,59.3091],[6.1104,8.8469,61.669],[6.1298,8.8192,55.9881],[6.1367,8.8027,55.7416],[6.1439,8.7913,59.9681],[6.1222,8.7614,59.5485],[6.1123,8.744,55.9607],[6.1354,8.7433,52.5],[6.1788,8.7285,51.0],[6.2239,8.7236,58.7049],[6.2357,8.7204,57.4783],[6.2613,8.7096,56.4499],[6.2757,8.699,56.2051],[6.2913,8.6909,55.534],[6.3073,8.68,53.8748],[6.3161,8.6687,57.3209],[6.3384,8.6492,53.9795],[6.3482,8.6387,53.3509],[6.3577,8.6237,53.46]]]]}}