{"type": "Feature","bbox": [8.0668,12.2603,8.4135,12.5696],"geometry": {"type": "MultiPolygon","coordinates": [[[[8.2828,12.5696,477.4336],[8.2561,12.5692,495.5351],[8.208,12.564,501.2425],[8.1973,12.5616,506.9642],[8.1874,12.5557,520.5903],[8.1793,12.5434,493.9264],[8.1753,12.5256,485.9491],[8.1667,12.5068,484.3176],[8.1527,12.4826,521.9746],[8.1417,12.4479,513.6825],[8.1346,12.4129,523.2399],[8.1219,12.3994,537.9983],[8.1073,12.39,547.5967],[8.0668,12.3707,537.3062],[8.0702,12.3671,530.3042],[8.0705,12.3567,543.8337],[8.074,12.3491,539.3397],[8.0836,12.3508,541.6658],[8.1212,12.3439,551.0776],[8.1637,12.3225,545.6769],[8.1733,12.3217,548.335],[8.1919,12.3162,533.1855],[8.2008,12.3151,535.9944],[8.2339,12.2973,517.2165],[8.259,12.2916,520.6104],[8.2736,12.2862,505.6949],[8.3032,12.2661,485.8996],[8.3136,12.2616,473.9504],[8.3237,12.2603,471.4445],[8.3294,12.2664,481.1123],[8.33,12.2733,487.9341],[8.3384,12.2787,489.1548],[8.3496,12.2796,495.6655],[8.3643,12.2841,507.125],[8.3796,12.2919,500.8946],[8.4007,12.3097,481.885],[8.4085,12.3234,471.8805],[8.4135,12.341,469.4515],[8.4098,12.3508,465.579],[8.4,12.3629,479.9545],[8.3816,12.3766,467.7971],[8.3761,12.3836,462.0875],[8.3635,12.4098,453.2776],[8.3625,12.4243,441.2699],[8.3585,12.4211,445.9005],[8.3411,12.4389,448.3359],[8.3391,12.4497,448.742],[8.3411,12.4583,463.1429],[8.3395,12.47,474.7537],[8.308,12.5299,482.1326],[8.2828,12.5696,477.4336]]]]}
,"properties": {"GID_2": "NGA.20.26_1","GID_0": "NGA","country": "Nigeria","GID_1": "NGA.20_1","province": "Kano","NL_NAME_1": "NA","county": "Kunchi","VARNAME_2": "NA","NL_NAME_2": "NA","TYPE_2": "LocalAuthority","ENGTYPE_2": "LocalAuthority","CC_2": "NA","HASC_2": "NA","name": "Kunchi.county","area_km2": 707.8265,"hist_schema_id": "Elevation0-9000","hist_area_km2": {"450": 43.8946,"475": 230.9671,"500": 234.1942,"525": 122.3059,"550": 75.5118,"575": 0.9527}}}