{"type": "Feature","bbox": [10.9979,9.7053,11.4257,10.0403],"geometry": {"type": "MultiPolygon","coordinates": [[[[11.0198,9.7053,292.8232],[11.0531,9.7092,313.4962],[11.0847,9.7175,331.5715],[11.1335,9.7402,381.215],[11.1359,9.7466,390.6022],[11.1989,9.7631,521.7977],[11.2188,9.7746,505.9584],[11.2395,9.793,545.8356],[11.2502,9.7984,546.2407],[11.2625,9.8157,502.204],[11.2697,9.8359,485.062],[11.3021,9.858,474.5743],[11.3078,9.8688,479.2198],[11.315,9.891,500.7827],[11.3133,9.9121,415.9685],[11.3067,9.9322,395.451],[11.3003,9.939,380.3233],[11.3008,9.9439,367.475],[11.3061,9.9512,364.3937],[11.3162,9.9595,358.8456],[11.3268,9.9633,345.7246],[11.3428,9.9794,331.8968],[11.3597,9.985,319.6339],[11.3754,9.9953,311.8264],[11.4045,10.0101,362.3534],[11.4246,10.0246,362.4571],[11.4257,10.0324,348.35],[11.4203,10.0343,355.3403],[11.3665,10.0303,344.7454],[11.3497,10.0335,357.6834],[11.3415,10.0392,353.9173],[11.3031,10.0384,357.8536],[11.2846,10.0361,368.9283],[11.2678,10.0403,385.3627],[11.234,10.036,408.3076],[11.2142,10.0381,418.3418],[11.1941,10.0179,447.6519],[11.173,10.0041,428.5675],[11.1544,9.989,451.5377],[11.1371,9.9703,428.1221],[11.1113,9.9469,447.5421],[11.0946,9.925,402.0554],[11.0759,9.8932,408.0643],[11.053,9.8715,372.2041],[11.0263,9.8596,335.987],[11.0058,9.8366,401.4816],[10.9979,9.8375,321.5516],[11.0013,9.8221,318.8485],[11.0112,9.7229,303.0791],[11.0198,9.7053,292.8232]]]]}
,"properties": {"GID_2": "NGA.16.3_1","GID_0": "NGA","country": "Nigeria","GID_1": "NGA.16_1","province": "Gombe","NL_NAME_1": "NA","county": "Billiri","VARNAME_2": "NA","NL_NAME_2": "NA","TYPE_2": "LocalAuthority","ENGTYPE_2": "LocalAuthority","CC_2": "NA","HASC_2": "NA","name": "Billiri.county","area_km2": 838.8488,"hist_schema_id": "Elevation0-9000","hist_area_km2": {"300": 13.9796,"325": 81.0302,"350": 128.0634,"375": 118.1354,"400": 153.4659,"425": 122.7686,"450": 70.1198,"475": 37.7255,"500": 33.4863,"525": 30.8547,"550": 21.4964,"575": 10.6127,"600": 7.0404,"625": 3.6769,"650": 2.4443,"675": 1.4624,"700": 1.0446,"725": 0.6685,"750": 0.3552,"775": 0.1462,"800": 0.1254,"825": 0.1045,"850": 0.0418}}}