{"type":"Feature","properties":{"GID_2":"NGA.3.15_1","GID_0":"NGA","country":"Nigeria","GID_1":"NGA.3_1","province":"AkwaIbom","NL_NAME_1":"NA","county":"Ini","VARNAME_2":"NA","NL_NAME_2":"NA","TYPE_2":"LocalAuthority","ENGTYPE_2":"LocalAuthority","CC_2":"NA","HASC_2":"NA","name":"Ini.county"},
"geometry":{"type": "MultiPolygon","coordinates": [[[[7.6415,5.5134,80.0639],[7.6408,5.5112,92.458],[7.6469,5.488,50.9076],[7.6498,5.4654,40.4071],[7.6494,5.4543,33.9916],[7.6447,5.4343,38.6242],[7.6364,5.4241,41.0947],[7.6327,5.4066,55.0093],[7.622,5.3881,53.8647],[7.6196,5.3717,58.1215],[7.6248,5.3645,73.6512],[7.6385,5.3652,76.4592],[7.6528,5.3691,104.9871],[7.6609,5.3671,99.1759],[7.6496,5.3276,115.5726],[7.6416,5.3163,122.8601],[7.6465,5.3102,121.1004],[7.6509,5.3085,103.5958],[7.6545,5.3043,78.4088],[7.6565,5.3008,77.6896],[7.6569,5.2955,73.2984],[7.6625,5.2885,106.224],[7.6734,5.2893,118.9605],[7.6914,5.2873,102.2809],[7.7023,5.289,117.2538],[7.7271,5.3003,123.0949],[7.7463,5.3148,87.8845],[7.7627,5.3177,44.2992],[7.7855,5.3136,69.0121],[7.802,5.2963,33.5933],[7.8075,5.2932,25.6717],[7.8133,5.2929,44.8476],[7.8201,5.3034,25.9046],[7.8249,5.3155,17.1892],[7.8442,5.3378,15.3034],[7.8514,5.3395,7.2476],[7.8688,5.3482,23.2738],[7.8773,5.3501,21.3143],[7.8834,5.3633,14.8372],[7.8971,5.365,9.5205],[7.8878,5.3778,8.1966],[7.8748,5.3905,11.6752],[7.8536,5.4072,35.972],[7.8442,5.4122,44.9235],[7.8258,5.416,35.2971],[7.8125,5.4208,33.0187],[7.7915,5.4343,24.4319],[7.7681,5.4555,26.7865],[7.7625,5.4681,31.043],[7.7587,5.4896,25.649],[7.7503,5.5022,23.3162],[7.7394,5.5134,35.9663],[7.7232,5.5211,47.6741],[7.6737,5.5295,65.6152],[7.6605,5.5291,48.5713],[7.6454,5.5259,80.6949],[7.6415,5.5134,80.0639]]]]}}