{"type": "Feature","bbox": [3.9262,7.7931,4.0902,7.9627],"geometry": {"type": "MultiPolygon","coordinates": [[[[4.0902,7.8619,292.011],[4.0901,7.8896,269.6987],[4.0864,7.9028,263.949],[4.0899,7.9207,263.7061],[4.0898,7.9295,263.3266],[4.0799,7.9627,266.4309],[4.0731,7.9551,266.9648],[4.0695,7.9478,292.7319],[4.0528,7.9414,288.977],[4.027,7.9253,294.7778],[3.9919,7.8975,323.1003],[3.9862,7.8845,327.7532],[3.958,7.8709,288.2606],[3.9476,7.8674,293.9758],[3.9449,7.8678,294.2006],[3.9472,7.8598,285.4598],[3.9436,7.8368,300.8246],[3.9262,7.7931,280.4404],[3.9799,7.8265,346.1851],[4.0187,7.8445,283.5226],[4.0258,7.8506,303.1779],[4.0411,7.8566,282.1202],[4.057,7.8563,286.609],[4.0902,7.8619,292.011]]]]}
,"properties": {"GID_2": "NGA.31.29_1","GID_0": "NGA","country": "Nigeria","GID_1": "NGA.31_1","province": "Oyo","NL_NAME_1": "NA","county": "OyoEast","VARNAME_2": "NA","NL_NAME_2": "NA","TYPE_2": "LocalAuthority","ENGTYPE_2": "LocalAuthority","CC_2": "NA","HASC_2": "NA","name": "Oyo_East.county","area_km2": 132.2079,"hist_schema_id": "Elevation0-9000","hist_area_km2": {"250": 11.7818,"275": 29.6541,"300": 60.3805,"325": 28.8163,"350": 1.5753}}}