{"type": "Feature","bbox": [6.9059,5.9186,7.8646,7.1127],"geometry": {"type": "MultiPolygon","coordinates": [[[[7.4052,6.0184,377.1938],[7.4514,6.0227,181.2904],[7.4952,6.0182,70.2777],[7.5284,5.9967,62.1075],[7.5303,5.9855,62.9876],[7.5339,5.9811,60.2404],[7.5336,5.973,58.1178],[7.5399,5.9752,53.9797],[7.5572,5.9772,48.0497],[7.5835,5.9887,44.7964],[7.5922,5.9893,56.7006],[7.616,5.9746,43.5683],[7.6243,5.9618,38.3398],[7.6368,5.9604,37.7023],[7.6689,5.9244,48.5577],[7.6717,5.9232,45.5061],[7.6709,5.9197,47.8361],[7.6827,5.9186,46.2729],[7.6932,5.9419,41.1354],[7.694,5.9486,44.8313],[7.689,5.9699,33.0178],[7.6804,5.9892,38.4988],[7.6779,6.0102,46.4701],[7.6778,6.0318,88.8471],[7.7025,6.0604,40.955],[7.721,6.076,38.4227],[7.7339,6.1039,53.626],[7.7317,6.1245,44.9755],[7.7246,6.1407,43.9096],[7.7238,6.1808,61.3093],[7.7179,6.2113,65.9319],[7.7116,6.2253,60.7714],[7.7079,6.2525,66.1904],[7.6904,6.2699,72.5195],[7.6908,6.2897,74.4017],[7.7026,6.3206,71.1202],[7.7115,6.3303,64.8665],[7.735,6.3885,71.7555],[7.7352,6.4825,93.4426],[7.7292,6.4978,97.7563],[7.7246,6.5011,102.2039],[7.7186,6.5542,111.8055],[7.7126,6.5709,101.6503],[7.7081,6.5769,111.5848],[7.702,6.5999,105.8474],[7.6978,6.608,108.0529],[7.6932,6.623,126.0532],[7.6947,6.6334,117.8746],[7.711,6.6297,110.9398],[7.7366,6.6292,104.6099],[7.7497,6.6262,101.1223],[7.7654,6.6271,105.3593],[7.7988,6.6245,84.9509],[7.8277,6.6303,112.162],[7.8299,6.6421,119.5306],[7.8451,6.6695,110.0833],[7.8543,6.6943,117.3719],[7.8646,6.734,120.1701],[7.8616,6.776,108.4234],[7.8501,6.8247,121.404],[7.8271,6.8592,143.2397],[7.8025,6.8779,133.2244],[7.7571,6.8835,152.519],[7.7407,6.8702,202.3372],[7.7215,6.8495,185.2971],[7.6876,6.8376,246.6646],[7.6404,6.8622,229.1528],[7.5825,6.9068,270.326],[7.5571,6.9344,418.5411],[7.5358,6.9609,447.5367],[7.5204,6.9955,429.1761],[7.5088,7.0351,400.6599],[7.4915,7.0659,351.3338],[7.4948,7.0788,374.1479],[7.4757,7.1005,391.0205],[7.4688,7.099,377.0651],[7.4511,7.1072,319.4937],[7.4451,7.1073,302.6169],[7.4364,7.1127,275.9545],[7.3829,7.1005,272.9842],[7.3777,7.0937,209.7383],[7.3484,7.0665,307.9964],[7.3089,7.0519,208.1686],[7.2981,7.0408,210.3771],[7.2788,7.0153,232.7939],[7.2752,7.0071,251.2098],[7.2705,7.0009,233.3996],[7.2599,6.9909,173.7316],[7.2265,6.9518,199.6051],[7.216,6.9437,164.588],[7.2091,6.932,175.8504],[7.1839,6.9143,162.8442],[7.1602,6.9036,125.6685],[7.1125,6.8698,115.3524],[7.1087,6.8634,107.4531],[7.0816,6.8396,102.1064],[7.0719,6.8248,87.0666],[7.049,6.7991,54.4543],[7.0322,6.7828,47.1797],[7.021,6.7784,54.1513],[7.0122,6.7774,45.2779],[7.001,6.7829,42.9665],[6.99,6.8024,35.5471],[6.9804,6.8107,41.1944],[6.9796,6.8154,42.8102],[6.9676,6.8162,37.5869],[6.9691,6.8395,26.9001],[6.9684,6.8465,32.7613],[6.9647,6.8529,31.5111],[6.95,6.8571,27.6332],[6.9433,6.8533,30.3208],[6.9319,6.8219,29.2472],[6.9222,6.805,26.0951],[6.9169,6.7919,32.1919],[6.9072,6.7824,33.4243],[6.9059,6.7762,33.988],[6.913,6.7696,27.6531],[6.9143,6.7306,29.3785],[6.913,6.7209,26.4512],[6.9144,6.7112,24.529],[6.9261,6.7085,26.1025],[6.9386,6.7108,25.2173],[6.9505,6.7154,54.4774],[6.9763,6.7134,50.8094],[6.9908,6.7083,38.0175],[7.0157,6.6906,38.8611],[7.0235,6.6881,40.7733],[7.0378,6.6877,45.8087],[7.0489,6.6893,52.253],[7.0801,6.6766,69.3687],[7.0914,6.6738,71.0674],[7.1092,6.6618,88.3544],[7.115,6.649,104.8993],[7.1085,6.6343,90.8896],[7.0947,6.5933,74.3009],[7.0826,6.5759,63.377],[7.0553,6.5575,41.3397],[7.0374,6.537,40.5754],[7.0253,6.5174,38.0677],[7.0274,6.516,36.7656],[7.0254,6.5095,39.2832],[7.0292,6.5019,36.9112],[7.0193,6.4884,32.2908],[7.0192,6.478,25.2302],[7.0129,6.4641,26.361],[7.0123,6.4505,25.3399],[7.0186,6.4418,23.5853],[7.0285,6.4382,22.7665],[7.0692,6.4287,33.8656],[7.0809,6.423,38.556399999999996],[7.0899,6.4145,31.6685],[7.11,6.3826,29.4647],[7.1209,6.3563,75.1174],[7.1254,6.335,60.4668],[7.1349,6.3253,81.0156],[7.1466,6.3051,89.1028],[7.146,6.2992,73.3945],[7.1417,6.2898,37.5978],[7.1329,6.2878,38.0457],[7.1285,6.2849,36.7819],[7.1281,6.275,42.0334],[7.1351,6.2629,47.8673],[7.1343,6.2553,47.5936],[7.1277,6.248,38.0437],[7.127,6.2367,43.5514],[7.1322,6.2283,46.5603],[7.1386,6.2248,39.1377],[7.1532,6.2303,46.4762],[7.1615,6.2387,52.6993],[7.1691,6.2429,88.3353],[7.179,6.2409,65.4217],[7.1833,6.221,113.159],[7.182,6.2116,95.1536],[7.1861,6.2064,153.7694],[7.1885,6.1992,110.9781],[7.2005,6.197,66.6874],[7.2101,6.1889,68.9021],[7.2045,6.1699,67.6753],[7.2044,6.1542,75.4399],[7.2218,6.1138,69.9571],[7.2304,6.1026,83.4637],[7.2348,6.093,107.6752],[7.2377,6.0685,103.726],[7.2499,6.0526,117.4285],[7.2768,6.0328,149.1143],[7.2885,6.03,140.2181],[7.3153,6.0455,125.4703],[7.3329,6.0441,177.0121],[7.342,6.0397,200.1796],[7.3509,6.0322,256.371],[7.3503,6.0235,263.5298],[7.3705,6.0178,280.2017],[7.3734,6.0083,278.6279],[7.3808,6.0121,300.0648],[7.4052,6.0184,377.1938]]]]}
,"properties": {"GID_1": "NGA.14_1","GID_0": "NGA","country": "Nigeria","province": "Enugu","VARNAME_1": "NA","NL_NAME_1": "NA","TYPE_1": "State","ENGTYPE_1": "State","CC_1": "NA","HASC_1": "NG.EN","ISO_1": "NG-EN","name": "Enugu.province","area_km2": 7736.158,"hist_schema_id": "Elevation0-9000","hist_area_km2": {"25": 207.576,"50": 758.374,"75": 779.523,"100": 649.196,"125": 660.665,"150": 534.377,"175": 510.448,"200": 576.528,"225": 479.142,"250": 395.131,"275": 343.283,"300": 314.749,"325": 284.76,"350": 266.312,"375": 228.102,"400": 204.073,"425": 186.435,"450": 152.739,"475": 113.7,"500": 65.378,"525": 21.729,"550": 3.242,"575": 0.653}}}