{"type": "Feature","id": "2862","bbox": [6.90597,5.92809,7.86219,7.10784],"geometry": {"type": "Polygon","coordinates": [[[7.49373,7.07445,359.9587],[7.46056,7.10489,365.7323],[7.41167,7.10784,283.6129],[7.37519,7.08887,200.8011],[7.34305,7.06386,285.6947],[7.31183,7.05298,214.4452],[7.29344,7.03621,182.3499],[7.23618,6.96203,202.0346],[7.18647,6.91606,170.602],[7.10285,6.85813,107.004],[7.06523,6.81232,82.4464],[7.021,6.77832,54.1513],[6.99588,6.78956,33.9225],[6.97997,6.81297,39.576],[6.97325,6.81891,42.1932],[6.9686,6.8331,25.943],[6.96849,6.84217,28.1473],[6.96591,6.85031,27.6462],[6.93273,6.82904,29.5245],[6.90597,6.77612,33.988],[6.91465,6.74812,24.697],[6.91372,6.71602,24.3801],[6.92674,6.70993,25.7095],[6.98007,6.71202,33.0579],[7.03774,6.6876,45.8087],[7.06968,6.68088,64.1953],[7.10027,6.66776,78.3316],[7.09593,6.60053,73.1311],[7.04022,6.54017,39.6133],[7.01325,6.46508,26.361],[7.02203,6.44049,22.8447],[7.03681,6.43335,24.3203],[7.07019,6.42702,35.6609],[7.08539,6.41873,31.8974],[7.10585,6.39098,32.5655],[7.13799,6.3184,84.4968],[7.14368,6.30931,84.5817],[7.14606,6.2991,73.3945],[7.13944,6.29135,38.8602],[7.13293,6.28778,38.0457],[7.13334,6.26897,44.5604],[7.13097,6.25161,38.7422],[7.12714,6.23812,44.0692],[7.13541,6.22649,46.6158],[7.15122,6.22965,45.1821],[7.16528,6.24076,79.8837],[7.18182,6.23058,81.9984],[7.18605,6.20639,153.7694],[7.21003,6.1889,68.9021],[7.20445,6.15415,75.4399],[7.21634,6.1249,72.27],[7.23256,6.09772,106.3146],[7.24331,6.06674,115.3945],[7.26512,6.0417,107.7674],[7.29344,6.03723,124.5215],[7.31989,6.04506,143.233],[7.33075,6.04353,206.2237],[7.34863,6.03335,252.0457],[7.35369,6.02276,268.6694],[7.36372,6.02061,285.8017],[7.36981,6.01594,284.745],[7.3725,6.0125,283.6038],[7.42004,6.02038,316.1146],[7.46831,6.02219,97.157],[7.53353,5.97297,58.1178],[7.58344,5.98868,44.7964],[7.60928,5.97576,48.8153],[7.63057,5.96103,39.5447],[7.66633,5.92809,49.3626],[7.69321,5.94189,41.1354],[7.68194,5.99421,35.9816],[7.68845,6.04449,67.6038],[7.71284,6.07103,43.5138],[7.73248,6.10097,53.3504],[7.73062,6.13105,43.1727],[7.72338,6.16249,52.1892],[7.72163,6.19267,58.6319],[7.70995,6.23471,64.9651],[7.7085,6.24828,67.6615],[7.69052,6.27494,72.641],[7.73413,6.40757,69.3871],[7.73506,6.47875,91.5329],[7.69569,6.60652,108.8332],[7.72752,6.62626,119.1501],[7.76111,6.62337,110.6041],[7.82767,6.63022,112.162],[7.86188,6.72365,142.4518],[7.86219,6.7722,108.654],[7.85113,6.82026,120.7915],[7.82612,6.85994,145.2389],[7.78467,6.88002,136.56],[7.7485,6.87067,184.572],[7.71894,6.84857,198.2656],[7.67843,6.84379,216.0228],[7.64039,6.86211,229.1528],[7.60318,6.88917,215.4398],[7.5698,6.92053,374.7019],[7.54241,6.95464,475.9082],[7.50366,7.03414,395.7654],[7.49373,7.07445,359.9587]]]}
,"properties": {"ISO3166-1-Alpha-3": "NGA","country": "Nigeria","fill": "#00F","name": "Enugu","area_km2": 7732.634,"hist_schema_id": "Elevation0-9000","hist_area_km2": {"25": 203.893,"50": 759.489,"75": 791.18,"100": 648.059,"125": 657.169,"150": 529.428,"175": 509.479,"200": 576.275,"225": 480.532,"250": 395.427,"275": 341.936,"300": 314.033,"325": 284.507,"350": 266.649,"375": 225.703,"400": 203.0,"425": 187.151,"450": 153.476,"475": 114.163,"500": 65.42,"525": 21.729,"550": 3.242,"575": 0.653}}}