{"type": "Feature","bbox": [6.7934,6.1197,6.9437,6.3056],"geometry": {"type": "MultiPolygon","coordinates": [[[[6.7934,6.1355,53.7626],[6.8076,6.1261,131.0749],[6.8306,6.1197,124.5727],[6.838,6.1214,144.8691],[6.8469,6.1203,155.953],[6.8571,6.1227,130.8555],[6.8811,6.1373,149.6322],[6.8852,6.148,133.6267],[6.8907,6.1562,139.4819],[6.8892,6.1636,149.5297],[6.9164,6.191,142.1497],[6.9251,6.2183,92.2247],[6.9277,6.2471,111.5034],[6.9352,6.2704,80.1138],[6.9349,6.2817,57.0767],[6.9437,6.3022,72.0142],[6.9416,6.3032,72.1918],[6.9415,6.3056,74.6234],[6.9226,6.2928,61.185],[6.8997,6.2602,59.4763],[6.8777,6.2417,52.1225],[6.859,6.2215,86.4734],[6.8318,6.1994,103.2309],[6.8255,6.1907,95.1983],[6.822,6.1779,131.2518],[6.8147,6.1674,104.244],[6.808,6.1532,77.1145],[6.7934,6.1355,53.7626]]]]}
,"properties": {"GID_2": "NGA.4.21_1","GID_0": "NGA","country": "Nigeria","GID_1": "NGA.4_1","province": "Anambra","NL_NAME_1": "NA","county": "Oyi","VARNAME_2": "NA","NL_NAME_2": "NA","TYPE_2": "LocalAuthority","ENGTYPE_2": "LocalAuthority","CC_2": "NA","HASC_2": "NA","name": "Oyi.county","area_km2": 132.0354,"hist_schema_id": "Elevation0-9000","hist_area_km2": {"50": 10.5804,"75": 25.2932,"100": 36.5922,"125": 39.3756,"150": 17.8754,"175": 2.1501,"200": 0.1686}}}