{"type": "Feature","bbox": [9.9824,7.9576,11.1781,8.8197],"geometry": {"type": "MultiPolygon","coordinates": [[[[10.9254,8.8197,121.0794],[10.9042,8.7841,144.0161],[10.8864,8.7673,124.5388],[10.8227,8.7375,113.3291],[10.7989,8.7304,113.8635],[10.7709,8.7252,113.4327],[10.7271,8.7219,107.5763],[10.6918,8.7223,113.4793],[10.6457,8.7319,110.2124],[10.5997,8.7325,110.7338],[10.5748,8.7284,107.6304],[10.5438,8.7192,103.9262],[10.5077,8.7173,106.6655],[10.4897,8.7116,106.8651],[10.4765,8.7025,105.5492],[10.4519,8.6956,104.7522],[10.4139,8.6905,106.5035],[10.3423,8.6756,100.3471],[10.2925,8.6701,103.9482],[10.2835,8.6641,104.3466],[10.2669,8.6484,101.8773],[10.2552,8.6319,101.9264],[10.2132,8.5942,101.0208],[10.204,8.5727,100.0544],[10.2011,8.5579,101.3533],[10.1959,8.5488,101.9907],[10.1703,8.5241,97.6099],[10.1571,8.5053,99.3873],[10.1259,8.4804,98.988],[10.1126,8.4668,100.0962],[10.0982,8.4332,93.5397],[10.0924,8.4094,97.5052],[10.0719,8.3723,97.3138],[10.0358,8.326,94.7999],[10.0221,8.3121,93.5637],[9.9824,8.2786,111.5099],[10.0296,8.2417,111.4621],[10.0323,8.238,104.4557],[10.0503,8.2255,97.7717],[10.0519,8.2225,96.48],[10.0667,8.2141,108.4838],[10.0815,8.2113,114.2688],[10.0947,8.2107,128.522],[10.117,8.2196,136.7204],[10.1323,8.2165,140.2843],[10.143,8.2199,144.8373],[10.1581,8.2198,142.5731],[10.1707,8.2223,151.0653],[10.1934,8.2325,147.5818],[10.2015,8.2327,152.5388],[10.249,8.254,147.572],[10.2596,8.2495,150.3797],[10.2742,8.2402,151.1199],[10.2851,8.2382,159.7059],[10.3073,8.2296,172.0244],[10.3131,8.2248,176.7862],[10.3291,8.2037,157.527],[10.3448,8.1871,155.3842],[10.3575,8.169,152.5665],[10.363,8.1518,143.885],[10.3626,8.1489,142.4673],[10.3696,8.1297,124.7086],[10.3674,8.1216,129.3525],[10.3632,8.1146,126.2051],[10.3677,8.0959,131.4495],[10.3623,8.0807,146.6658],[10.3752,8.0475,175.9679],[10.3811,8.0383,158.5428],[10.3863,8.0062,130.4985],[10.3922,7.9813,140.3205],[10.3939,7.9653,137.9524],[10.3965,7.9576,149.3453],[10.4101,7.9607,145.6796],[10.4548,7.98,152.3417],[10.4609,7.9785,163.6699],[10.4721,7.9928,155.041],[10.5,8.0218,171.4014],[10.5157,8.0337,187.5931],[10.5326,8.0534,171.5227],[10.5464,8.0642,169.3124],[10.5667,8.0899,154.822],[10.5785,8.0957,160.3441],[10.584,8.1082,149.0153],[10.5997,8.12,143.2248],[10.6267,8.1507,132.4332],[10.6602,8.1829,159.3939],[10.6755,8.1955,186.4882],[10.6976,8.209,192.4718],[10.7103,8.2142,186.8029],[10.7292,8.2339,179.3522],[10.758,8.2514,170.0533],[10.7688,8.2603,167.4982],[10.779,8.263,166.807],[10.789,8.277,157.4607],[10.8067,8.2861,164.5134],[10.8153,8.2926,162.4311],[10.8174,8.2995,161.4728],[10.8291,8.302,159.7619],[10.8694,8.3306,182.9119],[10.8763,8.3327,193.3452],[10.911,8.369,217.7469],[10.9419,8.3947,221.717],[10.9451,8.4036,232.1381],[10.9491,8.4035,224.473],[10.9627,8.4165,228.1563],[11.0409,8.4665,251.8584],[11.0968,8.4894,212.7803],[11.1024,8.5002,217.7704],[11.1145,8.5151,211.9096],[11.1358,8.5369,212.7548],[11.142,8.5501,205.2707],[11.1434,8.5592,180.5328],[11.1496,8.5683,187.9711],[11.1526,8.5832,204.0152],[11.164,8.6093,168.6909],[11.1781,8.6311,188.4546],[11.1661,8.6411,213.1562],[11.1423,8.657,203.1027],[11.1195,8.6658,182.0201],[11.1037,8.6747,191.6474],[11.0882,8.6875,184.5931],[11.0813,8.7035,214.3502],[11.0677,8.7209,203.5097],[11.0518,8.7284,180.0008],[11.0212,8.7479,131.2032],[11.003,8.7625,129.4833],[10.9739,8.7737,125.7667],[10.95,8.7873,120.5788],[10.9472,8.796,121.5187],[10.9293,8.8133,115.1215],[10.9254,8.8197,121.0794]]]]}
,"properties": {"GID_2": "NGA.35.5_1","GID_0": "NGA","country": "Nigeria","GID_1": "NGA.35_1","province": "Taraba","NL_NAME_1": "NA","county": "Gassol","VARNAME_2": "NA","NL_NAME_2": "NA","TYPE_2": "LocalAuthority","ENGTYPE_2": "LocalAuthority","CC_2": "NA","HASC_2": "NA","name": "Gassol.county","area_km2": 5979.811,"hist_schema_id": "Elevation0-9000","hist_area_km2": {"100": 1266.454,"125": 1052.713,"150": 1119.813,"175": 1128.788,"200": 827.443,"225": 434.237,"250": 120.277,"275": 11.433,"300": 5.224,"325": 3.588,"350": 3.147,"375": 2.35,"400": 1.867,"425": 1.196,"450": 0.734,"475": 0.273,"500": 0.147,"525": 0.126}}}