{"type":"Feature","properties":{"GID_2":"NGA.11.8_1","GID_0":"NGA","country":"Nigeria","GID_1":"NGA.11_1","province":"Ebonyi","NL_NAME_1":"NA","county":"Ishielu","VARNAME_2":"NA","NL_NAME_2":"NA","TYPE_2":"LocalAuthority","ENGTYPE_2":"LocalAuthority","CC_2":"NA","HASC_2":"NA","name":"Ishielu.county"},
"geometry":{"type": "MultiPolygon","coordinates": [[[[7.8277,6.6303,112.162],[7.7988,6.6245,84.9509],[7.7654,6.6271,105.3593],[7.7497,6.6262,101.1223],[7.7366,6.6292,104.6099],[7.711,6.6297,110.9398],[7.6947,6.6334,117.8746],[7.6932,6.623,126.0532],[7.6978,6.608,108.0529],[7.702,6.5999,105.8474],[7.7081,6.5769,111.5848],[7.7126,6.5709,101.6503],[7.7186,6.5542,111.8055],[7.7246,6.5011,102.2039],[7.7292,6.4978,97.7563],[7.7352,6.4825,93.4426],[7.735,6.3885,71.7555],[7.7115,6.3303,64.8665],[7.7026,6.3206,71.1202],[7.6908,6.2897,74.4017],[7.6904,6.2699,72.5195],[7.7079,6.2525,66.1904],[7.7116,6.2258,60.5324],[7.7406,6.2331,64.0804],[7.7757,6.2359,51.9152],[7.8026,6.2316,72.4733],[7.8263,6.2233,55.1594],[7.8294,6.2187,62.7379],[7.8433,6.2097,60.1159],[7.859,6.2062,62.9414],[7.8727,6.1994,46.3834],[7.8862,6.2073,59.8714],[7.8955,6.2251,64.8726],[7.8988,6.2435,67.3728],[7.9019,6.2485,80.5911],[7.9032,6.2603,72.6141],[7.9119,6.2855,83.9904],[7.912,6.3057,80.5815],[7.9211,6.3395,71.5837],[7.9224,6.3659,87.4898],[7.9248,6.38,89.6984],[7.9237,6.3975,105.0426],[7.9268,6.4087,118.1971],[7.9255,6.4276,123.3992],[7.9218,6.4385,125.1311],[7.9222,6.4523,136.9462],[7.9166,6.4762,120.1783],[7.9157,6.5249,124.6544],[7.9004,6.5313,128.2034],[7.8355,6.5908,97.1279],[7.8251,6.6156,96.404],[7.8277,6.6303,112.162]]]]}}