{"type":"Feature","properties":{"GID_2":"NGA.28.19_1","GID_0":"NGA","country":"Nigeria","GID_1":"NGA.28_1","province":"Ogun","NL_NAME_1":"NA","county":"Remo-North","VARNAME_2":"NA","NL_NAME_2":"NA","TYPE_2":"LocalAuthority","ENGTYPE_2":"LocalAuthority","CC_2":"NA","HASC_2":"NA","name":"Remo-North.county"},
"geometry":{"type": "MultiPolygon","coordinates": [[[[3.7821,7.0491,89.6234],[3.751,7.0464,90.3647],[3.7349,7.048,82.2175],[3.715,7.0449,72.3574],[3.709,7.0494,72.3997],[3.7144,7.0677,73.9138],[3.7202,7.0744,68.5839],[3.7131,7.0739,78.3278],[3.7058,7.0682,85.3654],[3.7048,7.0648,73.668],[3.6973,7.0564,74.2501],[3.6852,7.049,94.586],[3.6622,7.0393,123.2504],[3.6447,7.028,145.5347],[3.6435,7.0207,119.2272],[3.6445,7.0158,109.351],[3.6402,7.0085,90.7398],[3.649,6.9906,131.9504],[3.6512,6.983,151.0591],[3.6907,6.9471,126.8431],[3.7348,6.9037,96.0508],[3.7349,6.9111,107.8105],[3.7413,6.9197,107.6414],[3.7589,6.9574,56.3149],[3.7653,6.9659,63.9914],[3.7678,6.9787,77.0228],[3.7739,6.9864,81.5191],[3.7771,6.9935,53.7636],[3.7779,7.0039,58.76],[3.7833,7.0206,73.1361],[3.7821,7.0491,89.6234]]]]}}