{"type": "Feature","bbox": [7.0887,5.7303,7.2058,5.8399],"geometry": {"type": "MultiPolygon","coordinates": [[[[7.0887,5.8092,123.465],[7.0984,5.8041,119.2633],[7.1024,5.798,110.2208],[7.1104,5.7926,94.7882],[7.1214,5.7873,119.8311],[7.1189,5.774,90.5877],[7.1222,5.764,161.2182],[7.1364,5.7633,140.4707],[7.1445,5.7595,148.1344],[7.1469,5.7544,147.3833],[7.1753,5.741,160.6225],[7.192,5.7303,169.7644],[7.1935,5.7384,173.7037],[7.2006,5.7489,136.7431],[7.2052,5.7647,116.7722],[7.2058,5.7717,111.0275],[7.2003,5.7761,109.7545],[7.1949,5.7854,112.6587],[7.1929,5.7907,134.4814],[7.1935,5.7981,127.3204],[7.1883,5.8037,128.6558],[7.1806,5.8276,149.4279],[7.175,5.8337,145.1271],[7.1587,5.8399,132.0925],[7.1404,5.8363,164.9351],[7.1116,5.8246,251.949],[7.1048,5.8183,212.6731],[7.0887,5.8092,123.465]]]]}
,"properties": {"GID_2": "NGA.17.5_1","GID_0": "NGA","country": "Nigeria","GID_1": "NGA.17_1","province": "Imo","NL_NAME_1": "NA","county": "IdeatoSouth","VARNAME_2": "NA","NL_NAME_2": "NA","TYPE_2": "LocalAuthority","ENGTYPE_2": "LocalAuthority","CC_2": "NA","HASC_2": "NA","name": "Ideato_South.county","area_km2": 84.96669,"hist_schema_id": "Elevation0-9000","hist_area_km2": {"75": 0.33751,"100": 3.67046,"125": 23.14007,"150": 26.11431,"175": 14.25979,"200": 9.3868,"225": 6.05387,"250": 2.00388}}}