{"type":"Feature","properties":{"GID_2":"NGA.31.23_1","GID_0":"NGA","country":"Nigeria","GID_1":"NGA.31_1","province":"Oyo","NL_NAME_1":"NA","county":"OgoOluwa","VARNAME_2":"NA","NL_NAME_2":"NA","TYPE_2":"LocalAuthority","ENGTYPE_2":"LocalAuthority","CC_2":"NA","HASC_2":"NA","name":"Ogo_Oluwa.county"},
"geometry":{"type": "MultiPolygon","coordinates": [[[[4.4185,7.8737,356.4276],[4.4117,7.8823,344.3113],[4.3927,7.9009,382.7004],[4.3785,7.923,364.6426],[4.3617,7.9422,359.1615],[4.3517,7.9488,357.4089],[4.3377,7.9548,350.0609],[4.3211,7.9696,376.338],[4.3157,8.0026,355.5688],[4.3103,8.0159,340.6856],[4.2868,8.046,317.6044],[4.2884,8.0493,336.5933],[4.2586,8.043,358.6929],[4.2407,8.0458,376.1621],[4.2224,8.0542,302.1177],[4.2117,8.0675,309.7242],[4.2027,8.0633,297.8022],[4.1948,8.0639,284.9071],[4.1821,8.0729,313.5846],[4.1767,8.0707,318.7298],[4.1723,8.0707,313.0812],[4.1681,8.0533,315.2819],[4.1679,8.0406,292.4191],[4.1555,8.0118,317.9164],[4.1397,7.9941,294.9739],[4.1276,7.9703,283.3969],[4.1217,7.9637,293.5857],[4.0972,7.9473,275.0829],[4.0867,7.9381,250.653],[4.0898,7.9295,263.3266],[4.0899,7.9207,263.7061],[4.0864,7.9028,263.949],[4.0901,7.8896,269.6987],[4.0905,7.8449,290.9396],[4.1101,7.838,264.6882],[4.1338,7.8323,279.7284],[4.1529,7.8287,269.7751],[4.1628,7.8295,273.9437],[4.1773,7.8385,275.9103],[4.1905,7.8408,276.0896],[4.1984,7.8469,294.9052],[4.203,7.8567,312.3763],[4.2052,7.8666,295.6096],[4.2032,7.8842,317.2913],[4.2052,7.8938,317.5536],[4.2173,7.8985,332.8784],[4.2222,7.903,334.9937],[4.2466,7.931,369.2259],[4.2594,7.9517,391.3011],[4.2676,7.9564,459.1498],[4.2779,7.9516,406.5856],[4.2902,7.942,365.7132],[4.3163,7.9268,370.848],[4.3384,7.895,366.2675],[4.3568,7.8636,333.834],[4.3653,7.845,330.6624],[4.3742,7.8372,330.48],[4.3842,7.8428,333.9914],[4.4086,7.8523,362.8657],[4.4185,7.8737,356.4276]]]]}}