{"type":"Feature","properties":{"GID_2":"NGA.17.11_1","GID_0":"NGA","country":"Nigeria","GID_1":"NGA.17_1","province":"Imo","NL_NAME_1":"NA","county":"Mbatoli","VARNAME_2":"NA","NL_NAME_2":"NA","TYPE_2":"LocalAuthority","ENGTYPE_2":"LocalAuthority","CC_2":"NA","HASC_2":"NA","name":"Mbatoli.county"},
"geometry":{"type": "MultiPolygon","coordinates": [[[[7.1544,5.6217,168.2463],[7.1375,5.6285,164.3961],[7.129,5.6337,160.8159],[7.111,5.6317,157.7236],[7.097,5.6373,158.9062],[7.0853,5.6391,161.7479],[7.0209,5.6386,144.0237],[6.9995,5.641,140.033],[6.9845,5.6387,134.0436],[6.9552,5.6266,88.0787],[6.9669,5.5943,75.4128],[6.9655,5.59,73.7501],[6.9618,5.5889,72.9612],[6.9584,5.5799,76.2751],[6.9592,5.5744,76.9587],[6.9568,5.5657,77.8916],[6.9521,5.5602,75.1909],[6.9494,5.5499,71.446],[6.9451,5.5468,65.4964],[6.9465,5.5451,68.4622],[6.9731,5.5481,79.137],[6.9973,5.5463,70.7065],[7.0207,5.54,102.4682],[7.0257,5.5327,103.0046],[7.0259,5.5216,84.2619],[7.0298,5.5287,103.1901],[7.0341,5.5252,112.1344],[7.0412,5.5226,124.74],[7.062,5.5273,125.2194],[7.0769,5.5344,121.9239],[7.0926,5.5484,128.7764],[7.0962,5.5578,126.8408],[7.1042,5.5669,149.6273],[7.1165,5.5851,150.4523],[7.1138,5.5914,160.1337],[7.1174,5.6012,160.4489],[7.1254,5.6105,159.3522],[7.1338,5.6161,160.1853],[7.1544,5.6217,168.2463]]]]}}