{"type":"Feature","properties":{"GID_2":"NGA.6.4_1","GID_0":"NGA","country":"Nigeria","GID_1":"NGA.6_1","province":"Bayelsa","NL_NAME_1":"NA","county":"Nembe","VARNAME_2":"NA","NL_NAME_2":"NA","TYPE_2":"LocalAuthority","ENGTYPE_2":"LocalAuthority","CC_2":"NA","HASC_2":"NA","name":"Nembe.county"},
"geometry":{"type": "MultiPolygon","coordinates": [[[[6.2158,4.4096,5.2986],[6.2215,4.406,2.897],[6.2266,4.4064,6.9656],[6.2338,4.4099,16.8328],[6.214,4.4226,0.0],[6.2004,4.4246,1.927],[6.196,4.4299,7.3858],[6.1929,4.4388,0.0],[6.1882,4.4432,4.656],[6.1876,4.4468,3.6559],[6.1907,4.4535,3.4637],[6.1885,4.4604,2.455],[6.1887,4.4674,1.9802],[6.1796,4.476,4.9795],[6.1857,4.4854,0.0],[6.1865,4.4946,8.2332],[6.1776,4.5012,3.6763],[6.1768,4.5129,0.0],[6.1732,4.5168,3.8876],[6.176,4.5268,6.3675],[6.1788,4.5307,2.93],[6.1754,4.5349,10.8358],[6.1746,4.5401,0.0],[6.1774,4.5476,3.0596],[6.1793,4.5612,6.3484],[6.1887,4.5704,7.1636],[6.1874,4.5746,2.8985],[6.1813,4.5793,1.2088],[6.1813,4.581,0.0],[6.1843,4.5832,1.732],[6.1826,4.5882,0.0],[6.1849,4.5932,3.2893],[6.1846,4.5968,2.4449],[6.1924,4.6032,0.0],[6.1926,4.609,3.9081],[6.1949,4.6115,3.3873],[6.1929,4.6151,2.0423],[6.1893,4.6165,2.0592],[6.1867,4.6068,3.1019],[6.1783,4.5899,3.8796],[6.1541,4.567,2.9157],[6.1579,4.5518,2.1519],[6.1633,4.545,7.9297],[6.1657,4.5369,3.3413],[6.1702,4.5308,6.5937],[6.172,4.5239,11.5764],[6.1704,4.5152,6.613],[6.172,4.4963,6.6231],[6.1664,4.4781,3.6803],[6.1662,4.4662,0.5262],[6.1697,4.4573,0.7295],[6.1775,4.4524,0.9728],[6.1807,4.4482,5.6229],[6.1889,4.4278,6.0694],[6.2018,4.416,3.9099],[6.2138,4.414,7.9878],[6.2158,4.4096,5.2986]]],
[[[6.1918,4.5965,1.9731],[6.1913,4.5999,3.6763],[6.1865,4.5971,6.9336],[6.184,4.5899,0.7797],[6.1854,4.5829,5.1643],[6.1826,4.5818,6.9448],[6.1824,4.5799,1.2088],[6.1882,4.5757,1.6297],[6.1901,4.5704,7.1636],[6.1804,4.5582,1.462],[6.1799,4.5465,0.0],[6.1771,4.5362,3.3395],[6.1799,4.5301,1.2034],[6.1776,4.5276,3.5076],[6.1749,4.5165,7.1694],[6.1785,4.5124,4.5208],[6.179,4.5035,0.0],[6.1815,4.5004,0.0],[6.1851,4.5004,2.9042],[6.189,4.4949,5.5614],[6.1876,4.4818,1.324],[6.1818,4.4757,5.1201],[6.1887,4.4732,10.2859],[6.1901,4.471,4.2789],[6.1904,4.4626,1.3123],[6.1932,4.4568,4.4233],[6.1907,4.444,2.9737],[6.1982,4.4374,3.6365],[6.2024,4.429,3.543],[6.2074,4.4296,0.0],[6.2099,4.4351,0.0],[6.2124,4.4368,2.6468],[6.2221,4.434,2.7514],[6.2246,4.4379,0.0],[6.2243,4.4435,0.0],[6.2199,4.4499,3.9781],[6.2154,4.4529,4.186],[6.2079,4.4537,11.0006],[6.2049,4.4576,8.8356],[6.206,4.4613,17.1654],[6.2087,4.4632,4.6192],[6.2093,4.4676,0.0],[6.2018,4.4774,0.0],[6.2065,4.4846,10.8053],[6.2029,4.489,3.7972],[6.2026,4.4924,2.539],[6.206,4.504,6.3416],[6.2063,4.5096,2.4401],[6.2046,4.5143,6.4888],[6.2087,4.521,2.5417],[6.2018,4.5243,0.786],[6.1943,4.5396,0.0],[6.1982,4.546,0.644],[6.201,4.5554,7.5092],[6.1974,4.5599,4.5503],[6.1976,4.5637,6.7548],[6.2029,4.5674,9.7691],[6.2049,4.5718,3.5628],[6.2074,4.5729,8.3743],[6.2076,4.5751,6.4017],[6.2046,4.5785,4.0808],[6.1985,4.5785,7.173],[6.1982,4.5915,1.9589],[6.1938,4.5938,3.865],[6.1918,4.5965,1.9731]]],
[[[6.254,4.444,1.0664],[6.2524,4.4446,0.9022],[6.2499,4.4421,0.0],[6.2482,4.4363,0.0],[6.2499,4.4282,0.0],[6.2532,4.4262,2.3439],[6.2579,4.4321,3.0352],[6.2565,4.4407,2.6056],[6.254,4.444,1.0664]]],
[[[6.5453,4.4782,0.8772],[6.5451,4.4785,0.8772],[6.5451,4.4782,0.8772],[6.5453,4.4782,0.8772]]],
[[[6.3318,4.4738,0.0],[6.3293,4.4743,0.0],[6.3276,4.4715,0.7496],[6.3243,4.471,1.9846],[6.3246,4.4676,10.5111],[6.3235,4.4671,7.5637],[6.3149,4.4688,3.0567],[6.314,4.4643,6.1504],[6.3124,4.4649,6.1504],[6.3099,4.4685,5.0582],[6.3074,4.4651,2.588],[6.3099,4.4615,0.0],[6.3093,4.4588,0.0],[6.301,4.461,0.0],[6.3018,4.4349,0.0],[6.306,4.434,3.9649],[6.3107,4.4296,0.0],[6.3162,4.4321,0.5941],[6.321,4.4315,0.9754],[6.3338,4.4254,0.0],[6.3376,4.4265,3.3866],[6.3424,4.4315,5.5488],[6.3454,4.4396,0.0],[6.3438,4.4537,1.7859],[6.3374,4.4624,2.4098],[6.3343,4.4718,2.5718],[6.3318,4.4738,0.0]]],
[[[6.3407,4.4757,0.6177],[6.3393,4.4763,0.6177],[6.3365,4.4721,0.0],[6.3413,4.4638,3.7764],[6.3446,4.4615,0.0],[6.3432,4.4729,0.0],[6.3407,4.4757,0.6177]]],
[[[6.43,4.3865,13.2288],[6.4299,4.3865,13.2288],[6.4299,4.3864,13.2288],[6.43,4.3865,13.2288]]],
[[[6.2885,4.3901,1.9618],[6.289,4.3904,1.9618],[6.2885,4.3904,1.9618],[6.2885,4.3901,1.9618]]],
[[[6.289,4.3904,1.9618],[6.2893,4.3907,0.0],[6.289,4.3907,0.0],[6.289,4.3904,1.9618]]],
[[[6.4393,4.394,0.0],[6.4395,4.3943,0.0],[6.4393,4.3943,0.0],[6.4393,4.394,0.0]]],
[[[6.4468,4.4032,2.9425],[6.4471,4.4035,2.9425],[6.4468,4.4035,2.9425],[6.4468,4.4032,2.9425]]],
[[[6.2921,4.4026,0.0],[6.2935,4.4029,0.0],[6.2949,4.4049,0.0],[6.2918,4.4038,0.0],[6.2921,4.4026,0.0]]],
[[[6.4388,4.3935,3.7518],[6.439,4.3937,3.7518],[6.4388,4.3938,0.0],[6.4388,4.3935,3.7518]]],
[[[6.439,4.3937,3.7518],[6.4393,4.394,0.0],[6.439,4.394,0.0],[6.439,4.3937,3.7518]]],
[[[6.4095,4.3754,4.6376],[6.4249,4.3838,6.013],[6.4293,4.3918,5.8844],[6.4401,4.3993,4.2287],[6.4421,4.4032,3.3418],[6.4429,4.4268,16.0561],[6.441,4.4293,13.6457],[6.4404,4.4393,3.5083],[6.4371,4.4454,2.3698],[6.4363,4.4512,0.0],[6.4407,4.4576,17.1766],[6.4376,4.4707,4.6248],[6.4426,4.4785,19.7816],[6.4351,4.4815,10.5295],[6.434,4.4849,1.6778],[6.434,4.4901,9.7636],[6.4363,4.4932,4.8899],[6.4371,4.4996,8.961],[6.4418,4.5021,0.0],[6.4418,4.5035,0.0],[6.4365,4.5071,5.0859],[6.4351,4.5135,3.2422],[6.4371,4.5074,5.0859],[6.4415,4.5051,7.7222],[6.4424,4.5018,2.3037],[6.4376,4.4993,8.961],[6.4351,4.4832,7.6993],[6.4429,4.481,5.3878],[6.444,4.4776,2.7544],[6.439,4.4696,3.1936],[6.4429,4.4585,0.0],[6.4388,4.4524,0.0],[6.4388,4.4465,8.6231],[6.444,4.4376,12.2089],[6.4463,4.4224,18.6117],[6.4515,4.4163,0.0],[6.4537,4.4101,0.0],[6.4554,4.4113,5.3814],[6.4649,4.4349,0.0],[6.4674,4.4471,11.2315],[6.4676,4.4649,4.5028],[6.4701,4.4665,3.4957],[6.479,4.4654,2.3673],[6.4821,4.471,0.0],[6.4801,4.4779,2.9303],[6.4746,4.4785,3.1372],[6.4724,4.4804,3.3403],[6.4715,4.4893,0.0],[6.4726,4.4935,12.645],[6.4668,4.4915,3.0287],[6.4696,4.4938,25.2604],[6.4732,4.4938,3.0532],[6.4721,4.489,0.0],[6.4729,4.4807,10.1319],[6.4749,4.479,13.7255],[6.4779,4.4796,0.0],[6.4793,4.479,6.5171],[6.4818,4.4771,3.5881],[6.4826,4.4707,0.0],[6.4815,4.4668,3.044],[6.4793,4.4646,2.3673],[6.4704,4.466,3.4957],[6.4682,4.4646,4.5028],[6.4685,4.4465,9.977],[6.4657,4.4329,1.4354],[6.4571,4.4113,2.3704],[6.4718,4.4174,10.3056],[6.4959,4.4147,1.1534],[6.5052,4.416,2.5294],[6.5126,4.4211,1.3653],[6.5207,4.4221,2.0143],[6.5213,4.426,9.7989],[6.5273,4.4308,1.5527],[6.5309,4.4365,0.9638],[6.5268,4.4396,1.2774],[6.5271,4.4438,1.5058],[6.5318,4.4507,0.0],[6.5315,4.4618,0.0],[6.5296,4.4657,2.322],[6.5221,4.4707,0.0],[6.506,4.474,0.0],[6.4999,4.4779,0.3917],[6.4968,4.4832,0.3887],[6.4915,4.5057,0.0],[6.4918,4.5176,0.0],[6.489,4.5226,0.7205],[6.4837,4.5263,1.9848],[6.4815,4.5332,0.529],[6.4821,4.5362,1.0588],[6.4843,4.5265,1.9848],[6.4871,4.5254,0.0],[6.4888,4.5351,0.0],[6.4876,4.5407,0.0],[6.4904,4.551,4.041],[6.484,4.556,2.3688],[6.4812,4.5665,0.0],[6.4788,4.5663,1.8709],[6.4812,4.571,1.507],[6.4804,4.5751,1.5901],[6.474,4.5771,0.579],[6.4729,4.5807,1.8687],[6.4693,4.5837,3.0246],[6.4693,4.5862,1.5034],[6.4718,4.5862,3.0289],[6.4699,4.5857,1.5034],[6.4699,4.584,1.9811],[6.4735,4.581,1.8687],[6.4751,4.5771,1.9329],[6.481,4.5754,1.8907],[6.4818,4.5735,1.7876],[6.4812,4.5676,1.5492],[6.4835,4.5651,1.8049],[6.4846,4.5593,0.0],[6.4907,4.5546,0.653],[6.4924,4.551,0.8298],[6.4901,4.5424,0.3275],[6.491,4.5337,0.0],[6.4924,4.5329,2.1832],[6.491,4.5268,0.0],[6.4943,4.516,0.0],[6.4938,4.5093,0.516],[6.4965,4.4968,9.2399],[6.5032,4.4782,0.0],[6.5062,4.4757,15.9451],[6.5279,4.4732,2.6786],[6.5335,4.4704,0.0],[6.5349,4.4704,0.0],[6.5349,4.4729,4.8936],[6.5382,4.4682,0.0],[6.541,4.4704,1.0556],[6.5407,4.4776,3.2623],[6.5451,4.4785,0.8772],[6.5346,4.5097,15.0705],[6.5235,4.5303,1.0145],[6.5238,4.5271,0.0],[6.5221,4.5249,2.4357],[6.5182,4.5249,2.2466],[6.5138,4.5282,2.1095],[6.5149,4.5285,2.1095],[6.5185,4.5254,2.2466],[6.5229,4.5268,2.7331],[6.5229,4.5314,10.5097],[6.5134,4.5534,2.2046],[6.5085,4.5615,3.5145],[6.5066,4.5604,3.0591],[6.5025,4.5619,1.5573],[6.4979,4.5654,4.4452],[6.4927,4.5735,3.1444],[6.4882,4.5766,6.4985],[6.4804,4.5926,2.8993],[6.4791,4.6007,3.6239],[6.4711,4.6211,1.9082],[6.4655,4.6302,11.3163],[6.4634,4.632,3.9707],[6.4592,4.6241,8.3025],[6.4511,4.6215,9.594],[6.44,4.6228,14.1118],[6.426,4.6286,14.0878],[6.4064,4.6416,15.7356],[6.3965,4.6397,22.0637],[6.3938,4.6328,19.9699],[6.3835,4.6261,13.2243],[6.3678,4.6086,20.515],[6.3469,4.6011,12.7854],[6.3299,4.5979,3.3995],[6.334,4.5971,2.2471],[6.3357,4.5943,0.6015],[6.3363,4.5896,0.6446],[6.3349,4.5871,1.5842],[6.3385,4.5854,5.1502],[6.3379,4.5799,7.2746],[6.3429,4.5763,0.0],[6.3476,4.569,2.1203],[6.3507,4.5671,4.2971],[6.3501,4.5635,1.7098],[6.3457,4.5635,0.9334],[6.3438,4.5601,0.0],[6.3485,4.5474,2.7612],[6.3474,4.5324,6.5284],[6.351,4.5207,0.0],[6.3504,4.5165,2.3677],[6.3451,4.5099,2.1984],[6.3501,4.5026,1.227],[6.3557,4.4979,2.7831],[6.3571,4.4915,1.7849],[6.3554,4.4882,3.159],[6.3524,4.4871,0.0],[6.3393,4.4879,3.2319],[6.3382,4.4868,0.0],[6.3474,4.471,8.6393],[6.3493,4.4604,4.5954],[6.3487,4.4507,0.847],[6.3512,4.4429,0.0],[6.351,4.4376,0.0],[6.3479,4.4293,4.3071],[6.3435,4.4229,1.4648],[6.3476,4.416,5.4567],[6.3479,4.4079,1.5847],[6.3549,4.4029,0.0],[6.3532,4.4015,0.0],[6.3529,4.3943,0.0],[6.3499,4.3863,4.526],[6.3544,4.3791,6.8565],[6.364,4.3759,3.1527],[6.3873,4.3749,4.5209],[6.3985,4.3762,3.242],[6.3976,4.3818,2.097],[6.404,4.3857,15.437],[6.4085,4.3951,6.7981],[6.4115,4.3982,2.3758],[6.4121,4.4024,0.9396],[6.4088,4.4029,3.0749],[6.4021,4.4004,2.868],[6.3982,4.4046,5.1552],[6.3968,4.4113,12.7736],[6.4001,4.4029,3.6147],[6.4024,4.401,6.74],[6.4088,4.404,6.2791],[6.4118,4.4038,5.6122],[6.4126,4.4026,0.9396],[6.4121,4.3974,2.3758],[6.4071,4.3871,0.9598],[6.3985,4.3804,2.1517],[6.4001,4.3766,7.3733],[6.4054,4.3789,3.4982],[6.4095,4.3754,4.6376]]],
[[[6.2088,4.6196,7.6906],[6.2024,4.6211,1.5917],[6.1903,4.62,4.4223],[6.1895,4.6171,5.626],[6.1938,4.6154,2.0423],[6.1957,4.6121,1.1998],[6.1932,4.6088,2.8812],[6.1929,4.6032,2.2045],[6.1963,4.6032,2.4993],[6.1979,4.6132,0.0],[6.199,4.6126,7.5134],[6.1985,4.6038,6.0585],[6.1938,4.6024,2.2045],[6.1918,4.5999,3.6763],[6.1932,4.5951,3.865],[6.1988,4.5921,7.4142],[6.1996,4.5868,5.1862],[6.1988,4.5799,0.0],[6.2049,4.579,3.2106],[6.2082,4.5757,9.4737],[6.2079,4.5726,8.3743],[6.2054,4.5715,2.1158],[6.2035,4.5668,4.4286],[6.1982,4.5635,6.7548],[6.1979,4.5601,4.5503],[6.2013,4.5571,4.2741],[6.2015,4.5551,3.3553],[6.1988,4.5457,0.644],[6.1949,4.5393,5.0742],[6.1993,4.5343,3.709],[6.2015,4.5274,2.7977],[6.2099,4.5215,2.8115],[6.2063,4.5151,0.0],[6.2079,4.5026,6.2448],[6.2043,4.4932,0.0],[6.2082,4.4843,3.2008],[6.2038,4.4774,8.252],[6.2107,4.4718,1.6285],[6.2118,4.4668,2.5886],[6.2112,4.4635,1.0132],[6.2071,4.4582,0.0],[6.2279,4.4499,5.2524],[6.2279,4.4493,5.2524],[6.2254,4.4499,8.9009],[6.2274,4.4407,2.9444],[6.2257,4.4351,3.8127],[6.2215,4.4329,0.8498],[6.2124,4.4335,9.0599],[6.2099,4.431,3.5346],[6.2121,4.4274,0.9818],[6.2221,4.4279,3.1926],[6.229,4.4257,5.8173],[6.2351,4.4185,3.3073],[6.2451,4.3996,0.0],[6.249,4.4049,2.2663],[6.2546,4.4182,0.0],[6.2457,4.431,6.1409],[6.246,4.4407,11.0982],[6.249,4.4465,10.1592],[6.2471,4.4657,2.6773],[6.2449,4.4696,0.0],[6.2382,4.4751,5.7902],[6.2335,4.4876,6.4501],[6.2326,4.4965,5.0506],[6.2368,4.5104,0.0],[6.2349,4.5126,1.9021],[6.2304,4.5138,0.0],[6.2257,4.5268,4.0823],[6.2215,4.5282,6.8679],[6.2249,4.5282,3.1188],[6.2263,4.5271,4.4957],[6.231,4.514,0.0],[6.2351,4.5132,1.9021],[6.2376,4.5112,0.6187],[6.2424,4.521,0.0],[6.2476,4.5274,2.6162],[6.2476,4.5357,4.2793],[6.2582,4.5432,6.1192],[6.2588,4.5496,0.0],[6.2626,4.5563,5.8052],[6.2624,4.5601,3.8498],[6.261,4.561,0.0],[6.2604,4.5674,1.7709],[6.2513,4.5679,0.8479],[6.2463,4.5746,0.0],[6.2465,4.5879,3.1772],[6.2476,4.5849,0.0],[6.2468,4.5749,0.0],[6.2524,4.5688,5.4802],[6.2588,4.569,6.4763],[6.2607,4.5676,2.1156],[6.2624,4.5682,2.1156],[6.2593,4.5738,3.4717],[6.2601,4.5879,2.1862],[6.261,4.5776,4.046],[6.2599,4.574,3.4717],[6.2613,4.5715,0.0],[6.2654,4.5729,2.0538],[6.2654,4.5757,5.9157],[6.2699,4.5754,9.5479],[6.2721,4.5799,1.3648],[6.274,4.5799,1.5633],[6.2768,4.5749,3.0654],[6.2807,4.5718,2.6519],[6.2849,4.5721,12.5787],[6.2854,4.5746,1.017],[6.2896,4.5771,0.0],[6.2896,4.5807,2.5857],[6.2863,4.5832,4.2354],[6.2851,4.5874,11.8649],[6.2807,4.5929,4.4199],[6.279,4.6024,1.1495],[6.2774,4.6024,1.1495],[6.279,4.6032,1.1495],[6.279,4.611,9.2401],[6.2824,4.6132,1.5954],[6.2857,4.6124,1.8235],[6.2874,4.6143,4.4098],[6.286,4.6118,5.5896],[6.2824,4.6124,1.5954],[6.2804,4.611,0.0],[6.281,4.5943,2.3726],[6.2921,4.5774,5.4665],[6.2868,4.574,1.017],[6.2857,4.5713,3.0525],[6.2801,4.571,2.6519],[6.274,4.576,5.6394],[6.274,4.5785,2.9334],[6.2718,4.579,1.3648],[6.2713,4.5746,6.6529],[6.2674,4.5749,1.8117],[6.2665,4.5718,5.3416],[6.2638,4.5718,1.2887],[6.2646,4.556,0.0],[6.2604,4.5496,0.0],[6.2596,4.5407,5.4008],[6.2501,4.5349,0.0],[6.2513,4.5296,4.0137],[6.2424,4.5124,5.6389],[6.2385,4.4996,2.8933],[6.2387,4.4896,2.2575],[6.2412,4.4829,0.0],[6.2451,4.479,0.0],[6.2465,4.4796,3.9853],[6.2474,4.4763,0.0],[6.2524,4.474,3.9176],[6.254,4.4779,2.0605],[6.2563,4.479,9.0221],[6.2624,4.4782,2.0884],[6.2643,4.4815,5.6903],[6.2657,4.4935,7.5533],[6.2613,4.4935,2.9685],[6.261,4.4951,2.2152],[6.2632,4.4971,1.0431],[6.2618,4.5043,3.2621],[6.2643,4.5093,2.3203],[6.2615,4.5129,1.4041],[6.2649,4.5096,3.2909],[6.2649,4.5074,4.2916],[6.2626,4.5049,3.2621],[6.2638,4.4968,4.0204],[6.2615,4.4949,2.2152],[6.2668,4.4938,2.2081],[6.2646,4.4779,0.0],[6.2615,4.4763,3.2827],[6.2554,4.4771,0.0],[6.2529,4.4679,5.5749],[6.2565,4.456,0.0],[6.2638,4.4421,4.5673],[6.2649,4.4351,4.8463],[6.2651,4.4262,2.2171],[6.2618,4.4174,1.0083],[6.2596,4.3999,3.6308],[6.2607,4.3882,4.0209],[6.2638,4.3849,0.0],[6.3021,4.4157,6.4774],[6.3071,4.4249,0.0],[6.3065,4.4274,0.0],[6.3015,4.4296,7.7821],[6.2976,4.4351,17.5023],[6.2988,4.4451,3.2999],[6.2974,4.4562,3.0698],[6.2993,4.4665,15.0932],[6.2924,4.4685,6.0653],[6.2888,4.4713,1.5674],[6.2857,4.4824,6.8316],[6.2813,4.4863,5.2086],[6.2818,4.4899,0.0],[6.2846,4.4935,9.6685],[6.2815,4.5093,1.72],[6.2801,4.5101,2.4352],[6.2821,4.5099,1.72],[6.2851,4.494,3.0165],[6.2846,4.4915,4.8776],[6.2824,4.4896,0.0],[6.2821,4.486,5.2086],[6.284,4.4854,1.8623],[6.2863,4.4826,6.8316],[6.2896,4.4724,4.656],[6.2921,4.4738,10.7859],[6.2976,4.4732,0.0],[6.3007,4.4812,3.0711],[6.2974,4.4818,2.5038],[6.2999,4.4826,3.121],[6.3015,4.4812,3.0711],[6.2988,4.4721,4.7369],[6.291,4.4715,0.0],[6.3004,4.4682,0.8294],[6.301,4.4635,0.0],[6.3074,4.4599,2.3982],[6.3082,4.461,0.0],[6.3021,4.4674,0.0],[6.3021,4.4701,6.7718],[6.3054,4.4718,2.3384],[6.3032,4.474,5.5084],[6.3032,4.4754,5.5084],[6.306,4.4757,7.5589],[6.3038,4.4743,5.5084],[6.3063,4.4726,4.4296],[6.306,4.4715,4.0119],[6.3026,4.4699,6.7718],[6.3026,4.4676,0.0],[6.3057,4.4649,2.0337],[6.3093,4.469,6.9573],[6.3107,4.469,7.2859],[6.3135,4.4649,6.1504],[6.3138,4.4688,3.4385],[6.3151,4.4696,3.0567],[6.324,4.4679,7.5637],[6.3237,4.4713,1.9846],[6.3268,4.4718,0.7496],[6.329,4.4746,0.0],[6.3285,4.481,2.8403],[6.3315,4.4857,0.0],[6.3268,4.4882,1.1971],[6.3243,4.4918,6.1372],[6.3263,4.5046,2.7196],[6.3193,4.5143,1.176],[6.3182,4.5229,5.7161],[6.3201,4.5151,1.176],[6.324,4.511,1.9852],[6.3274,4.5037,0.0],[6.3251,4.4943,4.6211],[6.326,4.4899,1.2379],[6.3332,4.4865,5.1844],[6.3299,4.4804,3.7768],[6.3301,4.4763,3.5863],[6.3349,4.476,0.5452],[6.3376,4.4782,2.0891],[6.3357,4.4871,3.1059],[6.3374,4.4904,0.0],[6.3532,4.489,7.4102],[6.354,4.4943,2.101],[6.344,4.5074,2.1612],[6.3446,4.5135,3.4969],[6.3413,4.5132,1.6733],[6.3426,4.5188,2.6197],[6.341,4.5232,2.9795],[6.3371,4.5249,1.5929],[6.3301,4.5343,0.2446],[6.3299,4.544,2.1601],[6.3235,4.5574,0.0],[6.324,4.5599,1.2352],[6.3304,4.5443,2.1601],[6.331,4.534,2.6438],[6.3399,4.5257,3.835],[6.3457,4.5151,0.0],[6.3485,4.5168,0.0],[6.3493,4.5215,0.0],[6.346,4.5288,3.0297],[6.346,4.5432,4.9267],[6.3474,4.5476,2.7612],[6.3429,4.5588,4.4293],[6.344,4.5629,0.8349],[6.3465,4.5643,2.4424],[6.3487,4.564,2.0141],[6.3493,4.566,0.0],[6.344,4.5743,0.6793],[6.3376,4.579,7.2746],[6.3379,4.5851,5.1502],[6.3343,4.5868,13.9156],[6.3357,4.5918,0.9083],[6.3338,4.5965,1.8339],[6.3084,4.6011,1.5804],[6.297,4.6068,12.5515],[6.2932,4.6145,5.0001],[6.2899,4.6265,4.2235],[6.2902,4.6311,2.8323],[6.2684,4.6398,8.9001],[6.2725,4.6462,11.8839],[6.2701,4.6554,16.5948],[6.2653,4.6629,5.7893],[6.2587,4.6678,17.6075],[6.2496,4.6606,12.2839],[6.246,4.6496,10.4079],[6.2368,4.638,16.278],[6.2375,4.6233,4.5041],[6.2196,4.6134,5.0191],[6.2088,4.6196,7.6906]]]]}}