{"type": "Feature","bbox": [7.4915,6.8376,7.7729,7.1157],"geometry": {"type": "MultiPolygon","coordinates": [[[[7.6878,7.1157,351.0615],[7.6528,7.0994,431.1131],[7.6374,7.0761,421.7095],[7.6392,7.0424,411.9828],[7.6319,7.0047,317.1117],[7.6035,7.0047,379.8473],[7.5816,7.0217,402.9377],[7.5684,7.02,416.8214],[7.555,7.0357,421.136],[7.5365,7.0494,399.4534],[7.5138,7.0731,384.1717],[7.5004,7.0826,388.0552],[7.4989,7.082,379.5131],[7.4977,7.0757,371.0652],[7.4937,7.0745,359.9587],[7.4915,7.0659,351.3338],[7.5088,7.0351,400.6599],[7.5204,6.9955,429.1761],[7.5358,6.9609,447.5367],[7.5571,6.9344,418.5411],[7.5825,6.9068,270.326],[7.6404,6.8622,229.1528],[7.6876,6.8376,246.6646],[7.7215,6.8495,185.2971],[7.7407,6.8702,202.3372],[7.7674,6.8928,159.4529],[7.7714,6.8987,162.5737],[7.7729,6.9049,144.7022],[7.7627,6.9295,167.6767],[7.7372,6.9364,155.3234],[7.7207,6.9433,170.6162],[7.7187,6.9466,167.8397],[7.7185,6.95,177.1361],[7.7466,6.9634,196.6442],[7.7591,6.9784,182.1392],[7.764,6.9926,186.8239],[7.7653,7.0059,184.0752],[7.7643,7.0417,185.3259],[7.7575,7.0503,177.5637],[7.747,7.0579,189.1719],[7.7314,7.0754,209.0884],[7.6895,7.1086,343.4352],[7.6878,7.1157,351.0615]]]]}
,"properties": {"GID_2": "NGA.7.15_1","GID_0": "NGA","country": "Nigeria","GID_1": "NGA.7_1","province": "Benue","NL_NAME_1": "NA","county": "Ogbadibo","VARNAME_2": "NA","NL_NAME_2": "NA","TYPE_2": "LocalAuthority","ENGTYPE_2": "LocalAuthority","CC_2": "NA","HASC_2": "NA","name": "Ogbadibo.county","area_km2": 515.8644,"hist_schema_id": "Elevation0-9000","hist_area_km2": {"125": 0.1052,"150": 13.4919,"175": 52.6599,"200": 106.1779,"225": 101.0646,"250": 44.3014,"275": 23.4439,"300": 14.5838,"325": 11.9949,"350": 16.6868,"375": 25.7561,"400": 30.8701,"425": 32.7013,"450": 26.2213,"475": 11.6382,"500": 4.0619,"525": 0.1052}}}