{"type": "Feature","bbox": [7.9653,9.497,8.5139,10.1345],"geometry": {"type": "MultiPolygon","coordinates": [[[[8.1834,9.497,773.2305],[8.2378,9.5033,676.2951],[8.2606,9.5077,713.2838],[8.2686,9.5178,750.6816],[8.2749,9.5441,723.8859],[8.2962,9.5617,754.384],[8.3087,9.5671,746.0323],[8.3128,9.5664,761.0566],[8.3305,9.5868,767.3041],[8.3344,9.6007,764.5406],[8.3576,9.6452,790.3264],[8.3678,9.6574,807.807],[8.381,9.6651,826.3049],[8.3956,9.6688,868.8099],[8.4217,9.6705,936.788],[8.4758,9.6707,944.2496],[8.4975,9.6661,914.8431],[8.5121,9.6684,905.4332],[8.5139,9.6763,902.1713],[8.5015,9.7146,906.1873],[8.5016,9.7222,901.2675],[8.5042,9.7214,890.1621],[8.5004,9.7248,900.8071],[8.4978,9.7298,899.3832],[8.499,9.7443,872.1945],[8.5019,9.7564,863.916],[8.5076,9.7645,839.0977],[8.5099,9.7754,813.4127],[8.5107,9.8021,768.6552],[8.5092,9.8176,756.1902],[8.4956,9.8421,772.0706],[8.4797,9.8608,758.8862],[8.4727,9.8805,744.176],[8.4642,9.898,768.3605],[8.4624,9.9161,799.5152],[8.4473,9.9484,759.4097],[8.4417,9.9675,779.0618],[8.43,9.9784,768.2734],[8.416,9.9834,766.0235],[8.3976,9.9866,763.386],[8.3772,9.9955,744.8031],[8.3255,10.0019,743.2121],[8.3031,10.0069,756.3782],[8.2749,10.0212,739.3479],[8.2533,10.0474,720.3384],[8.2297,10.0726,705.8837],[8.2133,10.1035,736.7719],[8.1993,10.1345,725.277],[8.1383,10.1164,769.2579],[8.1132,10.1062,766.3616],[8.102,10.0985,793.4267],[8.0438,10.0819,748.8336],[8.0495,10.0754,752.4823],[8.0467,10.0612,768.8404],[8.0228,10.0305,779.4667],[7.9893,9.9678,770.7743],[7.9752,9.9272,770.2133],[7.9653,9.893,703.094],[7.9659,9.8793,704.0721],[7.9729,9.8593,712.2653],[7.9754,9.8455,740.6305],[7.9837,9.8229,740.6511],[7.9934,9.7858,697.7802],[7.9963,9.7662,740.0112],[7.9943,9.7269,730.9301],[8.0021,9.7076,712.2955],[8.0199,9.6932,702.5193],[8.0526,9.6916,721.9358],[8.071,9.6833,714.6091],[8.0877,9.6753,729.1902],[8.1058,9.6587,754.9182],[8.1168,9.6407,740.1868],[8.1259,9.6123,753.3754],[8.1253,9.602,746.8991],[8.1291,9.587,743.22],[8.1307,9.5684,734.2495],[8.1624,9.52,764.7806],[8.178,9.5013,766.4739],[8.1834,9.497,773.2305]]]]}
,"properties": {"GID_2": "NGA.19.22_1","GID_0": "NGA","country": "Nigeria","GID_1": "NGA.19_1","province": "Kaduna","NL_NAME_1": "NA","county": "ZangonKataf","VARNAME_2": "NA","NL_NAME_2": "NA","TYPE_2": "LocalAuthority","ENGTYPE_2": "LocalAuthority","CC_2": "NA","HASC_2": "NA","name": "Zangon_Kataf.county","area_km2": 2633.124,"hist_schema_id": "Elevation0-9000","hist_area_km2": {"575": 0.042,"600": 0.606,"625": 1.945,"650": 4.307,"675": 12.671,"700": 49.682,"725": 297.439,"750": 709.204,"775": 654.515,"800": 366.177,"825": 180.42,"850": 131.385,"875": 74.598,"900": 49.275,"925": 38.055,"950": 26.75,"975": 21.818,"1000": 10.345,"1025": 2.738,"1050": 0.731,"1075": 0.418}}}