{"type": "Feature","bbox": [5.7326,5.1031,5.9836,5.3358],"geometry": {"type": "MultiPolygon","coordinates": [[[[5.9578,5.1619,1.5],[5.9629,5.1603,9.2921],[5.975,5.1476,10.1536],[5.9828,5.1656,9.1926],[5.9836,5.1733,15.4221],[5.9648,5.1754,13.9186],[5.9552,5.184,10.6417],[5.9371,5.184,16.4073],[5.9186,5.1816,13.5647],[5.916,5.184,14.2471],[5.9124,5.1931,18.0329],[5.8987,5.2,11.8842],[5.8837,5.1986,15.3028],[5.8744,5.1932,0.0],[5.8882,5.1031,5.8727],[5.896,5.1042,6.405],[5.9113,5.1111,15.7096],[5.9201,5.1243,9.6753],[5.9235,5.1358,1.0884],[5.9337,5.1543,14.2197],[5.9352,5.1608,5.763],[5.9392,5.166,0.0],[5.9474,5.1689,5.5789],[5.9578,5.1619,1.5]]],
[[[5.8055,5.1827,14.9816],[5.8164,5.1871,11.2379],[5.8,5.186,8.2723],[5.7885,5.1875,6.2704],[5.791,5.1995,10.8083],[5.7934,5.2043,1.6596],[5.7973,5.2074,0.714],[5.8223,5.2114,13.9719],[5.8313,5.2142,1.4468],[5.8379,5.2192,11.036],[5.8493,5.2416,4.3999],[5.8455,5.246,11.0925],[5.8415,5.2546,5.2746],[5.8412,5.2609,12.8831],[5.829,5.2564,17.9295],[5.782,5.231,16.2193],[5.7711,5.2231,13.875],[5.7647,5.217,13.1885],[5.7633,5.2131,9.9021],[5.7584,5.2097,6.8523],[5.761,5.1991,16.122],[5.7689,5.1872,12.875],[5.7786,5.1764,10.9438],[5.7881,5.176,17.1876],[5.8055,5.1827,14.9816]]],
[[[5.7338,5.276,9.621],[5.7326,5.2743,10.7125],[5.7591,5.2841,10.3049],[5.7823,5.2902,12.0598],[5.8151,5.2936,10.0717],[5.8214,5.2978,11.3325],[5.8252,5.3031,15.5462],[5.8243,5.3051,17.4174],[5.8183,5.3082,0.8905],[5.8086,5.3066,13.224],[5.8045,5.3094,17.0097],[5.7984,5.3185,3.0229],[5.8004,5.3286,4.4688],[5.8044,5.3358,9.4505],[5.7711,5.3127,11.0152],[5.7641,5.3066,8.9861],[5.7535,5.2934,16.926],[5.7358,5.2818,9.2317],[5.7338,5.276,9.621]]]]}
,"properties": {"GID_2": "NGA.10.3_1","GID_0": "NGA","country": "Nigeria","GID_1": "NGA.10_1","province": "Delta","NL_NAME_1": "NA","county": "Bomadi","VARNAME_2": "NA","NL_NAME_2": "NA","TYPE_2": "LocalAuthority","ENGTYPE_2": "LocalAuthority","CC_2": "NA","HASC_2": "NA","name": "Bomadi.county","area_km2": 124.30279,"hist_schema_id": "Elevation0-9000","hist_area_km2": {"0": 59.39554,"25": 64.90724}}}