{"type": "Feature","bbox": [6.3823,8.1944,6.8349,9.38],"geometry": {"type": "MultiPolygon","coordinates": [[[[6.751,9.1323,260.9608],[6.7384,9.1486,244.1782],[6.7364,9.1553,235.7746],[6.7369,9.1689,237.0622],[6.7349,9.1858,236.1558],[6.7382,9.1993,220.8821],[6.7385,9.2229,257.0565],[6.7321,9.2375,236.6236],[6.731,9.2483,251.2905],[6.726,9.2599,234.4845],[6.7267,9.265,230.9575],[6.7216,9.2705,236.1851],[6.7173,9.2804,241.4991],[6.7081,9.2943,252.4437],[6.7059,9.303,269.6295],[6.7055,9.3203,284.7033],[6.7069,9.3243,290.8422],[6.7139,9.3294,303.0263],[6.7207,9.3307,288.9829],[6.7448,9.3215,284.4536],[6.7551,9.311,298.229],[6.7747,9.2826,270.3383],[6.7817,9.2753,257.2384],[6.7888,9.2725,256.8347],[6.797,9.2765,252.9215],[6.8018,9.2874,276.0471],[6.7982,9.3018,329.8113],[6.798,9.3133,389.4292],[6.8029,9.3192,332.3827],[6.8101,9.3206,333.9514],[6.8214,9.3258,332.8382],[6.8229,9.3339,369.663],[6.8156,9.3447,385.4326],[6.8109,9.3461,382.4516],[6.8024,9.3567,370.588],[6.8003,9.38,337.9902],[6.7913,9.3738,342.0709],[6.7841,9.3663,346.5216],[6.727,9.3517,298.2115],[6.7158,9.3472,330.1214],[6.7071,9.3383,343.4404],[6.6996,9.3299,347.2751],[6.6898,9.3065,274.105],[6.6901,9.2964,264.671],[6.6974,9.2707,246.5139],[6.6984,9.2626,238.6735],[6.6965,9.2554,227.375],[6.679,9.2414,235.2658],[6.6709,9.2374,229.8753],[6.6575,9.2245,222.9691],[6.6346,9.2094,237.9309],[6.616,9.2138,234.5556],[6.5978,9.2235,219.0894],[6.5631,9.2198,209.694],[6.5117,9.2171,229.7724],[6.4999,9.2224,214.561],[6.5102,9.1931,256.2778],[6.5161,9.1809,231.2973],[6.5139,9.1648,214.2709],[6.5065,9.1335,167.702],[6.5067,9.1139,175.9763],[6.5085,9.1018,165.8285],[6.5118,9.0958,179.1544],[6.5113,9.0923,170.6433],[6.5152,9.082,169.6261],[6.5312,9.0555,181.151],[6.5372,9.0482,196.1587],[6.5339,9.0392,200.3038],[6.5344,9.0244,179.8371],[6.5415,9.0169,195.6821],[6.5462,9.0031,197.4046],[6.5527,8.9913,164.3817],[6.5602,8.9831,161.2312],[6.5626,8.9604,138.3391],[6.5604,8.9575,148.1726],[6.5602,8.945,156.8538],[6.555,8.9325,132.2215],[6.5503,8.9275,142.0887],[6.5497,8.9219,128.2057],[6.5565,8.8979,143.6868],[6.5605,8.8907,158.5278],[6.5593,8.8752,158.525],[6.5701,8.8541,128.6332],[6.5745,8.8425,123.7932],[6.5742,8.839,130.0876],[6.5687,8.8258,127.0182],[6.5557,8.8085,128.156],[6.5531,8.8007,115.0577],[6.5437,8.7853,83.4383],[6.5121,8.7622,123.4634],[6.5001,8.7514,114.0184],[6.4906,8.7331,112.8243],[6.489,8.7223,93.6394],[6.5039,8.684,104.5644],[6.5111,8.6452,106.6353],[6.5086,8.6355,127.142],[6.4984,8.6189,124.0134],[6.4777,8.5946,149.5381],[6.4727,8.5829,153.0702],[6.4716,8.5737,60.6412],[6.4644,8.5667,65.4496],[6.4572,8.5634,70.5308],[6.4362,8.5626,51.6089],[6.4171,8.565,48.5],[6.4099,8.5812,53.3612],[6.4012,8.5841,50.7399],[6.3823,8.5848,52.0504],[6.389,8.578,51.9606],[6.3928,8.5692,50.8804],[6.396,8.5537,51.4796],[6.4044,8.5321,52.1296],[6.4153,8.4929,51.9931],[6.4315,8.4485,50.2191],[6.434,8.4365,49.7918],[6.4557,8.4209,50.374],[6.4939,8.3995,48.1093],[6.5017,8.3926,49.7288],[6.513,8.3779,48.7386],[6.5378,8.3563,51.3774],[6.5903,8.2903,46.8488],[6.6108,8.2577,125.3108],[6.6545,8.2076,52.3184],[6.6701,8.1983,49.8682],[6.6874,8.198,41.5],[6.6963,8.1944,44.759],[6.7017,8.2001,45.5265],[6.7073,8.2148,45.6154],[6.7117,8.2465,45.1063],[6.7318,8.2872,63.9101],[6.7348,8.2913,122.564],[6.7463,8.2835,156.0612],[6.7508,8.2772,147.8004],[6.7582,8.2787,90.2421],[6.7556,8.3164,73.0242],[6.7592,8.3265,136.5226],[6.7839,8.3394,111.6537],[6.7864,8.3403,97.3266],[6.7898,8.3382,131.607],[6.7924,8.3393,100.0765],[6.8169,8.3545,52.2403],[6.8218,8.3701,69.7929],[6.8272,8.3779,108.6444],[6.8342,8.3985,68.3101],[6.8349,8.4068,70.2723],[6.8054,8.4034,72.0355],[6.7825,8.411,113.4053],[6.751,8.4899,137.0496],[6.7523,8.5037,225.556],[6.7585,8.5119,126.4607],[6.7513,8.9714,208.6519],[6.7482,8.9809,204.5585],[6.7482,8.9911,220.7138],[6.7463,8.9975,212.1552],[6.7476,8.9975,209.5219],[6.7468,9.009,202.4327],[6.7502,9.0604,217.0443],[6.751,9.1323,260.9608]]]]}
,"properties": {"GID_2": "NGA.27.12_1","GID_0": "NGA","country": "Nigeria","GID_1": "NGA.27_1","province": "Niger","NL_NAME_1": "NA","county": "Lapai","VARNAME_2": "NA","NL_NAME_2": "NA","TYPE_2": "LocalAuthority","ENGTYPE_2": "LocalAuthority","CC_2": "NA","HASC_2": "NA","name": "Lapai.county","area_km2": 3044.849,"hist_schema_id": "Elevation0-9000","hist_area_km2": {"50": 535.676,"75": 89.557,"100": 186.757,"125": 371.618,"150": 478.288,"175": 450.838,"200": 261.182,"225": 272.558,"250": 265.618,"275": 71.854,"300": 10.252,"325": 10.816,"350": 21.8,"375": 10.0,"400": 3.285,"425": 1.883,"450": 1.234,"475": 0.69,"500": 0.502,"525": 0.293,"550": 0.146}}}