{"type": "Feature","bbox": [7.9648,9.7094,8.6343,10.6755],"geometry": {"type": "MultiPolygon","coordinates": [[[[8.0183,10.5319,647.793],[8.0323,10.5047,675.356],[8.0337,10.4805,679.6946],[8.0384,10.4461,675.8318],[8.0368,10.3497,661.0524],[8.0314,10.3062,679.151],[8.0909,10.289,687.5104],[8.1173,10.2763,699.4465],[8.1325,10.2617,701.3199],[8.1862,10.1744,707.4277],[8.1991,10.135,725.277],[8.2133,10.1035,736.7719],[8.2297,10.0726,705.8837],[8.2533,10.0474,720.3384],[8.2749,10.0212,739.3479],[8.3031,10.0069,756.3782],[8.3255,10.0019,743.2121],[8.3772,9.9955,744.8031],[8.3976,9.9866,763.386],[8.416,9.9834,766.0235],[8.43,9.9784,768.2734],[8.4417,9.9675,779.0618],[8.4473,9.9484,759.4097],[8.4624,9.9161,799.5152],[8.4642,9.898,768.3605],[8.4727,9.8805,744.176],[8.4797,9.8608,758.8862],[8.4956,9.8421,772.0706],[8.5092,9.8176,756.1902],[8.5107,9.8021,768.6552],[8.5099,9.7754,813.4127],[8.5076,9.7645,839.0977],[8.5019,9.7564,863.916],[8.499,9.7443,872.1945],[8.4978,9.7298,899.3832],[8.5004,9.7248,900.8071],[8.5042,9.7214,890.1621],[8.5255,9.7145,901.3981],[8.5479,9.7094,913.0009],[8.5768,9.7096,914.7192],[8.6165,9.7143,1180.1377],[8.6248,9.7216,1178.0353],[8.6316,9.7387,1211.0522],[8.6231,9.7724,859.1046],[8.6243,9.793,831.3059],[8.6287,9.8112,839.0452],[8.6343,9.8975,1100.5591],[8.632,9.9233,919.4313],[8.6251,9.9309,1004.1065],[8.6067,9.9366,896.8782],[8.5938,9.9706,842.5632],[8.5838,9.9875,824.0533],[8.5619,9.9983,809.2161],[8.5499,9.9933,804.1085],[8.5365,9.9851,797.8898],[8.5217,9.9833,788.2993],[8.5045,9.9847,772.9014],[8.4943,9.9807,780.1022],[8.4832,9.9699,792.5961],[8.47,9.9619,796.5592],[8.4602,9.9611,773.8843],[8.4605,10.0138,764.5654],[8.4725,10.0536,754.6833],[8.4745,10.0755,766.0193],[8.4779,10.0908,782.14],[8.4756,10.102,794.9885],[8.4772,10.1186,797.4451],[8.4594,10.1612,754.1642],[8.4345,10.2087,800.5706],[8.4165,10.2184,767.9507],[8.3784,10.2466,869.6366],[8.3614,10.264099999999999,999.9051],[8.3485,10.2742,1116.5728],[8.3369,10.2907,868.7899],[8.3427,10.3223,860.4215],[8.3449,10.3549,912.2209],[8.3691,10.4083,807.3554],[8.4016,10.5174,836.3906],[8.4055,10.5229,800.0827],[8.3844,10.5307,675.5477],[8.3495,10.5341,666.0083],[8.3106,10.5501,662.4449],[8.2833,10.5683,667.342],[8.2614,10.5861,663.4059],[8.2301,10.6258,682.7429],[8.1696,10.6497,666.6785],[8.1365,10.6568,654.8243],[8.0744,10.6755,695.1295],[8.0566,10.6705,683.8557],[8.0176,10.6671,681.0156],[8.0179,10.6692,682.6109],[8.0124,10.6638,672.3134],[8.0125,10.661,677.2798],[8.0064,10.6571,667.9651],[7.9928,10.653,656.8566],[7.9769,10.6508,676.7543],[7.9648,10.6511,664.0417],[7.9706,10.6181,663.6517],[7.9895,10.5802,616.397],[8.0183,10.5319,647.793]]]]}
,"properties": {"GID_2": "NGA.19.14_1","GID_0": "NGA","country": "Nigeria","GID_1": "NGA.19_1","province": "Kaduna","NL_NAME_1": "NA","county": "Kauru","VARNAME_2": "NA","NL_NAME_2": "NA","TYPE_2": "LocalAuthority","ENGTYPE_2": "LocalAuthority","CC_2": "NA","HASC_2": "NA","name": "Kauru.county","area_km2": 2738.927,"hist_schema_id": "Elevation0-9000","hist_area_km2": {"625": 124.947,"650": 373.625,"675": 339.851,"700": 309.413,"725": 388.65,"750": 404.631,"775": 240.762,"800": 148.155,"825": 102.57,"850": 51.583,"875": 38.614,"900": 36.786,"925": 40.152,"950": 35.449,"975": 29.503,"1000": 20.756,"1025": 12.57,"1050": 11.025,"1075": 10.42,"1100": 4.928,"1125": 2.756,"1150": 2.046,"1175": 3.384,"1200": 3.489,"1225": 1.713,"1250": 0.857,"1275": 0.188,"1300": 0.104}}}