{"type":"Feature","properties":{"GID_2":"NGA.30.30_1","GID_0":"NGA","country":"Nigeria","GID_1":"NGA.30_1","province":"Osun","NL_NAME_1":"NA","county":"Osogbo","VARNAME_2":"NA","NL_NAME_2":"NA","TYPE_2":"LocalAuthority","ENGTYPE_2":"LocalAuthority","CC_2":"NA","HASC_2":"NA","name":"Osogbo.county"},
"geometry":{"type": "MultiPolygon","coordinates": [[[[4.609,7.7117,350.5672],[4.6173,7.7238,348.6096],[4.6263,7.7428,330.5547],[4.6253,7.7507,323.7968],[4.6237,7.7502,325.5015],[4.6154,7.763,336.5696],[4.6094,7.7771,335.3395],[4.6072,7.7855,357.5639],[4.6085,7.804,352.9972],[4.6007,7.7976,346.468],[4.5954,7.7848,354.5325],[4.5907,7.7784,357.0552],[4.5865,7.7646,343.1186],[4.5759,7.7616,345.7308],[4.5615,7.772,315.5303],[4.5416,7.7663,289.1141],[4.538,7.7651,307.9971],[4.5402,7.7541,308.0671],[4.5372,7.7493,329.2691],[4.5438,7.7442,325.1603],[4.5477,7.7319,323.5047],[4.5647,7.7143,315.3906],[4.5644,7.7081,326.6407],[4.5711,7.7057,320.7744],[4.5806,7.7108,333.1926],[4.5891,7.7107,341.4605],[4.5945,7.7147,330.8077],[4.609,7.7117,350.5672]]]]}}