{"type": "Feature","id": "2871","bbox": [4.12032,11.53826,6.75388,13.88029],"geometry": {"type": "Polygon","coordinates": [[[6.14239,13.64082,291.124],[6.13578,13.64366,296.078],[6.12948,13.64906,296.8126],[6.12038,13.65408,296.1791],[5.83735,13.76375,323.2522],[5.55432,13.87342,309.4445],[5.52176,13.88029,318.5419],[5.37407,13.85525,292.6277],[5.34627,13.84156,287.249],[5.3348,13.8267,286.7292],[5.31805,13.78993,270.7273],[5.3042,13.77394,267.7919],[5.27351,13.75252,263.2661],[5.26203,13.74774,262.318],[5.22762,13.74133,267.409],[5.08437,13.74753,302.7706],[4.98319,13.72968,258.8552],[4.9251,13.73309,273.252],[4.90237,13.74299,271.0204],[4.87984,13.76402,278.6901],[4.85689,13.7741,287.6673],[4.82485,13.77074,292.285],[4.62584,13.72315,268.8673],[4.50673,13.69467,278.9395],[4.45258,13.67377,276.2687],[4.40576,13.64124,268.2841],[4.24845,13.49414,269.5137],[4.22055,13.48063,236.3842],[4.19047,13.47502,222.0193],[4.12577,13.47298,239.744],[4.12371,13.23359,236.7729],[4.12032,13.21061,221.6025],[4.12908,13.2126,220.786],[4.20505,13.21454,243.5401],[4.26995,13.20418,235.1579],[4.30457,13.22064,283.7275],[4.34085,13.22813,254.053],[4.37155,13.20457,262.0358],[4.40183,13.1755,239.0423],[4.46384,13.13982,224.5981],[4.53185,13.11488,243.3852],[4.56802,13.10628,258.2045],[4.60285,13.09393,255.8527],[4.63603,13.07127,264.5984],[4.67199,13.0545,243.8895],[4.71003,13.05143,226.2974],[4.74103,13.06951,227.326],[4.75612,13.09582,228.2014],[4.77493,13.11966,227.3036],[4.80077,13.12796,238.6473],[4.81845,13.10651,231.3757],[4.81472,13.07551,229.4527],[4.80015,13.04582,243.406],[4.79674,13.0275,236.5959],[4.79695,13.00872,244.9186],[4.79302,12.99332,232.336],[4.78682,12.97972,239.2435],[4.77586,12.94154,240.0183],[4.76987,12.90138,250.1514],[4.80274,12.84513,257.1606],[4.82589,12.78263,267.7427],[4.81752,12.71026,268.7285],[4.8078,12.67336,282.2859],[4.80315,12.63561,282.5473],[4.83322,12.47479,272.0164],[4.8295,12.39937,241.0034],[4.78465,12.37682,265.4189],[4.71644,12.39852,248.1633],[4.64492,12.38095,256.4633],[4.60905,12.31852,250.4172],[4.61567,11.9341,279.2809],[4.58177,11.77827,276.2764],[4.53753,11.68433,214.9715],[4.52937,11.58903,211.4645],[4.56151,11.55278,214.5902],[4.60637,11.53826,225.7213],[4.64998,11.56511,213.6781],[4.68502,11.60774,228.3207],[4.87508,11.69226,266.2243],[4.89596,11.69735,265.2175],[4.91725,11.69236,250.2153],[4.93317,11.68381,269.3239],[4.94505,11.68701,267.1478],[4.95621,11.69143,272.4638],[4.97151,11.68205,264.6328],[4.98205,11.66632,292.071],[5.00376,11.66823,294.1526],[5.0235,11.68061,271.0126],[5.03125,12.14944,218.2861],[5.06815,12.26928,265.5714],[5.21522,12.24545,257.6205],[5.52083,12.25786,285.314],[5.57075,12.30971,309.6024],[5.56682,12.3879,321.0736],[5.54667,12.46167,308.0879],[5.55266,12.5274,293.9518],[5.5999,12.55892,286.3278],[5.6524,12.62373,290.4918],[5.68971,12.68261,302.4153],[5.74025,12.72178,313.1686],[5.96546,12.7431,323.0169],[6.00277,12.75323,329.0369],[6.03863,12.76894,340.8892],[6.06829,12.82325,314.4879],[6.05072,12.99438,342.3253],[6.06209,13.02231,331.0678],[6.12524,13.05724,325.8541],[6.198,13.06621,325.5064],[6.23696,13.05117,347.569],[6.26208,13.05768,358.5717],[6.27324,13.09889,349.0587],[6.27458,13.12535,344.4527],[6.27934,13.15044,332.3842],[6.29401,13.16284,331.7206],[6.34073,13.16294,330.1888],[6.36233,13.16018,323.8514],[6.38114,13.15571,322.5048],[6.39892,13.1494,321.697],[6.41432,13.13096,320.6164],[6.43106,13.11558,323.5859],[6.52852,13.09225,323.4738],[6.62588,13.09228,428.3856],[6.7036,13.13599,401.6252],[6.75352,13.17462,408.8209],[6.75388,13.1749,408.8209],[6.67254,13.32118,334.3664],[6.5093,13.49605,335.6944],[6.36894,13.62628,312.1301],[6.30218,13.66384,312.3456],[6.28421,13.66766,298.334],[6.22983,13.67919,304.0914],[6.21061,13.67526,293.7425],[6.15283,13.64356,291.7014],[6.14239,13.64082,291.124]]]}
,"properties": {"ISO3166-1-Alpha-3": "NGA","country": "Nigeria","fill": "#F00","name": "Sokoto","area_km2": 31511.1,"hist_schema_id": "Elevation0-9000","hist_area_km2": {"175": 18.48,"200": 363.41,"225": 1304.4,"250": 5120.64,"275": 10091.91,"300": 8469.14,"325": 4455.85,"350": 1177.93,"375": 351.81,"400": 151.94,"425": 5.57}}}