{"type": "Feature","bbox": [4.1276,11.5383,6.7744,13.892],"geometry": {"type": "MultiPolygon","coordinates": [[[[4.9768,11.6765,268.5743],[4.9821,11.6664,292.071],[4.9973,11.6652,323.1188],[5.0235,11.6806,271.0126],[5.0274,11.7302,237.2838],[5.0282,11.7604,284.0838],[5.0266,11.7897,289.4761],[5.0311,11.817,299.0825],[5.0342,11.8999,296.0823],[5.0308,11.9364,265.7882],[5.0311,11.9953,255.5837],[5.0347,12.0316,229.641],[5.0337,12.0687,243.1477],[5.0352,12.1052,240.3839],[5.0322,12.1498,218.2861],[5.0325,12.1895,224.476],[5.0341,12.2128,219.1575],[5.0413,12.2457,235.1918],[5.0476,12.2613,256.1967],[5.0624,12.2707,270.5671],[5.0937,12.2629,251.1429],[5.1598,12.2512,234.247],[5.2131,12.2442,257.946],[5.2853,12.2494,242.1754],[5.328,12.2446,274.8421],[5.3666,12.2517,292.4919],[5.4056,12.2547,317.7665],[5.4262,12.2501,299.4426],[5.4775,12.2569,317.3602],[5.499,12.2553,299.3932],[5.5249,12.2584,278.3027],[5.5647,12.2854,310.9759],[5.5716,12.3088,310.9855],[5.5766,12.3336,321.6405],[5.5676,12.3748,326.8295],[5.5661,12.4011,319.7317],[5.5508,12.4603,310.6335],[5.5429,12.4747,303.3437],[5.5427,12.492,305.5037],[5.5382,12.5125,292.5406],[5.5421,12.5204,294.6147],[5.58,12.546,284.3855],[5.5916,12.5508,281.1492],[5.6221,12.5804,302.0561],[5.6438,12.6133,294.042],[5.6711,12.6477,308.2819],[5.709,12.7098,312.5726],[5.7162,12.7166,314.5397],[5.729,12.7202,315.6573],[5.8145,12.7316,301.1696],[5.8437,12.7315,282.3552],[5.8999,12.739,289.9066],[5.9242,12.7396,306.2527],[5.9764,12.7441,324.5045],[5.9901,12.7482,325.5546],[6.0417,12.7702,341.0864],[6.0634,12.786,337.0169],[6.0664,12.7938,330.4553],[6.0636,12.8257,311.04],[6.064,12.879,310.3583],[6.06,12.8977,307.2551],[6.0623,12.9199,299.8935],[6.0603,12.9448,295.3584],[6.0514,12.9811,321.6121],[6.0497,13.0012,331.2982],[6.0515,13.0123,332.9106],[6.0856,13.0411,331.5186],[6.1256,13.0552,327.2355],[6.164,13.0658,328.6937],[6.2091,13.0659,334.95],[6.2177,13.0625,341.159],[6.2295,13.0552,345.7827],[6.2443,13.0522,351.7313],[6.2526,13.043,354.8548],[6.2607,13.0466,361.41],[6.2626,13.0616,358.5686],[6.2724,13.0765,354.4652],[6.2733,13.0989,349.0587],[6.2776,13.1235,344.5045],[6.2755,13.1389,337.0719],[6.282,13.1632,339.5737],[6.2984,13.1613,328.9348],[6.3341,13.1638,331.1041],[6.3624,13.1602,323.8514],[6.3755,13.156,322.271],[6.3806,13.1526,323.7554],[6.386,13.1529,321.9881],[6.3989,13.1495,321.697],[6.4265,13.1169,323.0343],[6.4445,13.112,324.3632],[6.4572,13.1065,322.4295],[6.4715,13.1052,322.9053],[6.4939,13.0991,322.3789],[6.5186,13.0997,323.1273],[6.5673,13.0908,332.8809],[6.5969,13.0889,360.7296],[6.6108,13.0862,386.3178],[6.6439,13.1006,406.7208],[6.7056,13.139,402.4788],[6.7254,13.1497,402.6793],[6.7444,13.1647,412.9958],[6.7602,13.1803,404.2081],[6.7744,13.1907,394.2403],[6.6777,13.3556,354.6564],[6.6361,13.3949,346.1932],[6.5792,13.4527,357.1003],[6.5718,13.4584,351.9549],[6.4336,13.592,308.1019],[6.4213,13.6016,300.8123],[6.4147,13.6028,300.0888],[6.3144,13.6556,318.4504],[6.2834,13.6667,299.8799],[6.2689,13.6666,294.6886],[6.2611,13.6686,294.8735],[6.2244,13.6664,295.5771],[6.2056,13.6619,293.0792],[6.1944,13.6567,292.6125],[6.1494,13.6428,291.6786],[6.0848,13.68,305.301],[5.9909,13.7137,288.3127],[5.8857,13.7479,287.473],[5.7532,13.7944,398.395],[5.5265,13.892,291.4597],[5.4593,13.8739,298.3442],[5.4491,13.8733,281.6543],[5.4444,13.8699,281.7085],[5.3553,13.8449,290.9894],[5.2705,13.7461,262.307],[5.1844,13.7437,281.8285],[5.1717,13.7461,285.1332],[5.1646,13.7446,284.9097],[5.148,13.7465,297.1855],[5.1351,13.7506,270.4636],[5.1287,13.7495,284.156],[5.106,13.7525,304.176],[5.0019,13.7412,264.1682],[4.9095,13.7486,265.2577],[4.8983,13.7544,271.5053],[4.8761,13.7753,286.5213],[4.8707,13.7825,288.3731],[4.752,13.7601,273.0466],[4.7423,13.7571,264.5757],[4.626,13.7368,277.2248],[4.5678,13.7245,265.3153],[4.5548,13.7234,275.1462],[4.5502,13.7208,277.876],[4.4802,13.7078,274.4589],[4.4781,13.7048,276.9673],[4.4648,13.7033,273.7214],[4.3502,13.6053,243.3778],[4.3242,13.58,276.6494],[4.3207,13.5791,274.5556],[4.2134,13.4853,229.4263],[4.1974,13.473,225.9519],[4.1972,13.4743,228.3395],[4.182,13.4717,220.2228],[4.173,13.4733,220.6255],[4.1305,13.4726,233.8394],[4.1276,13.4503,218.2226],[4.1299,13.3754,232.592],[4.129,13.2126,220.786],[4.2189,13.2155,255.5757],[4.236,13.2147,280.3921],[4.2551,13.205,231.3061],[4.2661,13.2031,231.6492],[4.2906,13.2105,293.9131],[4.3077,13.2211,277.2263],[4.3224,13.2263,251.0104],[4.3409,13.2282,254.053],[4.3531,13.2232,258.7998],[4.3615,13.2092,257.3701],[4.3798,13.1896,256.6858],[4.4044,13.1739,236.756],[4.4313,13.1608,219.9906],[4.4484,13.1435,223.7635],[4.4596,13.1438,233.4926],[4.4879,13.1294,232.7408],[4.5117,13.12,229.0764],[4.5507,13.1105,257.7818],[4.6029,13.094,255.8527],[4.6504,13.0613,255.1279],[4.6688,13.055,241.1497],[4.7,13.0505,226.603],[4.7165,13.0526,226.9941],[4.7293,13.0573,228.2297],[4.7395,13.0662,227.9037],[4.7456,13.0792,227.6419],[4.7626,13.1004,228.3701],[4.7701,13.1148,227.8054],[4.7798,13.1246,239.618],[4.7868,13.1284,243.7056],[4.7984,13.1295,238.776],[4.8093,13.1261,236.2245],[4.816,13.1156,231.0047],[4.8224,13.0958,231.7786],[4.816,13.0837,229.3923],[4.8138,13.0712,232.4929],[4.805,13.0519,241.9306],[4.8002,13.0459,243.406],[4.7962,13.0336,237.5638],[4.7977,12.9955,237.5674],[4.7876,12.9841,238.6477],[4.7831,12.9565,241.2185],[4.7748,12.9484,243.0114],[4.7679,12.8896,255.1367],[4.773,12.8793,261.9035],[4.7834,12.8713,258.285],[4.798,12.8556,256.6054],[4.8109,12.8331,260.0001],[4.8166,12.8135,259.5644],[4.8271,12.7878,270.6636],[4.8223,12.7656,254.5114],[4.8241,12.7351,230.7802],[4.8093,12.6795,281.9971],[4.8031,12.639,279.7057],[4.8039,12.6067,290.7226],[4.8188,12.5646,293.9793],[4.8309,12.519,283.0618],[4.8333,12.486,263.2856],[4.8331,12.4542,257.021],[4.8319,12.4269,250.5672],[4.827,12.3918,251.9607],[4.8242,12.3797,269.2101],[4.8166,12.3669,298.4316],[4.8003,12.3663,281.8221],[4.749,12.3987,250.9465],[4.7274,12.4017,254.6169],[4.7057,12.3985,253.5965],[4.6807,12.394,268.1127],[4.6419,12.3797,252.2331],[4.6212,12.3562,252.373],[4.605,12.2962,241.2174],[4.6073,12.2867,238.6252],[4.6027,12.1382,235.837],[4.6074,12.1112,241.2646],[4.6051,12.0925,249.9563],[4.6053,12.0653,275.3617],[4.6082,12.027,287.6099],[4.6141,12.0053,284.8068],[4.6171,11.9636,247.5234],[4.6155,11.9307,281.1365],[4.6091,11.889099999999999,307.6413],[4.5987,11.8645,287.7713],[4.5925,11.843,263.7497],[4.5812,11.775,270.3704],[4.539,11.6853,213.846],[4.5274,11.6476,199.5939],[4.5203,11.6094,205.1384],[4.5268,11.5926,216.1354],[4.5433,11.5702,216.7643],[4.5614,11.5512,214.3864],[4.5737,11.543,228.5291],[4.6021,11.5383,234.2937],[4.6187,11.5385,237.4568],[4.6308,11.5439,234.8649],[4.6462,11.56,222.2796],[4.6588,11.5807,215.2347],[4.685,11.6078,228.3207],[4.7236,11.6285,222.0531],[4.7522,11.6376,236.5327],[4.7752,11.6478,245.4973],[4.8048,11.6572,257.4842],[4.8266,11.6692,312.1046],[4.8485,11.6768,268.454],[4.8789,11.6945,251.5058],[4.8933,11.6988,283.4367],[4.9062,11.6964,245.8166],[4.9172,11.6924,250.2153],[4.9229,11.6872,247.0056],[4.9368,11.6827,260.9858],[4.9563,11.6915,272.4638],[4.9698,11.6942,266.5801],[4.9726,11.6905,259.9248],[4.9768,11.6765,268.5743]]]]}
,"properties": {"GID_1": "NGA.34_1","GID_0": "NGA","country": "Nigeria","province": "Sokoto","VARNAME_1": "NA","NL_NAME_1": "NA","TYPE_1": "State","ENGTYPE_1": "State","CC_1": "NA","HASC_1": "NG.SO","ISO_1": "NG-SO","name": "Sokoto.province","area_km2": 31859.08,"hist_schema_id": "Elevation0-9000","hist_area_km2": {"175": 19.96,"200": 370.86,"225": 1301.94,"250": 5162.94,"275": 10192.06,"300": 8513.63,"325": 4491.41,"350": 1262.52,"375": 371.97,"400": 165.69,"425": 6.09}}}