{"type": "Feature","bbox": [7.5259,5.8183,7.7274,5.9893],"geometry": {"type": "MultiPolygon","coordinates": [[[[7.6664,5.8183,57.6306],[7.6836,5.8324,46.3623],[7.6873,5.8453,47.5774],[7.7088,5.8626,38.6326],[7.7139,5.8808,33.5859],[7.7274,5.9077,34.9844],[7.7199,5.9092,35.0276],[7.6986,5.9193,38.6285],[7.6709,5.9197,47.8361],[7.6717,5.9232,45.5061],[7.6689,5.9244,48.5577],[7.6368,5.9604,37.7023],[7.6243,5.9618,38.3398],[7.616,5.9746,43.5683],[7.5922,5.9893,56.7006],[7.5835,5.9887,44.7964],[7.5572,5.9772,48.0497],[7.5399,5.9752,53.9797],[7.5336,5.973,58.1178],[7.5324,5.9631,64.3984],[7.5354,5.9188,64.9667],[7.5347,5.9024,51.8095],[7.5282,5.8878,61.0476],[7.5259,5.8562,78.2242],[7.5266,5.8444,77.2864],[7.5418,5.8278,75.196],[7.6105,5.8218,63.5738],[7.6385,5.8229,63.3506],[7.6664,5.8183,57.6306]]]]}
,"properties": {"GID_2": "NGA.11.9_1","GID_0": "NGA","country": "Nigeria","GID_1": "NGA.11_1","province": "Ebonyi","NL_NAME_1": "NA","county": "Ivo","VARNAME_2": "NA","NL_NAME_2": "NA","TYPE_2": "LocalAuthority","ENGTYPE_2": "LocalAuthority","CC_2": "NA","HASC_2": "NA","name": "Ivo.county","area_km2": 289.2928,"hist_schema_id": "Elevation0-9000","hist_area_km2": {"0": 0.0211,"25": 13.8349,"50": 233.487,"75": 41.9498}}}