{"type": "Feature","bbox": [7.9729,4.7311,8.0773,4.8918],"geometry": {"type": "MultiPolygon","coordinates": [[[[7.9729,4.8235,27.8778],[7.9783,4.8131,37.6043],[7.9777,4.8065,44.2373],[7.9801,4.796,42.4251],[7.9892,4.7763,37.6412],[8.0022,4.7627,15.3076],[8.0111,4.7451,40.4918],[8.0187,4.7419,32.6845],[8.0318,4.7311,39.908],[8.047,4.7412,36.7593],[8.0515,4.746,36.6214],[8.0535,4.7582,35.7118],[8.0672,4.7764,32.552],[8.0701,4.783,37.7387],[8.0609,4.7972,35.8039],[8.0609,4.8002,32.0944],[8.0528,4.8142,43.1804],[8.052,4.8188,38.5322],[8.0528,4.8282,43.0719],[8.0549,4.8312,38.696],[8.0664,4.8397,42.9573],[8.0716,4.8459,38.5121],[8.0773,4.8594,42.4124],[8.0769,4.864,39.5318],[8.0634,4.8803,45.7534],[8.0496,4.8861,48.0677],[8.0415,4.8858,48.1545],[8.0319,4.891,41.2442],[8.0271,4.8918,54.2869],[7.9992,4.8895,50.2644],[8.0003,4.8773,52.4331],[7.9947,4.8592,54.2137],[7.9879,4.8526,51.7386],[7.9838,4.8414,46.9379],[7.9839,4.8345,42.9251],[7.9729,4.8235,27.8778]]]]}
,"properties": {"GID_2": "NGA.3.19_1","GID_0": "NGA","country": "Nigeria","GID_1": "NGA.3_1","province": "AkwaIbom","NL_NAME_1": "NA","county": "NsitAtai","VARNAME_2": "NA","NL_NAME_2": "NA","TYPE_2": "LocalAuthority","ENGTYPE_2": "LocalAuthority","CC_2": "NA","HASC_2": "NA","name": "Nsit_Atai.county","area_km2": 132.616,"hist_schema_id": "Elevation0-9000","hist_area_km2": {"25": 44.2217,"50": 88.3943}}}