{"type": "Feature","bbox": [5.2208,5.9031,5.8468,6.8754],"geometry": {"type": "MultiPolygon","coordinates": [[[[5.4024,6.0166,10.9813],[5.4084,6.0334,12.8497],[5.4145,6.0441,12.99],[5.4222,6.0721,15.3143],[5.4313,6.0968,16.7971],[5.4313,6.1091,15.9948],[5.4412,6.1241,18.2321],[5.4456,6.151,18.0816],[5.4604,6.195,23.7604],[5.4653,6.217,24.5845],[5.4828,6.2423,38.0277],[5.4917,6.2516,47.993],[5.5012,6.2692,46.833],[5.4959,6.2937,59.6184],[5.4918,6.3016,65.7579],[5.4902,6.3129,70.914],[5.491,6.3189,75.3238],[5.4948,6.3269,79.3856],[5.5033,6.3399,75.8273],[5.5188,6.3548,49.2048],[5.5353,6.3776,96.1966],[5.5473,6.3912,99.5684],[5.5685,6.4047,108.8882],[5.6046,6.3997,108.8169],[5.6137,6.4053,111.8583],[5.6244,6.407,97.5238],[5.6097,6.4127,111.5526],[5.6117,6.4387,119.6063],[5.6233,6.4551,134.7476],[5.6324,6.4656,124.8923],[5.6647,6.4943,79.5793],[5.7198,6.5327,137.497],[5.7446,6.5549,149.3081],[5.7559,6.5701,142.0185],[5.7651,6.5956,211.5252],[5.7996,6.6717,281.3215],[5.8023,6.6862,278.4459],[5.8093,6.7017,279.8909],[5.824,6.725,239.032],[5.8284,6.7431,147.6057],[5.8379,6.7589,91.4984],[5.8399,6.7692,86.8524],[5.8468,6.7858,82.8226],[5.8187,6.7871,49.9075],[5.7772,6.7993,43.421],[5.7633,6.7986,42.6394],[5.7611,6.7894,44.7952],[5.7566,6.7805,44.7581],[5.7505,6.7772,48.5018],[5.7364,6.7765,42.1989],[5.722,6.7687,39.4742],[5.7131,6.7481,38.4995],[5.6794,6.7378,55.8431],[5.6698,6.7315,57.027],[5.6568,6.7373,51.3435],[5.6448,6.7545,39.1114],[5.6375,6.7611,36.7141],[5.6159,6.7631,36.8626],[5.6005,6.7541,35.6075],[5.5887,6.74,31.6579],[5.5798,6.7333,30.2359],[5.5731,6.7325,26.1285],[5.555,6.712,37.7101],[5.543,6.7115,33.2786],[5.539,6.7227,41.3836],[5.5307,6.736,42.5606],[5.5256,6.763,105.827],[5.5163,6.7761,112.9523],[5.5091,6.7998,101.7918],[5.514,6.8057,85.5584],[5.5337,6.8217,41.0283],[5.5396,6.8304,45.0662],[5.5416,6.8361,48.478],[5.5292,6.8564,98.5327],[5.5135,6.8698,126.6539],[5.487,6.8754,123.3707],[5.4747,6.8726,129.7105],[5.4251,6.8693,136.2343],[5.4216,6.8512,114.8782],[5.407,6.8187,82.7875],[5.3923,6.7678,87.3466],[5.3844,6.7599,95.2839],[5.3723,6.7386,82.369],[5.3608,6.7305,100.4771],[5.3554,6.7246,78.9415],[5.3505,6.7058,43.5933],[5.3507999999999996,6.6978,45.0675],[5.362,6.6768,31.7529],[5.3738,6.6605,38.0487],[5.3795,6.6415,37.4562],[5.3858,6.6315,66.7993],[5.3913,6.6056,83.3524],[5.3977,6.588,139.3585],[5.405,6.5784,107.2552],[5.4104,6.5739,134.1083],[5.4143,6.5734,143.2536],[5.426,6.5661,109.3762],[5.4289,6.5584,70.8362],[5.4281,6.5557,68.0929],[5.4374,6.5456,43.1025],[5.4436,6.543,46.6474],[5.4613,6.5228,54.107],[5.4614,6.5164,54.4566],[5.4563,6.498,22.6868],[5.4485,6.4998,58.7364],[5.4385,6.4829,97.3348],[5.437,6.4737,28.5888],[5.4346,6.4703,82.004],[5.4343,6.45,40.4533],[5.4109,6.429,94.5225],[5.4102,6.4189,94.5886],[5.4076,6.4113,74.7439],[5.4101,6.3972,74.9039],[5.4079,6.3903,100.9701],[5.409,6.3845,97.9139],[5.4072,6.3765,74.2982],[5.4097,6.37,31.8394],[5.4091,6.3661,32.0142],[5.413,6.3469,20.3778],[5.419,6.3365,24.401],[5.4327,6.3252,14.0799],[5.4293,6.313,18.838],[5.4241,6.3039,12.3094],[5.4092,6.2859,11.1363],[5.4049,6.2736,3.5515],[5.4038,6.2625,13.0789],[5.4007,6.2589,9.5817],[5.3819,6.2643,6.2258],[5.3671,6.2654,5.8655],[5.3567,6.264,13.0309],[5.3523,6.2618,19.91],[5.3452,6.2513,20.4238],[5.3218,6.228,18.9005],[5.3145,6.2226,21.0336],[5.3192,6.2114,14.9401],[5.3193,6.2031,10.8221],[5.3281,6.1762,8.5765],[5.3209,6.1575,13.9351],[5.3124,6.1468,13.4746],[5.3014,6.1359,14.3622],[5.2895,6.1287,17.1034],[5.2821,6.1268,17.8397],[5.2773,6.1317,11.6089],[5.2658,6.1303,16.2673],[5.2553,6.1272,11.596],[5.2509,6.1211,20.8458],[5.2465,6.109,15.0972],[5.2449,6.0924,13.043],[5.2375,6.081,17.0039],[5.2379,6.0738,10.9505],[5.2414,6.066,16.4766],[5.246,6.0633,9.8068],[5.2525,6.0653,14.6897],[5.2535,6.0586,18.2738],[5.2509,6.0527,12.1365],[5.2324,6.0386,15.5914],[5.2284,6.0121,12.6283],[5.2208,5.9843,14.5511],[5.2314,5.9431,14.5405],[5.2322,5.9031,19.1395],[5.259,5.9043,8.6067],[5.3027,5.9402,4.6678],[5.3251,5.9565,9.9157],[5.3335,5.9736,13.0756],[5.3191,5.999,8.3359],[5.3201,6.0156,13.2105],[5.3463,6.0255,13.5016],[5.3656,6.0171,12.3789],[5.3944,6.0139,7.0446],[5.4024,6.0166,10.9813]]]]}
,"properties": {"GID_2": "NGA.12.14_1","GID_0": "NGA","country": "Nigeria","GID_1": "NGA.12_1","province": "Edo","NL_NAME_1": "NA","county": "OviaNorth-East","VARNAME_2": "NA","NL_NAME_2": "NA","TYPE_2": "LocalAuthority","ENGTYPE_2": "LocalAuthority","CC_2": "NA","HASC_2": "NA","name": "Ovia_North-East.county","area_km2": 2368.954,"hist_schema_id": "Elevation0-9000","hist_area_km2": {"0": 172.469,"25": 673.474,"50": 406.009,"75": 251.485,"100": 247.894,"125": 248.087,"150": 177.68,"175": 61.497,"200": 38.371,"225": 40.203,"250": 34.411,"275": 15.141,"300": 2.232}}}