{"type": "Feature","bbox": [8.1327,4.576,8.3438,4.7469],"geometry": {"type": "MultiPolygon","coordinates": [[[[8.3293,4.6376,0.0],[8.3246,4.6349,0.0],[8.3185,4.6251,4.2396],[8.3196,4.6132,1.0125],[8.3093,4.6118,4.7709],[8.3071,4.6101,4.9116],[8.3082,4.6024,3.8919],[8.3115,4.5951,0.0],[8.3118,4.5893,0.0],[8.314,4.5871,1.5447],[8.3213,4.5865,0.0],[8.3313,4.5907,0.0],[8.3435,4.604,0.0],[8.3438,4.6107,0.0],[8.3393,4.6132,1.5192],[8.3387,4.6263,0.5878],[8.3332,4.6354,0.0],[8.3293,4.6376,0.0]]],
[[[8.1327,4.5971,15.187],[8.1526,4.592,14.3617],[8.1726,4.5896,14.8867],[8.1846,4.59,14.6998],[8.1916,4.5925,13.3295],[8.2242,4.5871,2.907],[8.2358,4.5883,3.9457],[8.2416,4.5905,4.3127],[8.2599,4.5904,1.7683],[8.2599,4.5954,2.283],[8.2638,4.6001,2.0091],[8.2626,4.6032,1.2359],[8.2424,4.6046,1.484],[8.2532,4.6057,4.3819],[8.2596,4.6049,2.3136],[8.2643,4.6026,1.0102],[8.264,4.599,2.0091],[8.2601,4.5943,2.283],[8.2615,4.5901,1.2283],[8.2638,4.5899,0.0],[8.2665,4.5932,6.0849],[8.2721,4.5932,1.4231],[8.276,4.5896,1.845],[8.279,4.5832,0.0],[8.2893,4.576,2.2875],[8.2921,4.5765,0.0],[8.2949,4.5799,0.0],[8.2954,4.5835,0.8957],[8.3004,4.5862,0.0],[8.3026,4.5907,0.0],[8.3076,4.5946,0.9117],[8.3054,4.6101,0.4947],[8.3085,4.6135,0.0],[8.3179,4.6143,9.0204],[8.3174,4.6268,3.5649],[8.3276,4.6415,2.1083],[8.3271,4.6449,0.9811],[8.3121,4.6546,4.5008],[8.3088,4.6604,2.0097],[8.3096,4.6718,9.0859],[8.3135,4.6718,2.8413],[8.3149,4.6632,1.1198],[8.3176,4.661,1.6055],[8.3238,4.6668,0.0],[8.3246,4.6771,5.9468],[8.3149,4.6799,5.2384],[8.2977,4.7117,5.6345],[8.2958,4.7216,11.4986],[8.2968,4.7285,3.3195],[8.2958,4.746,5.5112],[8.2946,4.7469,4.8787],[8.2891,4.7344,3.5326],[8.2743,4.7291,8.0999],[8.2661,4.7195,33.6836],[8.2582,4.7206,32.1668],[8.2564,4.7243,35.4531],[8.2453,4.7201,20.4673],[8.2405,4.722,20.1959],[8.2317,4.7204,23.705],[8.2226,4.7124,24.2045],[8.2017,4.705,15.6532],[8.2136,4.7004,6.5858],[8.214,4.6978,10.5886],[8.2102,4.6866,4.8373],[8.2054,4.6784,19.9354],[8.2058,4.6713,2.066],[8.1978,4.664,2.541],[8.1841,4.6596,20.1586],[8.1564,4.6546,29.6665],[8.1517,4.6512,27.712],[8.1491,4.6462,27.4734],[8.1421,4.6432,23.9338],[8.1425,4.6371,25.8888],[8.1362,4.6224,11.0455],[8.1327,4.5971,15.187]]]]}
,"properties": {"GID_2": "NGA.3.17_1","GID_0": "NGA","country": "Nigeria","GID_1": "NGA.3_1","province": "AkwaIbom","NL_NAME_1": "NA","county": "Mbo","VARNAME_2": "NA","NL_NAME_2": "NA","TYPE_2": "LocalAuthority","ENGTYPE_2": "LocalAuthority","CC_2": "NA","HASC_2": "NA","name": "Mbo.county","area_km2": 243.4262,"hist_schema_id": "Elevation0-9000","hist_area_km2": {"0": 157.882,"25": 85.5442}}}