{"type": "Feature","bbox": [8.8483,11.6612,9.1922,11.8948],"geometry": {"type": "MultiPolygon","coordinates": [[[[9.1922,11.8686,416.6556],[9.1409,11.8652,409.9566],[9.11,11.865,403.0387],[9.0973,11.8666,403.0432],[9.0842,11.8646,402.5916],[9.0699,11.8585,407.0712],[9.0595,11.8527,407.9716],[9.0509,11.8436,409.9879],[9.0465,11.841,410.2523],[9.0242,11.8432,417.9453],[9.0039,11.8424,423.6921],[8.988,11.8479,427.9591],[8.9744,11.847,431.6243],[8.9592,11.8601,428.6993],[8.9556,11.8682,422.4043],[8.9456,11.8785,416.9543],[8.9456,11.8811,414.3559],[8.9406,11.8863,415.3006],[8.9283,11.8926,422.2023],[8.916,11.8948,422.5245],[8.9001,11.8827,421.4606],[8.9075,11.8779,425.7889],[8.9106,11.8728,426.0075],[8.9113,11.8701,427.1184],[8.9093,11.8682,426.8734],[8.9088,11.8608,429.3919],[8.9001,11.8524,421.9256],[8.8909,11.8362,422.8269],[8.8801,11.8287,406.8352],[8.8692,11.8179,407.395],[8.8634,11.8061,410.7975],[8.8536,11.7942,413.6044],[8.849,11.7847,416.8919],[8.8483,11.7789,417.0089],[8.8662,11.7523,430.7781],[8.8741,11.7462,437.4125],[8.8896,11.7235,442.0032],[8.8921,11.7219,441.9625],[8.9029,11.7019,437.4051],[8.912,11.6902,434.8638],[8.9163,11.6817,443.5075],[8.9245,11.6781,448.5458],[8.9278,11.6733,456.5001],[8.9373,11.6812,455.8685],[8.9537,11.6798,452.5941],[8.9571,11.6778,453.1048],[8.9658,11.6612,457.1058],[9.0012,11.6683,454.7833],[9.0086,11.6675,454.9726],[9.0422,11.6765,438.4706],[9.0665,11.6739,419.9687],[9.1099,11.6736,421.2335],[9.1212,11.6749,426.3328],[9.1548,11.6885,441.2573],[9.1627,11.6941,435.7384],[9.1698,11.7038,429.108],[9.1325,11.7029,430.3801],[9.1307,11.7049,429.9846],[9.1276,11.736,429.635],[9.1355,11.7693,426.0182],[9.1646,11.8057,423.4167],[9.1898,11.844,425.4728],[9.1922,11.8686,416.6556]]]]}
,"properties": {"GID_2": "NGA.20.16_1","GID_0": "NGA","country": "Nigeria","GID_1": "NGA.20_1","province": "Kano","NL_NAME_1": "NA","county": "Gaya","VARNAME_2": "NA","NL_NAME_2": "NA","TYPE_2": "LocalAuthority","ENGTYPE_2": "LocalAuthority","CC_2": "NA","HASC_2": "NA","name": "Gaya.county","area_km2": 619.9042,"hist_schema_id": "Elevation0-9000","hist_area_km2": {"400": 90.3362,"425": 424.1916,"450": 105.3557,"475": 0.0208}}}