{"type": "Feature","bbox": [11.5642,11.0008,12.3897,11.66],"geometry": {"type": "MultiPolygon","coordinates": [[[[12.1944,11.0867,508.5856],[12.1988,11.1342,509.6944],[12.1866,11.2004,477.5175],[12.186,11.2478,463.6531],[12.2004,11.2934,473.3848],[12.2471,11.3468,451.5882],[12.2687,11.3872,435.4013],[12.3005,11.4408,415.5893],[12.3414,11.4748,409.7326],[12.3738,11.5114,395.4811],[12.3897,11.545,395.8294],[12.3762,11.5981,385.3171],[12.3549,11.6294,382.8322],[12.3256,11.6577,374.4333],[12.2922,11.66,378.1698],[12.2463,11.6544,390.6299],[12.2369,11.6596,392.1996],[12.2068,11.6398,393.563],[12.1912,11.6329,402.5236],[12.1777,11.6225,405.0976],[12.1588,11.6202,405.4746],[12.1534,11.6219,405.6585],[12.1364,11.6208,406.8799],[12.121,11.609,404.6443],[12.0934,11.606,401.4276],[11.9926,11.5812,430.879],[11.9604,11.575,424.7706],[11.9345,11.5732,406.9621],[11.9064,11.5649,380.8017],[11.8775,11.5469,399.6371],[11.8409,11.5368,423.5735],[11.8059,11.5175,361.3403],[11.806,11.5162,360.6704],[11.7814,11.4931,391.3157],[11.7656,11.47,365.8074],[11.749,11.4332,398.1165],[11.7233,11.3998,349.1778],[11.6958,11.3785,334.5722],[11.6704,11.3672,325.5238],[11.6461,11.367,327.4476],[11.6258,11.3703,323.9942],[11.6005,11.3771,300.3094],[11.5789,11.3708,323.3464],[11.5642,11.3599,337.7294],[11.5662,11.3212,310.7873],[11.5839,11.275,285.5533],[11.5954,11.2398,286.4091],[11.5952,11.2201,291.2812],[11.6175,11.2179,297.3384],[11.6798,11.2074,318.7299],[11.7535,11.2042,349.1517],[11.7828,11.2004,354.2554],[11.8096,11.1931,359.2936],[11.8358,11.1907,370.7272],[11.8766,11.1579,384.8524],[11.9016,11.1283,399.2826],[11.9074,11.119,417.0105],[11.9343,11.1037,467.0359],[11.9426,11.107,462.0679],[11.947,11.1235,441.886],[11.9514,11.1315,490.9369],[11.9597,11.1388,497.5967],[11.9709,11.1381,500.0702],[12.0088,11.1169,486.1586],[12.0338,11.0878,503.3126],[12.0573,11.0663,517.1976],[12.0826,11.0344,530.8731],[12.088,11.0182,537.4254],[12.1045,11.0008,539.2531],[12.1612,11.0381,515.5337],[12.1944,11.0867,508.5856]]]]}
,"properties": {"GID_2": "NGA.36.7_1","GID_0": "NGA","country": "Nigeria","GID_1": "NGA.36_1","province": "Yobe","NL_NAME_1": "NA","county": "Gujba","VARNAME_2": "NA","NL_NAME_2": "NA","TYPE_2": "LocalAuthority","ENGTYPE_2": "LocalAuthority","CC_2": "NA","HASC_2": "NA","name": "Gujba.county","area_km2": 3351.596,"hist_schema_id": "Elevation0-9000","hist_area_km2": {"275": 2.017,"300": 108.707,"325": 193.713,"350": 143.418,"375": 259.809,"400": 711.13,"425": 945.506,"450": 528.532,"475": 240.988,"500": 139.099,"525": 78.49,"550": 0.187}}}