{"type": "Feature","bbox": [5.383,6.891,5.7366,7.3276],"geometry": {"type": "MultiPolygon","coordinates": [[[[5.4583,7.2951,336.0398],[5.4451,7.2862,326.4597],[5.4198,7.274,319.4814],[5.383,7.2835,336.6716],[5.3854,7.2764,321.705],[5.3917,7.2671,319.6932],[5.3958,7.2548,304.8317],[5.401,7.2481,306.856],[5.3979,7.2232,312.7597],[5.4002,7.2124,328.9107],[5.405,7.2067,324.9621],[5.406,7.198,319.6111],[5.4056,7.1865,312.7962],[5.4026,7.1761,302.9164],[5.4023,7.1688,290.9114],[5.404,7.1621,296.5311],[5.4088,7.1555,297.4438],[5.4127,7.1541,303.6577],[5.4144,7.1483,299.5829],[5.4163,7.1227,306.6022],[5.4231,7.1175,297.6604],[5.4712,7.1222,270.0584],[5.4753,7.1168,247.494],[5.4743,7.1109,235.6215],[5.4665,7.1009,285.6755],[5.4616,7.0841,234.6794],[5.4551,7.0794,254.8938],[5.447,7.0777,271.0558],[5.4326,7.0703,222.5468],[5.4397,7.0575,192.7539],[5.4553,7.0524,182.1321],[5.4601,7.0475,191.6846],[5.4643,7.0244,180.6042],[5.4705,7.0072,180.5102],[5.4706,6.9994,180.8287],[5.474,6.9975,173.6776],[5.4849,6.9833,154.5167],[5.4994,6.9522,130.3125],[5.5127,6.9344,108.7736],[5.5156,6.9277,126.1813],[5.5183,6.9099,110.7563],[5.5221,6.9011,95.4503],[5.5319,6.8965,89.4242],[5.5557,6.891,76.8337],[5.5709,6.9396,104.2817],[5.5692,6.9643,155.6382],[5.57,6.9853,169.302],[5.5752,7.0025,164.2435],[5.6014,7.011,182.3828],[5.6143,7.0131,203.7451],[5.6212,7.0224,190.814],[5.6174,7.0472,212.1567],[5.6208,7.0568,222.8761],[5.6255,7.0636,218.1637],[5.6246,7.0671,216.3356],[5.6306,7.0783,238.0022],[5.6381,7.0871,262.1953],[5.6472,7.0943,238.725],[5.6565,7.0963,232.1133],[5.659,7.0946,233.3813],[5.6747,7.0962,208.2709],[5.6831,7.1,206.9655],[5.6882,7.1059,223.2125],[5.6756,7.1199,272.8636],[5.6731,7.1271,274.256],[5.6778,7.1325,293.5947],[5.6807,7.141,258.328],[5.6925,7.1528,295.2573],[5.7004,7.157,277.2767],[5.7102,7.1682,261.3259],[5.7205,7.1763,228.6797],[5.7315,7.1819,226.0216],[5.7366,7.1885,207.524],[5.7298,7.1925,205.2407],[5.7148,7.1911,218.852],[5.7036,7.1978,223.1015],[5.6989,7.2214,248.6296],[5.7012,7.2338,275.1512],[5.6786,7.2355,262.972],[5.6737,7.2589,262.9677],[5.6673,7.2624,261.6386],[5.6594,7.2734,285.6555],[5.6573,7.2887,202.515],[5.6457,7.3018,226.0148],[5.646,7.3077,228.1782],[5.6364,7.3079,235.2327],[5.626,7.3106,245.4233],[5.5924,7.3142,267.2936],[5.5508,7.3211,328.5245],[5.5337,7.3189,313.8268],[5.5164,7.3226,321.9151],[5.5057,7.3276,327.2175],[5.4689,7.3004,346.1009],[5.4583,7.2951,336.0398]]]]}
,"properties": {"GID_2": "NGA.29.18_1","GID_0": "NGA","country": "Nigeria","GID_1": "NGA.29_1","province": "Ondo","NL_NAME_1": "NA","county": "Owo","VARNAME_2": "NA","NL_NAME_2": "NA","TYPE_2": "LocalAuthority","ENGTYPE_2": "LocalAuthority","CC_2": "NA","HASC_2": "NA","name": "Owo.county","area_km2": 989.1257,"hist_schema_id": "Elevation0-9000","hist_area_km2": {"50": 0.4841,"75": 5.9146,"100": 18.0587,"125": 22.0144,"150": 31.5675,"175": 46.4849,"200": 63.0833,"225": 102.356,"250": 108.2566,"275": 161.3445,"300": 221.0154,"325": 168.1221,"350": 39.5402,"375": 0.8203,"400": 0.0631}}}