{"type": "Feature","bbox": [9.7012,12.2288,10.2559,12.4039],"geometry": {"type": "MultiPolygon","coordinates": [[[[10.2559,12.3783,351.4989],[10.2419,12.3802,352.9751],[10.2369,12.3849,352.8834],[10.2181,12.3884,352.9801],[10.1659,12.3822,354.928],[10.1472,12.383,353.6544],[10.1334,12.3816,354.6257],[10.1185,12.3836,354.6242],[10.0742,12.3823,356.1857],[10.0388,12.3876,355.9269],[10.0323,12.395,356.8953],[10.0212,12.3999,356.705],[10.0065,12.4039,356.4443],[9.9935,12.3994,356.2832],[9.9813,12.3872,357.8215],[9.973,12.3901,357.3422],[9.97,12.3928,357.9723],[9.9646,12.3934,357.3732],[9.9513,12.3839,357.6263],[9.9428,12.3706,359.089],[9.8959,12.343,360.7208],[9.8843,12.3337,361.3201],[9.8473,12.3131,362.2835],[9.8235,12.3052,364.2216],[9.8077,12.306,363.2372],[9.7811,12.2956,363.6205],[9.7381,12.2754,365.4874],[9.7174,12.2864,365.8788],[9.7101,12.2857,365.8212],[9.7052,12.2816,366.6313],[9.7012,12.2685,366.5822],[9.7108,12.2634,366.543],[9.7377,12.2439,364.7018],[9.7533,12.2394,363.5955],[9.7725,12.2393,363.2971],[9.8082,12.2468,361.914],[9.8289,12.244,364.7558],[9.8408,12.2328,363.8067],[9.856,12.2301,373.7348],[9.8685,12.2288,361.8792],[9.9132,12.2348,361.8862],[9.9449,12.2435,361.0644],[9.9554,12.2484,359.9242],[9.9692,12.2584,360.7278],[9.9643,12.2683,358.079],[9.9645,12.2759,359.6871],[9.9763,12.2861,358.0112],[9.9796,12.2976,359.6539],[9.9861,12.3068,360.11],[10.0011,12.3159,359.2343],[10.0052,12.324,358.5117],[10.0144,12.3326,358.1825],[10.0317,12.3439,356.7032],[10.0449,12.3489,355.9159],[10.0625,12.3521,356.6453],[10.0687,12.3496,356.9608],[10.0857,12.3486,357.3704],[10.1077,12.343,356.9413],[10.1253,12.3309,355.3813],[10.1334,12.3283,354.6801],[10.1508,12.3081,356.4782],[10.1746,12.2757,356.3167],[10.1828,12.2722,356.5093],[10.187,12.2681,356.3235],[10.1985,12.2643,355.1909],[10.2021,12.2592,356.4037],[10.2165,12.248,356.1823],[10.2249,12.2673,356.8458],[10.2407,12.3129,354.9704],[10.2559,12.3783,351.4989]]]]}
,"properties": {"GID_2": "NGA.18.1_1","GID_0": "NGA","country": "Nigeria","GID_1": "NGA.18_1","province": "Jigawa","NL_NAME_1": "NA","county": "Auyo","VARNAME_2": "NA","NL_NAME_2": "NA","TYPE_2": "LocalAuthority","ENGTYPE_2": "LocalAuthority","CC_2": "NA","HASC_2": "NA","name": "Auyo.county","area_km2": 500.2709,"hist_schema_id": "Elevation0-9000","hist_area_km2": {"350": 406.0455,"375": 94.2254}}}