{"type": "Feature","bbox": [12.1467,8.4487,12.8085,8.8728],"geometry": {"type": "MultiPolygon","coordinates": [[[[12.8085,8.7948,622.4343],[12.8065,8.8094,647.0277],[12.7987,8.8293,496.7396],[12.7941,8.8353,386.4989],[12.7896,8.8453,404.2785],[12.7884,8.8524,597.2866],[12.7898,8.8605,875.6874],[12.7951,8.8728,589.2062],[12.7756,8.8656,632.3405],[12.7651,8.8598,319.3322],[12.7574,8.8531,295.2251],[12.7419,8.8463,287.0695],[12.7332,8.8389,303.9628],[12.7149,8.8319,296.764],[12.697,8.8214,323.4282],[12.687,8.8186,325.1016],[12.6572,8.8013,350.99],[12.6335,8.7943,368.2675],[12.6086,8.7833,390.3953],[12.5954,8.7814,430.8727],[12.5862,8.7819,438.3487],[12.5754,8.7753,430.5753],[12.5567,8.772,392.0494],[12.541,8.7576,445.8224],[12.5369,8.762,422.843],[12.5332,8.7576,428.796],[12.5265,8.7573,441.3133],[12.5034,8.7628,397.3932],[12.4984,8.7664,402.2284],[12.4798,8.7744,368.8775],[12.476,8.7781,359.9069],[12.4655,8.7804,331.2252],[12.4523,8.7923,379.7214],[12.4302,8.8077,377.2249],[12.425,8.8132,369.0424],[12.3994,8.8223,338.9147],[12.3934,8.8214,314.0483],[12.39,8.8167,304.4315],[12.3853,8.8144,288.8971],[12.375,8.8123,290.4529],[12.3725,8.809,287.4502],[12.3738,8.8056,296.8376],[12.3645,8.8041,303.2545],[12.3531,8.808,299.4088],[12.3264,8.828,281.2305],[12.3099,8.838,329.4262],[12.3001,8.8465,332.4362],[12.2959,8.8477,321.8663],[12.2889,8.8463,317.0624],[12.2764,8.8356,352.0869],[12.277,8.8294,360.2074],[12.2735,8.8268,374.073],[12.238,8.8098,418.3244],[12.2267,8.7989,411.1085],[12.223,8.7917,394.936],[12.2131,8.791,373.725],[12.2031,8.7743,395.4194],[12.2028,8.7695,400.9808],[12.1894,8.7535,416.6884],[12.1898,8.7463,415.0188],[12.1812,8.7299,439.7601],[12.1796,8.7128,416.4349],[12.1732,8.7056,412.1477],[12.1779,8.7036,414.308],[12.1716,8.7001,414.8282],[12.1719,8.6846,391.1154],[12.1693,8.6784,384.7932],[12.1752,8.6592,383.6194],[12.1744,8.6439,381.7558],[12.1785,8.6259,403.6175],[12.177,8.6153,423.9523],[12.1684,8.6081,442.3171],[12.1714,8.5949,451.0189],[12.1652,8.5854,469.9641],[12.169,8.5745,508.506],[12.164,8.5544,509.1419],[12.1588,8.5437,512.0912],[12.1655,8.5297,566.5063],[12.1607,8.532,542.5826],[12.1588,8.5246,515.8439],[12.1573,8.5061,446.647],[12.1561,8.5012,445.3622],[12.1524,8.4961,460.363],[12.1547,8.4871,470.3292],[12.1519,8.4838,468.9654],[12.1467,8.4665,464.9081],[12.1497,8.4526,432.0041],[12.1471,8.4487,433.7029],[12.1666,8.452,424.9148],[12.1931,8.4512,545.9756],[12.2146,8.4622,462.0574],[12.2259,8.4646,467.9697],[12.2323,8.4677,480.4259],[12.2497,8.4715,468.1831],[12.2943,8.4757,490.0655],[12.3154,8.4746,540.0241],[12.3355,8.4711,624.7763],[12.3521,8.4644,826.0966],[12.3576,8.4708,751.4095],[12.3675,8.4768,973.8536],[12.3747,8.4779,756.5323],[12.3803,8.4819,776.3254],[12.3947,8.4747,506.1261],[12.3967,8.4754,560.7482],[12.3946,8.4786,583.0074],[12.3947,8.4857,496.7271],[12.4032,8.4904,502.0244],[12.408,8.4888,551.7947],[12.4141,8.4898,585.0473],[12.4244,8.4886,645.3088],[12.4247,8.4905,621.0969],[12.4213,8.4947,570.5662],[12.4369,8.5112,757.8182],[12.4478,8.5175,1003.0574],[12.4609,8.5211,424.8922],[12.4657,8.5244,386.5612],[12.4593,8.5388,394.4918],[12.4585,8.548,418.7901],[12.4537,8.5588,429.4923],[12.4463,8.5641,445.868],[12.4438,8.5813,448.9883],[12.4461,8.5941,442.471],[12.4457,8.6009,433.8435],[12.437,8.6092,421.1605],[12.432,8.6184,409.9742],[12.4322,8.6213,413.7945],[12.4352,8.6226,415.9471],[12.4392,8.6195,422.3683],[12.4466,8.619,432.0347],[12.4553,8.6225,445.3819],[12.4643,8.6222,455.6605],[12.4689,8.6289,465.9953],[12.4775,8.635,487.0395],[12.4826,8.6432,531.2499],[12.4858,8.6435,779.9741],[12.492,8.6413,865.4692],[12.5071,8.641,1044.1919],[12.5161,8.6339,1287.9961],[12.5249,8.6305,1568.2937],[12.5377,8.6309,1481.9854],[12.5463,8.6264,1433.988],[12.5445,8.6236,1546.5131],[12.5505,8.6217,1586.5198],[12.5532,8.6221,1500.5997],[12.5567,8.6261,1248.394],[12.5599,8.6261,1295.2],[12.5753,8.614,1160.8384],[12.5863,8.6198,1126.2853],[12.5927,8.62,1220.6786],[12.5975,8.6234,1270.6947],[12.6069,8.624,1091.5391],[12.6081,8.6267,1078.8192],[12.6058,8.6321,1341.5967],[12.6153,8.6391,1417.1912],[12.6225,8.6358,1462.1094],[12.6297,8.6352,1413.3247],[12.6338,8.6375,1287.744],[12.6361,8.646,1380.2345],[12.643,8.6453,1226.3579],[12.6492,8.6472,1333.2485],[12.6525,8.6501,1192.2551],[12.6587,8.6511,1385.3362],[12.6607,8.6534,1261.3352],[12.6734,8.6467,1309.1475],[12.6806,8.6512,1395.4762],[12.6844,8.6513,1301.8578],[12.6868,8.6532,1230.8608],[12.6879,8.6591,1010.3234],[12.6932,8.6622,1226.748],[12.6961,8.669,1621.3583],[12.7014,8.6679,1618.8862],[12.7021,8.6697,1620.9873],[12.6985,8.6759,1618.1146],[12.7039,8.6855,1646.5183],[12.7046,8.6918,1610.8558],[12.7106,8.7016,1597.8943],[12.7058,8.7158,1410.7772],[12.7113,8.7313,894.1344],[12.7094,8.7381,1019.4793],[12.7138,8.7397,925.7216],[12.7139,8.7454,932.9537],[12.716,8.7506,961.0602],[12.715,8.7542,808.2375],[12.7184,8.7566,688.8347],[12.7203,8.7608,944.3607],[12.7249,8.7621,890.0424],[12.7377,8.7559,759.8867],[12.7407,8.7559,941.7979],[12.7421,8.7592,916.6094],[12.7588,8.7604,907.8384],[12.7655,8.7472,1035.6958],[12.7746,8.7479,1054.7112],[12.7831,8.7425,1161.3733],[12.7858,8.7431,1103.7665],[12.7923,8.7566,1105.8755],[12.7934,8.7747,1068.4293],[12.798,8.7878,807.0252],[12.8085,8.7948,622.4343]]]]}
,"properties": {"GID_2": "NGA.2.8_1","GID_0": "NGA","country": "Nigeria","GID_1": "NGA.2_1","province": "Adamawa","NL_NAME_1": "NA","county": "Jada","VARNAME_2": "NA","NL_NAME_2": "NA","TYPE_2": "LocalAuthority","ENGTYPE_2": "LocalAuthority","CC_2": "NA","HASC_2": "NA","name": "Jada.county","area_km2": 1723.958,"hist_schema_id": "Elevation0-9000","hist_area_km2": {"275": 5.552,"300": 45.717,"325": 91.543,"350": 127.385,"375": 189.703,"400": 256.644,"425": 275.587,"450": 205.052,"475": 121.266,"500": 62.226,"525": 32.872,"550": 20.816,"575": 14.337,"600": 11.507,"625": 11.738,"650": 9.222,"675": 8.95,"700": 8.845,"725": 8.824,"750": 8.886,"775": 8.572,"800": 9.599,"825": 9.41,"850": 9.242,"875": 9.703,"900": 8.111,"925": 7.314,"950": 6.686,"975": 6.267,"1000": 5.701,"1025": 5.638,"1050": 5.764,"1075": 5.617,"1100": 6.958,"1125": 6.749,"1150": 7.713,"1175": 8.069,"1200": 7.168,"1225": 6.833,"1250": 6.875,"1275": 7.336,"1300": 7.231,"1325": 6.477,"1350": 6.12,"1375": 4.506,"1400": 3.899,"1425": 3.207,"1450": 2.892,"1475": 2.515,"1500": 2.62,"1525": 2.599,"1550": 2.096,"1575": 1.865,"1600": 1.677,"1625": 2.18,"1650": 1.509,"1675": 0.461,"1700": 0.042,"1725": 0.042,"1750": 0.021}}}