{"type": "Feature","bbox": [5.3942,12.7196,6.0664,13.276],"geometry": {"type": "MultiPolygon","coordinates": [[[[5.7268,12.7196,315.2039],[5.8145,12.7316,301.1696],[5.8437,12.7315,282.3552],[5.8999,12.739,289.9066],[5.9242,12.7396,306.2527],[5.9764,12.7441,324.5045],[5.9901,12.7482,325.5546],[6.0417,12.7702,341.0864],[6.0634,12.786,337.0169],[6.0664,12.7938,330.4553],[6.0636,12.8257,311.04],[6.064,12.879,310.3583],[6.06,12.8977,307.2551],[6.0623,12.9199,299.8935],[6.0603,12.9448,295.3584],[6.0514,12.9811,321.6121],[6.0502,12.9957,340.4365],[6.0391,13.0026,326.0358],[6.0364,13.0079,324.6364],[6.0324,13.0523,310.9921],[6.0238,13.0601,306.1882],[6.0058,13.0813,295.2605],[5.9745,13.0969,296.2986],[5.9503,13.1001,298.1165],[5.9218,13.112,290.3215],[5.9142,13.122,286.9162],[5.9028,13.1307,287.0105],[5.8837,13.1533,298.1445],[5.8752,13.1596,295.3435],[5.8663,13.1727,302.9176],[5.8548,13.1795,305.0596],[5.8407,13.1786,301.3498],[5.7733,13.1658,302.5969],[5.7543,13.1663,297.8757],[5.7506,13.1956,281.0838],[5.7517,13.2133,286.5922],[5.7431,13.2292,283.3307],[5.7365,13.2579,285.9412],[5.7339,13.2611,285.5887],[5.7122,13.2733,284.2247],[5.7011,13.276,289.1025],[5.6811,13.2693,300.281],[5.6602,13.2573,292.8208],[5.6303,13.2428,305.9756],[5.6132,13.2269,282.0844],[5.6058,13.2225,287.0241],[5.588,13.207,283.7991],[5.5523,13.1858,287.0633],[5.5317,13.1687,278.7429],[5.5016,13.1522,317.0082],[5.4893,13.1436,272.4456],[5.4726,13.135,278.8973],[5.4556,13.13,281.5023],[5.4172,13.1145,256.0231],[5.3974,13.1087,271.8896],[5.3942,13.0866,251.8865],[5.3958,13.0732,253.5916],[5.3994,13.0691,255.2936],[5.4363,13.0857,253.3913],[5.4618,13.0911,259.0717],[5.4788,13.0807,264.3718],[5.4911,13.07,269.0995],[5.4951,13.0571,275.6709],[5.503,13.0433,290.8722],[5.514,13.0151,289.5117],[5.5202,12.9934,290.7846],[5.5255,12.9631,301.9398],[5.5297,12.9481,293.2791],[5.5385,12.9281,281.6239],[5.5471,12.9158,278.9771],[5.5521,12.9124,280.5181],[5.5623,12.9003,292.3316],[5.5741,12.8819,286.9161],[5.5914,12.8482,296.262],[5.6036,12.8336,301.3412],[5.6271,12.8149,299.603],[5.6581,12.8045,293.4385],[5.6628,12.8015,293.174],[5.6799,12.7846,300.6917],[5.6876,12.7748,303.7167],[5.6975,12.7551,308.6328],[5.7056,12.7455,306.4029],[5.7142,12.7292,302.9436],[5.7213,12.7251,308.4966],[5.7268,12.7196,315.2039]]]]}
,"properties": {"GID_2": "NGA.34.12_1","GID_0": "NGA","country": "Nigeria","GID_1": "NGA.34_1","province": "Sokoto","NL_NAME_1": "NA","county": "Rabah","VARNAME_2": "NA","NL_NAME_2": "NA","TYPE_2": "LocalAuthority","ENGTYPE_2": "LocalAuthority","CC_2": "NA","HASC_2": "NA","name": "Rabah.county","area_km2": 2654.721,"hist_schema_id": "Elevation0-9000","hist_area_km2": {"250": 99.598,"275": 1208.412,"300": 1006.279,"325": 326.951,"350": 13.46,"375": 0.021}}}