{"type":"Feature","properties":{"GID_2":"NGA.20.38_1","GID_0":"NGA","country":"Nigeria","GID_1":"NGA.20_1","province":"Kano","NL_NAME_1":"NA","county":"Tarauni","VARNAME_2":"NA","NL_NAME_2":"NA","TYPE_2":"LocalAuthority","ENGTYPE_2":"LocalAuthority","CC_2":"NA","HASC_2":"NA","name":"Tarauni.county"},
"geometry":{"type": "MultiPolygon","coordinates": [[[[8.5269,11.9881,487.3343],[8.5118,11.9884,488.1342],[8.5034,11.9656,473.0277],[8.5095,11.9588,467.9346],[8.5096,11.9419,471.8987],[8.5048,11.9265,467.7009],[8.5174,11.9295,468.8853],[8.5206,11.9341,464.8142],[8.5378,11.9338,455.0925],[8.5671,11.9471,478.8619],[8.5604,11.9548,473.2868],[8.5622,11.9612,475.386],[8.5381,11.9595,475.5838],[8.5319,11.9636,477.5782],[8.5324,11.9719,476.3325],[8.5275,11.9719,476.8224],[8.5269,11.9881,487.3343]]]]}}