{"type": "Feature","bbox": [7.5259,5.6903,8.4441,6.8022],"geometry": {"type": "MultiPolygon","coordinates": [[[[7.9719,5.9533,33.0248],[7.9599,5.9699,37.2336],[7.9601,5.981,24.054],[7.9629,5.9858,21.4832],[7.9681,5.9899,17.6223],[7.9838,5.9944,21.18],[7.9997,6.0032,26.4013],[8.0043,6.0042,32.3605],[8.0272,6.0071,34.0288],[8.0353,6.0055,34.1169],[8.042,6.0061,37.47],[8.0491,6.0012,37.5564],[8.0607,5.9807,30.6839],[8.0675,5.9572,29.5973],[8.0758,5.9412,22.2115],[8.0805,5.9353,20.4505],[8.0854,5.9334,25.2652],[8.0949,5.9406,17.4116],[8.0962,5.9471,20.1295],[8.1029,5.9615,20.4378],[8.1071,5.9669,25.6295],[8.1153,5.9712,25.0946],[8.1215,5.9704,22.3491],[8.142,5.9795,16.0316],[8.1525,5.9897,16.9155],[8.1695,5.9993,17.365],[8.1775,6.007,23.4886],[8.182,6.0282,19.7846],[8.1876,6.0306,19.3592],[8.2123,6.033,30.4963],[8.2236,6.0286,17.5242],[8.2386,6.0143,15.7113],[8.2476,6.0125,21.3258],[8.2612,6.0273,16.9037],[8.2616,6.0404,16.9424],[8.2722,6.0645,20.9723],[8.271,6.0754,20.1829],[8.2761,6.0916,20.5966],[8.2738,6.1065,19.006],[8.2866,6.1302,20.2961],[8.295,6.1338,23.2745],[8.3244,6.1803,23.7504],[8.3358,6.1871,25.3062],[8.3525,6.2071,28.8027],[8.3621,6.2161,32.61],[8.3861,6.2455,29.0883],[8.3985,6.2658,30.2674],[8.3988,6.2884,37.3198],[8.393,6.2987,30.6164],[8.3757,6.317,50.2833],[8.3688,6.3305,43.0295],[8.3669,6.3416,43.3143],[8.3685,6.3563,44.5142],[8.3768,6.3663,39.5965],[8.3953,6.3826,51.5579],[8.4169,6.3894,33.9209],[8.4221,6.3858,35.5822],[8.4307,6.3887,30.0889],[8.4368,6.3969,34.4492],[8.4441,6.4161,33.4388],[8.4402,6.4331,30.3928],[8.423,6.4423,28.6704],[8.4178,6.4491,30.4069],[8.413,6.463,34.8068],[8.4113,6.4735,29.1363],[8.4028,6.4794,28.6678],[8.4028,6.49,29.2879],[8.4063,6.4955,30.2571],[8.4,6.5039,46.4179],[8.4008,6.5108,31.7745],[8.4045,6.5107,29.6308],[8.3989,6.5198,32.8623],[8.3881,6.5244,28.8176],[8.3838,6.5288,31.9099],[8.3815,6.5452,35.2394],[8.3757,6.5564,34.9685],[8.3676,6.5593,33.8286],[8.3321,6.5867,39.9076],[8.3248,6.5949,45.2389],[8.3179,6.6079,39.348],[8.3,6.629,44.8129],[8.2942,6.6436,51.0647],[8.2912,6.6709,42.0161],[8.292,6.6756,41.8605],[8.2789,6.6859,48.5981],[8.2646,6.7124,44.7938],[8.2566,6.7347,51.438],[8.2509,6.7812,51.5467],[8.2226,6.8022,46.9845],[8.2129,6.7839,47.4008],[8.2061,6.7649,72.7376],[8.1712,6.7645,71.7635],[8.1511,6.7589,87.9219],[8.1224,6.7123,102.0352],[8.0914,6.6974,119.5584],[8.0437,6.7014,107.0511],[7.988,6.695,93.1989],[7.9835,6.6734,106.1684],[7.9825,6.6432,119.6054],[7.9751,6.6142,112.9437],[7.9678,6.562,112.5785],[7.9518,6.5288,96.1199],[7.929,6.5193,114.1678],[7.9004,6.5313,128.2034],[7.8355,6.5908,97.1279],[7.8251,6.6156,96.404],[7.8277,6.6303,112.162],[7.7988,6.6245,84.9509],[7.7654,6.6271,105.3593],[7.7497,6.6262,101.1223],[7.7366,6.6292,104.6099],[7.711,6.6297,110.9398],[7.6947,6.6334,117.8746],[7.6932,6.623,126.0532],[7.6978,6.608,108.0529],[7.702,6.5999,105.8474],[7.7081,6.5769,111.5848],[7.7126,6.5709,101.6503],[7.7186,6.5542,111.8055],[7.7246,6.5011,102.2039],[7.7292,6.4978,97.7563],[7.7352,6.4825,93.4426],[7.735,6.3885,71.7555],[7.7115,6.3303,64.8665],[7.7026,6.3206,71.1202],[7.6908,6.2897,74.4017],[7.6904,6.2699,72.5195],[7.7079,6.2525,66.1904],[7.7116,6.2253,60.7714],[7.7179,6.2113,65.9319],[7.7238,6.1808,61.3093],[7.7246,6.1407,43.9096],[7.7317,6.1245,44.9755],[7.7339,6.1039,53.626],[7.721,6.076,38.4227],[7.7025,6.0604,40.955],[7.6778,6.0318,88.8471],[7.6779,6.0102,46.4701],[7.6804,5.9892,38.4988],[7.689,5.9699,33.0178],[7.694,5.9486,44.8313],[7.6932,5.9419,41.1354],[7.6827,5.9186,46.2729],[7.6709,5.9197,47.8361],[7.6717,5.9232,45.5061],[7.6689,5.9244,48.5577],[7.6368,5.9604,37.7023],[7.6243,5.9618,38.3398],[7.616,5.9746,43.5683],[7.5922,5.9893,56.7006],[7.5835,5.9887,44.7964],[7.5572,5.9772,48.0497],[7.5399,5.9752,53.9797],[7.5336,5.973,58.1178],[7.5324,5.9631,64.3984],[7.5354,5.9188,64.9667],[7.5347,5.9024,51.8095],[7.5282,5.8878,61.0476],[7.5259,5.8562,78.2242],[7.5266,5.8444,77.2864],[7.5418,5.8278,75.196],[7.6105,5.8218,63.5738],[7.6385,5.8229,63.3506],[7.6615,5.8186,59.9889],[7.7694,5.8138,62.4922],[7.7799,5.8041,78.4224],[7.7895,5.7837,91.7916],[7.7931,5.7483,103.9917],[7.8044,5.7315,149.9646],[7.8196,5.7197,203.2034],[7.8418,5.7059,129.5181],[7.8562,5.6937,99.7231],[7.8778,5.6903,51.2416],[7.8805,5.6984,48.0883],[7.8808,5.7187,108.5623],[7.884,5.729,86.309],[7.9062,5.7634,40.178],[7.9217,5.7793,42.0178],[7.9173,5.7909,40.6003],[7.916,5.8223,26.3365],[7.9253,5.8314,35.0761],[7.9265,5.8346,61.5669],[7.9351,5.8372,12.2241],[7.9396,5.8427,12.6852],[7.9385,5.8482,14.4152],[7.945,5.8645,59.1394],[7.9603,5.8827,101.041],[7.9652,5.8859,106.8588],[7.977,5.9016,62.999],[7.9769,5.9078,19.1548],[7.9798,5.9131,13.7617],[7.9798,5.9315,21.9567],[7.9759,5.9475,42.5723],[7.9719,5.9533,33.0248]]]]}
,"properties": {"GID_1": "NGA.11_1","GID_0": "NGA","country": "Nigeria","province": "Ebonyi","VARNAME_1": "NA","NL_NAME_1": "NA","TYPE_1": "State","ENGTYPE_1": "State","CC_1": "NA","HASC_1": "NG.EB","ISO_1": "NG-EB","name": "Ebonyi.province","area_km2": 6213.779,"hist_schema_id": "Elevation0-9000","hist_area_km2": {"0": 1.076,"25": 957.886,"50": 2445.507,"75": 1815.967,"100": 730.514,"125": 211.105,"150": 28.92,"175": 11.075,"200": 7.362,"225": 3.797,"250": 0.506,"275": 0.063}}}