{"type": "Feature","id": "2863","bbox": [7.52619,5.69027,8.4389,6.7916],"geometry": {"type": "Polygon","coordinates": [[[8.29193,6.67559,41.8605],[8.26898,6.70148,53.5898],[8.25658,6.73465,51.438],[8.24842,6.77351,41.3129],[8.23767,6.78964,46.7633],[8.21782,6.7916,46.4758],[8.21328,6.7809,52.4183],[8.20242,6.76478,64.8057],[8.17917,6.76522,82.6502],[8.15654,6.76036,65.8023],[8.11912,6.7107,102.6576],[8.08057,6.70163,129.8392],[8.0413,6.70109,108.7409],[7.99861,6.69574,96.0828],[7.98311,6.66269,127.0522],[7.97329,6.57877,99.6689],[7.92906,6.51924,114.1678],[7.86033,6.56146,89.2986],[7.82767,6.63022,112.162],[7.76111,6.62337,110.6041],[7.72752,6.62626,119.1501],[7.69569,6.60652,108.8332],[7.73506,6.47875,91.5329],[7.73413,6.40757,69.3871],[7.69052,6.27494,72.641],[7.7085,6.24828,67.6615],[7.70995,6.23471,64.9651],[7.72163,6.19267,58.6319],[7.72338,6.16249,52.1892],[7.73062,6.13105,43.1727],[7.73248,6.10097,53.3504],[7.71284,6.07103,43.5138],[7.68845,6.04449,67.6038],[7.68194,5.99421,35.9816],[7.69321,5.94189,41.1354],[7.66633,5.92809,49.3626],[7.63057,5.96103,39.5447],[7.60928,5.97576,48.8153],[7.58344,5.98868,44.7964],[7.53353,5.97297,58.1178],[7.53518,5.9145,60.8689],[7.52619,5.85026,79.1404],[7.58561,5.82058,63.9036],[7.73093,5.81884,51.3046],[7.78467,5.79383,83.0424],[7.79211,5.75918,106.2782],[7.80834,5.72838,161.2462],[7.84079,5.70371,142.8016],[7.87779,5.69027,51.2416],[7.88151,5.71534,83.9679],[7.8904,5.73882,55.6268],[7.90673,5.75743,34.7217],[7.91986,5.77699,37.7929],[7.91624,5.80042,33.0507],[7.91758,5.82409,21.594],[7.93112,5.83737,20.6188],[7.96678,5.89163,114.3551],[7.97908,5.9361,16.3377],[7.96296,5.96739,21.1057],[7.97464,5.99258,19.4518],[8.01515,6.0055,28.4325],[8.05236,5.99483,30.347],[8.0722,5.94966,21.8853],[8.09794,5.95077,16.159],[8.11613,5.96827,19.7206],[8.16232,5.99,25.1809],[8.17824,6.0094,17.8393],[8.19085,6.03082,18.7301],[8.21793,6.03074,18.7107],[8.24645,6.0179,21.1818],[8.2633,6.04415,39.6162],[8.28159,6.1195,19.4984],[8.3004,6.14947,29.279],[8.32345,6.17877,23.7504],[8.37988,6.23559,30.0949],[8.38825,6.30354,40.6617],[8.36903,6.33333,49.1697],[8.37678,6.36625,39.5965],[8.4389,6.40119,28.063],[8.43538,6.43263,28.4255],[8.41419,6.45937,32.6257],[8.40417,6.48684,30.6018],[8.39962,6.51792,31.2669],[8.38226,6.53689,38.2162],[8.37916,6.54826,36.2825],[8.37161,6.55784,39.2304],[8.35745,6.56637,35.9771],[8.34453,6.57696,37.6801],[8.3064,6.62045,40.5669],[8.29193,6.67559,41.8605]]]}
,"properties": {"ISO3166-1-Alpha-3": "NGA","country": "Nigeria","fill": "#FF0","name": "Ebonyi","area_km2": 6213.857,"hist_schema_id": "Elevation0-9000","hist_area_km2": {"0": 0.97,"25": 946.357,"50": 2451.306,"75": 1815.922,"100": 736.265,"125": 211.482,"150": 28.624,"175": 11.138,"200": 7.383,"225": 3.839,"250": 0.506,"275": 0.063}}}