{"type":"Feature","properties":{"GID_2":"NGA.12.12_1","GID_0":"NGA","country":"Nigeria","GID_1":"NGA.12_1","province":"Edo","NL_NAME_1":"NA","county":"Oredo","VARNAME_2":"NA","NL_NAME_2":"NA","TYPE_2":"LocalAuthority","ENGTYPE_2":"LocalAuthority","CC_2":"NA","HASC_2":"NA","name":"Oredo.county"},
"geometry":{"type": "MultiPolygon","coordinates": [[[[5.5007,6.2712,47.2281],[5.5012,6.2692,46.833],[5.4917,6.2516,47.993],[5.4828,6.2423,38.0277],[5.4653,6.217,24.5845],[5.4604,6.195,23.7604],[5.4456,6.151,18.0816],[5.4412,6.1241,18.2321],[5.4313,6.1091,15.9948],[5.4313,6.0968,16.7971],[5.4288,6.0899,17.8601],[5.4583,6.083,14.8667],[5.4803,6.0859,16.8399],[5.4885,6.0922,13.992],[5.503,6.1094,22.4088],[5.5185,6.1373,21.2441],[5.522,6.1531,13.1808],[5.5258,6.1623,18.4228],[5.5457,6.1967,28.7497],[5.5525,6.2019,35.8986],[5.5602,6.2041,34.5362],[5.587,6.2069,33.9749],[5.5949,6.2113,37.6926],[5.5989,6.2164,38.1766],[5.6024,6.2225,31.3995],[5.6058,6.2466,32.6135],[5.6045,6.2665,54.0998],[5.6009,6.2831,54.4878],[5.6018,6.296,59.4749],[5.5986,6.3134,75.6775],[5.5996,6.3159,74.3493],[5.6138,6.3272,81.6097],[5.625,6.3461,89.9736],[5.625,6.3507,91.4686],[5.6209,6.3538,89.9499],[5.6131,6.3523,88.694],[5.5975,6.3438,84.5635],[5.5811,6.3305,73.4458],[5.5418,6.3067,64.6466],[5.5277,6.2954,56.0111],[5.5136,6.2793,50.7221],[5.5007,6.2712,47.2281]]]]}}