{"type":"Feature","properties":{"GID_2":"NGA.29.6_1","GID_0":"NGA","country":"Nigeria","GID_1":"NGA.29_1","province":"Ondo","NL_NAME_1":"NA","county":"AkureSouth","VARNAME_2":"NA","NL_NAME_2":"NA","TYPE_2":"LocalAuthority","ENGTYPE_2":"LocalAuthority","CC_2":"NA","HASC_2":"NA","name":"Akure_South.county"},
"geometry":{"type": "MultiPolygon","coordinates": [[[[5.174,7.3596,386.6743],[5.1712,7.3584,390.7166],[5.1669,7.35,465.9142],[5.1597,7.3439,529.6273],[5.1042,7.3059,340.5707],[5.0763,7.2775,293.9381],[5.0747,7.2674,291.887],[5.0798,7.2521,293.1243],[5.0862,7.2352,302.8162],[5.1017,7.2091,295.3315],[5.1116,7.1974,297.6413],[5.1374,7.1797,292.7298],[5.1561,7.1644,309.0633],[5.2063,7.1302,284.8851],[5.2128,7.1222,271.3972],[5.2208,7.117,271.1678],[5.2388,7.1132,299.6319],[5.3104,7.1077,377.7397],[5.3248,7.0993,312.1968],[5.3446,7.0933,281.4442],[5.3506,7.0957,272.6359],[5.346,7.0965,301.3179],[5.3408,7.1014,294.7101],[5.3443,7.1041,297.2939],[5.343,7.1119,281.6414],[5.3391,7.1157,276.308],[5.3282,7.1375,304.185],[5.3144,7.1514,305.231],[5.2704,7.1894,308.6514],[5.2535,7.1978,321.0047],[5.2422,7.2003,328.1995],[5.2342,7.2048,333.2122],[5.2099,7.2264,356.7809],[5.199,7.2499,343.5725],[5.1916,7.2912,376.9057],[5.174,7.3596,386.6743]]]]}}