{"type": "Feature","bbox": [4.4937,10.0957,5.0998,11.0414],"geometry": {"type": "MultiPolygon","coordinates": [[[[4.9107,10.9456,201.4107],[4.9081,10.9438,204.8417],[4.8927,10.9419,192.6557],[4.8789,10.9356,173.6381],[4.8506,10.9159,165.4678],[4.846,10.9096,180.6879],[4.8424,10.8924,195.1261],[4.839,10.885,208.8787],[4.8363,10.8679,180.4169],[4.8311,10.8584,194.5456],[4.8082,10.8427,210.0864],[4.7978,10.8312,200.5837],[4.7895,10.8007,195.0245],[4.786,10.7501,203.1616],[4.7865,10.7279,181.7574],[4.7827,10.7129,174.6905],[4.7821,10.7041,169.2109],[4.7752,10.6939,169.3022],[4.7608,10.6861,163.2606],[4.7516,10.6865,164.4898],[4.7423,10.6892,167.0329],[4.7309,10.7029,164.608],[4.7276,10.7043,164.5278],[4.7205,10.6666,152.5912],[4.7136,10.6472,147.7079],[4.6991,10.6317,136.5849],[4.6513,10.5856,155.5855],[4.639,10.5765,149.2285],[4.5758,10.5535,130.0],[4.5518,10.5373,130.0],[4.5362,10.5221,130.0],[4.5221,10.5053,134.2392],[4.5045,10.4755,130.0],[4.4985,10.4532,130.0],[4.4983,10.4382,130.0],[4.4946,10.4252,130.0],[4.4937,10.3915,130.0],[4.4964,10.3706,130.0],[4.4955,10.3521,130.0],[4.5047,10.3272,130.0],[4.5137,10.3135,130.0],[4.5507,10.2851,130.0],[4.561,10.271,130.0],[4.5595,10.2525,130.0],[4.5609,10.2373,130.0],[4.5563,10.2079,134.3941],[4.5488,10.191,130.0],[4.5396,10.1555,130.0],[4.5378,10.14,130.0],[4.5401,10.119,130.0],[4.5466,10.1099,135.4146],[4.563,10.1031,160.0538],[4.6327,10.0957,170.0114],[4.6417,10.1034,162.8157],[4.6471,10.1784,178.3397],[4.6498,10.1971,148.9319],[4.661,10.2053,155.1209],[4.7028,10.2124,168.4688],[4.7281,10.2205,182.7115],[4.7698,10.2371,183.4266],[4.7881,10.2382,205.0503],[4.8065,10.2372,221.9713],[4.8244,10.2413,247.3327],[4.8447,10.2514,267.0781],[4.867,10.2664,274.6277],[4.8956,10.3004,272.6848],[4.9001,10.325,268.8018],[4.888,10.3639,305.0652],[4.8579,10.4124,256.2396],[4.8287,10.444,213.4212],[4.8144,10.4669,203.8342],[4.8084,10.4892,191.061],[4.8157,10.5111,187.2511],[4.8155,10.5355,176.7769],[4.8121,10.5638,180.9316],[4.8128,10.5912,193.7488],[4.8158,10.6147,187.7811],[4.8128,10.6433,167.3937],[4.8164,10.6643,172.6095],[4.831,10.6762,205.5179],[4.8411,10.6808,211.222],[4.856,10.6831,206.605],[4.8862,10.6836,193.8469],[4.9184,10.6722,181.5365],[4.9368,10.6747,189.4395],[4.972,10.6949,207.6544],[5.0211,10.7168,198.6656],[5.0504,10.7217,233.7054],[5.0825,10.7325,219.1636],[5.0988,10.7562,223.8932],[5.0998,10.7892,233.8068],[5.081,10.811,230.9254],[5.0367,10.837,236.4389],[5.0288,10.8602,262.2184],[5.0389,10.8835,254.5572],[5.0599,10.8996,256.8235],[5.0742,10.9068,281.3891],[5.0782,10.9238,261.4485],[5.0726,10.9585,257.3477],[5.071,10.9858,285.0818],[5.0601,11.0286,240.2537],[5.0476,11.0403,231.1648],[5.0426,11.0414,232.1068],[5.03,11.0294,244.6149],[5.0113,11.0195,225.3418],[4.9628,10.9806,220.1916],[4.9524,10.976,230.5271],[4.9107,10.9456,201.4107]]]]}
,"properties": {"GID_2": "NGA.22.16_1","GID_0": "NGA","country": "Nigeria","GID_1": "NGA.22_1","province": "Kebbi","NL_NAME_1": "NA","county": "Ngaski","VARNAME_2": "NA","NL_NAME_2": "NA","TYPE_2": "LocalAuthority","ENGTYPE_2": "LocalAuthority","CC_2": "NA","HASC_2": "NA","name": "Ngaski.county","area_km2": 2596.562,"hist_schema_id": "Elevation0-9000","hist_area_km2": {"125": 555.721,"150": 418.815,"175": 436.42,"200": 374.858,"225": 409.617,"250": 286.951,"275": 88.985,"300": 23.464,"325": 1.502,"350": 0.229}}}