{"type": "Feature","bbox": [3.3891,6.3957,3.6681,6.5251],"geometry": {"type": "MultiPolygon","coordinates": [[[[3.3957,6.3974,0.0],[3.4021,6.3999,0.2981],[3.4037,6.3957,0.0],[3.4029,6.406,2.0734],[3.4068,6.4171,1.4872],[3.4124,6.4215,4.9384],[3.416,6.4221,6.0414],[3.4793,6.4212,0.0],[3.5082,6.4226,3.7061],[3.5129,6.4212,0.0],[3.526,6.4229,1.7464],[3.6199,6.4243,2.2074],[3.6213,6.4249,2.187],[3.6296,6.449,4.7223],[3.6361,6.4538,4.6387],[3.6395,6.4601,5.05],[3.6474,6.4672,7.1036],[3.6581,6.47,7.5774],[3.6681,6.4753,3.2423],[3.666,6.4871,4.4633],[3.6621,6.4944,6.5633],[3.6519,6.4993,5.7869],[3.6452,6.4985,7.1413],[3.6339,6.489,9.5162],[3.6206,6.4925,0.4436],[3.6099,6.4876,3.8347],[3.6065,6.4886,4.7098],[3.6063,6.4937,4.7724],[3.6165,6.5082,2.7072],[3.6147,6.5138,0.0],[3.6077,6.5181,0.0],[3.61,6.5215,0.0],[3.6077,6.5236,0.0],[3.5972,6.5251,0.0],[3.5786,6.5218,0.0],[3.5751,6.5186,0.0],[3.5676,6.4962,0.0],[3.562,6.49,0.0],[3.528,6.4687,0.0],[3.5197,6.4719,0.0],[3.5017,6.4733,0.0],[3.4982,6.4713,0.0],[3.4944,6.4633,0.0],[3.4866,6.4618,0.0],[3.4753,6.4636,0.0],[3.4655,6.4691,0.0],[3.4615,6.4678,0.0],[3.4546,6.4561,0.0],[3.4481,6.4544,4.725],[3.4307,6.4743,0.0],[3.4203,6.4758,0.0],[3.4158,6.4651,0.0],[3.4157,6.4579,4.5169],[3.4131,6.4529,5.327],[3.3944,6.4383,0.0],[3.3892,6.4195,0.0],[3.3891,6.4107,2.555],[3.3957,6.3974,0.0]]]]}
,"properties": {"GID_2": "NGA.25.8_1","GID_0": "NGA","country": "Nigeria","GID_1": "NGA.25_1","province": "Lagos","NL_NAME_1": "NA","county": "Eti-Osa","VARNAME_2": "NA","NL_NAME_2": "NA","TYPE_2": "LocalAuthority","ENGTYPE_2": "LocalAuthority","CC_2": "NA","HASC_2": "NA","name": "Eti-Osa.county","area_km2": 181.0982,"hist_schema_id": "Elevation0-9000","hist_area_km2": {"0": 180.4029,"25": 0.6953}}}