{"type":"Feature","properties":{"GID_2":"NGA.23.15_1","GID_0":"NGA","country":"Nigeria","GID_1":"NGA.23_1","province":"Kogi","NL_NAME_1":"NA","county":"Ogori/Magongo","VARNAME_2":"NA","NL_NAME_2":"NA","TYPE_2":"LocalAuthority","ENGTYPE_2":"LocalAuthority","CC_2":"NA","HASC_2":"NA","name":"Ogori_Magongo.county"},
"geometry":{"type": "MultiPolygon","coordinates": [[[[6.2341,7.4531,538.4617],[6.2278,7.4531,430.183],[6.2241,7.4507,373.1818],[6.2094,7.4531,377.0479],[6.2082,7.458,396.0882],[6.196,7.4764,432.5784],[6.185,7.4825,440.2618],[6.1703,7.48,497.1372],[6.1617,7.4825,540.6906],[6.1605,7.4923,393.5139],[6.147,7.4947,365.9494],[6.1507,7.5009,379.3018],[6.1397,7.5045,354.4972],[6.1335,7.5094,368.7128],[6.1216,7.5118,370.7499],[6.1103,7.4888,389.7544],[6.1066,7.475,394.634],[6.1066,7.4577,354.5392],[6.1112,7.4408,342.417],[6.1233,7.4334,319.3253],[6.1285,7.4282,315.3323],[6.1363,7.4253,309.835],[6.1458,7.4266,314.419],[6.163,7.4196,319.5674],[6.1661,7.4251,328.7393],[6.1984,7.4384,389.3568],[6.2248,7.4467,500.5012],[6.2341,7.4531,538.4617]]]]}}