{"type":"Feature","properties":{"GID_2":"NGA.8.20_1","GID_0":"NGA","country":"Nigeria","GID_1":"NGA.8_1","province":"Borno","NL_NAME_1":"NA","county":"Mafa","VARNAME_2":"NA","NL_NAME_2":"NA","TYPE_2":"LocalAuthority","ENGTYPE_2":"LocalAuthority","CC_2":"NA","HASC_2":"NA","name":"Mafa.county"},
"geometry":{"type": "MultiPolygon","coordinates": [[[[13.9802,12.1169,290.762],[13.9713,12.1272,289.7577],[13.965,12.142,288.8123],[13.9546,12.1588,290.5302],[13.9174,12.1826,288.8179],[13.8928,12.1814,289.8099],[13.8835,12.1836,289.8404],[13.8605,12.1948,290.0997],[13.8504,12.21,290.5851],[13.8389,12.2062,290.2763],[13.825,12.1889,289.4169],[13.8151,12.1801,290.7335],[13.8017,12.1623,290.2491],[13.783,12.1421,290.9156],[13.7754,12.1367,290.9475],[13.7704,12.1361,291.494],[13.7614,12.1302,291.1801],[13.7495,12.1325,291.2958],[13.7015,12.1305,291.8023],[13.6929,12.1343,292.3672],[13.6622,12.1555,290.7912],[13.65,12.1651,290.9903],[13.6343,12.1814,291.6895],[13.5739,12.2267,291.0617],[13.5413,12.2708,291.2651],[13.5407,12.2665,291.932],[13.5355,12.2657,292.5405],[13.5206,12.2721,290.1405],[13.5066,12.2707,292.1587],[13.4688,12.2579,290.6121],[13.435,12.2521,292.2192],[13.3971,12.255,292.6478],[13.3884,12.2643,291.8947],[13.3734,12.2919,291.4337],[13.3453,12.3197,291.5973],[13.3175,12.3408,293.1213],[13.3058,12.3391,293.1743],[13.3053,12.3186,292.6521],[13.3095,12.2967,293.9715],[13.3204,12.2777,294.2706],[13.327,12.2541,293.2889],[13.3473,12.157,294.784],[13.3478,12.1275,295.7794],[13.3436,12.0878,296.8702],[13.3313,12.0728,297.8455],[13.3274,12.0655,298.5135],[13.3214,12.0619,298.7921],[13.3166,12.0614,299.4674],[13.3242,12.0473,298.9691],[13.3306,12.0132,300.2643],[13.3311,11.9584,302.1603],[13.3487,11.9372,302.8734],[13.392,11.9111,303.5675],[13.3974,11.8944,305.1099],[13.4093,11.8778,305.4883],[13.4063,11.8622,306.6828],[13.3754,11.8281,309.2062],[13.3537,11.8188,309.9942],[13.3357,11.8048,311.7927],[13.333,11.7903,312.9759],[13.3405,11.7835,314.0431],[13.3537,11.7766,313.7935],[13.3754,11.776,312.5833],[13.3999,11.7791,311.6077],[13.4387,11.7937,309.5441],[13.4487,11.7942,309.1184],[13.4635,11.7903,309.5728],[13.4893,11.7876,308.4308],[13.511,11.7813,306.3488],[13.5468,11.7816,304.7084],[13.5721,11.7847,304.6268],[13.5995,11.7847,303.6883],[13.6205,11.7874,303.9069],[13.6431,11.7951,302.7122],[13.6732,11.8091,302.3623],[13.687,11.8172,301.443],[13.7013,11.8221,300.831],[13.7261,11.8208,301.0033],[13.7556,11.8231,301.3514],[13.8148,11.7993,301.6726],[13.84,11.7816,300.9882],[13.8509,11.7697,299.9764],[13.8522,11.7724,299.8864],[13.8741,11.7795,299.7218],[13.8819,11.7835,299.1375],[13.8923,11.7958,298.1692],[13.8949,11.8034,298.4238],[13.8896,11.811,298.4926],[13.9153,11.8374,297.361],[13.9187,11.8548,297.0306],[13.9242,11.9059,295.0901],[13.9312,11.9275,294.4446],[13.9341,11.9486,294.1788],[13.9231,12.0023,295.0962],[13.9195,12.0284,295.3467],[13.9203,12.0524,291.6319],[13.9254,12.0636,292.9099],[13.9422,12.0755,291.7002],[13.9726,12.1151,290.491],[13.9802,12.1169,290.762]]]]}}