{"type": "Feature","bbox": [4.1191,7.3028,4.3303,7.4802],"geometry": {"type": "MultiPolygon","coordinates": [[[[4.2549,7.4428,206.5815],[4.2405,7.4338,192.2245],[4.2299,7.4391,207.5793],[4.234,7.4487,198.8209],[4.2198,7.4685,211.1952],[4.213,7.4746,214.5918],[4.2054,7.4768,211.7374],[4.1842,7.4802,209.3233],[4.1794,7.4796,201.8711],[4.1687,7.4763,182.2592],[4.1592,7.4698,178.0403],[4.145,7.4676,173.7177],[4.1387,7.4225,177.3968],[4.1278,7.3894,175.3441],[4.1217,7.3566,160.5442],[4.1207,7.3229,151.5559],[4.1191,7.3175,132.6749],[4.1288,7.3173,158.6407],[4.1355,7.3218,157.2666],[4.1384,7.3287,166.0447],[4.1472,7.332,211.2392],[4.1641,7.331,205.6051],[4.176,7.3266,208.0073],[4.194,7.315,184.2827],[4.2053,7.3137,188.9705],[4.2187,7.3144,214.2136],[4.2458,7.3197,248.7195],[4.2564,7.3179,242.0378],[4.2714,7.3089,226.0893],[4.2903,7.3028,201.7974],[4.3014,7.3091,200.426],[4.31,7.3094,207.6072],[4.3198,7.3159,209.0329],[4.3279,7.3181,198.3244],[4.3303,7.3226,211.792],[4.3244,7.3472,216.3377],[4.3174,7.3521,207.7331],[4.3028,7.3793,217.4418],[4.3093,7.3956,221.9991],[4.3062,7.4021,225.5846],[4.3016,7.4056,227.1687],[4.2996,7.4098,240.9868],[4.3051,7.4199,250.1524],[4.3042,7.4261,257.619],[4.2986,7.4333,247.7127],[4.2876,7.4365,221.0446],[4.2763,7.4365,215.6932],[4.2549,7.4428,206.5815]]]]}
,"properties": {"GID_2": "NGA.30.21_1","GID_0": "NGA","country": "Nigeria","GID_1": "NGA.30_1","province": "Osun","NL_NAME_1": "NA","county": "Irewole","VARNAME_2": "NA","NL_NAME_2": "NA","TYPE_2": "LocalAuthority","ENGTYPE_2": "LocalAuthority","CC_2": "NA","HASC_2": "NA","name": "Irewole.county","area_km2": 309.9706,"hist_schema_id": "Elevation0-9000","hist_area_km2": {"125": 0.1893,"150": 12.1114,"175": 47.2455,"200": 95.3305,"225": 96.5547,"250": 49.3714,"275": 8.7051,"300": 0.4626}}}