{"type": "Feature","bbox": [10.2896,11.1744,10.786,11.5367],"geometry": {"type": "MultiPolygon","coordinates": [[[[10.6815,11.5367,436.597],[10.6798,11.5296,438.0527],[10.6575,11.5108,434.2167],[10.6297,11.5008,413.6698],[10.59,11.4938,385.9984],[10.5653,11.4852,398.9201],[10.4941,11.4761,412.9333],[10.4332,11.473,441.8925],[10.4187,11.4684,437.8463],[10.4049,11.4721,431.8683],[10.3893,11.487,420.0055],[10.3851,11.5028,420.2095],[10.3685,11.5214,426.7091],[10.3633,11.5245,419.9962],[10.3497,11.5265,410.2522],[10.3271,11.5123,426.9673],[10.3234,11.497,432.3926],[10.3256,11.4859,439.0089],[10.3397,11.4767,437.8599],[10.3464,11.4575,432.8681],[10.3469,11.4367,450.397],[10.3437,11.408,451.0944],[10.3357,11.371,433.407],[10.3234,11.3435,443.1763],[10.306,11.2802,431.1125],[10.2942,11.2302,446.696],[10.2925,11.2113,432.4186],[10.2896,11.1991,417.1021],[10.3105,11.1972,425.3119],[10.3775,11.1953,416.1547],[10.3926,11.1744,435.809],[10.4077,11.1813,422.9799],[10.4517,11.194,417.3724],[10.4741,11.1944,418.0833],[10.4892,11.2069,420.5522],[10.5159,11.2088,422.6144],[10.5543,11.2329,428.3039],[10.5808,11.2385,437.5219],[10.6184,11.2598,435.7251],[10.6137,11.3074,423.8947],[10.6146,11.3182,423.8917],[10.6207,11.3305,423.7861],[10.637,11.3883,399.9594],[10.6546,11.3934,391.3092],[10.6964,11.3983,393.0873],[10.715,11.4054,398.4473],[10.7247,11.412,406.9482],[10.7696,11.426,411.8085],[10.786,11.4387,427.0505],[10.7783,11.4791,459.6752],[10.7741,11.493,456.3347],[10.7674,11.4961,453.2007],[10.7451,11.4934,452.1273],[10.7295,11.4999,451.7234],[10.7133,11.5123,446.9839],[10.7046,11.5217,444.6882],[10.6989,11.5231,444.1105],[10.6919,11.5281,441.7591],[10.6847,11.536,437.2295],[10.6815,11.5367,436.597]]]]}
,"properties": {"GID_2": "NGA.5.14_1","GID_0": "NGA","country": "Nigeria","GID_1": "NGA.5_1","province": "Bauchi","NL_NAME_1": "NA","county": "Misau","VARNAME_2": "NA","NL_NAME_2": "NA","TYPE_2": "LocalAuthority","ENGTYPE_2": "LocalAuthority","CC_2": "NA","HASC_2": "NA","name": "Misau.county","area_km2": 1216.7069,"hist_schema_id": "Elevation0-9000","hist_area_km2": {"375": 3.9895,"400": 322.9375,"425": 529.0036,"450": 323.4466,"475": 37.3298}}}