{"type": "Feature","bbox": [8.0318,4.6725,8.2206,4.9252],"geometry": {"type": "MultiPolygon","coordinates": [[[[8.0913,4.6725,26.9547],[8.0986,4.6908,31.6218],[8.1019,4.694,33.0876],[8.1085,4.7194,31.5684],[8.1096,4.7312,30.606],[8.1155,4.7417,26.7956],[8.123,4.7464,27.8935],[8.1279,4.7523,39.4498],[8.1594,4.7594,41.9464],[8.1644,4.7643,37.249],[8.1647,4.7703,14.223],[8.1691,4.7744,21.1009],[8.175,4.7785,12.3209],[8.1908,4.7834,19.694],[8.1875,4.7858,12.9818],[8.1845,4.8002,10.5376],[8.188,4.8269,12.9636],[8.2117,4.8412,11.4389],[8.2206,4.8447,1.0],[8.188,4.8831,7.1699],[8.1702,4.8943,6.9496],[8.1398,4.9252,13.9604],[8.1271,4.9124,23.418],[8.1184,4.9066,50.9259],[8.1065,4.8928,50.9547],[8.1024,4.8871,48.2734],[8.0981,4.8758,42.602],[8.0968,4.8655,45.263],[8.0928,4.8607,45.9895],[8.084,4.8611,43.3331],[8.0766,4.8644,39.5318],[8.0773,4.8594,42.4124],[8.0699,4.8431,42.0761],[8.0528,4.8282,43.0719],[8.0528,4.8142,43.1804],[8.0609,4.8002,32.0944],[8.0609,4.7972,35.8039],[8.0701,4.783,37.7387],[8.0672,4.7764,32.552],[8.0535,4.7582,35.7118],[8.0515,4.746,36.6214],[8.047,4.7412,36.7593],[8.0318,4.7311,39.908],[8.0353,4.7281,32.4889],[8.0384,4.7218,24.2039],[8.0404,4.7054,31.0238],[8.0439,4.7019,32.7116],[8.0435,4.6961,25.7861],[8.0455,4.6915,24.9797],[8.051,4.6861,25.1845],[8.0757,4.6762,27.701],[8.0913,4.6725,26.9547]]]]}
,"properties": {"GID_2": "NGA.3.23_1","GID_0": "NGA","country": "Nigeria","GID_1": "NGA.3_1","province": "AkwaIbom","NL_NAME_1": "NA","county": "Okobo","VARNAME_2": "NA","NL_NAME_2": "NA","TYPE_2": "LocalAuthority","ENGTYPE_2": "LocalAuthority","CC_2": "NA","HASC_2": "NA","name": "Okobo.county","area_km2": 275.104,"hist_schema_id": "Elevation0-9000","hist_area_km2": {"0": 28.2874,"25": 145.0043,"50": 101.8123}}}