{"type": "Feature","bbox": [7.4655,4.8551,7.7029,5.0392],"geometry": {"type": "MultiPolygon","coordinates": [[[[7.49,4.8551,9.4002],[7.505,4.8751,32.36],[7.5085,4.8778,33.5716],[7.5118,4.8839,34.2897],[7.5302,4.9034,45.0568],[7.5552,4.9244,43.4768],[7.5951,4.9401,54.2312],[7.6309,4.9432,54.4138],[7.6452,4.9397,56.2683],[7.655,4.9352,51.8802],[7.6607,4.9293,54.8418],[7.6663,4.9332,22.7583],[7.6853,4.9563,55.9652],[7.7029,4.9849,56.5043],[7.6964,4.9873,64.7136],[7.6799,5.0067,62.8964],[7.668,5.0251,68.5727],[7.6668,5.0294,69.7167],[7.659,5.0236,68.7707],[7.6467,5.0217,61.7641],[7.6357,5.0231,32.4123],[7.6293,5.0303,41.1968],[7.6289,5.0352,58.6836],[7.6225,5.0392,52.7237],[7.6209,5.0392,52.7237],[7.6181,5.0356,48.3145],[7.613,5.0343,64.1136],[7.6064,5.0367,71.5195],[7.6019,5.0299,71.6124],[7.5846,5.0184,64.3223],[7.5785,5.0114,61.7386],[7.5682,5.0037,64.4466],[7.5454,4.9755,59.2651],[7.5203,4.9372,51.6829],[7.5129,4.9323,53.7319],[7.5013,4.929,40.0095],[7.4757999999999996,4.9271,17.4703],[7.4655,4.9019,35.7639],[7.49,4.8551,9.4002]]]]}
,"properties": {"GID_2": "NGA.3.6_1","GID_0": "NGA","country": "Nigeria","GID_1": "NGA.3_1","province": "AkwaIbom","NL_NAME_1": "NA","county": "EtimEkpo","VARNAME_2": "NA","NL_NAME_2": "NA","TYPE_2": "LocalAuthority","ENGTYPE_2": "LocalAuthority","CC_2": "NA","HASC_2": "NA","name": "Etim_Ekpo.county","area_km2": 193.717,"hist_schema_id": "Elevation0-9000","hist_area_km2": {"0": 4.1828,"25": 37.0721,"50": 114.0838,"75": 38.3782}}}