{"type": "Feature","bbox": [7.6778,5.9075,7.9178,6.0674],"geometry": {"type": "MultiPolygon","coordinates": [[[[7.9173,5.959,23.7024],[7.9178,5.9628,26.1836],[7.913,5.9693,19.4432],[7.9141,5.9755,23.0836],[7.9077,5.9828,24.9708],[7.9013,5.9873,36.6217],[7.9003,5.9937,39.9559],[7.8933,6.0049,42.1963],[7.859,6.0235,50.5847],[7.8409,6.0302,64.6754],[7.8192,6.0421,41.6959],[7.7855,6.0542,55.1781],[7.7728,6.0558,48.8356],[7.7632,6.059,54.014],[7.7298,6.0618,32.409],[7.722,6.0652,46.3619],[7.7108,6.0674,45.1982],[7.7025,6.0604,40.955],[7.6778,6.0318,88.8471],[7.6779,6.0102,46.4701],[7.6804,5.9892,38.4988],[7.689,5.9699,33.0178],[7.694,5.9486,44.8313],[7.6932,5.9419,41.1354],[7.6829,5.9191,45.0527],[7.6986,5.9193,38.6285],[7.7261,5.9075,34.9844],[7.7374,5.9094,36.4374],[7.7523,5.9174,36.4828],[7.7608,5.9272,40.2493],[7.7664,5.931,42.0687],[7.778,5.9366,50.6763],[7.7852,5.9365,42.6533],[7.7975,5.9309,43.2841],[7.8008,5.9316,43.9487],[7.8034,5.9352,41.4978],[7.8049,5.9437,37.0692],[7.8124,5.9533,40.9064],[7.8161,5.9537,50.5233],[7.8224,5.9446,46.2266],[7.8349,5.9439,41.9919],[7.8418,5.9419,32.3083],[7.8533,5.934,23.1895],[7.8577,5.9408,22.8029],[7.87,5.9475,25.9329],[7.8834,5.9465,22.9706],[7.8914,5.9439,25.8225],[7.9104,5.947,64.508],[7.915,5.9504,55.6541],[7.9173,5.959,23.7024]]]]}
,"properties": {"GID_2": "NGA.11.11_1","GID_0": "NGA","country": "Nigeria","GID_1": "NGA.11_1","province": "Ebonyi","NL_NAME_1": "NA","county": "Ohaozara","VARNAME_2": "NA","NL_NAME_2": "NA","TYPE_2": "LocalAuthority","ENGTYPE_2": "LocalAuthority","CC_2": "NA","HASC_2": "NA","name": "Ohaozara.county","area_km2": 301.7478,"hist_schema_id": "Elevation0-9000","hist_area_km2": {"25": 150.9187,"50": 145.115,"75": 4.9761,"100": 0.7169,"125": 0.0211}}}