{"type": "Feature","bbox": [2.7063,6.3754,3.1035,6.5262],"geometry": {"type": "MultiPolygon","coordinates": [[[[2.7084,6.4057,4.5209],[2.7094,6.3757,3.3559],[2.7113,6.3765,3.1302],[2.7121,6.3754,0.0],[2.8376,6.3918,2.5134],[3.0549,6.3996,4.1751],[3.062,6.4135,2.2944],[3.0686,6.4205,3.2394],[3.0904,6.428,7.0615],[3.0914,6.4339,6.7109],[3.0904,6.4409,7.2826],[3.0812,6.4705,0.5],[3.0812,6.4763,0.5],[3.085,6.482,1.2146],[3.1032,6.4927,0.5],[3.1035,6.4985,1.9716],[3.0988,6.5078,7.2189],[3.0927,6.5143,10.0335],[3.0804,6.5228,21.7742],[3.0344,6.5183,21.3719],[2.9915,6.5206,16.7855],[2.9806,6.519,17.2478],[2.9687,6.5219,11.8999],[2.9557,6.5222,17.5679],[2.9444,6.5182,20.4288],[2.9211,6.5237,13.1596],[2.8836,6.5262,9.2758],[2.8803,6.5251,9.4814],[2.8796,6.5218,24.2437],[2.8819,6.5116,9.3108],[2.8803,6.499,5.0444],[2.8747,6.4942,25.902],[2.8528,6.4817,8.3027],[2.8395,6.4713,6.6316],[2.8336,6.4645,9.2274],[2.8245,6.4596,10.7388],[2.8142,6.4625,7.3351],[2.8131,6.4648,3.9115],[2.805,6.4668,4.859],[2.7931,6.4739,7.1905],[2.774,6.4736,6.5864],[2.7381,6.467,4.3119],[2.7179,6.4735,3.2408],[2.7107,6.4526,0.0],[2.7063,6.4256,8.1574],[2.7084,6.4057,4.5209]]]]}
,"properties": {"GID_2": "NGA.25.6_1","GID_0": "NGA","country": "Nigeria","GID_1": "NGA.25_1","province": "Lagos","NL_NAME_1": "NA","county": "Badagry","VARNAME_2": "NA","NL_NAME_2": "NA","TYPE_2": "LocalAuthority","ENGTYPE_2": "LocalAuthority","CC_2": "NA","HASC_2": "NA","name": "Badagry.county","area_km2": 495.5412,"hist_schema_id": "Elevation0-9000","hist_area_km2": {"0": 443.4447,"25": 52.0965}}}