{"type":"Feature","properties":{"GID_2":"NGA.7.2_1","GID_0":"NGA","country":"Nigeria","GID_1":"NGA.7_1","province":"Benue","NL_NAME_1":"NA","county":"Agatu","VARNAME_2":"NA","NL_NAME_2":"NA","TYPE_2":"LocalAuthority","ENGTYPE_2":"LocalAuthority","CC_2":"NA","HASC_2":"NA","name":"Agatu.county"},
"geometry":{"type": "MultiPolygon","coordinates": [[[[8.0631,7.6917,132.5306],[8.0689,7.7061,151.0927],[8.1055,7.7569,101.7018],[8.1112,7.7681,98.7011],[8.1351,7.7907,90.3556],[8.1572,7.803,82.4524],[8.1671,7.8024,79.0145],[8.1867,7.8101,70.0529],[8.1981,7.8205,65.8423],[8.2065,7.8252,64.5884],[8.2185,7.8388,61.7938],[8.2271,7.844,61.4005],[8.2319,7.8488,61.248],[8.2229,7.8516,61.1921],[8.1701,7.8576,65.1468],[8.1475,7.8688,59.6479],[8.0905,7.903,60.2634],[8.06,7.9126,60.0979],[8.0019,7.9343,59.3438],[7.9797,7.9474,59.1343],[7.9783,7.9456,58.0671],[7.9689,7.9492,58.1184],[7.9499,7.9601,50.0118],[7.9028,7.9711,50.0548],[7.8709,7.9718,54.3039],[7.8124,7.9802,50.1115],[7.768,7.99,54.8638],[7.7145,8.01,46.8894],[7.6775,8.0197,50.0922],[7.665,8.0202,44.9205],[7.6609,8.004,69.0095],[7.6597,7.9745,99.3432],[7.6651,7.9502,113.6324],[7.6631,7.9126,149.8018],[7.6686,7.88,256.5203],[7.6989,7.828,243.3369],[7.7234,7.8025,193.9532],[7.7426,7.786,178.8994],[7.7543,7.7563,159.8929],[7.7554,7.7453,195.6769],[7.7985,7.7584,193.6221],[7.829,7.7636,193.9886],[7.8378,7.7628,162.1111],[7.847,7.7645,204.3707],[7.8659,7.7598,206.1205],[7.895,7.748,177.1358],[7.9066,7.7388,196.6456],[7.9205,7.7312,159.4728],[7.9513,7.7224,125.028],[7.9689,7.7136,107.9971],[7.9852,7.7094,116.1525],[7.9995,7.7091,112.2831],[8.0177,7.7051,117.156],[8.0345,7.7005,121.1129],[8.0487,7.6933,133.7627],[8.0627,7.6905,132.5306],[8.0631,7.6917,132.5306]]]]}}