{"type": "Feature","bbox": [6.1605,5.6174,6.4846,6.0223],"geometry": {"type": "MultiPolygon","coordinates": [[[[6.3137,6.013,79.2031],[6.3004,6.0054,68.8416],[6.2944,6.0147,45.7662],[6.2891,6.0171,71.3786],[6.2794,6.0157,75.0278],[6.2745,6.0111,69.4716],[6.2625,6.0102,69.2144],[6.2364,6.0132,77.2153],[6.2237,6.0087,72.8472],[6.2259,5.9902,52.8294],[6.2203,5.9676,54.3313],[6.2342,5.9613,64.921],[6.2567,5.9568,39.9676],[6.2616,5.9572,39.2097],[6.2694,5.9543,38.6101],[6.2894,5.9344,39.7229],[6.2981,5.9301,40.8732],[6.2985,5.9264,39.096],[6.3064,5.9161,57.2125],[6.3177,5.9056,43.2871],[6.3344,5.8813,31.1024],[6.3422,5.8653,20.4069],[6.354,5.8506,25.1124],[6.36,5.8366,28.0529],[6.3609,5.8083,21.0161],[6.3599,5.8025,19.0338],[6.3582,5.7984,21.4734],[6.3547,5.7957,19.2987],[6.3278,5.7856,26.0325],[6.316,5.7835,21.2113],[6.309,5.7804,20.4837],[6.2924,5.7668,20.1307],[6.2841,5.7628,20.4787],[6.2684,5.7672,31.8748],[6.2541,5.7781,31.5209],[6.2465,5.7768,30.0262],[6.2372,5.7726,20.5772],[6.2242,5.7705,23.702],[6.2124,5.7656,17.9209],[6.1982,5.7726,18.7822],[6.19,5.781,21.9918],[6.1863,5.7797,28.7471],[6.186,5.7741,18.9782],[6.1882,5.7711,17.0947],[6.1904,5.7614,18.0293],[6.1884,5.7529,21.2531],[6.1752,5.7379,19.4477],[6.1605,5.7263,17.3371],[6.168,5.7074,16.9586],[6.167,5.7019,17.9479],[6.169,5.6947,16.947],[6.1687,5.6883,17.4285],[6.1713,5.6804,17.6388],[6.171,5.6744,20.2614],[6.1683,5.6684,16.4497],[6.1735,5.6601,15.6584],[6.1759,5.6506,16.3562],[6.1795,5.645,14.262],[6.1938,5.6335,15.3723],[6.2004,5.6227,15.2795],[6.2069,5.6192,17.2671],[6.2194,5.6174,15.6142],[6.2619,5.6224,16.03],[6.2745,5.6263,17.144],[6.3098,5.6276,17.2162],[6.3156,5.6298,23.9666],[6.3268,5.6411,17.2944],[6.3398,5.6462,18.2643],[6.3474,5.6428,21.7127],[6.3584,5.641,18.3902],[6.3707,5.6441,18.9162],[6.3856,5.6636,22.822],[6.4015,5.6666,19.0335],[6.4201,5.661,15.3541],[6.4257,5.6618,21.9768],[6.4361,5.6671,20.2331],[6.4465,5.6824,18.3934],[6.4596,5.6898,19.9589],[6.465,5.6996,16.8004],[6.4645,5.7079,19.0572],[6.4608,5.7107,20.7749],[6.4594,5.7184,15.7662],[6.4555,5.7223,16.4562],[6.447,5.7232,17.1756],[6.4413,5.7288,17.9339],[6.4378,5.7291,17.716],[6.4326,5.7329,20.6015],[6.4311,5.7391,20.1918],[6.4331,5.7494,19.4844],[6.4318,5.7532,19.4544],[6.4367,5.7729,21.2492],[6.4361,5.7782,19.9605],[6.4392,5.7858,21.3166],[6.437,5.7936,19.6344],[6.443,5.808,20.5326],[6.4593,5.8292,19.6443],[6.4712,5.8495,19.7143],[6.4763,5.8655,19.442],[6.4743,5.872,20.405],[6.4689,5.8781,21.5405],[6.44,5.8901,20.8904],[6.4463,5.9084,21.8949],[6.4602,5.9306,22.3211],[6.4647,5.9471,18.9595],[6.4792,5.9738,21.652],[6.4846,5.9892,23.5894],[6.4398,5.9795,33.1937],[6.4156,5.9804,44.7207],[6.4066,5.9822,46.3373],[6.4034,5.9841,45.6096],[6.3965,6.0137,51.0951],[6.3877,6.0223,48.0483],[6.3835,6.0217,47.807],[6.377,6.0163,45.287],[6.3684,6.0012,46.241],[6.3592,5.9896,43.6206],[6.3562,5.9867,43.7171],[6.3485,5.9836,42.5735],[6.3382,5.9895,47.8293],[6.3218,6.0112,65.0017],[6.3137,6.013,79.2031]]]]}
,"properties": {"GID_2": "NGA.10.12_1","GID_0": "NGA","country": "Nigeria","GID_1": "NGA.10_1","province": "Delta","NL_NAME_1": "NA","county": "NdokwaWest","VARNAME_2": "NA","NL_NAME_2": "NA","TYPE_2": "LocalAuthority","ENGTYPE_2": "LocalAuthority","CC_2": "NA","HASC_2": "NA","name": "Ndokwa_West.county","area_km2": 862.4713,"hist_schema_id": "Elevation0-9000","hist_area_km2": {"0": 0.7173,"25": 696.7033,"50": 126.2094,"75": 38.8412}}}