{"type": "Feature","bbox": [7.415,4.4496,7.5882,4.6043],"geometry": {"type": "MultiPolygon","coordinates": [[[[7.4931,4.4653,6.63],[7.4962,4.4595,10.3518],[7.4981,4.4507,3.0078],[7.5251,4.4526,4.2456],[7.5501,4.4524,5.0462],[7.5721,4.4496,0.0],[7.5826,4.451,0.0],[7.5835,4.4579,0.4903],[7.5815,4.4604,2.4062],[7.5793,4.4601,3.6443],[7.5801,4.4718,1.2458],[7.5882,4.491,0.0],[7.5826,4.4924,2.1528],[7.5771,4.4974,0.0],[7.5724,4.4963,0.79],[7.5701,4.4913,1.6374],[7.5671,4.489,0.7191],[7.5618,4.4893,4.1332],[7.5599,4.4921,0.5243],[7.5574,4.4924,0.0],[7.5565,4.4807,0.0],[7.5538,4.4765,3.7334],[7.5496,4.4768,5.2499],[7.5438,4.481,3.237],[7.5468,4.4938,0.0],[7.5343,4.4854,0.7921],[7.5299,4.479,0.0],[7.5263,4.4779,6.219],[7.5193,4.4793,4.9861],[7.5165,4.4826,0.0],[7.5104,4.4851,1.0594],[7.5012,4.4801,4.83],[7.4874,4.4837,2.8367],[7.4838,4.4868,1.8185],[7.4815,4.4851,3.5422],[7.4815,4.4826,3.0532],[7.4847,4.4775,4.979],[7.4891,4.4744,9.2936],[7.4931,4.4653,6.63]]],
[[[7.4782,4.4874,0.0],[7.4785,4.4854,0.0],[7.4801,4.4876,0.0],[7.479,4.4876,0.0],[7.4782,4.4874,0.0]]],
[[[7.5571,4.5035,0.0],[7.5493,4.5099,0.0],[7.5465,4.5093,0.8706],[7.5396,4.5015,0.0],[7.5365,4.4946,7.8563],[7.534,4.4932,7.2137],[7.5287,4.494,1.3161],[7.5115,4.5024,0.0],[7.5049,4.5024,2.6467],[7.491,4.4915,0.0],[7.4957,4.4871,2.4404],[7.5015,4.4876,4.344],[7.5057,4.4863,0.0],[7.5115,4.4879,1.2056],[7.5146,4.4863,0.0],[7.5174,4.4882,0.4811],[7.5168,4.4837,0.0],[7.5271,4.4799,0.0],[7.5351,4.4893,6.9076],[7.5463,4.496,6.613],[7.5485,4.4954,0.0],[7.549,4.4915,12.2098],[7.5463,4.4863,0.0],[7.546,4.4818,0.0],[7.5496,4.4785,0.0],[7.5535,4.4785,0.0],[7.5551,4.4821,0.0],[7.554,4.4879,2.8976],[7.5551,4.4915,0.0],[7.5585,4.4935,0.0],[7.5676,4.4915,0.0],[7.5701,4.4979,2.2804],[7.5693,4.4996,0.3667],[7.5571,4.5035,0.0]]],
[[[7.492,4.5571,3.4598],[7.4915,4.5601,1.9151],[7.4893,4.5607,0.0],[7.4729,4.5582,1.8875],[7.4696,4.556,2.0263],[7.464,4.5574,1.4591],[7.4674,4.5596,0.6479],[7.4638,4.5596,1.1683],[7.4626,4.5551,4.3279],[7.4646,4.5535,4.0116],[7.4646,4.5499,2.2586],[7.4626,4.5471,3.3677],[7.459,4.5468,1.6236],[7.4579,4.5432,0.9604],[7.4613,4.5404,0.4683],[7.4657,4.5404,2.7373],[7.4621,4.539,0.4683],[7.4579,4.5415,1.619],[7.4574,4.546,5.2514],[7.4615,4.549,0.0],[7.4618,4.5521,2.3937],[7.4543,4.5535,3.3782],[7.4499,4.5457,0.0],[7.449,4.5382,0.7239],[7.4463,4.5371,0.0],[7.4454,4.5335,2.9992],[7.4443,4.5343,1.239],[7.4451,4.5376,0.0],[7.4404,4.5407,0.0],[7.4393,4.5401,0.0],[7.4399,4.5343,0.2226],[7.4329,4.5415,0.7596],[7.4288,4.5399,0.3061],[7.4293,4.5349,1.1115],[7.426,4.5393,0.0],[7.4215,4.5396,0.8062],[7.4182,4.5379,0.4316],[7.419,4.5351,0.0],[7.4215,4.531,1.3682],[7.4276,4.5274,1.6903],[7.4262,4.5254,1.995],[7.4221,4.5246,1.6722],[7.4212,4.5226,1.079],[7.4279,4.5232,0.8695],[7.4407,4.516,0.8436],[7.4443,4.5168,1.2182],[7.4546,4.5146,0.0],[7.4604,4.5179,1.2124],[7.474,4.5165,0.5448],[7.4762,4.5185,0.5539],[7.4785,4.526,2.1105],[7.4807,4.5268,0.0],[7.4807,4.521,0.0],[7.484,4.5174,0.8312],[7.4851,4.5115,1.3112],[7.4751,4.5004,3.0816],[7.4746,4.4976,0.0],[7.4804,4.4904,0.0],[7.486,4.4918,0.0],[7.4993,4.5026,9.8017],[7.504,4.5046,3.0225],[7.516,4.5035,2.0059],[7.5301,4.4963,0.0],[7.534,4.4971,9.3465],[7.5382,4.5071,3.5204],[7.5429,4.5135,0.0],[7.5315,4.5263,4.0027],[7.5287,4.5374,0.0],[7.5254,4.539,0.0],[7.5199,4.5321,0.0],[7.5171,4.531,0.8837],[7.5079,4.5332,3.0473],[7.4974,4.5435,1.8096],[7.4957,4.5482,0.0],[7.4968,4.5543,3.4596],[7.492,4.5571,3.4598]]],
[[[7.4492,4.5041,0.3403],[7.4581,4.5012,6.3658],[7.466,4.502,7.3432],[7.4735,4.4976,0.0],[7.474,4.5015,7.5373],[7.4812,4.5135,0.0],[7.4801,4.5143,0.0],[7.4771,4.5118,2.6141],[7.4713,4.5115,2.7938],[7.469,4.5087,1.135],[7.4638,4.5082,0.5821],[7.4624,4.5057,0.0],[7.4576,4.5037,1.1968],[7.4476,4.5049,0.8944],[7.4492,4.5041,0.3403]]],
[[[7.4543,4.5135,0.0],[7.4521,4.5138,0.0],[7.451,4.511,0.0],[7.4521,4.5093,0.0],[7.4549,4.5107,0.0],[7.4543,4.5135,0.0]]],
[[[7.4468,4.5432,0.6904],[7.4471,4.5451,1.1213],[7.4465,4.5454,1.1213],[7.4454,4.5424,2.466],[7.4468,4.5432,0.6904]]],
[[[7.4251,4.551,0.5094],[7.424,4.5515,0.5094],[7.4218,4.5485,0.0],[7.4246,4.5488,1.6692],[7.4251,4.551,0.5094]]],
[[[7.5332,4.5457,1.2979],[7.5334,4.5457,1.2979],[7.5332,4.546,1.2979],[7.5332,4.5457,1.2979]]],
[[[7.5233,4.565,3.2462],[7.5235,4.5674,6.0506],[7.5124,4.5646,7.0041],[7.5065,4.5559,3.1563],[7.4999,4.5542,2.5573],[7.4999,4.5451,1.6429],[7.514,4.5332,4.1546],[7.5171,4.5329,1.655],[7.5199,4.5379,6.8065],[7.5293,4.5471,1.7339],[7.5332,4.546,1.2979],[7.5233,4.565,3.2462]]],
[[[7.4507,4.549,0.7566],[7.4504,4.5479,0.0],[7.4524,4.5532,0.8618],[7.4512,4.5529,0.0],[7.4507,4.549,0.7566]]],
[[[7.4604,4.5571,0.0],[7.4557,4.5576,0.0],[7.4524,4.5546,1.1916],[7.4601,4.5551,0.0],[7.4604,4.5571,0.0]]],
[[[7.4188,4.5788,5.5835],[7.4222,4.5765,4.8355],[7.4239,4.5715,0.6904],[7.4254,4.5729,3.0085],[7.4296,4.5707,1.6894],[7.426,4.5701,1.1483],[7.4235,4.5657,0.5848],[7.4262,4.5629,2.1418],[7.4276,4.5535,0.8683],[7.4338,4.5521,1.2929],[7.4354,4.5501,0.8091],[7.4399,4.5513,1.2706],[7.4396,4.5485,3.0085],[7.4321,4.5496,0.425],[7.4324,4.5468,0.0],[7.4418,4.5429,0.0],[7.444,4.5471,0.7587],[7.4463,4.5474,1.8118],[7.4471,4.546,0.0],[7.4493,4.5535,1.5919],[7.4524,4.5576,0.3303],[7.4576,4.5599,0.7606],[7.4599,4.5588,0.0],[7.4643,4.5621,5.6305],[7.4643,4.5637,5.6305],[7.4604,4.5657,0.0],[7.4576,4.5701,2.3581],[7.4487,4.5735,0.6923],[7.4551,4.574,1.9426],[7.4607,4.5718,1.4767],[7.4646,4.5682,0.0],[7.4685,4.5696,1.3343],[7.4738,4.5763,0.78],[7.4746,4.5829,3.5556],[7.4732,4.5849,0.7375],[7.4665,4.5865,1.7426],[7.471,4.5868,0.0],[7.4724,4.5907,0.6268],[7.4724,4.5879,0.0],[7.4779,4.5857,1.0773],[7.4765,4.5832,0.0],[7.4771,4.5757,3.3914],[7.4751,4.5732,3.3974],[7.4762,4.5671,0.0],[7.481,4.5635,0.0],[7.4799,4.5688,2.3405],[7.4815,4.569,2.346],[7.4854,4.5637,0.0],[7.4904,4.5629,0.7142],[7.4923,4.587,9.3803],[7.49,4.5903,6.819],[7.4799,4.5937,7.2869],[7.4567,4.5959,8.0344],[7.4508,4.6025,8.1844],[7.4381,4.6043,12.3714],[7.4282,4.6015,13.9829],[7.4259,4.5932,5.5039],[7.4217,4.5903,12.2102],[7.4153,4.5888,5.5943],[7.415,4.5853,3.163],[7.4188,4.5788,5.5835]]]]}
,"properties": {"GID_2": "NGA.33.20_1","GID_0": "NGA","country": "Nigeria","GID_1": "NGA.33_1","province": "Rivers","NL_NAME_1": "NA","county": "Opobo/Nkoro","VARNAME_2": "NA","NL_NAME_2": "NA","TYPE_2": "LocalAuthority","ENGTYPE_2": "LocalAuthority","CC_2": "NA","HASC_2": "NA","name": "Opobo_Nkoro.county","area_km2": 142.437,"hist_schema_id": "Elevation0-9000","hist_area_km2": {"0": 130.2201,"25": 12.2169}}}