{"type": "Feature","bbox": [4.1029,7.2023,4.2903,7.332],"geometry": {"type": "MultiPolygon","coordinates": [[[[4.2903,7.3028,201.7974],[4.2714,7.3089,226.0893],[4.2564,7.3179,242.0378],[4.2458,7.3197,248.7195],[4.2187,7.3144,214.2136],[4.2053,7.3137,188.9705],[4.194,7.315,184.2827],[4.176,7.3266,208.0073],[4.1641,7.331,205.6051],[4.1472,7.332,211.2392],[4.1384,7.3287,166.0447],[4.1355,7.3218,157.2666],[4.1288,7.3173,158.6407],[4.1191,7.3175,132.6749],[4.1156,7.3061,156.9183],[4.1134,7.287,158.6237],[4.1148,7.2713,155.8343],[4.1105,7.2502,127.1879],[4.1029,7.2303,113.8767],[4.1257,7.2141,118.1275],[4.135,7.2048,131.3312],[4.1458,7.2023,151.6534],[4.1563,7.2088,169.6609],[4.1674,7.2107,165.5191],[4.18,7.219,177.7394],[4.2076,7.2268,201.2955],[4.2184,7.2264,213.954],[4.2607,7.2416,207.0154],[4.2663,7.2459,258.1147],[4.2726,7.2637,206.4057],[4.2885,7.2923,211.9612],[4.2879,7.3012,200.3743],[4.2903,7.3028,201.7974]]]]}
,"properties": {"GID_2": "NGA.30.22_1","GID_0": "NGA","country": "Nigeria","GID_1": "NGA.30_1","province": "Osun","NL_NAME_1": "NA","county": "Isokan","VARNAME_2": "NA","NL_NAME_2": "NA","TYPE_2": "LocalAuthority","ENGTYPE_2": "LocalAuthority","CC_2": "NA","HASC_2": "NA","name": "Isokan.county","area_km2": 196.5624,"hist_schema_id": "Elevation0-9000","hist_area_km2": {"100": 1.7878,"125": 21.2849,"150": 34.7654,"175": 47.1745,"200": 46.6484,"225": 35.1012,"250": 9.737,"275": 0.0631}}}