{"type": "Feature","bbox": [4.9073,7.5368,5.0089,7.773],"geometry": {"type": "MultiPolygon","coordinates": [[[[4.9529,7.5368,358.5331],[4.9544,7.546,372.8129],[4.9636,7.5603,401.3367],[4.9777,7.5912,509.9959],[4.9805,7.6073,544.106],[4.9883,7.6138,469.1187],[4.9984,7.6284,498.88869999999997],[5.0014,7.6392,494.8235],[5.002,7.6491,514.1573],[5.006,7.6538,544.3202],[5.0089,7.6748,508.1355],[5.0025,7.7108,538.7607],[4.991,7.7274,441.9074],[4.9705,7.7438,416.5401],[4.9499,7.7539,466.1284],[4.9182,7.773,520.6946],[4.9266,7.7433,475.1672],[4.9221,7.7222,476.1808],[4.9073,7.6791,473.0848],[4.9118,7.6416,539.8676],[4.9185,7.6021,664.7786],[4.9317,7.5758,423.1654],[4.9475,7.5381,390.7331],[4.9529,7.5368,358.5331]]]]}
,"properties": {"GID_2": "NGA.13.2_1","GID_0": "NGA","country": "Nigeria","GID_1": "NGA.13_1","province": "Ekiti","NL_NAME_1": "NA","county": "Efon","VARNAME_2": "NA","NL_NAME_2": "NA","TYPE_2": "LocalAuthority","ENGTYPE_2": "LocalAuthority","CC_2": "NA","HASC_2": "NA","name": "Efon.county","area_km2": 178.1478,"hist_schema_id": "Elevation0-9000","hist_area_km2": {"350": 0.021,"375": 4.3928,"400": 16.6026,"425": 25.4258,"450": 33.9757,"475": 23.7429,"500": 18.5749,"525": 14.4358,"550": 10.9266,"575": 6.9762,"600": 4.9171,"625": 4.1817,"650": 3.9507,"675": 6.2624,"700": 3.2573,"725": 0.5043}}}