{"type": "Feature","bbox": [13.2388,10.0972,13.5227,10.4997],"geometry": {"type": "MultiPolygon","coordinates": [[[[13.5227,10.4032,818.689],[13.5212,10.4326,819.8568],[13.4974,10.455,900.5411],[13.4916,10.4632,911.8588],[13.4764,10.4639,978.0694],[13.4527,10.468,1095.9415],[13.4036,10.4714,707.9664],[13.3683,10.4812,520.3576],[13.3491,10.4882,512.4147],[13.338,10.4951,502.7743],[13.3171,10.4997,493.672],[13.3131,10.4711,512.6497],[13.3174,10.4654,520.7668],[13.3243,10.4499,547.2613],[13.3267,10.436,632.3179],[13.3088,10.3587,566.6135],[13.3074,10.3414,572.2484],[13.3004,10.3157,571.2292],[13.2849,10.2906,577.2162],[13.2514,10.247,611.9005],[13.2467,10.2457,604.6437],[13.2388,10.2114,579.2197],[13.2407,10.1899,621.0487],[13.2389,10.1775,709.2881],[13.2542,10.1608,692.282],[13.27,10.1381,985.3139],[13.2738,10.1244,1070.8444],[13.2845,10.1129,1181.5812],[13.3053,10.0972,1130.5002],[13.316,10.1101,1028.9421],[13.3145,10.1375,818.2655],[13.3323,10.1837,721.0627],[13.345,10.2095,727.6389],[13.3724,10.2463,637.0131],[13.3765,10.2554,631.5344],[13.4021,10.2614,655.5033],[13.4321,10.2644,974.9903],[13.4378,10.2645,1048.3113],[13.4588,10.2586,964.2914],[13.4676,10.2584,800.9221],[13.4714,10.2743,873.4622],[13.4787,10.2853,726.4236],[13.4802,10.2912,733.7581],[13.4874,10.2954,734.3252],[13.4894,10.3179,708.8409],[13.4871,10.3265,683.4672],[13.4814,10.3326,652.5284],[13.4821,10.3354,652.2675],[13.4874,10.3383,688.6753],[13.4951,10.3378,706.9811],[13.4983,10.3395,690.6962],[13.4952,10.3558,715.2343],[13.4984,10.3676,720.6716],[13.4934,10.3868,762.3608],[13.4941,10.391,766.2296],[13.4977,10.3947,773.8824],[13.509,10.3971,794.5015],[13.5227,10.4032,818.689]]]]}
,"properties": {"GID_2": "NGA.2.14_1","GID_0": "NGA","country": "Nigeria","GID_1": "NGA.2_1","province": "Adamawa","NL_NAME_1": "NA","county": "MubiNorth","VARNAME_2": "NA","NL_NAME_2": "NA","TYPE_2": "LocalAuthority","ENGTYPE_2": "LocalAuthority","CC_2": "NA","HASC_2": "NA","name": "Mubi_North.county","area_km2": 654.7344,"hist_schema_id": "Elevation0-9000","hist_area_km2": {"500": 7.3803,"525": 27.189,"550": 47.8587,"575": 56.3758,"600": 63.4545,"625": 65.9591,"650": 50.5866,"675": 40.804,"700": 34.5674,"725": 27.6191,"750": 26.1786,"775": 28.8064,"800": 30.4956,"825": 28.6815,"850": 27.2831,"875": 20.7541,"900": 13.9544,"925": 10.7422,"950": 9.0114,"975": 7.2591,"1000": 6.0284,"1025": 5.5281,"1050": 4.2766,"1075": 3.4844,"1100": 2.4208,"1125": 1.6069,"1150": 1.628,"1175": 1.3567,"1200": 1.2106,"1225": 1.3775,"1250": 0.3966,"1275": 0.2087,"1300": 0.2087,"1325": 0.0417}}}