{"type": "Feature","bbox": [7.9915,9.0041,8.5785,9.5671],"geometry": {"type": "MultiPolygon","coordinates": [[[[7.9931,9.297,601.742],[7.9915,9.2694,605.782],[7.9928,9.2612,640.4644],[7.9998,9.2537,770.0935],[8.034,9.242,441.7819],[8.0536,9.2252,444.0696],[8.0608,9.222,453.5364],[8.0709,9.2097,441.8968],[8.0775,9.1962,428.9341],[8.08,9.1782,396.3692],[8.0813,9.1494,398.4089],[8.0792,9.1047,357.7689],[8.0768,9.0859,346.2402],[8.0767,9.0405,403.9863],[8.0796,9.0295,452.9386],[8.0824,9.0284,414.5987],[8.0831,9.0194,391.6457],[8.0939,9.0073,463.748],[8.1048,9.0041,418.579],[8.1163,9.005,511.773],[8.1235,9.0074,472.6103],[8.1321,9.0132,488.9205],[8.1298,9.016,501.1781],[8.1296,9.0264,508.0586],[8.1359,9.0406,504.8106],[8.1402,9.0556,476.6559],[8.1751,9.1195,491.5223],[8.1875,9.1293,492.6468],[8.1993,9.1444,473.2826],[8.2195,9.1814,483.145],[8.2502,9.2032,471.1956],[8.252,9.2131,453.0923],[8.2483,9.2292,464.3645],[8.2517,9.2401,451.2729],[8.2639,9.2428,469.4214],[8.2815,9.2433,472.2945],[8.303,9.2341,491.1655],[8.316,9.232,484.619],[8.3627,9.2456,497.3499],[8.3861,9.2338,514.8082],[8.4179,9.232,498.1011],[8.4159,9.2501,489.8605],[8.4113,9.2703,481.5795],[8.4147,9.2915,472.339],[8.4276,9.2975,473.8486],[8.4505,9.3045,475.9805],[8.46,9.3245,496.9209],[8.4612,9.348,507.8339],[8.4658,9.3708,489.1522],[8.4962,9.4033,521.9404],[8.5119,9.4158,536.5184],[8.5229,9.4323,537.7063],[8.5498,9.4509,563.512],[8.5785,9.4588,563.4216],[8.547,9.5098,597.5695],[8.5458,9.5252,588.8102],[8.5293,9.5215,572.9427],[8.4603,9.4983,532.3578],[8.4507,9.4919,520.8722],[8.4236,9.4846,510.3954],[8.3962,9.4728,531.8507],[8.3816,9.4724,525.1734],[8.3712,9.4782,581.6852],[8.353,9.505,603.319],[8.3259,9.5572,777.8066],[8.3166,9.5656,755.2896],[8.3087,9.5671,746.0323],[8.2888,9.5567,741.2612],[8.2749,9.5441,723.8859],[8.2686,9.5178,750.6816],[8.2606,9.5077,713.2838],[8.2378,9.5033,676.2951],[8.1779,9.4963,761.984],[8.1259,9.4746,738.1611],[8.095,9.4524,736.4271],[8.0812,9.4361,778.463],[8.0645,9.408,689.5994],[8.0631,9.3741,551.719],[8.0605,9.3598,564.8325],[8.0461,9.3407,533.5403],[8.0052,9.3042,623.1652],[7.9931,9.297,601.742]]]]}
,"properties": {"GID_2": "NGA.19.7_1","GID_0": "NGA","country": "Nigeria","GID_1": "NGA.19_1","province": "Kaduna","NL_NAME_1": "NA","county": "Jema'a","VARNAME_2": "NA","NL_NAME_2": "NA","TYPE_2": "LocalAuthority","ENGTYPE_2": "LocalAuthority","CC_2": "NA","HASC_2": "NA","name": "Jema'a.county","area_km2": 1712.392,"hist_schema_id": "Elevation0-9000","hist_area_km2": {"350": 1.047,"375": 7.139,"400": 19.72,"425": 36.466,"450": 106.03,"475": 371.777,"500": 462.086,"525": 248.865,"550": 140.535,"575": 62.892,"600": 28.048,"625": 20.498,"650": 20.873,"675": 18.154,"700": 22.629,"725": 31.579,"750": 50.503,"775": 48.034,"800": 12.275,"825": 2.217,"850": 0.607,"875": 0.314,"900": 0.042,"925": 0.021,"950": 0.042}}}