{"type":"Feature","properties":{"GID_2":"NGA.33.12_1","GID_0":"NGA","country":"Nigeria","GID_1":"NGA.33_1","province":"Rivers","NL_NAME_1":"NA","county":"Gokana","VARNAME_2":"NA","NL_NAME_2":"NA","TYPE_2":"LocalAuthority","ENGTYPE_2":"LocalAuthority","CC_2":"NA","HASC_2":"NA","name":"Gokana.county"},
"geometry":{"type": "MultiPolygon","coordinates": [[[[7.2321,4.6329,4.7874],[7.2318,4.6329,2.069],[7.2321,4.6324,4.7874],[7.2321,4.6329,4.7874]]],
[[[7.2207,4.6426,1.1621],[7.2254,4.6403,1.2493],[7.2249,4.6463,0.726],[7.2271,4.6549,0.0],[7.2251,4.6576,0.263],[7.2215,4.6546,1.9298],[7.2196,4.6493,2.7927],[7.216,4.6471,0.7891],[7.2165,4.6451,1.3714],[7.2196,4.6446,2.1423],[7.2207,4.6426,1.1621]]],
[[[7.2232,4.6604,1.8956],[7.222,4.6619,2.7935],[7.2204,4.6538,1.9298],[7.2246,4.6582,0.263],[7.2232,4.6604,1.8956]]],
[[[7.2621,4.621,0.0],[7.2623,4.6209,0.0],[7.2626,4.6208,0.0],[7.2626,4.621,0.0],[7.2621,4.621,0.0]]],
[[[7.3114,4.6122,2.3486],[7.3156,4.6174,8.3705],[7.3187,4.625,9.5343],[7.3205,4.6369,17.1534],[7.3251,4.6486,15.4529],[7.334,4.6579,17.3041],[7.3334,4.663,15.1458],[7.3367,4.6678,13.7601],[7.3345,4.6726,15.3912],[7.3361,4.6881,18.491],[7.3334,4.6925,17.1135],[7.3347,4.7012,11.8118],[7.3322,4.7082,18.6852],[7.3022,4.6992,13.7706],[7.2964,4.6993,16.6363],[7.2862,4.696,14.8641],[7.2696,4.697,14.0992],[7.2482,4.6877,7.527],[7.2377,4.6932,5.9214],[7.2335,4.6925,3.4942],[7.2335,4.6893,6.4653],[7.2299,4.6832,2.7213],[7.2315,4.6824,2.7213],[7.2349,4.6868,0.0],[7.2365,4.686,0.6051],[7.2376,4.6818,0.9335],[7.2424,4.6835,2.6019],[7.2443,4.6821,3.9344],[7.2435,4.6799,0.4934],[7.2424,4.6824,2.6019],[7.2381,4.681,0.9335],[7.2408,4.6728,3.652],[7.2389,4.666,4.64],[7.2361,4.6642,6.0409],[7.2246,4.6626,0.9754],[7.2271,4.659,0.287],[7.2318,4.6585,1.0282],[7.234,4.6554,0.8199],[7.2335,4.6543,0.5341],[7.2315,4.6576,1.0282],[7.2276,4.656,0.0],[7.2279,4.6507,1.9749],[7.2257,4.6463,0.726],[7.2263,4.6404,0.4481],[7.2301,4.6385,0.6637],[7.2339,4.629,7.6179],[7.2507,4.6237,0.1312],[7.2515,4.6276,0.2725],[7.2554,4.6301,0.0],[7.2554,4.6368,0.1126],[7.2576,4.6376,1.1755],[7.2585,4.6415,1.0959],[7.2621,4.6365,0.0],[7.2601,4.6343,0.0],[7.2635,4.6285,4.9001],[7.2624,4.6263,0.6009],[7.2587,4.6263,0.0],[7.2585,4.6238,0.0],[7.2635,4.6206,0.8638],[7.2723,4.6207,12.1202],[7.2909,4.6158,2.1719],[7.2955,4.6166,7.9609],[7.3035,4.625,11.5152],[7.3044,4.6213,10.5136],[7.3066,4.6199,13.304],[7.3068,4.6132,2.7991],[7.3114,4.6122,2.3486]]]]}}