{"type":"Feature","properties":{"GID_1":"NGA.19_1","GID_0":"NGA","country":"Nigeria","province":"Kaduna","VARNAME_1":"NA","NL_NAME_1":"NA","TYPE_1":"State","ENGTYPE_1":"State","CC_1":"NA","HASC_1":"NG.KD","ISO_1":"NG-KD","name":"Kaduna.province"},
"geometry":{"type": "MultiPolygon","coordinates": [[[[8.6091,9.4141,545.3787],[8.5998,9.4252,539.964],[8.5949,9.436,548.5758],[8.5842,9.4482,585.6652],[8.547,9.5098,597.5695],[8.5455,9.5284,584.3077],[8.5624,9.551,744.9776],[8.5561,9.608,1093.7001],[8.559,9.6269,937.7631],[8.5876,9.6474,911.0755],[8.5934,9.6656,908.6363],[8.59,9.6824,901.8691],[8.594,9.6967,900.0212],[8.6054,9.7045,926.296],[8.6248,9.7216,1178.0353],[8.6316,9.7387,1211.0522],[8.6231,9.7724,859.1046],[8.6243,9.793,831.3059],[8.6287,9.8112,839.0452],[8.6343,9.8975,1100.5591],[8.6315,9.9291,913.7849],[8.6369,9.9467,874.2075],[8.6571,9.9594,915.8865],[8.6756,9.9783,923.4063],[8.6756,9.9972,948.3389],[8.6634,10.0347,918.4116],[8.6508,10.0576,870.7622],[8.6414,10.0798,859.5336],[8.6421,10.1001,832.5908],[8.645,10.1232,814.5311],[8.6631,10.174,823.0665],[8.6794,10.2028,844.2803],[8.7101,10.225,814.671],[8.7455,10.2368,838.5326],[8.7667,10.2617,843.564],[8.7756,10.2847,849.6968],[8.7791,10.3311,843.8555],[8.785,10.3357,835.897],[8.7442,10.3791,824.3807],[8.7291,10.389,780.7207],[8.7165,10.3935,763.8775],[8.6991,10.407,756.6421],[8.6947,10.4187,770.4433],[8.6987,10.4289,775.5782],[8.7248,10.4668,801.3064],[8.7327,10.4858,831.1157],[8.7346,10.5017,823.4881],[8.7437,10.5346,850.3409],[8.7423,10.5475,818.794],[8.7413,10.5491,816.9027],[8.7243,10.5444,843.0746],[8.6758,10.5548,810.5372],[8.6564,10.566,782.3931],[8.6499,10.5714,772.2827],[8.6258,10.6001,735.9294],[8.6181,10.6154,747.9326],[8.5735,10.6256,734.6907],[8.5459,10.6282,705.6042],[8.5229,10.6279,722.328],[8.5047,10.6309,723.6862],[8.4874,10.6481,721.028],[8.4777,10.6813,727.1125],[8.4867,10.6938,701.1868],[8.4972,10.6997,690.254],[8.5243,10.7014,703.603],[8.544,10.7092,720.2819],[8.5557,10.7268,732.8064],[8.559,10.7544,737.3525],[8.5395,10.851,785.9366],[8.5407,10.8746,887.8555],[8.5558,10.9295,653.45],[8.5721,10.9685,611.619],[8.5698,11.0123,620.1235],[8.566,11.0303,606.5038],[8.5499,11.0572,605.8008],[8.5379,11.0848,608.6572],[8.5227,11.1138,616.7712],[8.508,11.1328,604.0057],[8.4868,11.1467,609.0482],[8.4634,11.1717,609.3324],[8.4211,11.2034,649.2275],[8.3815,11.2128,614.7299],[8.3642,11.2145,638.3995],[8.3366,11.2124,605.8318],[8.3119,11.2212,596.3062],[8.2943,11.2358,572.525],[8.2795,11.2618,571.2195],[8.2551,11.287,555.192],[8.2277,11.2983,577.6975],[8.1946,11.3066,584.5049],[8.1634,11.3201,581.0998],[8.1377,11.3357,605.7839],[8.1208,11.3546,604.1348],[8.1126,11.3761,625.9877],[8.1123,11.3956,633.3718],[8.1463,11.4597,599.992],[8.1412,11.4796,590.4415],[8.1229,11.4926,581.0432],[8.1032,11.4955,580.2314],[8.0838,11.4923,579.0057],[8.059,11.4848,584.8099],[8.0374,11.4758,597.6273],[8.0107,11.4759,604.1603],[7.972,11.4549,625.9781],[7.933,11.4306,642.0761],[7.8655,11.3696,661.2255],[7.8506,11.3631,667.1696],[7.8261,11.3589,672.306],[7.8003,11.3581,678.0887],[7.7729,11.3594,680.8085],[7.7603,11.3417,679.8058],[7.7567,11.323,673.0818],[7.7466,11.309,666.4792],[7.69,11.2878,651.6526],[7.6742,11.2784,640.1523],[7.656,11.2733,637.9644],[7.6305,11.2857,631.5],[7.6149,11.3109,640.9212],[7.5981,11.3264,648.5204],[7.5817,11.3384,662.9709],[7.5308,11.3581,705.902],[7.4722,11.375,684.1567],[7.4498,11.3706,669.8945],[7.4357,11.3607,672.2405],[7.4003,11.3292,646.2748],[7.3932,11.3171,632.8462],[7.381,11.2819,633.481],[7.3825,11.2697,638.2183],[7.3811,11.2597,641.2076],[7.3718,11.2511,629.7853],[7.3492,11.2497,614.4569],[7.3045,11.2672,625.761],[7.273,11.2689,647.1722],[7.2457,11.265,652.7843],[7.2265,11.2581,664.9342],[7.2172,11.2515,680.7297],[7.2136,11.2374,694.1997],[7.2192,11.219,672.0549],[7.244,11.1818,674.7079],[7.2484,11.1655,675.0463],[7.2393,11.146,667.868],[7.2261,11.135,645.732],[7.1979,11.1167,642.1069],[7.1825,11.1108,661.7582],[7.1543,11.1144,731.4536],[7.1303,11.1367,681.9829],[7.1175,11.1567,673.1949],[7.0857,11.1829,662.0884],[7.0261,11.2035,685.3705],[6.9966,11.2085,672.0643],[6.983,11.2137,660.5687],[6.9893,11.2347,651.2349],[7.0216,11.2693,667.5382],[7.036,11.2775,662.0773],[7.0398,11.2946,675.2176],[7.027,11.3224,666.6555],[7.005,11.3367,666.2849],[6.9737,11.3339,635.0823],[6.9404,11.3397,624.5342],[6.9159,11.3476,617.6977],[6.8862,11.3484,590.6792],[6.8712,11.33,575.7943],[6.8483,11.3104,575.3455],[6.8225,11.2953,575.1296],[6.804,11.2822,566.7578],[6.7902,11.264,569.7834],[6.7748,11.2415,572.2216],[6.7625,11.2097,557.5013],[6.7523,11.153,525.3039],[6.7279,11.1015,514.2997],[6.7002,11.0721,490.9154],[6.6787,11.052,493.4942],[6.6411,11.0279,520.6752],[6.5651,11.018,467.3358],[6.5168,11.0173,454.6639],[6.4368,11.0271,453.5573],[6.366,11.0196,420.5092],[6.3456,11.012,442.0766],[6.3306,11.0035,441.3808],[6.3137,10.9895,438.7359],[6.2908,10.9585,432.8065],[6.2605,10.9367,423.2205],[6.2504,10.9244,424.3574],[6.2325,10.89,414.8601],[6.2143,10.8704,407.796],[6.2056,10.8632,409.192],[6.1937,10.8582,413.673],[6.1773,10.856,414.207],[6.1665,10.8563,401.1288],[6.166,10.8489,409.6775],[6.1578,10.8373,410.7883],[6.1442,10.8088,416.3834],[6.1174,10.7704,393.9918],[6.119,10.7392,387.0902],[6.1115,10.7202,389.2277],[6.111,10.6939,383.6788],[6.1343,10.6558,370.3979],[6.1365,10.6323,378.4034],[6.1245,10.6003,359.6764],[6.1284,10.5394,365.432],[6.1153,10.5224,380.1278],[6.0987,10.5107,342.2066],[6.0934,10.4737,305.8117],[6.0968,10.4518,346.7293],[6.1149,10.4349,382.9293],[6.1461,10.4197,332.4678],[6.1579,10.3922,301.0425],[6.1658,10.3634,263.4007],[6.1889,10.3539,281.2188],[6.2117,10.368,300.2768],[6.2356,10.3974,367.8642],[6.257,10.4302,358.6951],[6.2987,10.4802,380.6954],[6.3235,10.4953,380.3749],[6.3472,10.514,398.1895],[6.389,10.5521,363.1163],[6.412,10.5641,379.5429],[6.4287,10.5761,380.8652],[6.4626,10.5859,397.0825],[6.4857,10.5901,415.3726],[6.5096,10.588,418.4126],[6.5262,10.572,438.0872],[6.5309,10.5504,466.3517],[6.5428,10.5295,475.8831],[6.574,10.5374,478.4852],[6.6127,10.5559,504.8782],[6.6366,10.5656,541.2646],[6.6661,10.5751,674.8281],[6.6925,10.5754,578.5988],[6.7304,10.5661,476.3082],[6.7407,10.5819,505.1277],[6.7298,10.6201,564.4697],[6.7489,10.6393,565.51],[6.8253,10.6313,586.8413],[6.8351,10.6231,588.821],[6.8429,10.5925,556.8616],[6.8437,10.5664,535.4515],[6.8479,10.5392,506.0212],[6.8474,10.5205,495.9159],[6.8698,10.5182,534.3851],[6.8858,10.5274,587.1714],[6.9061,10.529,601.4413],[6.9323,10.5219,565.4935],[6.9471,10.4963,572.3654],[6.9643,10.4612,578.3519],[6.9634,10.4201,599.3611],[6.9549,10.393,577.3381],[6.9452,10.3703,549.6612],[6.9416,10.3538,489.1939],[7.0196,10.3273,493.3671],[7.0474,10.3142,497.2686],[7.0718,10.2993,513.2604],[7.0668,10.2676,504.0158],[7.0503,10.2391,511.689],[7.0258,10.2198,496.6806],[6.9978,10.2075,477.3095],[6.9818,10.1974,453.5421],[6.968,10.1737,440.2102],[6.9419,10.1469,405.8289],[6.9069,10.125,389.0892],[6.8921,10.1052,372.8246],[6.9087,10.0736,357.0],[6.9365,10.0469,408.5579],[6.9958,10.0205,401.6228],[7.0441,10.0071,403.8709],[7.0808,10.011,425.7346],[7.1182,10.0113,394.1187],[7.1458,10.0082,421.0784],[7.1808,10.0066,426.0862],[7.232,10.0104,471.6803],[7.2521,10.0084,473.8585],[7.2629,10.0071,525.7935],[7.2742,9.9977,514.5184],[7.2794,9.9815,498.9887],[7.278,9.9567,525.2586],[7.2824,9.935,565.526],[7.2821,9.9004,571.0439],[7.297,9.8383,501.5067],[7.2986,9.7888,475.7676],[7.2944,9.774,506.364],[7.2885,9.7645,501.4246],[7.2605,9.7584,492.9761],[7.2363,9.7579,470.1902],[7.2219,9.7512,459.106],[7.2173,9.741,453.7769],[7.2201,9.7264,476.1238],[7.2383,9.7141,497.7683],[7.2561,9.7079,508.3113],[7.2839,9.7015,504.1383],[7.2968,9.6923,503.8655],[7.2984,9.683,496.6437],[7.2942,9.6661,492.3683],[7.2872,9.6582,510.18],[7.2833,9.6438,511.9814],[7.3017,9.6311,490.3878],[7.3189,9.6259,519.2082],[7.3319,9.6179,532.4581],[7.3398,9.606,541.023],[7.3412,9.5877,515.2451],[7.3261,9.5684,512.9272],[7.3005,9.5485,520.1265],[7.2913,9.5369,516.1542],[7.2816,9.4922,522.7239],[7.2689,9.4782,530.8232],[7.25,9.4702,524.9182],[7.2292,9.4575,536.5599],[7.2203,9.4427,522.2858],[7.2187,9.4054,536.8151],[7.2273,9.3935,526.5082],[7.2425,9.3835,534.1844],[7.2663,9.3707,549.7143],[7.2736,9.3608,538.4851],[7.2641,9.336,523.8591],[7.2573,9.3103,498.2945],[7.2503,9.2975,486.5911],[7.2512,9.2945,491.154],[7.2572,9.2939,487.545],[7.2909,9.3041,501.4381],[7.3075,9.3015,507.7673],[7.3109,9.2975,521.2463],[7.3221,9.2973,524.9137],[7.3253,9.3001,533.5497],[7.3387,9.3043,549.5755],[7.3634,9.3034,549.5425],[7.3946,9.3081,672.6373],[7.4516,9.3045,625.2537],[7.4614,9.3025,640.377],[7.4753,9.292,643.2358],[7.486,9.2889,646.929],[7.4956,9.2924,673.8641],[7.5043,9.3024,674.955],[7.5334,9.3512,684.2615],[7.5416,9.3569,737.9473],[7.5506,9.3599,716.3333],[7.5572,9.3586,707.7588],[7.5679,9.3529,707.0122],[7.5744,9.3426,725.0309],[7.5832,9.3133,735.0256],[7.5898,9.3069,714.5124],[7.5916,9.303,708.2635],[7.6069,9.2981,692.1422],[7.6169,9.3026,714.8311],[7.6214,9.3077,728.0036],[7.6476,9.3271,725.7722],[7.6517,9.3276,744.8883],[7.6596,9.3254,732.8273],[7.6642,9.3199,701.3152],[7.6693,9.2952,603.2324],[7.6739,9.2881,597.7761],[7.6807,9.2826,634.5615],[7.6875,9.282,616.4719],[7.6999,9.2879,454.9067],[7.7049,9.2923,452.6105],[7.7199,9.2901,427.1768],[7.7342,9.2813,448.7067],[7.7356,9.276,435.9352],[7.7396,9.2715,425.8002],[7.7492,9.2679,422.3877],[7.7529,9.2641,424.7556],[7.7593,9.2614,432.346],[7.7809,9.2654,395.9077],[7.785,9.2645,408.0599],[7.8093,9.2483,388.323],[7.8161,9.2473,385.0814],[7.8319,9.2498,375.0898],[7.8508,9.2657,386.9546],[7.8543,9.2745,410.5086],[7.8643,9.2821,412.371],[7.8656,9.2922,408.987],[7.8794,9.3228,476.3134],[7.8883,9.3301,466.8907],[7.8893,9.3393,601.4725],[7.9061,9.3568,592.3022],[7.9113,9.3611,623.0726],[7.9154,9.3623,592.0935],[7.9321,9.3604,618.6875],[7.9402,9.3562,639.8425],[7.9509,9.346,642.2648],[7.9579,9.3387,559.8309],[7.9623,9.331,456.3799],[7.9875,9.3134,546.5576],[7.993,9.2992,686.8958],[7.9915,9.2694,605.782],[7.9928,9.2612,640.4644],[7.9998,9.2537,770.0935],[8.034,9.242,441.7819],[8.0536,9.2252,444.0696],[8.0608,9.222,453.5364],[8.0709,9.2097,441.8968],[8.0775,9.1962,428.9341],[8.08,9.1782,396.3692],[8.0813,9.1494,398.4089],[8.0792,9.1047,357.7689],[8.0768,9.0859,346.2402],[8.0767,9.0405,403.9863],[8.0796,9.0295,452.9386],[8.0824,9.0284,414.5987],[8.0831,9.0194,391.6457],[8.0939,9.0073,463.748],[8.1048,9.0041,418.579],[8.1125,9.0041,489.2457],[8.1235,9.0074,472.6103],[8.1613,9.0331,488.5162],[8.2285,9.1093,463.5753],[8.2429,9.1399,443.186],[8.2492,9.1469,459.8572],[8.2637,9.1556,471.653],[8.2853,9.1521,489.2928],[8.2936,9.1425,486.0479],[8.3094,9.132,476.1024],[8.3393,9.1276,480.3436],[8.3711,9.1281,497.4315],[8.386,9.1164,504.4927],[8.4188,9.0728,562.9344],[8.4406,9.0524,845.1518],[8.4573,9.0333,468.053],[8.4599,9.0193,427.3664],[8.467,9.0028,402.6322],[8.4934,8.9998,384.0374],[8.5068,9.0007,366.7908],[8.5329,9.0074,404.3969],[8.5462,9.0189,412.0737],[8.57,9.0618,430.4629],[8.5995,9.1056,501.3677],[8.6207,9.1485,568.4359],[8.6245,9.1621,551.6811],[8.6424,9.1958,866.5852],[8.6507,9.2047,739.6998],[8.66,9.2048,1110.2321],[8.6612,9.2124,1250.8237],[8.668,9.231,1060.2252],[8.6793,9.2498,1356.386],[8.687,9.2681,911.8953],[8.6901,9.2886,990.4434],[8.6886,9.3077,909.7068],[8.679,9.3391,906.3926],[8.6689,9.3564,542.2878],[8.6413,9.3757,530.5757],[8.6173,9.4021,539.5631],[8.6091,9.4141,545.3787]]]]}}