{"type": "Feature","id": "2864","bbox": [6.0931,8.99919,8.78502,11.4955],"geometry": {"type": "Polygon","coordinates": [[[8.72053,10.54463,834.4758],[8.67888,10.5545,812.4977],[8.65945,10.56419,786.9493],[8.61563,10.61592,749.2501],[8.53532,10.62607,709.9354],[8.48065,10.67116,719.5095],[8.50153,10.69878,690.6284],[8.5439,10.70911,720.2819],[8.55837,10.74668,745.2186],[8.54277,10.86631,815.5942],[8.56189,10.94285,637.4814],[8.54235,11.08201,607.6246],[8.43983,11.18968,636.9711],[8.36376,11.20947,633.618],[8.29431,11.23577,572.525],[8.26981,11.26887,570.2507],[8.23725,11.29427,564.7715],[8.16666,11.31866,579.7125],[8.13432,11.34013,608.9668],[8.11395,11.37269,623.1271],[8.1184,11.40819,635.4232],[8.13721,11.44101,614.3795],[8.13876,11.47894,591.5325],[8.10321,11.4955,580.2314],[7.96254,11.45114,634.6142],[7.84513,11.36504,671.1442],[7.7762,11.35915,679.7894],[7.74168,11.30717,665.3226],[7.66065,11.27458,630.4363],[7.63202,11.28675,631.5],[7.61228,11.31329,639.0225],[7.57807,11.33786,663.7272],[7.53952,11.35484,702.9336],[7.46676,11.36884,684.9129],[7.40402,11.33259,649.1268],[7.38697,11.30053,641.9144],[7.3818,11.26464,640.2076],[7.35431,11.25014,613.0532],[7.31865,11.26234,621.3504],[7.24217,11.26337,655.4414],[7.22543,11.20996,674.5118],[7.24259,11.18418,673.6886],[7.24383,11.15568,674.9711],[7.21923,11.1293,640.8488],[7.18647,11.11224,662.8418],[7.15329,11.11627,730.39],[7.1013,11.16999,657.7087],[7.06627,11.19027,678.7842],[6.99309,11.20978,676.0683],[6.99185,11.23766,655.0042],[7.01903,11.26665,668.9196],[7.03495,11.2789,658.0585],[7.03846,11.29745,672.8467],[7.02627,11.32117,664.2793],[7.00498,11.33667,666.2849],[6.95206,11.3376,612.514],[6.92746,11.34429,622.7986],[6.88178,11.3661,570.42],[6.86566,11.33616,573.4268],[6.8454,11.31693,571.877],[6.77471,11.27316,545.5193],[6.75445,11.24802,539.8724],[6.74329,11.2182,531.0076],[6.72458,11.12772,517.0413],[6.71466,11.10635,497.1199],[6.70184,11.0895,511.96],[6.68644,11.0763,504.8896],[6.66856,11.06566,495.5704],[6.58475,11.03385,467.9364],[6.57596,11.02938,464.9635],[6.56718,11.02765,465.2155],[6.55064,11.02928,456.2841],[6.53979,11.02811,451.3066],[6.47405,11.00946,448.1488],[6.45152,11.00954,454.8987],[6.4293,11.01426,444.7689],[6.36378,11.03747,450.0159],[6.34269,11.03964,427.7498],[6.32285,11.0322,449.0561],[6.31065,11.01791,426.9426],[6.29236,10.98067,421.9572],[6.28027,10.96499,412.3726],[6.27014,10.95889,427.2525],[6.24606,10.95013,410.6182],[6.23593,10.94318,410.2867],[6.22787,10.93016,414.3698],[6.22642,10.91747,409.9341],[6.22642,10.90466,405.576],[6.22239,10.89117,407.2206],[6.20771,10.87799,408.3801],[6.16193,10.86275,393.0262],[6.14188,10.85342,394.4092],[6.12214,10.83159,400.7294],[6.11366,10.80614,383.098],[6.10767,10.72286,379.2009],[6.10912,10.69728,385.7321],[6.12596,10.64708,373.702],[6.1271,10.63522,367.4332],[6.12638,10.623,365.8289],[6.12162,10.60065,361.8253],[6.10777,10.56713,380.4727],[6.10509,10.5547,357.6522],[6.10467,10.52763,356.1215],[6.10302,10.51484,339.9947],[6.09723,10.50238,348.9303],[6.0931,10.48256,302.102],[6.09961,10.44908,352.9482],[6.13196,10.42526,356.5694],[6.15666,10.39497,306.66],[6.17381,10.36115,262.0959],[6.20813,10.36578,298.529],[6.23448,10.39417,347.7954],[6.25536,10.42768,355.3831],[6.30735,10.48334,376.5214],[6.42672,10.57359,384.0833],[6.49762,10.58897,406.6909],[6.52377,10.57147,437.3517],[6.53669,10.54026,461.9095],[6.56852,10.53468,471.6462],[6.64118,10.56768,549.3606],[6.67931,10.57522,606.7887],[6.71766,10.56881,478.6649],[6.73988,10.58473,506.9553],[6.73554,10.6239,521.0533],[6.76799,10.63777,554.0262],[6.80385,10.63537,564.3984],[6.83517,10.62307,588.821],[6.84323,10.60367,548.5603],[6.84995,10.52248,498.0117],[6.86628,10.51853,531.8934],[6.9009,10.52853,589.1447],[6.95599,10.48236,545.8008],[6.95785,10.40247,582.1686],[6.94452,10.36684,585.14],[6.96591,10.34485,546.3808],[7.03753,10.31878,499.7566],[7.06751,10.29888,504.2118],[7.06513,10.26459,488.8734],[7.04105,10.23304,510.7675],[7.00756,10.21181,471.9238],[6.97542,10.18617,473.913],[6.94865,10.15377,430.2873],[6.9161,10.13269,398.9208],[6.89212,10.10517,372.8246],[6.93666,10.04719,430.5742],[7.00849,10.01706,411.0027],[7.08249,10.00833,433.6279],[7.2308,10.01107,482.1148],[7.27917,9.97758,503.0596],[7.29829,9.81777,495.3503],[7.29623,9.78101,494.7808],[7.27029,9.76052,485.915],[7.23918,9.75801,475.7483],[7.21727,9.74096,453.7769],[7.23752,9.71414,492.2902],[7.27411,9.70372,511.3978],[7.29519,9.68602,487.6924],[7.28724,9.65817,510.18],[7.30119,9.63316,490.4354],[7.33188,9.61786,532.4581],[7.33808,9.58662,520.5167],[7.31524,9.5611,534.5789],[7.30046,9.54818,520.1265],[7.29013,9.53208,503.5001],[7.28693,9.51146,519.9835],[7.28155,9.49213,522.7239],[7.22688,9.45364,526.7692],[7.2183,9.41658,523.9506],[7.23856,9.38602,527.8243],[7.25168,9.37801,535.0981],[7.26863,9.35586,541.6271],[7.26667,9.34165,529.9825],[7.2552,9.31158,504.0887],[7.26171,9.29527,475.9129],[7.28703,9.30295,494.6554],[7.3108,9.29744,521.2463],[7.40578,9.30765,608.8121],[7.43379,9.30674,611.3485],[7.46138,9.30243,640.377],[7.4865,9.29199,654.77],[7.5082,9.30806,683.4829],[7.54004,9.35142,670.5958],[7.5758,9.33806,743.0751],[7.59419,9.30419,707.0565],[7.62582,9.3107,724.0782],[7.65393,9.32372,743.0818],[7.66861,9.29757,630.4076],[7.69259,9.28501,474.4585],[7.72452,9.28755,426.8748],[7.74912,9.26786,422.3877],[7.76576,9.26538,416.5286],[7.78219,9.26507,404.8003],[7.81661,9.25065,445.8099],[7.85071,9.26569,386.9546],[7.88947,9.33643,596.1213],[7.95086,9.34594,642.2648],[7.98342,9.31597,495.6244],[7.99241,9.29328,584.617],[7.99179,9.26791,608.6786],[8.02404,9.24218,461.6759],[8.06342,9.21879,452.7448],[8.07406,9.10164,353.1102],[8.0998,9.00501,471.151],[8.17917,9.04813,477.2366],[8.23663,9.12825,452.5254],[8.26351,9.15319,473.488],[8.29596,9.14058,475.2848],[8.38598,9.11634,504.4927],[8.42629,9.06464,547.6327],[8.44572,9.04583,503.6646],[8.45884,9.0233,439.358],[8.48365,8.99919,392.7879],[8.52261,9.00402,394.6843],[8.5654,9.04679,413.465],[8.59713,9.10226,514.4044],[8.62307,9.16197,557.8457],[8.65997,9.20476,1110.2321],[8.68064,9.26192,1161.6327],[8.68498,9.32279,1164.423],[8.64726,9.37633,539.4827],[8.59982,9.42519,539.964],[8.5593,9.48454,585.0519],[8.55899,9.62683,937.7631],[8.58752,9.64732,911.0755],[8.59041,9.66561,903.7909],[8.59,9.68233,901.8691],[8.63155,9.73868,1211.0522],[8.62307,9.77238,859.1046],[8.62865,9.81118,839.0452],[8.62834,9.88769,1104.158],[8.66782,10.01916,960.3001],[8.64188,10.09478,835.4922],[8.66007,10.16917,817.0051],[8.71009,10.22501,814.671],[8.74637,10.24188,840.413],[8.77118,10.27315,845.0466],[8.77552,10.30676,859.1142],[8.78502,10.33565,835.897],[8.76384,10.36004,829.1089],[8.74027,10.38159,816.6048],[8.7102,10.39763,773.9809],[8.69666,10.42376,777.4343],[8.73035,10.48342,828.0313],[8.74131,10.54905,816.9027],[8.72053,10.54463,834.4758]]]}
,"properties": {"ISO3166-1-Alpha-3": "NGA","country": "Nigeria","fill": "#FF0","name": "Kaduna","area_km2": 44691.94,"hist_schema_id": "Elevation0-9000","hist_area_km2": {"250": 0.35,"275": 10.37,"300": 23.98,"325": 40.01,"350": 135.34,"375": 384.65,"400": 740.19,"425": 888.47,"450": 949.0,"475": 1265.55,"500": 1513.55,"525": 1790.79,"550": 1960.9,"575": 2295.79,"600": 3434.84,"625": 5349.42,"650": 6342.32,"675": 4726.03,"700": 2647.28,"725": 2223.8,"750": 2471.48,"775": 2068.31,"800": 1349.26,"825": 720.4,"850": 348.02,"875": 205.85,"900": 197.38,"925": 149.13,"950": 99.18,"975": 78.34,"1000": 49.37,"1025": 28.18,"1050": 23.94,"1075": 23.32,"1100": 20.94,"1125": 24.54,"1150": 27.26,"1175": 29.18,"1200": 21.95,"1225": 17.23,"1250": 10.35,"1275": 4.18,"1300": 1.07,"1325": 0.42}}}