{"type":"Feature","properties":{"featurecla":"River","scalerank":7,"rivernum":507,"dissolve":"507River","name":"Mariga1","name_alt":null,"note":null,"min_zoom":6.0,"strokeweig":0.2,"name_en":"Mariga","min_label":7.0},
"geometry":{"type": "LineString","coordinates": [[6.6864257812500227,11.07636139530662,504.8896],[6.6686035156250227,11.06574127811912,495.5704],[6.584716796875,11.03388092655662,467.9364],[6.575927734375,11.029413153119108,464.9635],[6.567138671875,11.027704168744108,465.2155],[6.5506835937500227,11.029315496869117,456.2841],[6.539794921875,11.02814362186912,451.3066],[6.4740234375000227,11.009540106244117,448.1488],[6.4515625000000227,11.00958893436912,454.8987],[6.4293457031250227,11.014276434369108,444.7689],[6.36376953125,11.03754303593162,450.0159],[6.3426757812500227,11.039667059369108,427.7498],[6.3229003906250227,11.032245184369117,449.0561],[6.3106933593750227,11.017938543744108,426.9426],[6.2923828125000227,10.980731512494117,421.9572],[6.2802734375,10.96503327030662,412.3726],[6.2701660156250227,10.95892975468162,427.2525],[6.24609375,10.950213934369117,410.6182],[6.2359863281250227,10.943231512494108,410.2867],[6.2279296875000227,10.93024323124412,414.3698],[6.2264648437500227,10.91754791874412,409.9341],[6.2264648437500227,10.90473053593162,405.576],[6.222412109375,10.891229559369108,407.2206],[6.207763671875,10.878045965619108,408.3801],[6.161865234375,10.862811590619117,399.2975],[6.141845703125,10.85346100468162,394.4092],[6.1220703125,10.83161041874412,400.7294],[6.1136718750000227,10.80621979374412,383.098],[6.107666015625,10.722919012494117,379.2009],[6.109130859375,10.69733307499412,385.7321],[6.1259765625,10.64716217655662,370.907],[6.1270996093750227,10.635272528119117,367.4332],[6.1263671875000227,10.623065496869117,365.8289],[6.12158203125,10.600702215619108,361.8253],[6.1078125000000227,10.56720612186912,380.4727],[6.1051269531250227,10.55475494999412,357.6522],[6.1046386718750227,10.52765534061912,356.1215],[6.10302734375,10.514911199994117,339.9947],[6.09716796875,10.502460028119117,348.9303],[6.0855957031250227,10.490594793744108,332.4035]]}}