{"type":"Feature","properties":{"featurecla":"River","scalerank":7,"rivernum":507,"dissolve":"507River","name":"Mariga","name_alt":null,"note":null,"min_zoom":6.0,"strokeweig":0.15,"name_en":"Mariga","min_label":7.0},
"geometry":{"type": "LineString","coordinates": [[6.9034667968750227,11.49249909061912,630.7302],[6.9066406250000227,11.45734284061912,600.7719],[6.8973632812500227,11.410907293744117,604.5615],[6.8818359375,11.36615631718162,570.42],[6.865625,11.336200262494117,573.4268],[6.845458984375,11.31696198124412,571.877],[6.774658203125,11.273211981244117,545.5193],[6.75439453125,11.248065496869117,539.8724],[6.7433105468750227,11.218280340619117,531.0076],[6.724609375,11.12775299686912,517.0413],[6.714599609375,11.10639069218162,497.1199],[6.7018066406250227,11.08954498905662,511.96],[6.6864257812500227,11.07636139530662,504.8896]]}}