{"type":"Feature","properties":{"GID_2":"NGA.35.6_1","GID_0":"NGA","country":"Nigeria","GID_1":"NGA.35_1","province":"Taraba","NL_NAME_1":"NA","county":"Ibi","VARNAME_2":"NA","NL_NAME_2":"NA","TYPE_2":"LocalAuthority","ENGTYPE_2":"LocalAuthority","CC_2":"NA","HASC_2":"NA","name":"Ibi.county"},
"geometry":{"type": "MultiPolygon","coordinates": [[[[9.2989,8.005,90.8536],[9.3051,8.0022,84.4011],[9.3288,8.0026,82.4448],[9.3419,7.9987,76.4815],[9.3723,7.9975,88.9725],[9.4249,8.0088,96.0429],[9.4955,8.0513,85.3109],[9.5425,8.0663,89.7205],[9.5895,8.077,95.2055],[9.6092,8.0769,102.4669],[9.6189,8.0729,102.558],[9.6496,8.0753,110.4881],[9.661,8.0711,111.8814],[9.6719,8.0708,115.4195],[9.6861,8.0657,107.0805],[9.7091,8.0633,127.3069],[9.7224,8.0568,141.0622],[9.7586,8.0439,148.0224],[9.7712,8.0451,141.8873],[9.7893,8.055,135.1401],[9.8035,8.0561,140.312],[9.8184,8.0657,117.1221],[9.8347,8.0825,136.2636],[9.8644,8.1215,118.3157],[9.8916,8.1656,138.0692],[9.8987,8.2016,122.6823],[9.9179,8.2297,123.4232],[9.9414,8.2443,114.7301],[9.9525,8.2483,97.6232],[9.9666,8.2646,112.5927],[10.0221,8.3121,93.5637],[10.0358,8.326,94.7999],[10.0543,8.3486,95.8742],[10.0719,8.3723,97.3138],[10.0924,8.4094,97.5052],[10.0982,8.4332,93.5397],[10.1126,8.4668,100.0962],[10.1259,8.4804,98.988],[10.1571,8.5053,99.3873],[10.1703,8.5241,97.6099],[10.1959,8.5488,101.9907],[10.2011,8.5579,101.3533],[10.204,8.5727,100.0544],[10.2132,8.5942,101.0208],[10.2552,8.6319,101.9264],[10.2669,8.6484,101.8773],[10.2835,8.6641,104.3466],[10.2925,8.6701,103.9482],[10.3423,8.6756,100.3471],[10.4109,8.6898,109.2423],[10.3924,8.6993,106.3211],[10.371,8.7189,112.0488],[10.3573,8.7259,113.8615],[10.3467,8.7252,115.953],[10.3319,8.7354,128.3233],[10.3097,8.7567,141.5504],[10.3017,8.7693,129.3462],[10.2435,8.7573,137.4914],[10.2033,8.7341,149.645],[10.1905,8.7128,133.6727],[10.1701,8.6668,106.0705],[10.1274,8.6203,127.0999],[10.0934,8.5749,111.6601],[9.9787,8.5144,114.8473],[9.9386,8.4794,126.3372],[9.8821,8.4231,112.5916],[9.8547,8.3913,98.3556],[9.8153,8.3721,120.8981],[9.7441,8.3559,99.1551],[9.6776,8.3472,141.969],[9.6155,8.3512,136.0799],[9.5869,8.3044,144.2115],[9.5738,8.292,141.4433],[9.562,8.2845,125.2116],[9.5296,8.2788,135.7675],[9.5161,8.2826,148.8127],[9.4908,8.2849,131.8941],[9.4736,8.2914,110.1037],[9.4567,8.2942,97.9075],[9.4515,8.3008,103.0143],[9.4269,8.2971,108.1429],[9.4206,8.3055,126.6604],[9.4107,8.3143,130.1724],[9.3989,8.3177,132.5383],[9.3828,8.3288,119.4156],[9.3641,8.3279,112.0609],[9.3616,8.3299,110.6715],[9.3527,8.3287,108.374],[9.332,8.3148,97.3558],[9.3105,8.2805,94.4061],[9.305,8.2468,121.7656],[9.2987,8.2345,134.2262],[9.3264,8.2125,99.7085],[9.3591,8.1722,94.2432],[9.3648,8.1258,102.4441],[9.3561,8.1154,114.4202],[9.3593,8.1047,107.2737],[9.3581,8.1037,105.115],[9.3722,8.0722,93.7305],[9.3725,8.0622,91.7213],[9.3704,8.0531,85.676],[9.3599,8.0445,92.3276],[9.3491,8.0399,92.4344],[9.3419,8.0334,98.4002],[9.3175,8.02,100.0998],[9.2989,8.005,90.8536]]]]}}