{"type":"Feature","properties":{"GID_2":"NGA.1.13_1","GID_0":"NGA","country":"Nigeria","GID_1":"NGA.1_1","province":"Abia","NL_NAME_1":"NA","county":"UkwaEast","VARNAME_2":"NA","NL_NAME_2":"NA","TYPE_2":"LocalAuthority","ENGTYPE_2":"LocalAuthority","CC_2":"NA","HASC_2":"NA","name":"Ukwa_East.county"},
"geometry":{"type": "MultiPolygon","coordinates": [[[[7.4109,4.9928,44.389],[7.408,4.9841,44.5997],[7.4052,4.9795,44.4591],[7.4022,4.9782,43.7342],[7.3693,4.9718,47.3081],[7.3631,4.9724,48.3961],[7.3458,4.9697,42.9227],[7.3094,4.9602,42.7456],[7.3015,4.9587,44.3282],[7.2992,4.9606,39.6639],[7.2966,4.9588,40.9412],[7.2995,4.95,37.6653],[7.3137,4.9292,34.5369],[7.3211,4.913,20.0795],[7.3245,4.8984,20.5872],[7.3223,4.8796,5.6847],[7.3287,4.8821,11.5306],[7.3574,4.8694,9.2233],[7.3817,4.8623,11.1757],[7.4109,4.8692,12.6468],[7.4295,4.8621,13.1624],[7.4583,4.8464,13.2215],[7.493,4.8154,12.0062],[7.4993,4.8206,9.914],[7.4944,4.8474,10.5188],[7.4655,4.9019,35.7639],[7.4763,4.9282,17.4703],[7.4759,4.9472,16.4927],[7.4664,4.9579,44.9102],[7.4626,4.9679,16.6675],[7.4628,4.9818,37.8373],[7.4704,4.9923,50.208],[7.469,5.0047,57.5624],[7.4865,5.0199,55.0306],[7.4935,5.023,57.4801],[7.4698,5.0259,57.351],[7.4559,5.0194,55.7998],[7.4435,5.0114,52.1451],[7.4358,5.0013,43.9084],[7.429,4.9982,23.8249],[7.4269,4.9946,30.1692],[7.4275,4.9918,41.3256],[7.4218,4.9903,49.8231],[7.4112,4.9946,47.4173],[7.4109,4.9928,44.389]]]]}}