{"type": "Feature","bbox": [3.6841,8.8503,4.2471,9.1818],"geometry": {"type": "MultiPolygon","coordinates": [[[[3.6841,8.9818,398.0599],[3.7088,8.9609,399.2952],[3.7268,8.9516,455.6951],[3.7411,8.9474,454.9749],[3.7678,8.9433,432.6475],[3.7845,8.9384,422.9139],[3.816,8.9466,432.7234],[3.8379,8.943,431.7589],[3.8964,8.9065,428.0001],[3.9086,8.9056,397.123],[3.9131,8.9002,378.6812],[3.9318,8.8866,401.5703],[3.936,8.8906,410.315],[3.9406,8.8896,423.3177],[3.9851,8.8562,435.9321],[3.9889,8.8503,419.3974],[4.008,8.8516,382.4731],[4.0199,8.8544,388.9805],[4.0372,8.8548,356.077],[4.0716,8.8708,374.4445],[4.0787,8.8703,373.5923],[4.0972,8.8725,367.3628],[4.1282,8.8793,436.0529],[4.1452,8.8859,416.3127],[4.1572,8.8874,437.6476],[4.1711,8.8924,429.1917],[4.1921,8.9222,417.1007],[4.2129,8.9353,380.7171],[4.2471,8.9619,395.6697],[4.2325,8.9624,370.3088],[4.1707,8.9799,403.8645],[4.1529,8.9776,366.4435],[4.1197,8.9941,391.4653],[4.1141,9.0024,414.4424],[4.0914,9.0063,357.7468],[4.0561,9.0167,315.726],[4.0395,9.023,330.6952],[4.0309,9.0287,329.7577],[4.0221,9.0304,328.7294],[3.9952,9.0507,383.1021],[3.9845,9.0568,359.3108],[3.9697,9.0692,323.5523],[3.9424,9.102,350.8055],[3.9413,9.1119,369.0701],[3.9336,9.1417,366.2134],[3.9192,9.1534,346.0925],[3.9094,9.1579,329.8353],[3.8894,9.172,349.564],[3.8677,9.1812,297.7303],[3.8604,9.1802,316.9117],[3.8521,9.1818,333.5738],[3.8348,9.1799,324.5288],[3.8201,9.1739,327.5414],[3.8122,9.1696,342.5779],[3.805,9.1633,370.4016],[3.773,9.1464,355.0453],[3.7666,9.1393,328.9514],[3.762,9.1326,311.1903],[3.7596,9.1167,352.9968],[3.7534,9.1059,356.2045],[3.7458,9.0868,382.6388],[3.7455,9.0443,404.8593],[3.7381,9.0265,421.5589],[3.7292,9.0154,429.1234],[3.7144,9.0039,401.4929],[3.7154,9.0039,412.0218],[3.6841,8.9818,398.0599]]]]}
,"properties": {"GID_2": "NGA.31.15_1","GID_0": "NGA","country": "Nigeria","GID_1": "NGA.31_1","province": "Oyo","NL_NAME_1": "NA","county": "Irepo","VARNAME_2": "NA","NL_NAME_2": "NA","TYPE_2": "LocalAuthority","ENGTYPE_2": "LocalAuthority","CC_2": "NA","HASC_2": "NA","name": "Irepo.county","area_km2": 1056.6284,"hist_schema_id": "Elevation0-9000","hist_area_km2": {"300": 8.4791,"325": 114.5769,"350": 239.9245,"375": 285.9058,"400": 232.296,"425": 128.1142,"450": 42.0121,"475": 5.2989,"500": 0.0209}}}