{"type": "Feature","bbox": [2.7182,6.8567,3.1147,7.4402],"geometry": {"type": "MultiPolygon","coordinates": [[[[2.7513,6.9068,123.6451],[2.7505,6.8851,111.0501],[2.7458,6.8652,94.8991],[2.7695,6.8581,59.7221],[2.7797,6.8567,50.3508],[2.7979,6.8597,40.9626],[2.8062,6.8683,69.4771],[2.8413,6.8845,27.8396],[2.8599,6.8849,23.7634],[2.871,6.8822,45.1917],[2.8876,6.8837,25.1189],[2.9049,6.897,11.0783],[2.9221,6.9034,51.9089],[2.927,6.9075,78.7579],[2.9511,6.9128,89.4192],[2.9588,6.9189,68.2896],[2.9677,6.9294,56.9057],[2.9699,6.9342,94.921],[2.9836,6.9455,120.7369],[2.9989,6.9625,58.9539],[3.0102,6.9625,64.036],[3.0219,6.9575,93.4822],[3.0474,6.9528,104.7902],[3.05,6.9814,54.2912],[3.0546,6.9959,48.5236],[3.0544,7.0108,47.6232],[3.0617,7.022,63.1542],[3.0761,7.0282,66.5408],[3.0857,7.0343,62.017],[3.1007,7.0377,76.7972],[3.111,7.0493,74.436],[3.1147,7.0596,83.8696],[3.1133,7.0721,123.4994],[3.1102,7.0799,113.3212],[3.1089,7.0887,108.3158],[3.1134,7.1237,131.5233],[3.1111,7.1396,153.5737],[3.106,7.1498,161.487],[3.0982,7.1548,132.5031],[3.0885,7.1663,121.074],[3.0839,7.179,120.8807],[3.0792,7.2049,144.2481],[3.0692,7.2279,105.9068],[3.0588,7.2449,97.4953],[3.0513,7.2639,99.6325],[3.0489,7.2868,147.3202],[3.0414,7.3062,172.2982],[3.0415,7.3104,174.5768],[3.0218,7.3222,167.259],[3.0142,7.3371,103.2994],[3.0088,7.3582,163.7598],[3.0006,7.4189,192.0677],[2.9873,7.4251,208.9582],[2.9708,7.4365,208.4965],[2.9388,7.4402,216.3559],[2.9284,7.4388,220.6601],[2.9145,7.4323,218.8596],[2.9008,7.4298,210.0891],[2.881,7.4292,141.2151],[2.8575,7.431,112.0161],[2.8247,7.4283,191.9576],[2.8166,7.4257,200.5477],[2.7992,7.4266,153.3209],[2.7957,7.4233,113.1705],[2.7858,7.4187,136.3508],[2.7628,7.4192,191.9579],[2.757,7.4172,190.1583],[2.7476,7.4174,188.9209],[2.7474,7.366,135.1898],[2.7501,7.311,110.689],[2.7495,7.2612,76.1286],[2.7506,7.2575,73.72],[2.7566,7.251,93.3262],[2.7621,7.2482,93.7057],[2.7743,7.2344,85.1028],[2.7836,7.1824,66.336],[2.7849,7.1592,50.7975],[2.7753,7.1282,64.9173],[2.7673,7.117,60.9282],[2.7507,7.1058,45.4995],[2.7451,7.0991,45.2996],[2.7451,7.0927,41.0167],[2.7529,7.0773,36.6142],[2.763,7.0666,34.9061],[2.7671,7.0653,34.3611],[2.7818,7.0537,31.4731],[2.7926,7.0413,33.3688],[2.7855,7.0365,41.3793],[2.7751,7.0335,37.3414],[2.7666,7.0264,43.7567],[2.7433,7.0125,55.4275],[2.7292,6.998,51.0753],[2.7206,6.9865,57.557],[2.7182,6.9403,75.5257],[2.72,6.9348,97.8001],[2.7269,6.9304,126.8519],[2.7479,6.9283,106.5443],[2.7515,6.9124,101.7569],[2.7513,6.9068,123.6451]]]]}
,"properties": {"GID_2": "NGA.28.4_1","GID_0": "NGA","country": "Nigeria","GID_1": "NGA.28_1","province": "Ogun","NL_NAME_1": "NA","county": "YewaNorth","VARNAME_2": "EgbadoNorth","NL_NAME_2": "NA","TYPE_2": "LocalAuthority","ENGTYPE_2": "LocalAuthority","CC_2": "NA","HASC_2": "NA","name": "Yewa_North.county","area_km2": 1967.663,"hist_schema_id": "Elevation0-9000","hist_area_km2": {"0": 4.336,"25": 302.483,"50": 559.439,"75": 347.362,"100": 307.795,"125": 203.483,"150": 130.34,"175": 61.817,"200": 35.028,"225": 15.579}}}