{"type":"Feature","properties":{"GID_2":"NGA.21.3_1","GID_0":"NGA","country":"Nigeria","GID_1":"NGA.21_1","province":"Katsina","NL_NAME_1":"NA","county":"Batsari","VARNAME_2":"NA","NL_NAME_2":"NA","TYPE_2":"LocalAuthority","ENGTYPE_2":"LocalAuthority","CC_2":"NA","HASC_2":"NA","name":"Batsari.county"},
"geometry":{"type": "MultiPolygon","coordinates": [[[[7.3661,12.9074,492.3225],[7.3493,12.9143,473.2492],[7.3416,12.923,467.3405],[7.3308,12.9375,464.8915],[7.3246,12.9619,446.3314],[7.3005,12.9774,444.6591],[7.2606,12.9978,417.3777],[7.2517,13.0009,422.9463],[7.2437,13.0066,427.5994],[7.2332,13.01,418.6313],[7.2232,13.0043,423.377],[7.2183,12.9888,434.9471],[7.2223,12.9725,448.7688],[7.2276,12.967,442.5385],[7.2326,12.9585,430.263],[7.2364,12.9465,432.2874],[7.2451,12.9292,444.5912],[7.267,12.8943,433.2247],[7.2716,12.8736,446.9431],[7.269,12.8546,431.9307],[7.2653,12.8504,439.4755],[7.2534,12.8499,449.8386],[7.2427,12.8518,471.7628],[7.2339,12.8513,518.1504],[7.2251,12.8544,536.7007],[7.2134,12.8652,514.6978],[7.2012,12.8803,469.0434],[7.1825,12.8956,485.3329],[7.1598,12.8993,506.931],[7.1505,12.8964,497.2754],[7.143,12.8906,510.2556],[7.1386,12.8822,501.4637],[7.1378,12.8739,508.3842],[7.1334,12.8621,502.1783],[7.1285,12.8549,512.1207],[7.1252,12.8407,521.7864],[7.1126,12.8251,518.8069],[7.0975,12.792,536.5765],[7.0856,12.7824,519.9634],[7.0753,12.7862,515.6934],[7.0511,12.7758,495.5057],[7.0567,12.732,500.6731],[7.0574,12.6989,507.8085],[7.0605,12.6678,492.6012],[7.0556,12.6361,470.5795],[7.0582,12.6178,471.1095],[7.0949,12.6295,477.2538],[7.1244,12.6319,480.3023],[7.1316,12.6338,490.9572],[7.1448,12.6404,523.952],[7.167,12.6448,512.7],[7.1763,12.6442,510.658],[7.221,12.631,485.9398],[7.2708,12.6225,477.0382],[7.2866,12.6275,481.1983],[7.3132,12.64,483.9335],[7.3185,12.644,476.5648],[7.3278,12.6471,482.0595],[7.3619,12.6555,505.6311],[7.3728,12.6528,520.9426],[7.3839,12.6528,530.2513],[7.3909,12.6595,515.0494],[7.4064,12.6672,502.8074],[7.413,12.6765,484.8177],[7.4063,12.7067,481.7542],[7.4055,12.7204,464.7853],[7.4186,12.733,477.257],[7.4247,12.752,493.5573],[7.4254,12.7624,502.7197],[7.4336,12.7724,508.5682],[7.4325,12.7987,518.6964],[7.4282,12.8093,533.0984],[7.4202,12.8205,518.0072],[7.4075,12.8227,513.0447],[7.4033,12.822,518.4662],[7.3814,12.8292,497.8178],[7.3748,12.8342,489.3939],[7.3666,12.8447,489.8802],[7.3641,12.8639,480.5583],[7.3699,12.8972,496.0941],[7.3687,12.9025,495.539],[7.3703,12.9053,497.0452],[7.3661,12.9074,492.3225]]]]}}