{"type": "Feature","bbox": [7.5446,12.4047,7.8015,12.7226],"geometry": {"type": "MultiPolygon","coordinates": [[[[7.5451,12.7025,501.1638],[7.5465,12.7076,507.5034],[7.5599,12.6853,504.9653],[7.58,12.6401,501.6077],[7.5824,12.63,512.3348],[7.5899,12.6158,518.3029],[7.5939,12.6112,524.6775],[7.6153,12.6135,516.8683],[7.6174,12.6048,526.6365],[7.6161,12.5983,530.9904],[7.6188,12.5764,533.4171],[7.6209,12.5711,534.7397],[7.6229,12.5534,547.6073],[7.6325,12.5235,561.3612],[7.6346,12.497,560.0488],[7.6312,12.4743,550.9888],[7.6195,12.4608,533.0413],[7.6531,12.4517,543.645],[7.6592,12.4451,544.6262],[7.6617,12.4331,535.187],[7.662,12.4158,522.5124],[7.6641,12.4105,529.5877],[7.6691,12.4062,537.3114],[7.6745,12.4047,539.8429],[7.6922,12.4104,530.579],[7.7033,12.4223,531.6749],[7.7057,12.4375,539.1005],[7.7055,12.4498,549.3669],[7.7025,12.4629,545.4382],[7.7046,12.4682,544.4904],[7.7139,12.4879,528.3658],[7.7282,12.5028,534.4738],[7.728,12.5358,542.6638],[7.7351,12.5454,545.0264],[7.7445,12.563,536.2982],[7.7661,12.5762,526.6653],[7.7847,12.584,540.9605],[7.7921,12.5917,555.1544],[7.8015,12.6188,552.3694],[7.7989,12.6282,546.7462],[7.7903,12.6385,533.7725],[7.7877,12.6447,530.5564],[7.7837,12.6454,532.2126],[7.7778,12.6492,534.6035],[7.7698,12.651,534.2018],[7.7515,12.6508,539.9885],[7.7421,12.6539,551.7572],[7.7389,12.6631,549.5712],[7.7377,12.6721,544.6761],[7.7388,12.6758,550.5184],[7.7374,12.6804,548.7003],[7.7334,12.6794,540.2906],[7.7206,12.6818,539.1319],[7.7078,12.6886,535.8016],[7.6956,12.7011,549.8821],[7.6877,12.7054,545.6565],[7.6689,12.7064,552.2177],[7.6632999999999996,12.7096,552.173],[7.6526,12.712,545.2],[7.6376,12.7217,540.6652],[7.6318,12.7205,545.3537],[7.6223,12.7156,533.0703],[7.611,12.7134,526.3607],[7.6021,12.7158,523.4919],[7.5944,12.721,527.9125],[7.5893,12.7226,516.8051],[7.5821,12.7197,507.934],[7.5717,12.7182,515.1517],[7.5513,12.722,513.0353],[7.5478,12.7177,510.2712],[7.5446,12.7064,505.0225],[7.5451,12.7025,501.1638]]]]}
,"properties": {"GID_2": "NGA.21.6_1","GID_0": "NGA","country": "Nigeria","GID_1": "NGA.21_1","province": "Katsina","NL_NAME_1": "NA","county": "Charanchi","VARNAME_2": "NA","NL_NAME_2": "NA","TYPE_2": "LocalAuthority","ENGTYPE_2": "LocalAuthority","CC_2": "NA","HASC_2": "NA","name": "Charanchi.county","area_km2": 464.0384,"hist_schema_id": "Elevation0-9000","hist_area_km2": {"475": 0.0207,"500": 34.6279,"525": 197.0674,"550": 226.0302,"575": 6.2923}}}