{"type":"Feature","properties":{"GID_2":"NGA.9.10_1","GID_0":"NGA","country":"Nigeria","GID_1":"NGA.9_1","province":"CrossRiver","NL_NAME_1":"NA","county":"Etung","VARNAME_2":"NA","NL_NAME_2":"NA","TYPE_2":"LocalAuthority","ENGTYPE_2":"LocalAuthority","CC_2":"NA","HASC_2":"NA","name":"Etung.county"},
"geometry":{"type": "MultiPolygon","coordinates": [[[[8.9427,5.9118,48.8859],[8.9722,5.9351,104.8809],[8.9677,5.9404,103.554],[8.9624,5.9536,105.3633],[8.9608,5.9553,99.5585],[8.9586,5.9533,103.7669],[8.9607,5.9554,99.5585],[8.9538,5.9627,92.9987],[8.9302,5.9855,98.9162],[8.9018,6.0019,101.0644],[8.8806,6.0195,91.1547],[8.8663,6.0287,90.5206],[8.844,6.0351,106.3425],[8.8348,6.0394,95.9685],[8.815,6.0413,111.6516],[8.8142,6.0356,109.5992],[8.8034,6.0229,128.995],[8.798,6.0138,136.8865],[8.7921,6.0076,129.7737],[8.7849,6.0034,117.3949],[8.7778,5.9931,105.4796],[8.7725,5.9808,101.7505],[8.7635,5.9683,92.3809],[8.7515,5.9374,134.0377],[8.7246,5.9157,111.1682],[8.7,5.9025,88.1639],[8.6892,5.8912,96.3992],[8.6877,5.8882,96.3552],[8.6892,5.8811,106.1829],[8.688,5.8751,104.058],[8.6738,5.8419,106.7171],[8.6685,5.8367,116.8974],[8.6554,5.8298,124.2993],[8.6298,5.8316,143.2484],[8.6192,5.8286,157.8286],[8.5948,5.7905,254.7404],[8.5854,5.7674,466.2541],[8.5837,5.7603,344.5304],[8.5865,5.7466,280.1077],[8.5896,5.7396,362.6268],[8.5858,5.714,411.037],[8.6053,5.7104,338.7108],[8.6403,5.6962,517.9181],[8.6541,5.6932,410.0017],[8.691,5.6872,199.0087],[8.72,5.6861,196.5303],[8.8124,5.6626,182.3054],[8.8558,5.6559,183.7795],[8.8652,5.6568,121.7491],[8.8588,5.6587,145.792],[8.8545,5.6683,125.9084],[8.844,5.6756,91.6334],[8.8411,5.6771,96.6816],[8.8388,5.676,115.6801],[8.8372,5.6779,95.3658],[8.8375,5.687,93.7007],[8.8353,5.6888,119.2937],[8.836,5.693,125.775],[8.8332,5.696,119.9015],[8.8318,5.7044,106.8855],[8.8335,5.7078,124.0529],[8.8352,5.7081,131.8054],[8.8392,5.7034,98.5778],[8.8422,5.7025,114.3922],[8.8422,5.6994,104.8728],[8.8467,5.7051,96.809],[8.8541,5.7087,104.1487],[8.8529,5.7139,118.435],[8.8542,5.7195,115.4107],[8.86,5.7205,96.2956],[8.8618,5.7328,90.5516],[8.8642,5.7351,82.4904],[8.8678,5.7352,90.9731],[8.8698,5.7414,93.7914],[8.874,5.7442,80.7156],[8.875,5.747,79.0668],[8.8752,5.7493,76.4259],[8.8698,5.7477,85.4407],[8.869,5.7514,80.0359],[8.8704,5.7539,79.7561],[8.8684,5.7586,75.8594],[8.8728,5.7627,74.5576],[8.8728,5.7677,72.6334],[8.8745,5.7702,82.6936],[8.8817,5.7707,93.5812],[8.8834,5.7775,91.0097],[8.8811,5.7847,100.2105],[8.8833,5.7913,69.0395],[8.883,5.7928,63.4212],[8.8745,5.7967,78.6358],[8.8724,5.8018,62.4674],[8.8694,5.7958,99.1236],[8.8636,5.7961,96.3879],[8.8603,5.8001,91.4157],[8.8471,5.7923,35.1121],[8.8461,5.7955,73.4406],[8.8492,5.8025,90.6651],[8.846,5.8126,62.5577],[8.8397,5.8231,50.4237],[8.84,5.8263,59.1481],[8.8431,5.8293,57.7817],[8.856,5.8307,39.7458],[8.859,5.8345,53.0286],[8.8573,5.8415,47.4383],[8.8588,5.8451,36.4174],[8.8792,5.8562,47.7815],[8.883,5.8605,71.3007],[8.9029,5.8631,36.3368],[8.9034,5.8731,54.1645],[8.914,5.8917,34.25],[8.9112,5.8993,34.5],[8.9123,5.9025,36.5968],[8.9142,5.9041,45.0225],[8.9248,5.904,62.7739],[8.9371,5.9106,51.9549],[8.9427,5.9118,48.8859]]]]}}