{"type":"Feature","properties":{"GID_2":"NGA.8.5_1","GID_0":"NGA","country":"Nigeria","GID_1":"NGA.8_1","province":"Borno","NL_NAME_1":"NA","county":"Biu","VARNAME_2":"NA","NL_NAME_2":"NA","TYPE_2":"LocalAuthority","ENGTYPE_2":"LocalAuthority","CC_2":"NA","HASC_2":"NA","name":"Biu.county"},
"geometry":{"type": "MultiPolygon","coordinates": [[[[12.63,10.762,417.2791],[12.6176,10.7811,413.5728],[12.61,10.8059,419.9455],[12.5753,10.8136,428.6852],[12.5543,10.8139,429.0887],[12.5377,10.826,432.5758],[12.503,10.8691,450.5585],[12.4916,10.8914,458.1798],[12.4771,10.9053,461.9127],[12.4373,10.9354,458.8326],[12.4195,10.953,473.7839],[12.3962,10.9688,475.9649],[12.3597,10.9903,480.3629],[12.3277,11.0192,484.4586],[12.2516,11.0555,496.6306],[12.1944,11.0867,508.5856],[12.1612,11.0381,515.5337],[12.111,11.0041,534.8855],[12.0625,10.9799,559.7413],[12.0016,10.9654,584.3775],[11.9653,10.9519,604.6263],[11.8813,10.9316,551.5801],[11.8384,10.901,394.6082],[11.8107,10.8558,372.3987],[11.8008,10.8115,375.1639],[11.8052,10.6776,279.5064],[11.793,10.66,280.1093],[11.8073,10.6568,312.4282],[11.8242,10.6571,327.0829],[11.8563,10.6718,432.6812],[11.8669,10.6848,434.0034],[11.8732,10.6971,441.912],[11.891,10.7065,447.9335],[11.9044,10.7072,452.9429],[11.9099,10.6993,462.4687],[11.91,10.6917,463.646],[11.9081,10.6839,490.5427],[11.8973,10.6629,470.8915],[11.8936,10.6521,487.2304],[11.8933,10.6319,466.1006],[11.897,10.6194,459.9731],[11.8987,10.6166,459.6961],[11.9028,10.616,469.9228],[11.9404,10.5961,493.2925],[11.9637,10.5807,493.3931],[11.9824,10.5719,572.4761],[12.0568,10.5502,658.0072],[12.0662,10.5582,662.7957],[12.076599999999999,10.5737,662.4711],[12.089,10.6025,641.6398],[12.1136,10.6452,691.0807],[12.1279,10.6505,693.5837],[12.139099999999999,10.6483,727.2125],[12.1511,10.6396,694.4569],[12.1851,10.6049,769.3575],[12.2036,10.5915,782.9655],[12.2204,10.5728,795.0471],[12.2415,10.5692,756.2451],[12.2423,10.5787,742.2251],[12.2571,10.6038,705.1666],[12.2698,10.6024,705.9417],[12.2834,10.5727,758.2451],[12.296,10.5518,703.8339],[12.3066,10.5394,694.1646],[12.3246,10.5333,675.3412],[12.3526,10.5493,639.0097],[12.3836,10.5748,504.043],[12.4058,10.5971,522.0612],[12.4243,10.6122,513.1923],[12.4473,10.6255,482.1625],[12.4675,10.6344,459.3439],[12.4961,10.657,453.3094],[12.5143,10.676,494.8091],[12.553,10.7236,471.3767],[12.5757,10.744,462.6737],[12.63,10.762,417.2791]]]]}}