{"type":"Feature","properties":{"GID_2":"NGA.12.10_1","GID_0":"NGA","country":"Nigeria","GID_1":"NGA.12_1","province":"Edo","NL_NAME_1":"NA","county":"Igueben","VARNAME_2":"NA","NL_NAME_2":"NA","TYPE_2":"LocalAuthority","ENGTYPE_2":"LocalAuthority","CC_2":"NA","HASC_2":"NA","name":"Igueben.county"},
"geometry":{"type": "MultiPolygon","coordinates": [[[[6.2691,6.3556,146.8606],[6.267,6.3601,161.6806],[6.275,6.371,163.2042],[6.2762,6.3752,161.6813],[6.2816,6.3806,174.719],[6.283,6.3988,202.0716],[6.2746,6.4058,210.8495],[6.2659,6.4097,218.2122],[6.264,6.4185,209.1978],[6.2655,6.4408,232.2691],[6.2702,6.446,250.6482],[6.274,6.4556,264.9332],[6.2735,6.4651,277.8271],[6.2583,6.4798,247.5965],[6.2525,6.4942,250.5643],[6.2564,6.5216,278.2119],[6.2615,6.5335,288.1315],[6.2637,6.5436,295.6423],[6.2698,6.5511,295.6486],[6.2822,6.5578,313.5072],[6.3105,6.5677,281.5215],[6.3179,6.5742,246.1982],[6.3255,6.5863,163.3474],[6.329,6.6038,209.0529],[6.3284,6.6192,202.2034],[6.3237,6.6435,258.8788],[6.3209,6.6503,285.6987],[6.3145,6.6469,282.2134],[6.288,6.6464,311.8949],[6.285,6.6497,303.1466],[6.2647,6.647,288.5579],[6.2463,6.6344,284.2643],[6.2228,6.6226,257.3586],[6.1962,6.6042,247.1012],[6.19,6.5955,260.2202],[6.1831,6.5781,231.8521],[6.1787,6.5494,227.4981],[6.1884,6.5377,187.1093],[6.1849,6.5184,172.5542],[6.1914,6.5082,229.5701],[6.189,6.5004,208.9114],[6.1784,6.4867,160.06],[6.17,6.4839,164.1887],[6.148,6.4806,169.041],[6.1377,6.4817,137.9025],[6.1361,6.4842,130.6095],[6.1111,6.4805,120.6618],[6.0951,6.4738,104.8207],[6.0883,6.465,108.0245],[6.0831,6.4623,119.744],[6.0878,6.45,133.0092],[6.087,6.441,124.3081],[6.0893,6.4311,99.2433],[6.1024,6.4145,104.1696],[6.1085,6.4043,112.7473],[6.111,6.3901,126.779],[6.1179,6.3986,112.4212],[6.1237,6.4019,100.7166],[6.1436,6.4032,103.004],[6.1512,6.4054,113.6319],[6.1853,6.405,89.5558],[6.2042,6.4015,109.0808],[6.2115,6.3958,172.2591],[6.2203,6.3858,165.4428],[6.2298,6.3729,171.1906],[6.234,6.362,193.3846],[6.2445,6.3563,169.0048],[6.2495,6.3442,169.7814],[6.2578,6.3503,138.9704],[6.2691,6.3556,146.8606]]]]}}