{"type":"Feature","properties":{"GID_2":"NGA.31.7_1","GID_0":"NGA","country":"Nigeria","GID_1":"NGA.31_1","province":"Oyo","NL_NAME_1":"NA","county":"IbadanNorth-East","VARNAME_2":"NA","NL_NAME_2":"NA","TYPE_2":"LocalAuthority","ENGTYPE_2":"LocalAuthority","CC_2":"NA","HASC_2":"NA","name":"Ibadan_North-East.county"},
"geometry":{"type": "MultiPolygon","coordinates": [[[[3.9518,7.3993,247.212],[3.9383,7.4094,222.6159],[3.9357,7.4021,222.1983],[3.9322,7.3985,221.1291],[3.9318,7.3891,224.4315],[3.8997,7.3661,170.5729],[3.9016,7.3578,177.3015],[3.9131,7.3617,197.917],[3.9165,7.3598,211.3183],[3.9241,7.3553,212.3383],[3.9364,7.3382,179.5526],[3.9414,7.3525,196.5489],[3.9397,7.368,204.222],[3.9455,7.3803,231.4446],[3.9535,7.3896,218.4844],[3.9545,7.3931,220.6248],[3.9518,7.3993,247.212]]]]}}