{"type": "Feature","bbox": [13.3171,10.4032,13.5869,10.8083],"geometry": {"type": "MultiPolygon","coordinates": [[[[13.5383,10.4482,937.2117],[13.5383,10.4519,951.2601],[13.5281,10.4662,962.9722],[13.5265,10.476,1011.5933],[13.5275,10.4791,994.5615],[13.5384,10.4799,992.2839],[13.5493,10.4952,982.5225],[13.5558,10.5129,1041.1333],[13.5662,10.5233,866.1042],[13.574,10.5353,863.2472],[13.5682,10.5464,985.9443],[13.5583,10.5584,930.4347],[13.56,10.5711,1024.1785],[13.5668,10.5837,896.7437],[13.5641,10.5884,929.6382],[13.5577,10.591,760.5817],[13.5549,10.5942,824.826],[13.5535,10.6055,874.0428],[13.5464,10.6154,793.8359],[13.5458,10.6183,837.4647],[13.5474,10.6212,874.9779],[13.565,10.63,759.0933],[13.5709,10.6347,863.2087],[13.5743,10.6579,1026.1116],[13.5815,10.6625,988.6958],[13.5858,10.6722,994.1205],[13.5869,10.6799,1009.0],[13.5801,10.6871,1026.2576],[13.5784,10.6916,1005.3819],[13.5854,10.7019,899.3798],[13.4803,10.762,506.5067],[13.4602,10.7748,550.6406],[13.4141,10.8083,439.9003],[13.3994,10.7363,463.3975],[13.3797,10.6783,472.526],[13.3359,10.5874,508.2234],[13.3196,10.5173,489.2912],[13.3171,10.4997,493.672],[13.338,10.4951,502.7743],[13.3491,10.4882,512.4147],[13.3683,10.4812,520.3576],[13.4036,10.4714,707.9664],[13.4527,10.468,1095.9415],[13.4764,10.4639,978.0694],[13.4916,10.4632,911.8588],[13.4974,10.455,900.5411],[13.5212,10.4326,819.8568],[13.5227,10.4032,818.689],[13.5258,10.4064,884.8529],[13.5282,10.4183,871.215],[13.5362,10.4237,908.3553],[13.5348,10.431,900.386],[13.5383,10.4482,937.2117]]]]}
,"properties": {"GID_2": "NGA.2.13_1","GID_0": "NGA","country": "Nigeria","GID_1": "NGA.2_1","province": "Adamawa","NL_NAME_1": "NA","county": "Michika","VARNAME_2": "NA","NL_NAME_2": "NA","TYPE_2": "LocalAuthority","ENGTYPE_2": "LocalAuthority","CC_2": "NA","HASC_2": "NA","name": "Michika.county","area_km2": 743.0911,"hist_schema_id": "Elevation0-9000","hist_area_km2": {"450": 20.6837,"475": 61.7463,"500": 80.138,"525": 64.0562,"550": 46.3427,"575": 40.2178,"600": 32.0706,"625": 30.0496,"650": 25.7578,"675": 20.9446,"700": 19.111,"725": 16.5898,"750": 15.8397,"775": 16.0486,"800": 17.9039,"825": 18.738,"850": 20.2819,"875": 21.0124,"900": 22.3676,"925": 22.3254,"950": 19.1985,"975": 18.6983,"1000": 15.3208,"1025": 14.6119,"1050": 12.2358,"1075": 10.3808,"1100": 9.4429,"1125": 7.3795,"1150": 7.296,"1175": 6.1494,"1200": 5.2114,"1225": 2.689,"1250": 1.5217,"1275": 0.6045,"1300": 0.1251}}}