{"type":"Feature","properties":{"GID_2":"NGA.29.5_1","GID_0":"NGA","country":"Nigeria","GID_1":"NGA.29_1","province":"Ondo","NL_NAME_1":"NA","county":"AkureNorth","VARNAME_2":"NA","NL_NAME_2":"NA","TYPE_2":"LocalAuthority","ENGTYPE_2":"LocalAuthority","CC_2":"NA","HASC_2":"NA","name":"Akure_North.county"},
"geometry":{"type": "MultiPolygon","coordinates": [[[[5.1752,7.4319,369.91],[5.1765,7.4166,403.0392],[5.1733,7.3706,374.225],[5.1742,7.3567,388.8655],[5.1793,7.3419,385.2729],[5.1916,7.2912,376.9057],[5.199,7.2499,343.5725],[5.2099,7.2264,356.7809],[5.2342,7.2048,333.2122],[5.2422,7.2003,328.1995],[5.2535,7.1978,321.0047],[5.2704,7.1894,308.6514],[5.3144,7.1514,305.231],[5.3282,7.1375,304.185],[5.3391,7.1157,276.308],[5.343,7.1119,281.6414],[5.3443,7.1041,297.2939],[5.3408,7.1014,294.7101],[5.346,7.0965,301.3179],[5.3704,7.0937,248.5529],[5.3879,7.0891,261.1682],[5.4312,7.0729,224.9346],[5.4326,7.0703,222.5468],[5.447,7.0777,271.0558],[5.4551,7.0794,254.8938],[5.4616,7.0841,234.6794],[5.4665,7.1009,285.6755],[5.4743,7.1109,235.6215],[5.4753,7.1168,247.494],[5.4712,7.1222,270.0584],[5.4231,7.1175,297.6604],[5.4163,7.1227,306.6022],[5.4144,7.1483,299.5829],[5.4127,7.1541,303.6577],[5.4088,7.1555,297.4438],[5.404,7.1621,296.5311],[5.4023,7.1688,290.9114],[5.4026,7.1761,302.9164],[5.4056,7.1865,312.7962],[5.406,7.198,319.6111],[5.405,7.2067,324.9621],[5.4002,7.2124,328.9107],[5.3979,7.2232,312.7597],[5.401,7.2481,306.856],[5.3958,7.2548,304.8317],[5.3917,7.2671,319.6932],[5.3854,7.2764,321.705],[5.3814,7.2883,317.2266],[5.3812,7.2934,331.2001],[5.3654,7.3268,324.5077],[5.368,7.3406,345.6923],[5.3625,7.3599,328.0284],[5.3551,7.3713,324.4552],[5.3497,7.3841,320.924],[5.3513,7.3921,330.1335],[5.3443,7.4052,327.0502],[5.3337,7.4171,331.254],[5.3326,7.4217,332.9705],[5.3283,7.4278,326.3303],[5.3142,7.431,332.4249],[5.2977,7.4378,388.3509],[5.2952,7.4365,373.7839],[5.2695,7.4348,384.5067],[5.2515,7.4319,439.9245],[5.1752,7.4319,369.91]]]]}}