{"type": "Feature","bbox": [5.1501,10.1919,5.7039,10.7048],"geometry": {"type": "MultiPolygon","coordinates": [[[[5.1501,10.2782,247.698],[5.1641,10.2788,236.4411],[5.1787,10.282,247.8344],[5.1868,10.2791,251.433],[5.2173,10.2604,292.0397],[5.2393,10.2577,289.3824],[5.2609,10.2583,297.2752],[5.2723,10.2557,300.3062],[5.3038,10.2398,325.2945],[5.3577,10.2501,348.9144],[5.3776,10.251,356.2264],[5.3881,10.2434,336.6655],[5.4076,10.2249,325.9196],[5.4273,10.1999,324.1906],[5.4366,10.1919,321.8386],[5.4719,10.1944,307.585],[5.5171,10.2091,253.6272],[5.5684,10.2172,245.683],[5.5984,10.2182,279.4035],[5.6223,10.2113,269.1853],[5.6548,10.2167,239.5147],[5.7039,10.2291,226.9649],[5.7013,10.2481,250.142],[5.6892,10.2995,292.3258],[5.6853,10.3272,302.1419],[5.6663,10.3836,302.3822],[5.6637,10.4374,320.2679],[5.6597,10.472,328.0194],[5.6615,10.4873,337.2368],[5.6608,10.5085,374.437],[5.648,10.5426,380.238],[5.6332,10.561,364.8765],[5.6204,10.5698,359.1903],[5.6098,10.5877,339.9829],[5.6023,10.6253,355.0875],[5.5968,10.6442,411.8512],[5.5897,10.6594,397.0307],[5.576,10.6757,385.039],[5.567,10.6934,365.8758],[5.5542,10.7048,374.9366],[5.5374,10.6937,369.8809],[5.5148,10.676,361.0952],[5.4625,10.6921,333.7397],[5.4443,10.6956,327.8006],[5.4151,10.6967,299.2909],[5.3941,10.6891,303.8956],[5.3621,10.6834,300.4298],[5.3564,10.6799,312.1656],[5.357,10.663,320.8681],[5.3525,10.6429,290.536],[5.3491,10.6158,277.5386],[5.3374,10.5966,305.609],[5.3176,10.5712,313.7765],[5.3146,10.533,332.5117],[5.3176,10.4973,308.4584],[5.3245,10.4629,300.3986],[5.3438,10.4283,288.0471],[5.3394,10.3949,273.5036],[5.3296,10.3685,289.5532],[5.3006,10.3544,298.4491],[5.2687,10.3573,275.6513],[5.2452,10.3619,248.5854],[5.2,10.3457,261.1378],[5.1771,10.3069,271.7281],[5.1501,10.2782,247.698]]]]}
,"properties": {"GID_2": "NGA.27.11_1","GID_0": "NGA","country": "Nigeria","GID_1": "NGA.27_1","province": "Niger","NL_NAME_1": "NA","county": "Kontagora","VARNAME_2": "NA","NL_NAME_2": "NA","TYPE_2": "LocalAuthority","ENGTYPE_2": "LocalAuthority","CC_2": "NA","HASC_2": "NA","name": "Kontagora.county","area_km2": 2021.618,"hist_schema_id": "Elevation0-9000","hist_area_km2": {"200": 0.396,"225": 22.325,"250": 112.41,"275": 219.658,"300": 386.205,"325": 558.355,"350": 446.82,"375": 189.288,"400": 65.689,"425": 18.137,"450": 1.814,"475": 0.521}}}