{"type":"Feature","properties":{"GID_2":"NGA.4.16_1","GID_0":"NGA","country":"Nigeria","GID_1":"NGA.4_1","province":"Anambra","NL_NAME_1":"NA","county":"Ogbaru","VARNAME_2":"NA","NL_NAME_2":"NA","TYPE_2":"LocalAuthority","ENGTYPE_2":"LocalAuthority","CC_2":"NA","HASC_2":"NA","name":"Ogbaru.county"},
"geometry":{"type": "MultiPolygon","coordinates": [[[[6.773,6.0503,21.3583],[6.7691,6.0596,23.359],[6.7644,6.0549,23.8639],[6.7419,6.0549,20.0232],[6.7376,6.0583,14.8603],[6.7359,6.0055,14.0],[6.7338,5.9927,17.3174],[6.7218,5.9783,15.6971],[6.7174,5.9606,16.2621],[6.7072,5.9456,16.7296],[6.7014,5.9305,14.0],[6.6934,5.9191,13.5],[6.6895,5.9069,18.4235],[6.6874,5.8922,17.0948],[6.6814,5.8747,12.5],[6.6728,5.856,18.6774],[6.6649,5.8432,20.5885],[6.6668,5.8298,25.2026],[6.6594,5.8006,19.1679],[6.6405,5.7707,13.9746],[6.6318,5.7506,10.0],[6.6284,5.7375,14.2394],[6.6195,5.7282,10.0889],[6.6139,5.7255,11.5317],[6.6122,5.7217,11.0037],[6.6121,5.7185,15.5185],[6.6191,5.7069,16.057],[6.63,5.6978,21.7499],[6.6438,5.6931,22.4009],[6.6794,5.6958,30.3544],[6.6913,5.6997,26.537],[6.7025,5.7078,22.2558],[6.7193,5.7338,22.2216],[6.751,5.7697,20.9108],[6.773,5.781,16.5697],[6.7774,5.8005,18.1212],[6.7743,5.8077,18.1356],[6.7715,5.8331,19.071],[6.7775,5.8604,25.7314],[6.7804,5.8682,24.4173],[6.7915,5.8846,53.2946],[6.7994,5.8907,62.4881],[6.8039,5.8964,61.3896],[6.8036,5.8981,59.5501],[6.8083,5.9001,59.4966],[6.8077,5.9026,58.6657],[6.8026,5.9043,58.2859],[6.8043,5.9095,62.7558],[6.8006,5.9232,23.4576],[6.8024,5.9623,22.3945],[6.8007,5.97,20.5914],[6.7948,5.9795,18.9399],[6.7896,5.983,20.3246],[6.7817,6.0078,21.6397],[6.7765,6.0171,20.4898],[6.7708,6.0481,21.5452],[6.773,6.0503,21.3583]]]]}}