{"type": "Feature","bbox": [8.9008,11.5443,9.3144,11.7072],"geometry": {"type": "MultiPolygon","coordinates": [[[[9.1698,11.7038,429.108],[9.1627,11.6941,435.7384],[9.1548,11.6885,441.2573],[9.1212,11.6749,426.3328],[9.1099,11.6736,421.2335],[9.0665,11.6739,419.9687],[9.0422,11.6765,438.4706],[9.0086,11.6675,454.9726],[9.0012,11.6683,454.7833],[8.9658,11.6612,457.1058],[8.9571,11.6778,453.1048],[8.9498,11.6806,453.3386],[8.9373,11.6812,455.8685],[8.9307,11.677,455.1821],[8.927,11.6723,455.6443],[8.9293,11.6631,458.0235],[8.9249,11.6529,454.8123],[8.9169,11.6484,455.2872],[8.9089,11.6387,460.462],[8.9057,11.6322,466.476],[8.9068,11.6225,467.3534],[8.9008,11.6079,470.9968],[8.9317,11.5837,467.4284],[8.9497,11.5737,471.3013],[8.9562,11.5719,473.6894],[8.9563,11.5685,474.996],[8.9639,11.5677,474.3696],[8.9661,11.5649,472.466],[8.9705,11.5635,470.3436],[8.9705,11.5666,469.4387],[8.9944,11.5607,456.8013],[8.9952,11.5533,456.2115],[9.0401,11.5443,443.3495],[9.076,11.5443,463.8751],[9.138,11.6031,439.5427],[9.1706,11.6031,456.3803],[9.1772,11.5835,460.8525],[9.2066,11.5933,467.8823],[9.2163,11.59,463.6943],[9.2229,11.5705,455.3217],[9.2882,11.5639,428.9626],[9.3144,11.5721,419.4074],[9.3077,11.5738,421.6888],[9.289,11.5885,441.8185],[9.262,11.6159,451.4936],[9.2382,11.6597,442.3786],[9.2301,11.6914,426.1313],[9.2124,11.7072,413.8413],[9.1698,11.7038,429.108]]]]}
,"properties": {"GID_2": "NGA.20.2_1","GID_0": "NGA","country": "Nigeria","GID_1": "NGA.20_1","province": "Kano","NL_NAME_1": "NA","county": "Albasu","VARNAME_2": "NA","NL_NAME_2": "NA","TYPE_2": "LocalAuthority","ENGTYPE_2": "LocalAuthority","CC_2": "NA","HASC_2": "NA","name": "Albasu.county","area_km2": 460.6225,"hist_schema_id": "Elevation0-9000","hist_area_km2": {"425": 117.6385,"450": 294.2178,"475": 48.7662}}}