{"type":"Feature","properties":{"GID_2":"NGA.29.15_1","GID_0":"NGA","country":"Nigeria","GID_1":"NGA.29_1","province":"Ondo","NL_NAME_1":"NA","county":"OndoEast","VARNAME_2":"NA","NL_NAME_2":"NA","TYPE_2":"LocalAuthority","ENGTYPE_2":"LocalAuthority","CC_2":"NA","HASC_2":"NA","name":"Ondo_East.county"},
"geometry":{"type": "MultiPolygon","coordinates": [[[[5.0151,7.2148,270.7663],[5.005,7.2062,262.1886],[4.9588,7.1892,285.0204],[4.9326,7.1942,292.4941],[4.8878,7.1906,280.4254],[4.873,7.1878,249.6753],[4.8756,7.1716,258.3021],[4.869,7.1376,272.2225],[4.8727,7.1112,238.4965],[4.8694,7.0983,245.8746],[4.8738,7.095,230.399],[4.8827,7.0926,238.8785],[4.8932,7.0965,231.086],[4.9154,7.0911,254.9774],[4.9241,7.0826,257.4424],[4.9263,7.0642,209.3944],[4.9126,7.0036,209.1729],[4.9057,6.988,221.2506],[4.9019,6.9692,271.2799],[4.897,6.9611,296.5504],[4.9142,6.9561,258.3376],[4.9445,6.9344,201.5547],[4.9596,6.9134,185.7279],[4.9712,6.9026,167.3493],[4.9785,6.8985,138.4565],[4.9819,6.8893,119.0622],[4.9852,6.894,160.625],[4.988,6.9108,168.5373],[4.9959,6.9298,257.1591],[4.999,6.9491,178.2658],[4.9988,6.9657,178.465],[5.0013,6.9811,203.0813],[4.9974,6.9927,193.8489],[4.9919,7.0375,234.193],[4.9835,7.051,199.7986],[4.9798,7.0614,237.9314],[4.9824,7.0777,221.6084],[4.9892,7.1034,211.8871],[5.0017,7.1177,231.6382],[5.0265,7.1417,241.9573],[5.026,7.1639,233.1549],[5.019,7.2036,251.7679],[5.0151,7.2148,270.7663]]]]}}