{"type": "Feature","bbox": [7.4915,6.4431,9.9228,8.1421],"geometry": {"type": "MultiPolygon","coordinates": [[[[8.1381,6.7389,92.8086],[8.1511,6.7589,87.9219],[8.1712,6.7645,71.7635],[8.2061,6.7649,72.7376],[8.2129,6.7839,47.4008],[8.2226,6.8022,46.9845],[8.2509,6.7812,51.5467],[8.2566,6.7347,51.438],[8.2646,6.7124,44.7938],[8.2789,6.6859,48.5981],[8.2951,6.6731,42.1226],[8.3403,6.6837,59.5027],[8.3785,6.7153,102.3002],[8.4004,6.7436,135.5744],[8.4315,6.7509,118.072],[8.4648,6.7399,93.3107],[8.5268,6.7377,89.7441],[8.5774,6.7512,66.6877],[8.5921,6.7611,77.993],[8.6135,6.772,61.174],[8.628,6.7821,82.4514],[8.6278,6.8027,79.1785],[8.6177,6.8305,72.0089],[8.6155,6.8548,60.4623],[8.6401,6.8742,66.7713],[8.6577,6.8783,67.8341],[8.6742,6.8849,77.9426],[8.7115,6.8944,77.9068],[8.7314,6.8955,79.7719],[8.7457,6.8934,63.1445],[8.7645,6.8857,89.6922],[8.8139,6.874,113.8379],[8.8334,6.8661,97.3429],[8.8583,6.8506,110.6197],[8.8712,6.8449,79.245],[8.9383,6.7999,102.222],[8.9729,6.7793,130.6201],[8.9794,6.769,159.2496],[8.9819,6.7528,179.4753],[8.976,6.7038,144.6908],[8.9776,6.694,139.2034],[8.9725,6.6919,130.1534],[8.9713,6.6757,126.9488],[8.9908,6.6613,113.2111],[9.0266,6.6543,136.148],[9.0616,6.6542,157.2606],[9.0878,6.6611,152.5782],[9.109,6.6629,167.3232],[9.1219,6.6676,178.6133],[9.1615,6.6761,207.4191],[9.1934,6.6877,224.458],[9.2161,6.6905,221.0641],[9.224,6.6904,245.9626],[9.2378,6.6875,287.8406],[9.2422,6.6892,271.7142],[9.266,6.6869,249.9357],[9.2791,6.6773,231.5573],[9.2902,6.6753,246.7494],[9.3024,6.6612,296.1285],[9.3119,6.6544,347.6763],[9.3306,6.6306,267.1254],[9.351,6.6097,495.6937],[9.3601,6.5975,852.0262],[9.3795,6.5827,401.3596],[9.4013,6.5478,293.071],[9.4219,6.5254,389.8239],[9.4475,6.488,460.2781],[9.4583,6.4755,389.9515],[9.4674,6.456,367.1427],[9.5136,6.4431,650.7687],[9.528,6.4434,373.0298],[9.5419,6.4494,435.7559],[9.588,6.4752,219.9617],[9.5828,6.4929,220.5216],[9.5859,6.5083,207.9214],[9.5927,6.5159,211.0915],[9.5948,6.5289,205.5795],[9.5997,6.5307,205.5658],[9.6121,6.5252,197.1629],[9.6231,6.5243,213.3513],[9.6329,6.5202,200.5107],[9.6451,6.5236,199.4137],[9.6443,6.5297,207.7326],[9.651,6.5495,215.2079],[9.6515,6.5654,211.0887],[9.6581,6.5883,387.2485],[9.6685,6.6139,220.7213],[9.6683,6.6317,241.3969],[9.6727,6.6406,302.8261],[9.6758,6.6556,468.8126],[9.6794,6.6971,339.3586],[9.6777,6.7634,190.8513],[9.679,6.7828,183.994],[9.6763,6.7971,191.9691],[9.6816,6.8146,187.4108],[9.6717,6.8264,199.2813],[9.6789,6.8458,191.2989],[9.6874,6.9164,207.9229],[9.7058,7.0119,206.7827],[9.7097,7.0242,214.8186],[9.7199,7.0455,227.0878],[9.7397,7.0823,191.8783],[9.7592,7.1114,169.7172],[9.7716,7.122,200.1664],[9.783,7.1354,205.5731],[9.8148,7.1639,220.0087],[9.8481,7.1811,223.0547],[9.8647,7.1952,228.0286],[9.873,7.2058,223.3493],[9.8797,7.2183,244.3176],[9.8821,7.2312,239.66],[9.8754,7.2845,239.0777],[9.875,7.3137,244.5383],[9.8814,7.3266,211.5597],[9.887,7.3472,227.5356],[9.8972,7.3641,187.7827],[9.9134,7.4087,178.171],[9.9161,7.4311,175.4257],[9.9204,7.4414,167.3772],[9.9228,7.4607,186.8351],[9.9227,7.4762,185.1774],[9.9138,7.4895,157.1741],[9.9181,7.5062,158.6747],[9.8992,7.5281,179.7971],[9.9014,7.5386,188.9645],[9.8444,7.5931,184.914],[9.8154,7.6145,213.9892],[9.7662,7.6607,198.0998],[9.7538,7.6779,185.5898],[9.7404,7.6926,183.2434],[9.7251,7.7151,161.3879],[9.7103,7.7274,151.7255],[9.7038,7.7409,138.4669],[9.6945,7.7518,126.6304],[9.6708,7.775,149.0031],[9.6462,7.8037,153.4687],[9.6115,7.8307,155.6565],[9.5755,7.8418,144.2543],[9.5483,7.8458,181.9467],[9.4906,7.8591,147.7746],[9.4444,7.86,139.9635],[9.418,7.8648,124.7955],[9.3585,7.8669,158.941],[9.3329,7.862,157.7328],[9.311,7.8623,156.4239],[9.2875,7.8571,152.3241],[9.2378,7.8515,144.7798],[9.2018,7.8406,160.9057],[9.1837,7.8304,161.332],[9.1516,7.8176,95.2498],[9.139,7.8091,119.1925],[9.1216,7.8112,144.1178],[9.1082,7.8184,121.0175],[9.1121,7.8301,105.8588],[9.1283,7.8535,83.4357],[9.1373,7.8631,83.9264],[9.1419,7.8756,78.5119],[9.1484,7.8809,81.6853],[9.1573,7.9006,82.4526],[9.1713,7.913,75.9902],[9.0466,8.0122,189.392],[8.979,8.0583,186.3965],[8.9789,8.0471,191.7524],[8.9149,8.0435,122.5228],[8.8697,8.0452,139.7183],[8.8025,8.0559,143.4467],[8.7733,8.0651,122.2047],[8.7252,8.0752,119.7879],[8.6035,8.1165,134.1363],[8.5622,8.1349,171.9701],[8.5367,8.1402,176.5516],[8.519,8.1421,166.7237],[8.4959,8.1421,163.7663],[8.4549,8.1347,202.7596],[8.3911,8.0993,164.6393],[8.3711,8.0766,176.6817],[8.3669,8.0647,180.5337],[8.3579,8.0482,182.4431],[8.3546,8.0305,164.0742],[8.353,8.0125,140.9828],[8.3558,7.9899,155.1904],[8.3655,7.9738,108.1005],[8.3721,7.9515,99.7596],[8.3868,7.9206,80.9939],[8.3913,7.9016,76.0413],[8.4121,7.8574,83.1656],[8.4318,7.8024,81.2862],[8.4303,7.7805,66.0323],[8.412,7.7628,60.9765],[8.3817,7.7765,64.6109],[8.367,7.7809,64.0811],[8.3496,7.7911,63.897],[8.3257,7.7987,65.6537],[8.3005,7.8238,58.5703],[8.2722,7.8439,58.3365],[8.2548,7.8416,56.8316],[8.2229,7.8516,61.1921],[8.1701,7.8576,65.1468],[8.1475,7.8688,59.6479],[8.0905,7.903,60.2634],[8.06,7.9126,60.0979],[8.0019,7.9343,59.3438],[7.9797,7.9474,59.1343],[7.9783,7.9456,58.0671],[7.9689,7.9492,58.1184],[7.9499,7.9601,50.0118],[7.9028,7.9711,50.0548],[7.8709,7.9718,54.3039],[7.8124,7.9802,50.1115],[7.768,7.99,54.8638],[7.7145,8.01,46.8894],[7.6775,8.0197,50.0922],[7.665,8.0202,44.9205],[7.6609,8.004,69.0095],[7.6597,7.9745,99.3432],[7.6651,7.9502,113.6324],[7.6631,7.9126,149.8018],[7.6686,7.88,256.5203],[7.6989,7.828,243.3369],[7.7234,7.8025,193.9532],[7.7426,7.786,178.8994],[7.7543,7.7563,159.8929],[7.7579,7.7211,215.5992],[7.7576,7.6868,217.3375],[7.7544,7.6451,203.5321],[7.7574,7.6035,187.7178],[7.7622,7.5695,283.2618],[7.7637,7.5353,281.7498],[7.7837,7.4462,266.8533],[7.8042,7.4292,270.6556],[7.8234,7.4282,254.7539],[7.8576,7.4343,240.5277],[7.8815,7.4267,249.3428],[7.8758,7.3975,240.2892],[7.8558,7.378,242.8874],[7.8483,7.3572,231.789],[7.8415,7.2938,169.2332],[7.8208,7.2248,206.1658],[7.8102,7.1998,167.5416],[7.7855,7.1711,178.6797],[7.7568,7.1497,211.7869],[7.7361,7.1383,252.3935],[7.6528,7.0994,431.1131],[7.6374,7.0761,421.7095],[7.6392,7.0424,411.9828],[7.6319,7.0047,317.1117],[7.6035,7.0047,379.8473],[7.5816,7.0217,402.9377],[7.5684,7.02,416.8214],[7.555,7.0357,421.136],[7.5365,7.0494,399.4534],[7.5138,7.0731,384.1717],[7.5004,7.0826,388.0552],[7.4989,7.082,379.5131],[7.4977,7.0757,371.0652],[7.4937,7.0745,359.9587],[7.4915,7.0659,351.3338],[7.5088,7.0351,400.6599],[7.5204,6.9955,429.1761],[7.5358,6.9609,447.5367],[7.5571,6.9344,418.5411],[7.5825,6.9068,270.326],[7.6404,6.8622,229.1528],[7.6876,6.8376,246.6646],[7.7215,6.8495,185.2971],[7.7407,6.8702,202.3372],[7.7571,6.8835,152.519],[7.8025,6.8779,133.2244],[7.8271,6.8592,143.2397],[7.8501,6.8247,121.404],[7.8616,6.776,108.4234],[7.8646,6.734,120.1701],[7.8543,6.6943,117.3719],[7.8451,6.6695,110.0833],[7.8299,6.6421,119.5306],[7.8251,6.6156,96.404],[7.8355,6.5908,97.1279],[7.9004,6.5313,128.2034],[7.929,6.5193,114.1678],[7.9518,6.5288,96.1199],[7.9678,6.562,112.5785],[7.9751,6.6142,112.9437],[7.9825,6.6432,119.6054],[7.9835,6.6734,106.1684],[7.988,6.695,93.1989],[8.0437,6.7014,107.0511],[8.0914,6.6974,119.5584],[8.1224,6.7123,102.0352],[8.1381,6.7389,92.8086]]]]}
,"properties": {"GID_1": "NGA.7_1","GID_0": "NGA","country": "Nigeria","province": "Benue","VARNAME_1": "NA","NL_NAME_1": "NA","TYPE_1": "State","ENGTYPE_1": "State","CC_1": "NA","HASC_1": "NG.BE","ISO_1": "NG-BE","name": "Benue.province","area_km2": 31457.41,"hist_schema_id": "Elevation0-9000","hist_area_km2": {"25": 0.59,"50": 556.0,"75": 3068.68,"100": 5402.18,"125": 5726.46,"150": 5183.18,"175": 4589.37,"200": 3481.6,"225": 1706.87,"250": 537.42,"275": 198.14,"300": 111.02,"325": 89.93,"350": 116.93,"375": 129.95,"400": 115.3,"425": 85.81,"450": 67.86,"475": 45.56,"500": 32.72,"525": 24.43,"550": 21.04,"575": 18.36,"600": 17.33,"625": 14.85,"650": 14.82,"675": 11.77,"700": 12.0,"725": 10.91,"750": 11.35,"775": 9.94,"800": 8.63,"825": 7.56,"850": 7.1,"875": 5.56,"900": 5.39,"925": 4.53,"950": 2.4,"975": 1.71,"1000": 0.74,"1025": 0.61,"1050": 0.38}}}