{"type": "Feature","id": "2846","bbox": [7.49373,6.41821,9.92098,8.13335],"geometry": {"type": "Polygon","coordinates": [[[8.94233,8.04708,122.3909],[8.83257,8.05075,146.4762],[8.75981,8.0663,116.2118],[8.55796,8.13335,181.0086],[8.42618,8.1185,154.4525],[8.37058,8.07155,172.2163],[8.35435,8.00117,142.1885],[8.3774,7.92928,87.5863],[8.42484,7.82647,87.7718],[8.43104,7.79141,75.5387],[8.41823,7.77508,61.1706],[8.41078,7.77637,61.843],[8.39859,7.78035,57.5],[8.38732,7.78648,57.0],[8.36241,7.80565,64.5079],[8.31611,7.831,65.9694],[8.29338,7.85554,60.4593],[8.26433,7.86391,57.6161],[8.23219,7.86717,61.7102],[8.20036,7.87652,57.0387],[8.14692,7.90414,59.5854],[8.11954,7.91412,60.2453],[8.0353,7.92846,59.0287],[8.01835,7.93507,58.8562],[7.96823,7.9644,48.5],[7.93391,7.97373,53.9258],[7.86322,7.98197,53.8424],[7.8288,7.98993,51.1985],[7.78116,8.00602,46.3465],[7.71677,8.01305,46.533],[7.66602,8.02571,48.7616],[7.66044,7.9682,106.3235],[7.66323,7.91536,146.1127],[7.67574,7.86492,280.9247],[7.70519,7.82136,247.3922],[7.73455,7.79206,183.2857],[7.75429,7.75622,159.8929],[7.75852,7.72005,211.5819],[7.75615,7.60455,188.471],[7.77175,7.48492,239.7888],[7.78374,7.44611,266.8533],[7.81599,7.42854,264.0987],[7.85402,7.4336,240.9784],[7.87924,7.41616,238.0549],[7.85888,7.38105,239.8032],[7.8473,7.35211,235.2745],[7.84493,7.32004,194.5287],[7.82725,7.24002,188.6863],[7.7855,7.17109,178.6797],[7.65279,7.09931,431.1131],[7.63667,7.05967,455.5833],[7.63378,7.01438,369.4212],[7.60701,7.00616,355.7592],[7.57497,7.02081,399.4681],[7.53208,7.0559,393.0258],[7.49373,7.07445,359.9587],[7.50366,7.03414,395.7654],[7.54241,6.95464,475.9082],[7.5698,6.92053,374.7019],[7.60318,6.88917,215.4398],[7.64039,6.86211,229.1528],[7.67843,6.84379,216.0228],[7.71894,6.84857,198.2656],[7.7485,6.87067,184.572],[7.78467,6.88002,136.56],[7.82612,6.85994,145.2389],[7.85113,6.82026,120.7915],[7.86219,6.7722,108.654],[7.86188,6.72365,142.4518],[7.82767,6.63022,112.162],[7.86033,6.56146,89.2986],[7.92906,6.51924,114.1678],[7.97329,6.57877,99.6689],[7.98311,6.66269,127.0522],[7.99861,6.69574,96.0828],[8.0413,6.70109,108.7409],[8.08057,6.70163,129.8392],[8.11912,6.7107,102.6576],[8.15654,6.76036,65.8023],[8.17917,6.76522,82.6502],[8.20242,6.76478,64.8057],[8.21328,6.7809,52.4183],[8.21782,6.7916,46.4758],[8.23767,6.78964,46.7633],[8.24842,6.77351,41.3129],[8.25658,6.73465,51.438],[8.26898,6.70148,53.5898],[8.29193,6.67559,41.8605],[8.32469,6.67864,49.4342],[8.35487,6.69504,72.3151],[8.38185,6.72409,116.6537],[8.4113,6.7461,121.5267],[8.45068,6.74533,96.887],[8.49057,6.73897,96.3317],[8.5346,6.74011,86.6518],[8.57739,6.75111,66.6877],[8.61046,6.76894,71.4924],[8.62783,6.79729,74.1837],[8.61842,6.83509,68.834],[8.63144,6.86731,78.0309],[8.69593,6.89167,78.4903],[8.76446,6.88565,89.6922],[8.83649,6.86036,94.5252],[8.95659,6.79018,121.4392],[8.98119,6.73868,142.2351],[8.97158,6.67877,131.507],[8.99101,6.66218,111.3529],[9.01798,6.65631,147.852],[9.07472,6.65732,170.0004],[9.23254,6.6869,385.322],[9.32091,6.64228,265.253],[9.44039,6.50208,478.994],[9.46881,6.45046,375.5653],[9.48844,6.41845,478.7425],[9.48859,6.41821,478.7425],[9.5286,6.43302,429.1658],[9.54896,6.44317,425.9797],[9.56477,6.4586,443.0853],[9.58813,6.50273,292.7522],[9.60301,6.51518,334.0541],[9.63267,6.52115,211.5921],[9.64481,6.52123,204.7549],[9.64482,6.52133,204.7549],[9.64502,6.5233,199.4137],[9.66838,6.61851,250.2913],[9.68037,6.78661,185.3571],[9.67665,6.84997,195.2504],[9.70962,7.02412,214.8186],[9.7397,7.08197,194.8682],[9.78031,7.13251,207.7027],[9.83065,7.16843,205.1143],[9.87467,7.20899,234.8741],[9.88139,7.32658,211.5597],[9.92098,7.44639,168.0188],[9.87664,7.56248,197.8401],[9.77422,7.6532,192.3749],[9.68471,7.76438,128.287],[9.57123,7.84234,155.773],[9.41837,7.85968,125.1739],[9.26479,7.85539,139.0868],[9.22541,7.84789,160.6889],[9.15772,7.81751,103.5158],[9.12609,7.81063,135.6321],[9.1141,7.83298,98.357],[9.16939,7.91445,72.7246],[8.97891,8.05545,191.2442],[8.97891,8.04984,195.1235],[8.94233,8.04708,122.3909]]]}
,"properties": {"ISO3166-1-Alpha-3": "NGA","country": "Nigeria","fill": "#F0F","name": "Benue","area_km2": 31604.96,"hist_schema_id": "Elevation0-9000","hist_area_km2": {"25": 0.61,"50": 690.31,"75": 3090.83,"100": 5401.06,"125": 5729.95,"150": 5155.24,"175": 4563.4,"200": 3481.56,"225": 1718.58,"250": 545.27,"275": 199.39,"300": 111.3,"325": 90.2,"350": 117.25,"375": 132.79,"400": 120.63,"425": 88.26,"450": 70.43,"475": 46.68,"500": 33.99,"525": 25.59,"550": 21.88,"575": 19.1,"600": 18.43,"625": 15.35,"650": 15.1,"675": 11.94,"700": 12.23,"725": 10.97,"750": 11.39,"775": 9.94,"800": 8.68,"825": 7.62,"850": 7.16,"875": 5.62,"900": 5.43,"925": 4.57,"950": 2.4,"975": 1.71,"1000": 0.74,"1025": 0.61,"1050": 0.38}}}