{"type":"Feature","properties":{"featurecla":"River","scalerank":4,"rivernum":137,"dissolve":"137River","name":"Benue1","name_alt":null,"note":null,"min_zoom":4.0,"strokeweig":0.3,"name_en":"Benue","min_label":5.0},
"geometry":{"type": "LineString","coordinates": [[9.8470703125000227,8.2722354187441169,94.1323],[9.8270507812500227,8.24371979374412,91.3302],[9.8041015625000227,8.2268252624941169,86.9921],[9.784912109375,8.22247955936912,90.5767],[9.744873046875,8.22394440311912,92.8819],[9.7254882812500227,8.22174713749412,91.023],[9.717529296875,8.2186221374941084,89.3659],[9.710693359375,8.21417877811912,88.1885],[9.677734375,8.18598053593162,89.3977],[9.6541992187500227,8.1731143249941169,88.1051],[9.6318359375,8.1640811218691169,88.7053],[9.6249023437500227,8.1599307312441169,86.4639],[9.6070800781250227,8.1440615906191169,87.2444],[9.60009765625,8.13983795780662,86.2463],[9.56689453125,8.12970612186912,85.4416],[9.55908203125,8.12604401249412,86.1037],[9.5550781250000227,8.1235537781191169,86.0311],[9.5521484375000227,8.1208682312441169,85.6412],[9.5499511718750227,8.11737702030662,85.9572],[9.5478515625,8.11054108280662,85.3132],[9.5460449218750227,8.10736725468162,85.7507],[9.5389648437500227,8.1013369812441169,87.1304],[9.53076171875,8.0977725281191084,85.678],[9.4327636718750227,8.07379791874412,83.5455],[9.42431640625,8.0700869812441169,83.0564],[9.420166015625,8.06671784061912,84.0001],[9.4127441406250227,8.05927155155662,81.4147],[9.4076171875000227,8.05707428593162,87.5465],[9.38818359375,8.04157135624412,85.0702],[9.36767578125,8.0032901062441084,83.5192],[9.3602539062500227,7.9931826843691169,82.7611],[9.353759765625,7.98847077030662,81.7726],[9.3402343750000227,7.98407623905662,83.6892],[9.3330078125,7.9800967468691084,76.0],[9.3280273437500227,7.9737490906191084,81.8676],[9.3229003906250227,7.95807526249412,87.6633],[9.3193359375,7.9521670593691169,92.8987],[9.307861328125,7.9446963562441084,85.106],[9.2708984375000227,7.93854401249412,85.9727],[9.22314453125,7.91742584843162,86.1284],[9.1356445312500227,7.89008209843162,78.8118],[9.099365234375,7.8839053406191084,72.6389],[9.0257812500000227,7.88336823124412,69.0],[8.989501953125,7.8745303406191169,69.0],[8.9767089843750227,7.8665713562441084,69.2733],[8.9666992187500227,7.8563174499941084,78.1845],[8.9488769531250227,7.8326358093691084,77.818],[8.9178710937500227,7.81159088749412,67.5],[8.87890625,7.80377838749412,70.2426],[8.79931640625,7.79901764530662,71.6491],[8.76318359375,7.7885928406191169,67.6019],[8.659912109375,7.74066803593162,62.5],[8.64013671875,7.73578522343162,70.11],[8.619873046875,7.73371002811912,66.5149],[8.5205078125,7.7396182312441084,76.1444],[8.501708984375,7.74298737186912,68.6452],[8.4920898437500227,7.7471865906191084,59.0],[8.4654785156250227,7.7644229187441169,63.4114],[8.45556640625,7.76850006718162,66.805],[8.4107910156250227,7.77643463749412,61.843],[8.3985839843750227,7.7803897156191084,57.5],[8.3873535156250227,7.7864932312441084,57.0],[8.3624511718750227,7.80573151249412,64.5079],[8.316162109375,7.8310733093691169,65.9694],[8.2933593750000227,7.8555850281191084,60.4593],[8.2643066406250227,7.86395905155662,57.6161],[8.232177734375,7.8672061218691169,61.7102],[8.2003417968750227,7.8765811218691084,57.0387],[8.14697265625,7.9041690124941084,59.5854],[8.1195312500000227,7.9141787781191084,60.2453],[8.0353027343750227,7.92853424686912,59.0287],[8.018310546875,7.93512604374412,58.8562],[7.96826171875,7.96442291874412,48.5],[7.933837890625,7.9737490906191084,53.9258],[7.8631835937500227,7.98200104374412,53.8424],[7.828857421875,7.9900088562441169,51.1985]]}}