{"type":"Feature","properties":{"GID_2":"NGA.37.4_1","GID_0":"NGA","country":"Nigeria","GID_1":"NGA.37_1","province":"Zamfara","NL_NAME_1":"NA","county":"Bukkuyum","VARNAME_2":"NA","NL_NAME_2":"NA","TYPE_2":"LocalAuthority","ENGTYPE_2":"LocalAuthority","CC_2":"NA","HASC_2":"NA","name":"Bukkuyum.county"},
"geometry":{"type": "MultiPolygon","coordinates": [[[[5.903,11.5956,406.3727],[5.9061,11.6082,395.931],[5.9043,11.6389,384.6637],[5.9056,11.6715,407.903],[5.9115,11.7067,412.4865],[5.9139,11.7439,419.4338],[5.9139,11.7779,435.6845],[5.9249,11.8193,428.1937],[5.9234,11.8646,388.6844],[5.9236,11.8875,384.0762],[5.9258,11.8956,380.7061],[5.9244,11.9443,354.9174],[5.9143,12.0137,343.6696],[5.9139,12.0455,338.2682],[5.9068,12.0737,344.7264],[5.8933,12.0878,340.0036],[5.8742,12.0934,329.9559],[5.8481,12.0979,324.812],[5.8394,12.1103,321.6695],[5.8369,12.1194,308.3136],[5.8327,12.1647,326.1479],[5.8379,12.2325,339.6569],[5.841,12.2544,356.549],[5.8484,12.2776,372.505],[5.8526,12.2985,358.258],[5.8627,12.32,342.8136],[5.8235,12.3168,339.4435],[5.7827,12.3047,339.5829],[5.7645,12.3027,335.3884],[5.6946,12.2992,334.1063],[5.6749,12.301,327.5159],[5.6317,12.3,315.4294],[5.5862,12.2963,301.7548],[5.5666,12.2919,309.3308],[5.5647,12.2854,310.9759],[5.5533,12.2777,305.6309],[5.5563,12.2678,306.0921],[5.5638,12.2131,304.7131],[5.5668,12.1772,288.2318],[5.5628,12.1464,259.3628],[5.5533,12.1061,274.7157],[5.5538,12.0738,297.4084],[5.5492,12.0489,321.0872],[5.5439,12.0262,335.5333],[5.5301,12.0118,324.3023],[5.5163,12.0035,326.8874],[5.5044,11.9991,324.8912],[5.4945,11.9995,325.7487],[5.4859,11.9978,330.0682],[5.4797,11.9884,320.0341],[5.4838,11.9514,312.4702],[5.4719,11.799,352.5999],[5.4626,11.7528,384.66],[5.4475,11.701599999999999,349.2957],[5.4475,11.6836,366.6385],[5.4449,11.6608,363.353],[5.4435,11.6587,368.7121],[5.4625,11.6588,362.0372],[5.4766,11.6568,361.0375],[5.499,11.6471,356.2802],[5.5174,11.6278,372.0095],[5.5355,11.6184,374.6284],[5.557,11.6174,386.5818],[5.5744,11.6216,393.8448],[5.5988,11.6239,375.3539],[5.6239,11.6305,376.7421],[5.6407,11.6275,383.0395],[5.6672,11.6267,395.9962],[5.6852,11.6225,388.9597],[5.7047,11.625,379.7484],[5.7253,11.6319,402.4829],[5.7451,11.6448,403.2533],[5.8233,11.6349,400.2467],[5.8936,11.6067,394.5779],[5.903,11.5956,406.3727]]]]}}