{"type":"Feature","properties":{"GID_2":"NGA.32.7_1","GID_0":"NGA","country":"Nigeria","GID_1":"NGA.32_1","province":"Plateau","NL_NAME_1":"NA","county":"Kanam","VARNAME_2":"NA","NL_NAME_2":"NA","TYPE_2":"LocalAuthority","ENGTYPE_2":"LocalAuthority","CC_2":"NA","HASC_2":"NA","name":"Kanam.county"},
"geometry":{"type": "MultiPolygon","coordinates": [[[[9.9356,9.8056,581.3673],[9.8652,9.8429,521.7662],[9.8452,9.8331,523.7295],[9.8163,9.8143,551.619],[9.8115,9.7913,552.2716],[9.8272,9.7768,534.1618],[9.8459,9.7537,552.8553],[9.8626,9.7263,579.7752],[9.8671,9.6983,592.8698],[9.8589,9.6717,603.5033],[9.8336,9.6674,586.3938],[9.8037,9.6556,559.4095],[9.782,9.6508,566.8652],[9.7633,9.6261,590.4197],[9.7527,9.6009,621.1125],[9.7354,9.5673,607.8102],[9.7275,9.565,621.0377],[9.7336,9.5537,630.1821],[9.747,9.516,630.5035],[9.7597,9.4983,522.3403],[9.7698,9.4708,478.7131],[9.7714,9.4563,428.6923],[9.7672,9.4392,401.9239],[9.7609,9.3809,345.87],[9.7606,9.3627,366.5005],[9.7572,9.3421,413.3944],[9.7192,9.2876,491.5628],[9.727,9.2841,416.187],[9.7795,9.2893,358.8841],[9.8057,9.2821,346.2392],[9.8296,9.2739,320.8667],[9.8425,9.2649,321.7322],[9.8615,9.243,311.8146],[9.8863,9.2299,267.6041],[9.9063,9.2255,258.8757],[9.9251,9.224,254.7969],[9.9404,9.2291,274.9781],[9.9536,9.2372,273.6898],[9.9903,9.2444,267.639],[10.0031,9.2551,266.9728],[10.005,9.2674,273.018],[9.9944,9.2775,275.0866],[9.9897,9.2933,289.7191],[9.9992,9.3061,295.3],[10.053,9.3462,315.7133],[10.0624,9.3616,323.512],[10.0768,9.3785,325.7834],[10.0992,9.3944,355.4999],[10.1024,9.4115,373.4926],[10.1076,9.4272,382.2296],[10.1188,9.4469,394.4819],[10.1432,9.4713,441.3273],[10.1707,9.4767,421.2526],[10.1873,9.473,422.6236],[10.1968,9.4685,422.2211],[10.2141,9.4671,391.9192],[10.2279,9.4752,421.6337],[10.263,9.4823,424.8599],[10.2792,9.4883,405.1444],[10.3086,9.4845,355.2362],[10.3302,9.474,334.2528],[10.3731,9.4418,274.8616],[10.3797,9.4343,265.2299],[10.4078,9.4143,250.1028],[10.44,9.4011,281.1631],[10.4649,9.3995,254.7265],[10.5072,9.3924,204.3377],[10.5215,9.4014,198.2769],[10.5395,9.4046,202.7311],[10.5609,9.4045,201.0427],[10.5883,9.4072,184.0966],[10.5857,9.4335,207.4927],[10.579,9.4616,197.7033],[10.5605,9.4967,192.3539],[10.5581,9.4942,190.0398],[10.4578,9.5516,268.4836],[10.358,9.6164,365.8666],[10.3127,9.638,388.8542],[10.2454,9.6627,405.4097],[10.1791,9.6924,307.5868],[10.1105,9.7326,443.4335],[10.0708,9.7497,589.6494],[10.0296,9.7715,763.7625],[9.9881,9.7797,626.6249],[9.9356,9.8056,581.3673]]]]}}