{"type": "Feature","id": "2873","bbox": [9.64766,10.59023,12.48754,13.3827],"geometry": {"type": "Polygon","coordinates": [[[10.95301,13.3619,345.0242],[10.77131,13.3827,344.8013],[10.67499,13.3751,343.887],[10.64788,13.36941,345.8777],[10.16153,13.2672,353.7499],[10.11977,13.2501,352.3878],[9.93012,13.14597,355.6879],[9.91245,13.1292,354.8514],[9.90821,13.11879,355.4106],[9.90439,13.09434,354.7683],[9.89974,13.08432,355.1464],[9.89178,13.07623,354.8312],[9.88775,13.07551,354.2422],[9.88268,13.07623,354.6768],[9.87204,13.07256,354.417],[9.85281,13.06044,355.4669],[9.81933,13.02921,354.9265],[9.64766,12.83054,355.5605],[9.675,12.8232,355.2901],[9.76987,12.79253,355.3496],[9.85731,12.82976,352.2971],[9.8725,12.85472,354.7882],[9.88429,12.88144,353.6859],[9.90248,12.89459,349.8583],[9.97162,12.92273,350.1997],[10.0203,12.93533,349.2532],[10.11456,12.97267,347.8865],[10.15931,12.98388,348.2353],[10.20106,12.97146,348.3537],[10.2269,12.93275,346.6805],[10.25305,12.83278,346.2626],[10.26266,12.80769,346.0908],[10.30586,12.80126,345.7036],[10.3718,12.81971,345.0546],[10.40467,12.8171,344.0],[10.44063,12.80036,345.2004],[10.47763,12.79224,345.9979],[10.51164,12.79343,344.0801],[10.53944,12.77292,343.0628],[10.56993,12.70873,342.1533],[10.58822,12.5675,347.0519],[10.60951,12.50244,347.8611],[10.67793,12.45668,346.3597],[10.73519,12.40227,348.4217],[10.74842,12.36431,348.3208],[10.76382,12.28553,353.569],[10.76527,12.24525,359.0529],[10.77023,12.21006,353.2986],[10.7909,12.17848,360.293],[10.81043,12.13972,363.2118],[10.81663,12.0965,363.8698],[10.81767,12.02676,364.4083],[10.84795,11.86698,384.5213],[10.96815,11.57526,463.6187],[10.97404,11.49059,492.1275],[10.93931,11.33608,474.8641],[10.96567,11.30213,395.5306],[11.01424,11.29471,421.8087],[11.15284,11.33083,354.1098],[11.29019,11.26479,352.7285],[11.35396,11.21588,306.1302],[11.40915,11.15798,284.5809],[11.45794,11.0931,285.1941],[11.56253,10.98884,276.6889],[11.58372,10.9623,290.1036],[11.59033,10.92817,276.1204],[11.57741,10.69868,282.418],[11.58423,10.62682,263.1643],[11.59302,10.59721,239.0],[11.6634,10.59023,267.0602],[11.70102,10.59419,286.7485],[11.73978,10.60486,279.5464],[11.77037,10.62907,330.8593],[11.79383,10.65919,280.1093],[11.80479,10.69392,299.7289],[11.79817,10.77764,331.0388],[11.81182,10.85768,377.436],[11.86845,10.91908,409.9759],[12.10441,11.0008,539.2531],[12.16673,11.04705,511.6534],[12.19722,11.1157,504.4342],[12.19205,11.19976,484.6544],[12.19753,11.28432,465.3795],[12.21851,11.31685,461.9958],[12.246,11.34551,451.8867],[12.28724,11.41845,421.7873],[12.38832,11.54201,395.0977],[12.38377,11.57849,389.7055],[12.36558,11.61368,383.101],[12.33633,11.64668,372.2209],[12.29561,11.6597,376.373],[12.26213,11.655,391.7281],[12.23567,11.66324,393.6907],[12.24125,11.70234,393.493],[12.30109,11.81967,367.9929],[12.30646,11.86369,361.6073],[12.2828,11.96348,364.6905],[12.32889,12.2999,332.4351],[12.30832,12.44955,333.1976],[12.4185,12.55182,325.4093],[12.46242,12.61194,315.3561],[12.48754,12.67277,312.797],[12.47896,12.73416,312.4959],[12.42501,12.77328,315.5753],[12.38088,12.82193,316.3478],[12.36289,12.88526,315.9017],[12.38636,13.07672,308.2262],[12.38674,13.07858,308.3716],[12.35158,13.0798,308.6667],[12.33525,13.08447,310.6072],[12.32574,13.07882,309.4012],[12.3184,13.08385,310.0344],[12.31096,13.09264,309.2821],[12.30104,13.09812,309.3122],[12.29153,13.09682,310.129],[12.28533,13.09202,309.696],[12.28088,13.08685,310.2867],[12.27716,13.08447,310.3035],[12.2692,13.08587,309.2253],[12.26745,13.08964,309.3378],[12.26703,13.09517,309.5001],[12.26321,13.10186,309.6739],[12.25184,13.10801,316.5368],[12.2014,13.12543,309.0363],[12.18476,13.12209,313.9647],[12.16378,13.10796,313.4221],[12.14962,13.10558,311.3956],[12.11645,13.10284,312.6848],[12.05764,13.11677,325.0069],[12.038,13.12636,324.4247],[11.99191,13.16209,328.3691],[11.8528,13.24539,326.299],[11.74231,13.28945,334.7874],[11.44,13.36443,335.7381],[10.95301,13.3619,345.0242]]]}
,"properties": {"ISO3166-1-Alpha-3": "NGA","country": "Nigeria","fill": "#000","name": "Yobe","area_km2": 46125.31,"hist_schema_id": "Elevation0-9000","hist_area_km2": {"250": 97.97,"275": 522.2,"300": 1071.11,"325": 12978.67,"350": 17797.92,"375": 5042.85,"400": 3111.4,"425": 2462.97,"450": 1347.3,"475": 850.34,"500": 434.16,"525": 177.75,"550": 123.48,"575": 79.48,"600": 26.08,"625": 1.17,"650": 0.37}}}