{"type": "Feature","bbox": [9.6751,10.5907,12.4896,13.3761],"geometry": {"type": "MultiPolygon","coordinates": [[[[11.7011,10.5942,286.7485],[11.7503,10.6052,291.9956],[11.7774,10.6375,285.6917],[11.8052,10.6776,279.5064],[11.8008,10.8115,375.1639],[11.8107,10.8558,372.3987],[11.8384,10.901,394.6082],[11.8813,10.9316,551.5801],[11.9653,10.9519,604.6263],[12.0016,10.9654,584.3775],[12.0625,10.9799,559.7413],[12.111,11.0041,534.8855],[12.1612,11.0381,515.5337],[12.1949,11.0873,508.6285],[12.1988,11.1342,509.6944],[12.1866,11.2004,477.5175],[12.186,11.2478,463.6531],[12.2004,11.2934,473.3848],[12.2471,11.3468,451.5882],[12.2687,11.3872,435.4013],[12.3005,11.4408,415.5893],[12.3414,11.4748,409.7326],[12.3738,11.5114,395.4811],[12.3897,11.545,395.8294],[12.3762,11.5981,385.3171],[12.3549,11.6294,382.8322],[12.3256,11.6577,374.4333],[12.2922,11.66,378.1698],[12.2463,11.6544,390.6299],[12.236,11.6601,392.6648],[12.2336,11.691,393.6664],[12.3099,11.8364,365.4595],[12.2956,11.9155,357.0211],[12.2824,11.9548,364.7854],[12.2846,12.0105,360.2233],[12.3153,12.1923,339.6517],[12.3199,12.2361,337.483],[12.3256,12.2694,338.1474],[12.3282,12.3416,336.6212],[12.3265,12.3613,329.6684],[12.3122,12.3869,328.6089],[12.2986,12.4222,332.4673],[12.3075,12.4571,330.8801],[12.3206,12.4735,330.1523],[12.3962,12.5293,329.9611],[12.4216,12.5573,323.2286],[12.4598,12.6062,316.8822],[12.4896,12.673,312.741],[12.488,12.7043,313.3899],[12.4818,12.7323,313.2752],[12.4639,12.7445,312.7088],[12.4368,12.7682,315.4094],[12.4042,12.7931,315.0708],[12.3809,12.822,316.3478],[12.3609,12.8831,316.8],[12.3665,12.9346,316.1395],[12.3781,12.9757,313.7923],[12.385,13.0101,311.9111],[12.3864,13.0768,308.2262],[12.3704,13.076599999999999,308.0933],[12.3688,13.0785,308.1583],[12.3687,13.087,309.0191],[12.3657,13.0897,308.0972],[12.3624,13.0902,307.798],[12.3617,13.0808,309.0258],[12.3554,13.0785,308.3454],[12.3521,13.0794,308.5319],[12.3434,13.0865,309.2947],[12.3408,13.0842,309.0262],[12.3397,13.0732,310.1197],[12.3368,13.0718,309.4609],[12.3328,13.0777,309.1384],[12.3347,13.083,309.3268],[12.3232,13.0858,309.271],[12.3072,13.0957,308.6232],[12.2974,13.0961,308.8434],[12.2871,13.092,309.5911],[12.2805,13.0862,310.2867],[12.2824,13.0837,310.8572],[12.288,13.0823,309.9667],[12.2871,13.08,309.2437],[12.2777,13.0809,309.7295],[12.2749,13.0832,311.0157],[12.2725,13.0887,309.128],[12.273,13.0954,309.5372],[12.2704,13.1032,310.6369],[12.2652,13.1096,309.8727],[12.257,13.1145,309.2675],[12.2412,13.1147,310.131],[12.2382,13.1133,310.6329],[12.2338,13.1073,309.944],[12.2302,13.1078,309.8797],[12.2185,13.114,309.7614],[12.211,13.1149,311.3789],[12.2072,13.1204,310.7933],[12.2027,13.1227,310.6651],[12.1884,13.1204,312.7417],[12.184,13.1211,310.1364],[12.1786,13.1252,309.6969],[12.1769,13.1204,310.7833],[12.1793,13.1153,310.9897],[12.1875,13.1066,312.2733],[12.1802,13.1038,311.7296],[12.1774,13.0983,312.0542],[12.1704,13.1038,311.1641],[12.1636,13.1022,311.1331],[12.1577,13.1081,313.4293],[12.1509,13.1086,311.5698],[12.149,13.1056,311.3956],[12.1511,13.0985,311.8249],[12.1493,13.0969,312.2523],[12.1394,13.0994,311.8379],[12.1347,13.1042,311.7172],[12.1314,13.101,310.4949],[12.1298,13.0912,312.8375],[12.1181,13.0922,311.8953],[12.1141,13.0903,311.1131],[12.1042,13.0935,319.0524],[12.0474,13.1265,335.3931],[12.0454,13.1298,330.4594],[12.041,13.1309,324.4093],[12.0147,13.1513,330.6884],[12.0115,13.1583,330.2386],[11.995,13.1732,322.7665],[11.9285,13.2229,333.5992],[11.8846,13.2453,327.7745],[11.8846,13.2465,326.5134],[11.8102,13.264,329.6133],[11.7861,13.2685,326.9857],[11.7773,13.2685,342.0683],[11.7719,13.2719,341.5196],[11.7439,13.2756,328.6033],[11.7389,13.2778,330.135],[11.6958,13.287,332.9473],[11.6656,13.2959,333.795],[11.6611,13.2994,334.5876],[11.6376,13.3053,333.8205],[11.6097,13.3171,334.3474],[11.6015,13.3191,333.7311],[11.5396,13.348,335.8988],[11.522,13.3531,336.5869],[11.4855,13.3568,336.1436],[11.4801,13.3561,327.4785],[11.4643,13.36,335.9631],[11.3956,13.3701,336.4423],[11.3676,13.3721,334.6735],[11.3023,13.3725,337.144],[11.2901,13.3741,337.2765],[11.2127,13.3759,343.0961],[11.181,13.3747,334.0891],[11.1746,13.376,338.2275],[11.1667,13.375,339.6612],[11.1455,13.3761,339.9408],[11.0687,13.374,341.9681],[11.0651,13.3756,343.6968],[11.0588,13.3739,340.6617],[11.025,13.3724,339.9773],[10.9855,13.3738,335.9525],[10.8815,13.3664,343.2687],[10.8604,13.3666,345.733],[10.7557,13.3602,345.7665],[10.6692,13.3569,344.182],[10.6547,13.3541,346.2616],[10.562,13.3205,347.0287],[10.5465,13.3131,348.1456],[10.4844,13.2908,345.7912],[10.4664,13.2825,345.1651],[10.4033,13.2775,346.2779],[10.2692,13.2706,353.6267],[10.2578,13.2714,353.8311],[10.2071,13.2678,357.7426],[10.0609,13.2035,352.7611],[10.0395,13.1897,352.1544],[10.0333,13.1834,351.3676],[9.9965,13.1633,354.4225],[9.9915,13.1565,353.5927],[9.9839,13.1495,352.8419],[9.9819,13.1496,352.7464],[9.979,13.1434,352.8683],[9.9127,13.0706,354.1702],[9.8727,13.0359,354.1622],[9.8694,13.0358,354.0363],[9.8468,13.015,353.4808],[9.8328,12.9961,352.5521],[9.8166,12.97,354.3535],[9.812,12.9661,353.4637],[9.7943,12.9421,353.4608],[9.7904,12.9402,351.5541],[9.7699,12.9175,354.2373],[9.6751,12.8233,355.2901],[9.704,12.8046,354.9005],[9.7411,12.797,352.9088],[9.801,12.7929,355.4899],[9.8299,12.8043,353.8418],[9.8517,12.8215,351.7383],[9.8735,12.8534,356.0576],[9.8856,12.8847,351.8881],[9.9715,12.9259,349.8078],[10.0225,12.9358,349.6063],[10.0681,12.9575,350.1041],[10.1146,12.9727,347.8865],[10.1704,12.9886,347.1969],[10.206,12.9688,347.1855],[10.2405,12.893,346.5109],[10.2517,12.824,346.6424],[10.2753,12.784,346.7005],[10.2934,12.7953,346.1027],[10.3162,12.8006,344.6449],[10.388,12.8249,345.0995],[10.4685,12.7896,345.9081],[10.5014,12.7994,345.4397],[10.5312,12.7853,344.3565],[10.5669,12.7314,342.278],[10.5793,12.6716,346.3217],[10.5839,12.6192,345.0117],[10.5954,12.5485,348.1322],[10.6047,12.5072,347.7338],[10.6288,12.4836,346.4507],[10.6654,12.4619,347.1298],[10.7037,12.4326,346.7822],[10.7344,12.4043,349.4854],[10.7529,12.3578,348.2794],[10.7611,12.3067,349.6588],[10.7653,12.2453,359.0529],[10.7623,12.2165,358.9333],[10.791,12.1785,360.293],[10.8133,12.1425,363.6867],[10.8173,12.088,366.7912],[10.8167,12.0353,364.5182],[10.822,11.9924,366.1857],[10.8373,11.9493,366.6246],[10.8356,11.9185,377.9532],[10.8406,11.8878,381.8217],[10.8605,11.8308,387.74],[10.877,11.7891,395.0837],[10.8956,11.7601,401.1808],[10.9089,11.7304,409.7936],[10.932,11.669,425.3504],[10.9589,11.6062,447.5438],[10.9754,11.5548,471.8423],[10.9767,11.5078,487.2835],[10.9718,11.4766,494.2723],[10.9547,11.4331,500.3884],[10.9528,11.4025,494.8522],[10.9403,11.3563,474.3146],[10.9389,11.3251,462.1245],[10.9488,11.3113,427.4778],[10.9652,11.3007,394.2314],[11.0142,11.2948,421.8087],[11.0289,11.3089,428.2676],[11.0626,11.3234,435.6957],[11.0963,11.333,454.45],[11.1316,11.3331,375.2677],[11.1616,11.3302,388.3785],[11.2097,11.3141,382.9979],[11.2449,11.2936,399.4678],[11.2878,11.2667,356.2201],[11.3204,11.241,324.9174],[11.3408,11.2271,314.2416],[11.382,11.1936,304.703],[11.4076,11.1604,286.5485],[11.429,11.1288,262.6609],[11.4589,11.0915,284.4503],[11.4974,11.0494,291.1573],[11.514,11.0345,287.5576],[11.4979,11.01,261.1151],[11.5234,11.0261,287.6566],[11.5555,10.9947,262.8398],[11.5828,10.9722,276.7317],[11.5888,10.9438,294.4725],[11.5937,10.8945,257.5024],[11.5913,10.8421,281.9542],[11.5761,10.7418,261.2148],[11.5743,10.7052,273.5991],[11.5815,10.663,274.5652],[11.5868,10.6022,251.3158],[11.5916,10.5941,239.0],[11.6868,10.5907,276.9235],[11.7011,10.5942,286.7485]]]]}
,"properties": {"GID_1": "NGA.36_1","GID_0": "NGA","country": "Nigeria","province": "Yobe","VARNAME_1": "NA","NL_NAME_1": "NA","TYPE_1": "State","ENGTYPE_1": "State","CC_1": "NA","HASC_1": "NG.YO","ISO_1": "NG-YO","name": "Yobe.province","area_km2": 45742.11,"hist_schema_id": "Elevation0-9000","hist_area_km2": {"250": 98.87,"275": 523.24,"300": 1071.86,"325": 13005.99,"350": 17414.98,"375": 5037.86,"400": 3099.69,"425": 2454.91,"450": 1342.31,"475": 841.92,"500": 438.82,"525": 180.25,"550": 125.02,"575": 79.32,"600": 25.46,"625": 1.17,"650": 0.37}}}