{"type": "Feature","bbox": [7.8648,4.689,9.4674,6.8955],"geometry": {"type": "MultiPolygon","coordinates": [[[[8.188,4.8831,7.1699],[8.249,4.8129,13.4948],[8.2758,4.788,1.0],[8.2866,4.7832,1.0],[8.3084,4.7673,0.5],[8.3142,4.7599,0.5],[8.3179,4.751,3.1028],[8.3551,4.7854,0.0],[8.3601,4.7865,1.2538],[8.3657,4.779,4.0991],[8.3746,4.776,1.0771],[8.3965,4.7826,3.9209],[8.3999,4.7813,7.8696],[8.3974,4.7749,1.4744],[8.4015,4.7679,3.9093],[8.4132,4.7679,1.9363],[8.4132,4.7671,1.9363],[8.3982,4.7654,2.8953],[8.3857,4.754,0.0],[8.3857,4.7474,0.0],[8.3962,4.7354,0.0],[8.4026,4.7326,1.5507],[8.4082,4.7349,0.0],[8.4121,4.7299,0.0],[8.4163,4.7279,1.4937],[8.424,4.7268,4.8578],[8.4296,4.7279,2.7919],[8.436,4.7321,0.0],[8.4376,4.736,5.4065],[8.4424,4.7371,10.3665],[8.4449,4.7351,0.0],[8.4485,4.7357,1.6193],[8.4576,4.7465,3.4731],[8.4585,4.7551,0.0],[8.4613,4.7554,8.2829],[8.4704,4.7396,1.4161],[8.4785,4.734,2.6869],[8.4818,4.7293,0.0],[8.4646,4.7274,1.7468],[8.4621,4.7221,0.7405],[8.4613,4.7135,9.1996],[8.4574,4.7076,0.0],[8.4557,4.7001,0.8656],[8.4563,4.6987,0.1166],[8.4715,4.696,8.149],[8.4801,4.689,3.5245],[8.4815,4.6907,8.1756],[8.4901,4.6896,0.0],[8.4932,4.6929,7.907],[8.4993,4.694,4.6169],[8.5093,4.694,7.4756],[8.5079,4.7046,0.0],[8.5035,4.7082,4.647],[8.5168,4.7035,0.0],[8.5318,4.7104,0.0],[8.5307,4.7188,0.0],[8.5224,4.7337,0.0],[8.5258,4.7346,0.0],[8.5249,4.7458,0.0],[8.5294,4.7698,0.0],[8.5388,4.7923,0.0],[8.5449,4.8004,0.0],[8.5479,4.8007,0.0],[8.5578,4.7964,2.2095],[8.5631,4.7966,2.526],[8.5723,4.7999,1.4793],[8.5841,4.7987,0.0],[8.5929,4.8002,0.0],[8.5998,4.8022,0.0],[8.616,4.8127,1.3233],[8.6265,4.8175,12.0068],[8.6287,4.8203,8.1997],[8.6298,4.8271,1.0],[8.6255,4.8439,2.3808],[8.6078,4.8589,6.4425],[8.603,4.8683,2.0],[8.603,4.8724,2.0],[8.6081,4.8851,4.0457],[8.622,4.905,8.4349],[8.6276,4.9069,1.8864],[8.6411,4.9072,5.657],[8.647,4.9094,7.5599],[8.6519,4.915,7.1101],[8.6531,4.9233,10.306],[8.649,4.9349,5.5585],[8.6509,4.9427,4.2039],[8.6525,4.9454,8.3057],[8.6632,4.9477,9.4325],[8.6662,4.9522,13.7691],[8.6649,4.9627,11.6491],[8.6662,4.9649,4.474],[8.6781,4.973,13.182],[8.6803,4.9815,12.1593],[8.6928,4.9862,7.3912],[8.6941,4.9882,7.2055],[8.6943,4.9909,14.7515],[8.6824,4.9954,68.7462],[8.6808,4.9985,41.8686],[8.6834,5.0016,12.1312],[8.6919,5.0055,12.9864],[8.6942,5.014,75.6138],[8.7044,5.0202,54.7196],[8.7103,5.0321,68.4398],[8.7156,5.0319,60.2003],[8.7172,5.0386,73.8383],[8.7211,5.0418,62.1105],[8.7174,5.0526,88.1145],[8.7189,5.0586,86.5324],[8.723,5.0643,93.6569],[8.7253,5.0748,96.378],[8.7378,5.0849,90.9192],[8.7407,5.0857,83.394],[8.7424,5.0879,88.3174],[8.7435,5.097,98.2799],[8.7484,5.1012,92.788],[8.7748,5.1089,100.6192],[8.7816,5.1133,94.1842],[8.7831,5.1159,120.743],[8.7829,5.1212,110.3447],[8.7886,5.1241,108.8257],[8.7945,5.1346,112.9614],[8.7941,5.1381,124.8505],[8.7995,5.1476,129.3237],[8.8004,5.1559,123.5549],[8.8081,5.1644,127.3835],[8.8114,5.1744,135.1227],[8.8161,5.1837,146.3727],[8.8187,5.1856,136.9851],[8.8128,5.2202,353.739],[8.8167,5.2605,597.5103],[8.8152,5.2838,932.7654],[8.8293,5.3205,1014.3486],[8.8342,5.3285,973.2],[8.8402,5.3878,752.6448],[8.8369,5.3964,591.0629],[8.8352,5.4157,391.2304],[8.831,5.43,343.4979],[8.8401,5.4479,283.913],[8.8405,5.4546,320.0995],[8.8475,5.4626,298.0757],[8.8502,5.4644,292.1151],[8.8531,5.4635,287.6561],[8.8653,5.4735,255.761],[8.868,5.4811,295.4319],[8.8661,5.4864,288.6983],[8.8667,5.4894,279.4477],[8.8724,5.4965,268.5771],[8.8754,5.4974,262.5943],[8.887,5.5138,254.9655],[8.8918,5.5175,251.9085],[8.9057,5.543,221.7262],[8.9109,5.5594,220.6037],[8.9127,5.5618,214.9376],[8.9203,5.5647,197.5338],[8.92,5.5752,204.1416],[8.9149,5.5818,198.4112],[8.9099,5.5971,180.6676],[8.9099,5.6012,172.7638],[8.9037,5.6165,180.1909],[8.8986,5.6242,177.997],[8.8904,5.6268,192.1752],[8.8856,5.6338,163.9201],[8.8848,5.6385,160.5875],[8.8822,5.6408,172.7447],[8.8783,5.6438,151.0179],[8.87,5.6463,142.4174],[8.87,5.6495,134.9462],[8.8652,5.6568,121.7491],[8.8588,5.6587,145.792],[8.8545,5.6683,125.9084],[8.8411,5.6771,96.6816],[8.8388,5.676,115.6801],[8.8366,5.6796,92.6405],[8.8375,5.687,93.7007],[8.8353,5.6888,119.2937],[8.836,5.693,125.775],[8.8332,5.696,119.9015],[8.8322,5.7059,111.0585],[8.8335,5.7078,124.0529],[8.8365,5.7073,131.8054],[8.8392,5.7034,98.5778],[8.8422,5.7025,114.3922],[8.8422,5.6994,104.8728],[8.8467,5.7051,96.809],[8.8541,5.7087,104.1487],[8.8529,5.7139,118.435],[8.8542,5.7195,115.4107],[8.86,5.7205,96.2956],[8.8618,5.7328,90.5516],[8.8642,5.7351,82.4904],[8.8678,5.7352,90.9731],[8.8698,5.7414,93.7914],[8.874,5.7442,80.7156],[8.875,5.747,79.0668],[8.8752,5.7493,76.4259],[8.8698,5.7477,85.4407],[8.869,5.7514,80.0359],[8.8704,5.7539,79.7561],[8.8684,5.7586,75.8594],[8.8728,5.7627,74.5576],[8.8728,5.7677,72.6334],[8.8745,5.7702,82.6936],[8.8817,5.7707,93.5812],[8.8834,5.7775,91.0097],[8.8811,5.7829,99.8446],[8.883,5.7928,63.4212],[8.8745,5.7967,78.6358],[8.8724,5.8018,62.4674],[8.8694,5.7958,99.1236],[8.8636,5.7961,96.3879],[8.8603,5.8001,91.4157],[8.8471,5.7923,35.1121],[8.8461,5.7955,73.4406],[8.8492,5.8025,90.6651],[8.846,5.8126,62.5577],[8.8397,5.8231,50.4237],[8.84,5.8263,59.1481],[8.8431,5.8293,57.7817],[8.856,5.8307,39.7458],[8.859,5.8345,53.0286],[8.8573,5.8415,47.4383],[8.8588,5.8451,36.4174],[8.8792,5.8562,47.7815],[8.883,5.8605,71.3007],[8.9029,5.8631,36.3368],[8.9034,5.8731,54.1645],[8.914,5.8917,34.25],[8.9112,5.8993,34.5],[8.9123,5.9025,36.5968],[8.9142,5.9041,45.0225],[8.9248,5.904,62.7739],[8.9371,5.9106,51.9549],[8.9451,5.9112,70.9288],[9.0536,5.9992,101.6021],[9.1075,6.0504,123.9863],[9.1331,6.0721,114.2353],[9.1526,6.0906,137.6958],[9.1675,6.1307,118.9333],[9.2117,6.1673,125.3066],[9.2657,6.1842,709.7798],[9.3082,6.2628,219.5026],[9.3217,6.275,194.9371],[9.324,6.2814,209.0582],[9.3209,6.2845,204.2524],[9.3204,6.2877,225.8818],[9.3227,6.2897,210.8401],[9.327,6.2872,225.2319],[9.3301,6.2874,221.3005],[9.3306,6.2925,233.5383],[9.3337,6.2933,227.75],[9.3364,6.3033,249.3944],[9.3372,6.3153,248.2535],[9.3339,6.3197,310.8996],[9.3348,6.3221,281.4404],[9.3435,6.3289,301.7623],[9.3435,6.3365,347.6766],[9.3421,6.3386,421.5043],[9.3434,6.3511,437.8288],[9.3483,6.3539,529.235],[9.3524,6.353,546.3784],[9.3644,6.3465,689.3551],[9.3868,6.3385,1133.5381],[9.3932,6.3336,1196.0198],[9.4089,6.327,1170.9807],[9.4157,6.3217,1069.4102],[9.4313,6.3172,882.5608],[9.4327,6.3207,822.7047],[9.4336,6.3285,812.2534],[9.442,6.3486,607.1143],[9.4408,6.3537,549.6489],[9.4437,6.3561,522.8907],[9.4426,6.3659,497.1268],[9.4459,6.3736,470.0304],[9.4445,6.3761,466.1967],[9.4451,6.3817,450.5097],[9.4506,6.3865,433.95],[9.4516,6.3982,443.4899],[9.4568,6.4096,405.5129],[9.4579,6.4176,403.6465],[9.4556,6.4216,395.9096],[9.4585,6.4231,397.3293],[9.4584,6.4261,395.1375],[9.4601,6.4261,391.3249],[9.4605,6.4285,389.7415],[9.4576,6.4329,383.8754],[9.4601,6.4349,376.2886],[9.4606,6.4395,377.9244],[9.4635,6.4449,370.6206],[9.4645,6.4544,376.0642],[9.4674,6.456,367.1427],[9.4654,6.4618,364.7368],[9.4583,6.4755,389.9515],[9.4475,6.488,460.2781],[9.4219,6.5254,389.8239],[9.4013,6.5478,293.071],[9.3931,6.559,260.4374],[9.3795,6.5827,401.3596],[9.3601,6.5975,852.0262],[9.351,6.6097,495.6937],[9.3306,6.6306,267.1254],[9.3119,6.6544,347.6763],[9.3024,6.6612,296.1285],[9.2902,6.6753,246.7494],[9.2791,6.6773,231.5573],[9.266,6.6869,249.9357],[9.2422,6.6892,271.7142],[9.2378,6.6875,287.8406],[9.224,6.6904,245.9626],[9.2161,6.6905,221.0641],[9.1934,6.6877,224.458],[9.1615,6.6761,207.4191],[9.1219,6.6676,178.6133],[9.109,6.6629,167.3232],[9.0878,6.6611,152.5782],[9.0616,6.6542,157.2606],[9.0266,6.6543,136.148],[8.9908,6.6613,113.2111],[8.9713,6.6757,126.9488],[8.9725,6.6919,130.1534],[8.9776,6.694,139.2034],[8.976,6.7038,144.6908],[8.9819,6.7528,179.4753],[8.9794,6.769,159.2496],[8.9729,6.7793,130.6201],[8.9383,6.7999,102.222],[8.8712,6.8449,79.245],[8.8583,6.8506,110.6197],[8.8334,6.8661,97.3429],[8.8139,6.874,113.8379],[8.7645,6.8857,89.6922],[8.7457,6.8934,63.1445],[8.7314,6.8955,79.7719],[8.7115,6.8944,77.9068],[8.6955,6.8913,78.4903],[8.6577,6.8783,67.8341],[8.6401,6.8742,66.7713],[8.6155,6.8548,60.4623],[8.6177,6.8305,72.0089],[8.6278,6.8027,79.1785],[8.628,6.7821,82.4514],[8.6135,6.772,61.174],[8.5921,6.7611,77.993],[8.5774,6.7512,66.6877],[8.5268,6.7377,89.7441],[8.4648,6.7399,93.3107],[8.4315,6.7509,118.072],[8.4004,6.7436,135.5744],[8.3785,6.7153,102.3002],[8.3403,6.6837,59.5027],[8.2951,6.6731,42.1226],[8.292,6.6756,41.8605],[8.2912,6.6709,42.0161],[8.2942,6.6436,51.0647],[8.3,6.629,44.8129],[8.3179,6.6079,39.348],[8.3248,6.5949,45.2389],[8.3321,6.5867,39.9076],[8.3676,6.5593,33.8286],[8.3757,6.5564,34.9685],[8.3815,6.5452,35.2394],[8.3838,6.5288,31.9099],[8.3881,6.5244,28.8176],[8.3989,6.5198,32.8623],[8.4045,6.5107,29.6308],[8.4008,6.5108,31.7745],[8.4,6.5039,46.4179],[8.4063,6.4955,30.2571],[8.4028,6.49,29.2879],[8.4028,6.4794,28.6678],[8.4113,6.4735,29.1363],[8.413,6.463,34.8068],[8.4178,6.4491,30.4069],[8.423,6.4423,28.6704],[8.4402,6.4331,30.3928],[8.4441,6.4161,33.4388],[8.4368,6.3969,34.4492],[8.4307,6.3887,30.0889],[8.4221,6.3858,35.5822],[8.4169,6.3894,33.9209],[8.3953,6.3826,51.5579],[8.3768,6.3663,39.5965],[8.3685,6.3563,44.5142],[8.3669,6.3416,43.3143],[8.3688,6.3305,43.0295],[8.3757,6.317,50.2833],[8.393,6.2987,30.6164],[8.3988,6.2884,37.3198],[8.3985,6.2658,30.2674],[8.3861,6.2455,29.0883],[8.3621,6.2161,32.61],[8.3525,6.2071,28.8027],[8.3358,6.1871,25.3062],[8.3244,6.1803,23.7504],[8.295,6.1338,23.2745],[8.2866,6.1302,20.2961],[8.2738,6.1065,19.006],[8.2761,6.0916,20.5966],[8.271,6.0754,20.1829],[8.2722,6.0645,20.9723],[8.2616,6.0404,16.9424],[8.2612,6.0273,16.9037],[8.2476,6.0125,21.3258],[8.2386,6.0143,15.7113],[8.2236,6.0286,17.5242],[8.2123,6.033,30.4963],[8.1876,6.0306,19.3592],[8.182,6.0282,19.7846],[8.1775,6.007,23.4886],[8.1695,5.9993,17.365],[8.1525,5.9897,16.9155],[8.142,5.9795,16.0316],[8.1215,5.9704,22.3491],[8.1153,5.9712,25.0946],[8.1071,5.9669,25.6295],[8.1029,5.9615,20.4378],[8.0962,5.9471,20.1295],[8.0949,5.9406,17.4116],[8.0854,5.9334,25.2652],[8.0805,5.9353,20.4505],[8.0758,5.9412,22.2115],[8.0675,5.9572,29.5973],[8.0607,5.9807,30.6839],[8.0491,6.0012,37.5564],[8.042,6.0061,37.47],[8.0353,6.0055,34.1169],[8.0272,6.0071,34.0288],[7.9997,6.0032,26.4013],[7.9838,5.9944,21.18],[7.9725,5.9921,18.7489],[7.9629,5.9858,21.4832],[7.9601,5.981,24.054],[7.9599,5.9699,37.2336],[7.9759,5.9475,42.5723],[7.9784,5.9408,18.9706],[7.9804,5.9246,25.0411],[7.9798,5.9131,13.7617],[7.9769,5.9078,19.1548],[7.977,5.9016,62.999],[7.9652,5.8859,106.8588],[7.9603,5.8827,101.041],[7.945,5.8645,59.1394],[7.9385,5.8482,14.4152],[7.9396,5.8427,12.6852],[7.9351,5.8372,12.2241],[7.9265,5.8346,61.5669],[7.9253,5.8314,35.0761],[7.916,5.8223,26.3365],[7.9173,5.7909,40.6003],[7.9217,5.7793,42.0178],[7.9062,5.7634,40.178],[7.884,5.729,86.309],[7.8808,5.7187,108.5623],[7.8805,5.6984,48.0883],[7.8778,5.6903,51.2416],[7.8874,5.6851,57.1526],[7.8953,5.6695,43.1079],[7.8945,5.6536,41.2487],[7.8857,5.6092,73.3407],[7.8855,5.5778,36.4153],[7.8882,5.548,59.9647],[7.8971,5.526,77.1171],[7.9065,5.4942,50.1326],[7.9103,5.4731,54.6766],[7.9221,5.446,43.5505],[7.9498,5.4136,46.3051],[7.962,5.3724,145.4406],[7.9523,5.3527,67.3831],[7.9361,5.3539,23.2956],[7.8987,5.3651,11.0009],[7.8834,5.3633,14.8372],[7.8777,5.3533,16.829],[7.8766,5.3441,19.4753],[7.8648,5.3237,5.8123],[7.8674,5.3142,6.5799],[7.8754,5.2947,13.3062],[7.8889,5.2896,19.4312],[7.8932,5.2707,84.1513],[7.9016,5.2583,70.2644],[7.9168,5.2571,64.8793],[7.934,5.264,23.3454],[7.9786,5.2674,6.6847],[8.0086,5.2544,10.9054],[8.0275,5.2391,11.5046],[8.0475,5.2327,12.0366],[8.0587,5.224,14.644],[8.0638,5.2098,6.3958],[8.0651,5.19,3.6672],[8.059,5.1732,7.4284],[8.0579,5.1456,8.8029],[8.0549,5.1339,15.279],[8.0539,5.1099,10.7266],[8.0552,5.0912,8.9126],[8.0715,5.0309,10.0874],[8.0815,5.0081,13.0212],[8.093,4.9893,7.8225],[8.1217,4.9523,7.021],[8.1366,4.9285,10.8685],[8.1702,4.8943,6.9496],[8.188,4.8831,7.1699]]]]}
,"properties": {"GID_1": "NGA.9_1","GID_0": "NGA","country": "Nigeria","province": "CrossRiver","VARNAME_1": "NA","NL_NAME_1": "NA","TYPE_1": "State","ENGTYPE_1": "State","CC_1": "NA","HASC_1": "NG.CR","ISO_1": "NG-CR","name": "Cross_River.province","area_km2": 21394.4,"hist_schema_id": "Elevation0-9000","hist_area_km2": {"0": 1373.94,"25": 2980.58,"50": 2874.76,"75": 2117.81,"100": 2516.76,"125": 2940.48,"150": 1907.9,"175": 1025.31,"200": 669.95,"225": 475.75,"250": 342.25,"275": 256.28,"300": 202.2,"325": 165.11,"350": 138.19,"375": 116.56,"400": 114.91,"425": 101.03,"450": 88.53,"475": 79.51,"500": 70.61,"525": 63.38,"550": 58.61,"575": 53.53,"600": 48.01,"625": 43.96,"650": 39.64,"675": 37.38,"700": 33.06,"725": 32.07,"750": 28.86,"775": 25.21,"800": 22.2,"825": 20.57,"850": 20.28,"875": 17.47,"900": 15.85,"925": 14.65,"950": 13.53,"975": 12.66,"1000": 11.82,"1025": 11.67,"1050": 10.96,"1075": 10.05,"1100": 11.46,"1125": 10.34,"1150": 10.6,"1175": 10.51,"1200": 10.39,"1225": 9.94,"1250": 9.4,"1275": 9.44,"1300": 9.65,"1325": 8.91,"1350": 7.92,"1375": 7.96,"1400": 7.14,"1425": 7.42,"1450": 7.21,"1475": 7.54,"1500": 7.18,"1525": 7.14,"1550": 6.15,"1575": 7.44,"1600": 4.7,"1625": 4.21,"1650": 1.79,"1675": 1.81,"1700": 1.56,"1725": 1.12,"1750": 0.99,"1775": 0.36}}}