{"type": "Feature","id": "2847","bbox": [7.86901,4.70405,9.48859,6.89167],"geometry": {"type": "Polygon","coordinates": [[[9.01798,6.65631,147.852],[8.99101,6.66218,111.3529],[8.97158,6.67877,131.507],[8.98119,6.73868,142.2351],[8.95659,6.79018,121.4392],[8.83649,6.86036,94.5252],[8.76446,6.88565,89.6922],[8.69593,6.89167,78.4903],[8.63144,6.86731,78.0309],[8.61842,6.83509,68.834],[8.62783,6.79729,74.1837],[8.61046,6.76894,71.4924],[8.57739,6.75111,66.6877],[8.5346,6.74011,86.6518],[8.49057,6.73897,96.3317],[8.45068,6.74533,96.887],[8.4113,6.7461,121.5267],[8.38185,6.72409,116.6537],[8.35487,6.69504,72.3151],[8.32469,6.67864,49.4342],[8.29193,6.67559,41.8605],[8.3064,6.62045,40.5669],[8.34453,6.57696,37.6801],[8.35745,6.56637,35.9771],[8.37161,6.55784,39.2304],[8.37916,6.54826,36.2825],[8.38226,6.53689,38.2162],[8.39962,6.51792,31.2669],[8.40417,6.48684,30.6018],[8.41419,6.45937,32.6257],[8.43538,6.43263,28.4255],[8.4389,6.40119,28.063],[8.37678,6.36625,39.5965],[8.36903,6.33333,49.1697],[8.38825,6.30354,40.6617],[8.37988,6.23559,30.0949],[8.32345,6.17877,23.7504],[8.3004,6.14947,29.279],[8.28159,6.1195,19.4984],[8.2633,6.04415,39.6162],[8.24645,6.0179,21.1818],[8.21793,6.03074,18.7107],[8.19085,6.03082,18.7301],[8.17824,6.0094,17.8393],[8.16232,5.99,25.1809],[8.11613,5.96827,19.7206],[8.09794,5.95077,16.159],[8.0722,5.94966,21.8853],[8.05236,5.99483,30.347],[8.01515,6.0055,28.4325],[7.97464,5.99258,19.4518],[7.96296,5.96739,21.1057],[7.97908,5.9361,16.3377],[7.96678,5.89163,114.3551],[7.93112,5.83737,20.6188],[7.91758,5.82409,21.594],[7.91624,5.80042,33.0507],[7.91986,5.77699,37.7929],[7.90673,5.75743,34.7217],[7.8904,5.73882,55.6268],[7.88151,5.71534,83.9679],[7.87779,5.69027,51.2416],[7.89433,5.64464,72.191],[7.88554,5.58883,78.6539],[7.90839,5.48364,47.5446],[7.95707,5.39148,72.4743],[7.94456,5.35613,49.4464],[7.89712,5.36497,9.5205],[7.86901,5.33355,7.1963],[7.88534,5.29092,22.27],[7.89681,5.27244,83.8743],[7.91676,5.25704,67.9634],[7.97546,5.26715,4.9803],[8.0013,5.26035,11.246],[8.04585,5.23276,2.6391],[8.06248,5.21345,4.2196],[8.05515,5.09111,8.9126],[8.069,5.03569,9.0633],[8.09576,4.98564,11.519],[8.13163,4.93492,5.0771],[8.24904,4.81283,13.4948],[8.28738,4.78462,1.0],[8.29906,4.78237,1.0],[8.29921,4.78234,1.0],[8.29493,4.78608,1.0],[8.28533,4.79157,1.0],[8.27394,4.80484,1.0],[8.26385,4.82075,1.0],[8.25733,4.83446,10.5366],[8.27361,4.84545,1.0],[8.2697,4.86872,1.0],[8.24366,4.91641,1.0],[8.23024,4.93366,1.0],[8.17547,4.9853,1.0],[8.17547,4.99144,5.2182],[8.18165,4.99144,6.2328],[8.1867,4.98436,7.5339],[8.19663,4.97285,11.038],[8.20875,4.9621,8.3204],[8.21974,4.95734,15.4477],[8.23211,4.95368,2.9596],[8.23927,4.94477,5.3844],[8.2505,4.92324,15.7539],[8.2562,4.90672,8.568],[8.25733,4.90583,4.1399],[8.28126,4.89248,4.2611],[8.30836,4.87214,4.624],[8.31658,4.86099,6.2517],[8.31202,4.84748,1.0],[8.33204,4.83641,8.9739],[8.33985,4.83446,9.6127],[8.33562,4.82469,2.5155],[8.33237,4.82087,1.0],[8.35841,4.79735,10.4119],[8.38697,4.7958,11.7739],[8.40903,4.81338,1.5241],[8.4157,4.84748,12.8185],[8.42189,4.84748,13.7675],[8.41725,4.81245,28.9517],[8.4074,4.77684,8.2145],[8.40919,4.74934,11.5911],[8.43881,4.73827,9.0238],[8.45183,4.74055,7.8415],[8.4712,4.75023,5.0936],[8.48015,4.75251,10.3904],[8.48439,4.7482,4.6104],[8.48227,4.73835,6.1762],[8.47755,4.72777,7.4926],[8.47332,4.72118,11.3098],[8.469,4.71166,10.7074],[8.47584,4.70893,7.0013],[8.48552,4.70978,9.5056],[8.49,4.711,8.034],[8.50489,4.70612,3.5668],[8.51832,4.70405,6.5422],[8.5298,4.70889,1.7917],[8.53858,4.7246,0.0],[8.53907,4.73379,3.8647],[8.53256,4.74824,7.5266],[8.53175,4.75812,0.0],[8.53443,4.7683,0.0],[8.5433,4.7875,9.6645],[8.54526,4.79629,8.0255],[8.54916,4.80419,0.0],[8.55812,4.81444,8.236],[8.56861,4.82319,6.715],[8.57667,4.82705,11.0335],[8.5857,4.8249,12.2316],[8.59246,4.82022,14.6929],[8.59457,4.8155,11.6549],[8.59418,4.8153,10.2202],[8.59419,4.8153,10.2202],[8.59511,4.81531,10.2202],[8.61217,4.83188,16.8853],[8.60845,4.84622,19.9186],[8.60545,4.86004,13.8561],[8.60224,4.88133,3.2898],[8.61103,4.89665,13.8528],[8.63831,4.91678,13.5861],[8.64441,4.93487,12.2068],[8.68369,4.99688,74.3119],[8.68369,4.99703,74.3119],[8.69857,5.01781,48.8094],[8.70787,5.03755,65.5136],[8.72265,5.08119,100.5007],[8.72885,5.09455,85.2182],[8.74828,5.12421,101.0615],[8.75831,5.13488,126.4119],[8.76947,5.13995,119.8408],[8.78125,5.14199,161.1687],[8.79169,5.14674,192.8376],[8.79893,5.15963,124.6757],[8.82569,5.29549,375.736],[8.82466,5.30614,418.3077],[8.81639,5.3303,402.4826],[8.81525,5.3435,478.1143],[8.82166,5.36768,427.1599],[8.84316,5.40998,533.1001],[8.84977,5.43236,338.4638],[8.84926,5.45347,298.407],[8.84574,5.47279,441.9667],[8.8443,5.49235,813.0428],[8.8505,5.51401,900.0812],[8.86548,5.53346,589.903],[8.88429,5.55145,549.0319],[8.89949,5.57095,262.309],[8.90393,5.59509,251.2497],[8.8937,5.62175,194.7168],[8.87489,5.64144,185.1725],[8.85257,5.65867,138.1202],[8.83241,5.67816,97.4392],[8.81929,5.70345,122.5656],[8.82693,5.71782,140.9084],[8.84461,5.73087,133.9883],[8.86218,5.75234,86.3211],[8.86662,5.77745,121.5276],[8.85784,5.79489,110.7978],[8.84709,5.81076,65.9243],[8.84523,5.83104,58.7727],[8.85587,5.8475,67.272],[8.89122,5.87112,100.804],[8.90465,5.88812,108.8993],[8.92171,5.90447,72.7347],[8.94321,5.90142,93.6528],[8.96501,5.89359,91.9439],[8.98269,5.89577,101.3118],[8.9863,5.90881,120.6146],[8.98847,5.93729,115.8137],[8.99385,5.94408,106.7163],[9.00987,5.95235,109.7834],[9.02248,5.96581,121.5599],[9.04387,5.99669,92.4507],[9.04387,5.99684,92.4507],[9.13617,6.09252,298.1602],[9.27331,6.20277,200.5373],[9.29884,6.23843,359.0412],[9.32737,6.29851,388.4803],[9.34101,6.31398,254.9334],[9.35476,6.3215,502.4992],[9.36654,6.32269,1078.3826],[9.37915,6.3216,1138.0562],[9.39496,6.32254,1503.7355],[9.42287,6.33936,1223.3767],[9.45315,6.39767,430.0123],[9.4826,6.41599,418.3213],[9.48859,6.41821,478.7425],[9.48844,6.41845,478.7425],[9.46881,6.45046,375.5653],[9.44039,6.50208,478.994],[9.32091,6.64228,265.253],[9.23254,6.6869,385.322],[9.07472,6.65732,170.0004],[9.01798,6.65631,147.852]]]}
,"properties": {"ISO3166-1-Alpha-3": "NGA","country": "Nigeria","fill": "#00F","name": "Cross River","area_km2": 21100.98,"hist_schema_id": "Elevation0-9000","hist_area_km2": {"0": 1215.19,"25": 2974.97,"50": 2865.81,"75": 2104.59,"100": 2496.92,"125": 2921.18,"150": 1899.82,"175": 1020.33,"200": 663.75,"225": 462.85,"250": 332.51,"275": 251.69,"300": 198.8,"325": 162.96,"350": 136.53,"375": 116.56,"400": 117.64,"425": 102.08,"450": 88.55,"475": 78.92,"500": 69.83,"525": 62.55,"550": 57.35,"575": 51.59,"600": 46.47,"625": 42.59,"650": 38.48,"675": 35.75,"700": 31.26,"725": 30.36,"750": 27.47,"775": 24.09,"800": 21.63,"825": 20.11,"850": 19.54,"875": 16.73,"900": 15.57,"925": 14.39,"950": 13.36,"975": 12.49,"1000": 11.78,"1025": 11.59,"1050": 10.98,"1075": 10.11,"1100": 11.88,"1125": 10.64,"1150": 10.91,"1175": 10.43,"1200": 10.51,"1225": 10.07,"1250": 9.59,"1275": 9.54,"1300": 9.71,"1325": 9.19,"1350": 8.17,"1375": 8.03,"1400": 7.21,"1425": 7.52,"1450": 7.25,"1475": 7.71,"1500": 7.33,"1525": 7.16,"1550": 6.15,"1575": 7.44,"1600": 4.7,"1625": 4.21,"1650": 1.79,"1675": 1.81,"1700": 1.56,"1725": 1.12,"1750": 0.99,"1775": 0.36}}}