{"type": "Feature","bbox": [11.0198,9.5752,11.4347,9.857],"geometry": {"type": "MultiPolygon","coordinates": [[[[11.0687,9.5864,346.0757],[11.1001,9.5765,403.3368],[11.1263,9.5752,517.6043],[11.1747,9.5814,462.4276],[11.2216,9.5847,624.8356],[11.2649,9.5858,385.1374],[11.3125,9.5835,292.0923],[11.3949,9.5844,264.5753],[11.3961,9.616,666.3777],[11.4035,9.6583,306.2094],[11.4112,9.6799,347.961],[11.4118,9.6868,361.7452],[11.4347,9.7145,449.0809],[11.423,9.7203,480.1809],[11.4096,9.7311,536.1019],[11.4063,9.7462,566.536],[11.3971,9.7675,529.3106],[11.377,9.7916,548.5422],[11.3365,9.8268,433.6807],[11.3303,9.8338,449.835],[11.3007,9.857,467.1542],[11.2697,9.8359,485.062],[11.2625,9.8157,502.204],[11.2502,9.7984,546.2407],[11.2395,9.793,545.8356],[11.2188,9.7746,505.9584],[11.1989,9.7631,521.7977],[11.1359,9.7466,390.6022],[11.1335,9.7402,381.215],[11.0847,9.7175,331.5715],[11.0531,9.7092,313.4962],[11.0198,9.7053,292.8232],[11.0529,9.6383,352.7971],[11.0802,9.6042,358.0956],[11.0781,9.589,354.4455],[11.0687,9.5864,346.0757]]]]}
,"properties": {"GID_2": "NGA.16.10_1","GID_0": "NGA","country": "Nigeria","GID_1": "NGA.16_1","province": "Gombe","NL_NAME_1": "NA","county": "Shomgom","VARNAME_2": "NA","NL_NAME_2": "NA","TYPE_2": "LocalAuthority","ENGTYPE_2": "LocalAuthority","CC_2": "NA","HASC_2": "NA","name": "Shomgom.county","area_km2": 851.3972,"hist_schema_id": "Elevation0-9000","hist_area_km2": {"250": 1.6516,"275": 6.8571,"300": 41.3228,"325": 80.9924,"350": 110.2574,"375": 101.041,"400": 73.9093,"425": 47.696,"450": 47.857,"475": 50.8005,"500": 51.7621,"525": 51.1555,"550": 46.6623,"575": 36.9874,"600": 26.5189,"625": 18.8915,"650": 14.3358,"675": 11.2223,"700": 7.5028,"725": 5.852,"750": 3.8249,"775": 2.7172,"800": 2.9889,"825": 2.0693,"850": 1.8602,"875": 1.2751,"900": 1.1078,"925": 0.9197,"950": 0.648,"975": 0.2926,"1000": 0.1463,"1025": 0.1672,"1050": 0.0627,"1075": 0.0209,"1100": 0.0209}}}