{"type": "Feature","bbox": [4.9798,6.7182,5.562,7.2533],"geometry": {"type": "MultiPolygon","coordinates": [[[[5.5379,6.842,94.5777],[5.5568,6.8505,64.9391],[5.562,6.858,96.2222],[5.5614,6.8649,51.896],[5.5578,6.8682,107.273],[5.5533,6.8784,46.2701],[5.5539,6.8872,59.9495],[5.5557,6.891,76.8337],[5.5319,6.8965,89.4242],[5.5221,6.9011,95.4503],[5.5183,6.9099,110.7563],[5.5156,6.9277,126.1813],[5.5127,6.9344,108.7736],[5.4994,6.9522,130.3125],[5.4849,6.9833,154.5167],[5.474,6.9975,173.6776],[5.4706,6.9994,180.8287],[5.4705,7.0072,180.5102],[5.4643,7.0244,180.6042],[5.4601,7.0475,191.6846],[5.4553,7.0524,182.1321],[5.4397,7.0575,192.7539],[5.4312,7.0729,224.9346],[5.3991,7.0854,257.9421],[5.3704,7.0937,248.5529],[5.3506,7.0957,272.6359],[5.3446,7.0933,281.4442],[5.3248,7.0993,312.1968],[5.3104,7.1077,377.7397],[5.2388,7.1132,299.6319],[5.2208,7.117,271.1678],[5.2128,7.1222,271.3972],[5.2063,7.1302,284.8851],[5.1561,7.1644,309.0633],[5.1374,7.1797,292.7298],[5.1116,7.1974,297.6413],[5.094,7.2208,306.0094],[5.0862,7.2352,302.8162],[5.0812,7.2482,287.3835],[5.0562,7.2518,289.7905],[5.0435,7.2513,274.5526],[5.03,7.2533,280.8499],[5.0272,7.238,288.5493],[5.0219,7.2241,266.0285],[5.0151,7.2148,270.7663],[5.019,7.2036,251.7679],[5.026,7.1639,233.1549],[5.0265,7.1417,241.9573],[5.0017,7.1177,231.6382],[4.9892,7.1034,211.8871],[4.9824,7.0777,221.6084],[4.9798,7.0614,237.9314],[4.9835,7.051,199.7986],[4.9919,7.0375,234.193],[4.9974,6.9927,193.8489],[5.0013,6.9811,203.0813],[4.9988,6.9657,178.465],[4.999,6.9491,178.2658],[4.9959,6.9298,257.1591],[4.988,6.9108,168.5373],[4.9852,6.894,160.625],[4.9819,6.8893,119.0622],[4.9879,6.867,183.3457],[4.9871,6.844,158.5143],[4.9952,6.8153,98.237],[5.0052,6.7902,108.0735],[5.0277,6.7707,87.3509],[5.0382999999999996,6.7595,63.166],[5.0463,6.7389,80.2923],[5.0588,6.7292,64.3243],[5.0836,6.7209,37.3982],[5.0968,6.7182,20.18],[5.1043,6.7264,63.7817],[5.1205,6.7393,56.3572],[5.1277,6.756,80.7878],[5.1389,6.7648,65.5052],[5.1556,6.7689,58.5343],[5.1613,6.7916,70.6337],[5.1684,6.8056,95.6477],[5.1736,6.8133,85.623],[5.1838,6.8166,92.3855],[5.1872,6.8262,87.5225],[5.1853,6.8482,135.9359],[5.1926,6.8608,161.2814],[5.2031,6.868,131.3184],[5.2282,6.877,139.2201],[5.2448,6.8716,161.2583],[5.2625,6.8706,152.3681],[5.2829,6.8751,144.9195],[5.2993,6.8767,129.7659],[5.3265,6.8709,114.3659],[5.3491,6.8735,118.7201],[5.3713,6.872,124.7464],[5.3937,6.8726,121.1338],[5.4146,6.8694,135.6032],[5.4338,6.8691,127.8185],[5.4747,6.8726,129.7105],[5.487,6.8754,123.3707],[5.5135,6.8698,126.6539],[5.5292,6.8564,98.5327],[5.5379,6.842,94.5777]]]]}
,"properties": {"GID_2": "NGA.29.8_1","GID_0": "NGA","country": "Nigeria","GID_1": "NGA.29_1","province": "Ondo","NL_NAME_1": "NA","county": "Idanre","VARNAME_2": "NA","NL_NAME_2": "NA","TYPE_2": "LocalAuthority","ENGTYPE_2": "LocalAuthority","CC_2": "NA","HASC_2": "NA","name": "Idanre.county","area_km2": 1899.004,"hist_schema_id": "Elevation0-9000","hist_area_km2": {"25": 2.569,"50": 17.833,"75": 54.444,"100": 98.249,"125": 132.153,"150": 164.982,"175": 215.147,"200": 253.326,"225": 233.99,"250": 223.113,"275": 209.309,"300": 119.315,"325": 53.253,"350": 26.911,"375": 20.599,"400": 17.233,"425": 14.813,"450": 11.909,"475": 6.375,"500": 4.755,"525": 4.061,"550": 2.693,"575": 1.894,"600": 1.978,"625": 1.704,"650": 1.22,"675": 1.262,"700": 1.031,"725": 0.863,"750": 0.736,"775": 0.547,"800": 0.337,"825": 0.147,"850": 0.168,"875": 0.042,"900": 0.042}}}