{"type": "Feature","bbox": [10.9756,10.847,11.514,11.3331],"geometry": {"type": "MultiPolygon","coordinates": [[[[10.9756,11.2552,385.8807],[10.9817,11.2421,402.9232],[11.005,11.1635,448.4629],[11.0154,11.1415,437.8394],[11.0206,11.1226,419.3865],[11.0376,11.0775,301.7979],[11.0426,11.0535,307.5919],[11.0523,11.0274,344.9212],[11.064,11.0046,378.797],[11.0645,10.9708,423.813],[11.0687,10.9517,453.6138],[11.0815,10.9243,492.1822],[11.0931,10.9041,509.4738],[11.1117,10.88,523.772],[11.1611,10.8645,538.6383],[11.1903,10.847,560.9253],[11.1975,10.8546,555.7032],[11.2376,10.8731,519.7288],[11.2794,10.8948,436.2021],[11.3161,10.9164,350.1458],[11.3604,10.9498,381.2642],[11.3922,10.9705,346.3212],[11.4449,10.9896,289.692],[11.4809,10.9958,252.2955],[11.488,11.0032,258.9075],[11.4979,11.01,261.1151],[11.514,11.0345,287.5576],[11.4974,11.0494,291.1573],[11.4589,11.0915,284.4503],[11.429,11.1288,262.6609],[11.4076,11.1604,286.5485],[11.382,11.1936,304.703],[11.3408,11.2271,314.2416],[11.3204,11.241,324.9174],[11.2878,11.2667,356.2201],[11.2097,11.3141,382.9979],[11.1616,11.3302,388.3785],[11.1316,11.3331,375.2677],[11.0963,11.333,454.45],[11.0626,11.3234,435.6957],[11.0289,11.3089,428.2676],[11.0133,11.2939,419.0629],[11.0052,11.2893,411.8997],[11.0013,11.291,404.2992],[10.9946,11.2786,405.4984],[10.9756,11.2552,385.8807]]]]}
,"properties": {"GID_2": "NGA.16.9_1","GID_0": "NGA","country": "Nigeria","GID_1": "NGA.16_1","province": "Gombe","NL_NAME_1": "NA","county": "Nafada","VARNAME_2": "NA","NL_NAME_2": "NA","TYPE_2": "LocalAuthority","ENGTYPE_2": "LocalAuthority","CC_2": "NA","HASC_2": "NA","name": "Nafada.county","area_km2": 1894.842,"hist_schema_id": "Elevation0-9000","hist_area_km2": {"250": 65.107,"275": 274.913,"300": 261.519,"325": 200.233,"350": 198.486,"375": 179.245,"400": 158.522,"425": 143.923,"450": 150.245,"475": 132.149,"500": 77.204,"525": 30.267,"550": 15.678,"575": 7.35}}}