{"type":"Feature","properties":{"GID_2":"NGA.24.3_1","GID_0":"NGA","country":"Nigeria","GID_1":"NGA.24_1","province":"Kwara","NL_NAME_1":"NA","county":"Edu","VARNAME_2":"NA","NL_NAME_2":"NA","TYPE_2":"LocalAuthority","ENGTYPE_2":"LocalAuthority","CC_2":"NA","HASC_2":"NA","name":"Edu.county"},
"geometry":{"type": "MultiPolygon","coordinates": [[[[5.5311,8.5388,270.4888],[5.518,8.5749,315.5723],[5.5069,8.5845,330.3843],[5.5033,8.5901,326.4426],[5.502,8.6005,300.1315],[5.4985,8.6084,302.5714],[5.4903,8.6187,292.8024],[5.4811,8.6458,272.2993],[5.471,8.693,211.3985],[5.4734,8.7091,216.4193],[5.4711,8.7245,199.7698],[5.4798,8.7491,172.7886],[5.4828,8.7663,160.3928],[5.4779,8.8044,169.8148],[5.4883,8.8611,71.2816],[5.5015,8.8789,68.1803],[5.5216,8.8972,66.667],[5.5306,8.9097,65.4276],[5.5436,8.9182,60.4852],[5.5154,8.9376,62.8267],[5.4973,8.9466,62.6619],[5.4795,8.9601,64.354],[5.4692,8.9556,63.5776],[5.4537,8.9668,62.9353],[5.4408,8.9663,65.7131],[5.4268,8.9702,64.542],[5.4089,8.9816,62.0],[5.3969,8.9825,62.0],[5.3777,8.989,62.9711],[5.3686,8.9844,65.4929],[5.3459,8.9935,66.1895],[5.336,8.9946,63.0],[5.3181,8.9914,66.5583],[5.3,8.983,70.1524],[5.287,8.9814,69.6628],[5.2719,8.9758,71.9942],[5.2579,8.9795,71.4651],[5.2552,8.9824,72.0361],[5.2356,8.9871,106.4708],[5.2322,8.9906,105.4779],[5.2242,8.994,113.6084],[5.2198,9.0039,105.8724],[5.1836,9.0497,69.0169],[5.1647,9.0629,67.314],[5.133,9.1031,72.0295],[5.1101,9.1208,76.1809],[5.0491,9.1476,71.3898],[5.0076,9.1691,70.7493],[4.9914,9.1695,70.4372],[4.9686,9.1665,71.2276],[4.8946,9.1359,75.8478],[4.8926,9.0898,88.5705],[4.8965,9.078,85.3969],[4.8978,9.0662,89.8409],[4.8958,9.0525,93.6329],[4.8968,9.0392,99.2983],[4.9019,9.0249,109.4035],[4.9084,9.0127,116.2226],[4.9164,9.0031,144.2627],[4.9221,8.9998,148.4393],[4.9135,8.9803,155.4797],[4.912,8.9713,178.7155],[4.906,8.9576,195.7637],[4.8998,8.9188,265.331],[4.9066,8.885,331.7385],[4.9097,8.8774,356.0056],[4.9177,8.8669,357.9695],[4.9379,8.8497,356.5256],[4.9498,8.8419,329.8819],[4.962,8.8401,309.1922],[4.9709,8.8351,343.9925],[4.9987,8.8266,237.9303],[5.0339,8.8096,212.8316],[5.0634,8.7927,153.3642],[5.0691,8.7869,136.6776],[5.1003,8.7375,173.8051],[5.1355,8.6982,204.7315],[5.1712,8.6803,266.3727],[5.1937,8.6737,239.5484],[5.2204,8.6587,196.2935],[5.2419,8.6496,181.808],[5.2673,8.6347,159.5006],[5.2757,8.6276,153.8518],[5.2904,8.6375,181.1245],[5.3038,8.655,152.1072],[5.3363,8.6911,145.8072],[5.3689,8.7122,114.4837],[5.382,8.7115,149.3018],[5.3917,8.7068,177.3418],[5.4071,8.6936,166.8732],[5.419,8.6865,157.6427],[5.4411,8.5407,237.7073],[5.4411,8.5262,233.6221],[5.4458,8.504,250.8592],[5.4462,8.4872,257.0525],[5.449,8.4702,293.8897],[5.4712,8.4901,288.6219],[5.48,8.5044,283.7902],[5.4963,8.5125,285.1156],[5.5227,8.5353,282.5276],[5.5311,8.5388,270.4888]]]]}}