{"type":"Feature","properties":{"GID_2":"NGA.4.13_1","GID_0":"NGA","country":"Nigeria","GID_1":"NGA.4_1","province":"Anambra","NL_NAME_1":"NA","county":"Njikoka","VARNAME_2":"NA","NL_NAME_2":"NA","TYPE_2":"LocalAuthority","ENGTYPE_2":"LocalAuthority","CC_2":"NA","HASC_2":"NA","name":"Njikoka.county"},
"geometry":{"type": "MultiPolygon","coordinates": [[[[7.0129,6.1744,194.284],[7.0133,6.1765,187.0488],[7.0014,6.2004,128.9203],[7.0002,6.212,113.5721],[6.9958,6.2213,97.9734],[6.9959,6.2271,105.2061],[6.9897,6.2292,97.4489],[6.982,6.2434,96.8081],[6.9802,6.2504,112.6192],[6.9613,6.2331,135.766],[6.9411,6.224,133.3083],[6.9431,6.2189,145.3064],[6.952,6.2116,179.0671],[6.9517,6.196,155.2268],[6.9485,6.1921,140.6721],[6.938,6.1888,123.4284],[6.9286,6.1795,132.4504],[6.9361,6.1693,181.2084],[6.9357,6.1596,188.0478],[6.9233,6.163,153.1935],[6.9131,6.1588,143.0008],[6.9089,6.1548,145.8761],[6.9049,6.1401,168.9715],[6.9053,6.1357,181.7417],[6.9156,6.1309,186.372],[6.9205,6.1308,200.0673],[6.9309,6.136,194.9348],[6.9369,6.1356,197.2031],[6.9472,6.1313,180.0309],[6.9575,6.121,147.1294],[6.9739,6.1122,77.2536],[6.9846,6.1152,106.5429],[6.9888,6.1216,94.5368],[6.9918,6.1361,126.2772],[6.9917,6.1439,166.8271],[7.0053,6.1566,127.9573],[7.0061,6.1635,160.2876],[7.012,6.1691,199.3451],[7.0129,6.1744,194.284]]]]}}