{"type":"Feature","properties":{"GID_2":"NGA.14.3_1","GID_0":"NGA","country":"Nigeria","GID_1":"NGA.14_1","province":"Enugu","NL_NAME_1":"NA","county":"EnuguEast","VARNAME_2":"NA","NL_NAME_2":"NA","TYPE_2":"LocalAuthority","ENGTYPE_2":"LocalAuthority","CC_2":"NA","HASC_2":"NA","name":"Enugu_East.county"},
"geometry":{"type": "MultiPolygon","coordinates": [[[[7.6417,6.4795,91.7072],[7.6415,6.4841,98.0641],[7.6439,6.4877,101.3791],[7.6391,6.5044,103.5423],[7.638,6.5337,125.8543],[7.6338,6.5492,115.4989],[7.6316,6.5669,120.8867],[7.6313,6.5963,130.1283],[7.612,6.6129,161.2391],[7.5907,6.6209,156.0379],[7.5738,6.6301,185.2874],[7.571,6.6297,186.7917],[7.5561,6.6367,210.6909],[7.5455,6.6382,208.1966],[7.5334,6.6327,191.5959],[7.5282,6.6336,193.5825],[7.5287,6.6263,215.2301],[7.5268,6.6201,192.2223],[7.5216,6.6163,188.1102],[7.5097,6.6183,177.1572],[7.4909,6.6122,190.6494],[7.4803,6.6128,209.6018],[7.4723,6.6162,242.6483],[7.4602,6.612,290.0407],[7.449,6.6046,360.6702],[7.4409,6.6024,383.0544],[7.4444,6.5888,309.8398],[7.4411,6.572,356.9735],[7.4429,6.5552,397.3347],[7.4412,6.5372,320.9529],[7.442,6.5264,305.5103],[7.4366,6.4901,422.9069],[7.4411,6.4845,359.4161],[7.4538,6.4868,300.5787],[7.4614,6.4855,331.2602],[7.472,6.4821,244.6384],[7.4821,6.4812,200.6098],[7.5,6.4745,184.4792],[7.5725,6.4792,129.0497],[7.5956,6.4816,128.9914],[7.609,6.4848,125.803],[7.6417,6.4795,91.7072]]]]}}